{"type":"FeatureCollection","features":[{"type":"Feature","properties":{"kind":"coast-west"},"geometry":{"type":"LineString","coordinates":[[129.0,-31.687272],[128.994171,-31.687943],[128.801636,-31.759613],[128.641632,-31.854614],[128.45,-31.926571]]}},{"type":"Feature","properties":{"kind":"coast"},"geometry":{"type":"LineString","coordinates":[[141.0,-38.066071],[140.994965,-38.063782],[141.0,-38.056516]]}},{"type":"Feature","properties":{"kind":"coast"},"geometry":{"type":"LineString","coordinates":[[141.0,-38.054295],[140.984192,-38.062912],[140.832535,-38.043747],[140.663361,-38.062973],[140.604187,-38.02961],[140.581665,-38.032913],[140.455826,-37.937912],[140.39917,-37.922089],[140.377853,-37.900864],[140.363785,-37.87336],[140.390839,-37.879639],[140.402115,-37.862534],[140.39209,-37.799164],[140.332077,-37.690834],[140.303329,-37.678802],[140.299606,-37.715027],[140.325439,-37.735832],[140.312881,-37.750832],[140.340424,-37.776695],[140.346252,-37.817528],[140.388748,-37.844223],[140.366669,-37.869614],[140.252106,-37.691666],[140.190826,-37.627914],[140.115387,-37.579193],[140.109589,-37.568306],[140.133728,-37.556641],[140.120422,-37.531662],[140.04834,-37.481247],[140.023285,-37.480415],[140.013336,-37.499611],[139.994965,-37.489609],[139.844589,-37.326668],[139.740356,-37.183304],[139.748276,-37.157913],[139.788757,-37.160004],[139.793716,-37.116669],[139.745422,-37.076668],[139.738785,-37.018333],[139.67041,-36.959999],[139.677521,-36.944641],[139.7892,-36.89711],[139.845383,-36.840836],[139.864578,-36.703362],[139.789581,-36.470856],[139.612106,-36.156723],[139.477036,-35.99086],[139.304169,-35.826248],[139.056686,-35.649643],[138.892883,-35.564194],[138.992523,-35.582947],[138.990799,-35.597977],[139.012497,-35.596252],[139.140854,-35.682945],[139.358383,-35.852943],[139.550385,-36.045837],[139.722473,-36.288803],[139.633774,-36.140862],[139.649643,-36.130859],[139.60881,-36.105026],[139.602051,-36.090836],[139.618744,-36.093361],[139.598328,-36.063751],[139.582062,-36.065857],[139.590424,-36.055832],[139.517563,-35.96125],[139.439163,-35.896278],[139.427917,-35.89917],[139.449966,-35.929611],[139.419968,-35.912971],[139.432053,-35.888336],[139.416672,-35.875412],[139.401993,-35.894241],[139.380005,-35.837082],[139.360062,-35.837921],[139.07666,-35.624588],[138.958282,-35.56044],[138.916229,-35.566284],[138.890808,-35.533752],[138.900421,-35.551666],[138.883331,-35.553802],[138.812881,-35.527588],[138.885864,-35.562912],[138.713394,-35.516281],[138.686646,-35.539612],[138.634216,-35.547089],[138.607468,-35.597084],[138.525803,-35.645477],[138.441727,-35.63208],[138.414978,-35.642975],[138.281631,-35.642082],[138.195831,-35.667946],[138.097855,-35.626694],[138.095383,-35.604195],[138.169174,-35.519585],[138.195862,-35.524643],[138.290771,-35.474609],[138.344162,-35.393784],[138.44545,-35.350861],[138.44545,-35.275864],[138.472977,-35.245888],[138.468689,-35.168335],[138.482895,-35.156662],[138.472534,-35.164612],[138.471252,-35.120026],[138.520355,-35.030029],[138.477921,-34.861694],[138.49295,-34.816696],[138.483688,-34.780029],[138.504135,-34.764587],[138.520386,-34.770889],[138.499146,-34.847946],[138.513748,-34.844223],[138.519135,-34.812912],[138.533722,-34.817528],[138.52417,-34.830414],[138.546646,-34.813782],[138.567856,-34.826668],[138.53334,-34.740448],[138.455383,-34.696716],[138.433777,-34.669189],[138.44545,-34.64917],[138.411194,-34.622528],[138.410004,-34.602921],[138.367477,-34.587051],[138.337051,-34.524193],[138.267883,-34.479996],[138.227966,-34.369141],[138.225479,-34.315002],[138.191635,-34.272949],[138.147919,-34.269196],[138.166245,-34.230865],[138.094193,-34.135422],[138.072937,-34.140862],[138.011215,-34.239197],[138.007858,-34.295059],[138.021606,-34.274612],[138.026215,-34.283356],[138.010437,-34.349197],[137.919586,-34.431641],[137.887115,-34.515884],[137.878799,-34.595856],[137.911255,-34.619194],[137.880386,-34.672531],[137.867966,-34.781723],[137.802078,-34.880859],[137.807938,-34.915894],[137.762024,-34.997528],[137.766312,-35.044998],[137.710388,-35.0625],[137.734604,-35.058365],[137.762558,-35.117943],[137.698364,-35.145416],[137.682495,-35.17131],[137.640808,-35.172913],[137.559143,-35.121246],[137.514969,-35.123779],[137.430893,-35.099579],[137.360855,-35.132889],[137.337494,-35.171249],[137.243301,-35.166275],[137.177521,-35.238808],[137.114166,-35.245445],[137.081635,-35.228745],[137.007523,-35.224609],[136.947479,-35.286255],[136.884201,-35.302078],[136.8517,-35.285416],[136.825439,-35.245865],[136.849609,-35.229172],[136.850021,-35.192139],[136.891663,-35.186279],[136.897034,-35.162498],[136.942947,-35.130859],[136.963776,-35.084999],[136.932892,-35.030029],[136.969589,-35.004196],[136.978729,-34.945],[137.015411,-34.92086],[137.015839,-34.895447],[137.110809,-34.920441],[137.278397,-34.894554],[137.314972,-34.928749],[137.349197,-34.928802],[137.379227,-34.954636],[137.452942,-34.908333],[137.512085,-34.599167],[137.477966,-34.516693],[137.485413,-34.440857],[137.454132,-34.433746],[137.431686,-34.474609],[137.416245,-34.457527],[137.447937,-34.400864],[137.478729,-34.391693],[137.503723,-34.300858],[137.501282,-34.227501],[137.450439,-34.14003],[137.524521,-34.131668],[137.57045,-34.04586],[137.560867,-34.022141],[137.529617,-34.005028],[137.63205,-33.923363],[137.602966,-33.878334],[137.722076,-33.776695],[137.779144,-33.696274],[137.808746,-33.690857],[137.882523,-33.598778],[137.925827,-33.591217],[137.898743,-33.62336],[137.919968,-33.627945],[137.937088,-33.559189],[137.96167,-33.574585],[137.977921,-33.55336],[137.972504,-33.543747],[137.966644,-33.554581],[137.941299,-33.550835],[137.947083,-33.509995],[137.873779,-33.400833],[137.878784,-33.36586],[137.892914,-33.366669],[137.886246,-33.330032],[137.855835,-33.330444],[137.812912,-33.265808],[137.829163,-33.254639],[137.848724,-33.264191],[137.822052,-33.249168],[137.839172,-33.205444],[137.8517,-33.227112],[137.862442,-33.222084],[137.850006,-33.197083],[137.887558,-33.178749],[137.895813,-33.186279],[137.905869,-33.170418],[137.925827,-33.187912],[137.941605,-33.151245],[137.955063,-33.17128],[137.949997,-33.152084],[138.010437,-33.133362],[138.018311,-33.17128],[138.018753,-33.146667],[138.049561,-33.124222],[138.028717,-33.098358],[138.048782,-33.089195],[138.017563,-33.035416],[137.967499,-33.022141],[137.943726,-33.0],[137.894562,-32.776695],[137.932144,-32.760025],[137.841248,-32.70089],[137.854523,-32.673363],[137.846252,-32.642532],[137.800415,-32.611664],[137.818359,-32.582054],[137.812088,-32.579163],[137.820465,-32.56414],[137.772919,-32.561722],[137.781281,-32.537529],[137.764908,-32.522484],[137.767914,-32.480865],[137.754135,-32.458778],[137.767059,-32.542496],[137.74794,-32.707527],[137.779144,-32.712967],[137.808716,-32.750885],[137.79541,-32.899193],[137.785828,-32.918747],[137.752502,-32.912109],[137.747894,-32.923363],[137.781006,-33.0],[137.719131,-32.995445],[137.690002,-32.964584],[137.641632,-32.957085],[137.60791,-32.981667],[137.589615,-33.022552],[137.598724,-33.040024],[137.576187,-33.048332],[137.543716,-33.094223],[137.455414,-33.14006],[137.443726,-33.220833],[137.386215,-33.309219],[137.390396,-33.378357],[137.360413,-33.446671],[137.314606,-33.479996],[137.282883,-33.568359],[137.218369,-33.662918],[137.169968,-33.69458],[137.071701,-33.702911],[137.0,-33.728836],[137.001663,-33.700439],[136.969604,-33.701668],[136.980774,-33.682144],[136.935883,-33.676254],[136.925446,-33.710052],[136.875412,-33.738335],[136.878723,-33.764168],[136.886688,-33.77961],[136.914108,-33.771255],[136.931671,-33.731277],[136.972549,-33.738777],[136.95755,-33.757111],[136.856689,-33.802917],[136.805801,-33.804611],[136.779999,-33.833778],[136.735809,-33.837082],[136.671692,-33.881279],[136.59584,-33.902084],[136.578339,-33.945442],[136.501633,-33.995468],[136.440826,-34.01461],[136.366272,-34.075027],[136.3638,-34.125031],[136.332062,-34.183334],[136.284576,-34.224998],[136.236664,-34.301254],[136.194168,-34.337143],[136.139969,-34.344582],[136.115387,-34.364227],[136.112061,-34.394196],[136.134552,-34.408356],[136.103745,-34.419167],[136.122864,-34.428329],[136.125412,-34.469223],[136.100479,-34.540894],[136.089523,-34.543388],[136.094604,-34.523361],[136.077026,-34.507477],[136.087051,-34.497559],[136.061691,-34.481277],[136.030411,-34.485832],[136.025864,-34.517944],[135.977493,-34.507111],[135.933716,-34.534195],[135.906219,-34.594223],[135.884583,-34.595833],[135.935776,-34.610474],[135.942078,-34.650024],[135.89328,-34.617943],[135.872894,-34.628334],[135.860382,-34.667526],[135.859589,-34.715866],[135.888336,-34.724579],[135.895355,-34.754196],[135.868271,-34.772079],[135.847443,-34.757141],[135.789551,-34.811691],[135.839142,-34.81958],[135.896698,-34.806252],[135.958328,-34.758751],[135.979965,-34.787109],[135.993744,-34.753334],[135.982086,-34.73172],[136.010437,-34.737503],[136.006271,-34.788391],[136.018692,-34.795837],[135.963715,-34.849197],[136.00705,-34.984192],[135.964142,-34.993774],[135.957504,-35.007919],[135.942856,-35.002556],[135.949554,-34.979172],[135.932495,-34.95211],[135.870865,-34.922089],[135.857468,-34.928802],[135.852966,-34.884995],[135.789948,-34.861282],[135.717468,-34.867111],[135.707886,-34.908333],[135.683746,-34.91333],[135.688354,-34.946274],[135.620804,-34.945442],[135.626221,-34.908356],[135.498749,-34.783333],[135.479187,-34.746246],[135.378326,-34.687111],[135.327087,-34.688332],[135.350449,-34.664223],[135.342865,-34.627533],[135.300003,-34.606308],[135.251617,-34.551254],[135.177521,-34.557114],[135.147522,-34.59375],[135.112885,-34.589996],[135.14209,-34.505051],[135.211639,-34.430443],[135.222534,-34.49794],[135.35791,-34.522552],[135.321701,-34.52211],[135.302063,-34.551727],[135.354187,-34.575439],[135.367493,-34.621277],[135.403748,-34.627533],[135.369171,-34.642059],[135.440811,-34.634613],[135.454941,-34.615448],[135.518753,-34.614197],[135.514969,-34.601273],[135.464172,-34.589638],[135.447922,-34.600861],[135.46788,-34.613358],[135.436615,-34.607086],[135.447922,-34.539192],[135.429993,-34.530418],[135.4133,-34.541245],[135.404938,-34.506248],[135.397079,-34.535004],[135.426254,-34.550034],[135.411224,-34.555862],[135.418747,-34.593338],[135.402893,-34.593338],[135.426254,-34.602524],[135.392105,-34.595833],[135.401245,-34.556694],[135.378723,-34.515884],[135.398743,-34.495888],[135.389587,-34.441696],[135.360382,-34.420029],[135.347977,-34.26503],[135.308746,-34.188332],[135.245438,-34.149193],[135.282089,-34.120834],[135.273743,-34.020004],[135.195419,-33.921661],[135.18541,-33.880859],[135.164108,-33.880417],[135.028366,-33.745445],[134.878326,-33.655441],[134.876663,-33.636246],[134.860062,-33.645477],[134.82959,-33.626694],[134.842896,-33.623337],[134.839554,-33.594971],[134.863785,-33.547531],[134.847076,-33.445862],[134.802948,-33.333359],[134.760834,-33.311279],[134.737503,-33.276245],[134.696701,-33.266312],[134.657913,-33.23497],[134.699188,-33.222084],[134.712936,-33.230026],[134.695053,-33.238808],[134.719604,-33.229973],[134.707916,-33.181671],[134.596664,-33.141281],[134.560867,-33.161255],[134.596664,-33.197144],[134.641327,-33.183334],[134.645813,-33.197945],[134.624634,-33.199142],[134.63205,-33.215027],[134.663757,-33.22583],[134.643356,-33.226273],[134.630814,-33.246246],[134.593384,-33.205414],[134.455063,-33.147079],[134.416687,-33.150391],[134.388336,-33.179581],[134.368332,-33.177078],[134.358719,-33.129166],[134.292114,-33.076668],[134.29953,-33.049225],[134.274994,-33.026276],[134.263718,-33.084198],[134.293335,-33.119644],[134.313354,-33.112946],[134.358719,-33.150864],[134.352081,-33.190857],[134.328308,-33.200417],[134.259552,-33.152496],[134.261276,-33.10083],[134.229187,-33.044556],[134.190826,-33.037109],[134.16745,-33.057114],[134.138748,-33.020828],[134.202087,-33.003334],[134.189606,-32.946671],[134.154968,-32.929611],[134.13916,-32.949615],[134.117523,-32.918747],[134.079132,-32.932968],[134.059616,-32.914139],[134.074585,-32.909225],[134.072495,-32.887085],[134.118271,-32.869614],[134.137939,-32.838364],[134.062439,-32.71875],[134.22084,-32.734612],[134.167053,-32.735001],[134.200424,-32.752502],[134.188782,-32.775864],[134.203339,-32.800415],[134.287949,-32.699196],[134.292114,-32.664169],[134.276245,-32.650055],[134.264587,-32.576668],[134.181671,-32.485413],[134.119171,-32.457085],[134.0858,-32.461273],[134.083359,-32.475449],[134.0383,-32.462112],[133.994141,-32.487946],[133.989166,-32.509613],[133.919189,-32.499588],[133.89328,-32.54464],[133.858307,-32.535416],[133.850021,-32.548805],[133.865448,-32.403336],[133.899139,-32.402939],[133.903366,-32.423782],[133.929993,-32.427078],[133.950424,-32.403389],[133.945358,-32.380829],[133.930359,-32.383362],[133.904617,-32.326691],[133.842468,-32.261223],[133.827026,-32.260864],[133.820801,-32.237946],[133.805801,-32.234612],[133.796692,-32.256279],[133.768311,-32.267914],[133.756729,-32.20961],[133.714996,-32.197922],[133.677521,-32.206284],[133.692078,-32.159195],[133.67334,-32.145416],[133.64119,-32.150864],[133.667938,-32.13839],[133.667938,-32.109161],[133.606689,-32.088722],[133.580383,-32.099998],[133.582947,-32.144135],[133.54744,-32.173782],[133.520859,-32.144585],[133.497498,-32.156281],[133.501221,-32.134216],[133.482056,-32.129166],[133.471634,-32.103775],[133.450439,-32.116638],[133.449173,-32.141251],[133.434967,-32.128777],[133.399994,-32.142082],[133.419556,-32.143356],[133.407532,-32.162109],[133.463272,-32.161255],[133.458313,-32.172089],[133.415466,-32.166672],[133.434174,-32.177917],[133.444763,-32.17128],[133.45578,-32.174606],[133.470856,-32.167084],[133.48584,-32.207108],[133.443314,-32.181274],[133.405029,-32.201248],[133.290802,-32.183777],[133.252533,-32.213722],[133.233307,-32.194557],[133.154968,-32.173805],[133.126663,-32.21125],[133.137939,-32.17836],[133.074188,-32.122086],[133.004974,-32.086304],[132.977478,-32.109589],[132.968369,-32.073807],[132.835831,-31.990448],[132.741714,-31.951248],[132.659164,-31.96125],[132.604187,-31.938751],[132.520813,-31.937943],[132.44455,-31.974167],[132.437912,-32.004166],[132.472473,-32.032913],[132.419968,-32.003754],[132.39328,-32.004608],[132.384216,-32.019608],[132.344131,-32.017136],[132.334198,-32.032944],[132.199173,-32.031311],[132.14917,-32.006248],[132.070786,-31.92128],[131.757507,-31.720444],[131.501724,-31.597107],[131.152466,-31.464584],[131.083282,-31.491272],[131.0233,-31.540466],[130.791687,-31.609581],[130.567505,-31.587967],[130.490799,-31.596275],[130.15416,-31.579582],[129.529968,-31.626282],[129.0,-31.687272]]}},{"type":"Feature","properties":{"kind":"coast-east"},"geometry":{"type":"LineString","coordinates":[[141.65,-38.289624],[141.614197,-38.310417],[141.612061,-38.348389],[141.65,-38.391905]]}},{"type":"Feature","properties":{"kind":"coast-east"},"geometry":{"type":"LineString","coordinates":[[141.65,-38.394072],[141.626633,-38.407944],[141.579132,-38.392113],[141.543365,-38.434616],[141.52417,-38.395447],[141.464188,-38.365417],[141.412476,-38.372086],[141.417496,-38.399582],[141.374161,-38.388748],[141.365356,-38.371666],[141.399551,-38.337502],[141.355804,-38.27211],[141.22583,-38.168747],[141.0,-38.066071]]}},{"type":"Feature","properties":{"kind":"coast-east"},"geometry":{"type":"LineString","coordinates":[[141.0,-38.056516],[141.002472,-38.052948],[141.0,-38.054295]]}},{"type":"Feature","properties":{"kind":"coast"},"geometry":{"type":"LineString","coordinates":[[137.0,-36.019699],[136.999161,-36.020416],[136.914993,-36.044586],[136.839142,-36.019608],[136.819199,-36.039612],[136.784134,-36.033783],[136.703308,-36.063751],[136.708755,-36.033333],[136.675446,-35.985031],[136.628357,-35.955444],[136.597504,-35.962112],[136.542084,-35.900024],[136.552078,-35.886665],[136.536285,-35.886719],[136.541199,-35.861694],[136.567078,-35.850029],[136.587921,-35.752472],[136.705856,-35.738777],[136.724976,-35.719612],[136.762466,-35.722916],[136.7892,-35.701279],[136.958313,-35.673805],[137.07666,-35.672134],[137.145859,-35.630447],[137.206665,-35.626251],[137.316757,-35.581284],[137.454132,-35.597946],[137.494965,-35.581253],[137.52005,-35.597107],[137.574173,-35.570442],[137.627502,-35.563721],[137.631271,-35.597527],[137.595856,-35.601273],[137.572937,-35.635025],[137.645035,-35.642113],[137.647949,-35.656723],[137.608719,-35.682556],[137.580414,-35.726669],[137.675827,-35.742081],[137.785004,-35.727943],[137.806244,-35.759995],[137.750412,-35.804169],[137.759979,-35.844582],[137.7742,-35.825417],[137.794189,-35.835449],[137.816254,-35.82589],[137.801666,-35.812973],[137.771698,-35.816277],[137.765854,-35.799583],[137.782471,-35.787056],[137.830811,-35.802917],[137.858337,-35.79464],[137.895447,-35.759995],[137.909164,-35.71875],[138.005814,-35.727112],[138.064941,-35.756279],[138.081635,-35.798805],[138.129578,-35.804977],[138.137939,-35.845032],[138.043304,-35.90625],[137.939972,-35.867081],[137.875,-35.872971],[137.811646,-35.854614],[137.757477,-35.853745],[137.729187,-35.878777],[137.654968,-35.889587],[137.602951,-35.931717],[137.622116,-35.98172],[137.605087,-36.012222],[137.539215,-36.027138],[137.46669,-36.075417],[137.370026,-35.99794],[137.281662,-35.996277],[137.221603,-35.977112],[137.1875,-35.98378],[137.191254,-35.999168],[137.161728,-36.028809],[137.0,-36.019699]]}},{"type":"Feature","properties":{"kind":"coast"},"geometry":{"type":"LineString","coordinates":[[136.171661,-35.002083],[136.17247,-35.002136],[136.19545,-35.005859],[136.205826,-35.065414],[136.193314,-35.052948],[136.169174,-35.057144],[136.151245,-35.025894],[136.159561,-35.007523],[136.085785,-34.971252],[136.082077,-34.949196],[136.107468,-34.93544],[136.171661,-35.002083]]}},{"type":"Feature","properties":{"kind":"coast"},"geometry":{"type":"LineString","coordinates":[[134.446228,-33.772552],[134.446228,-33.771667],[134.468811,-33.692505],[134.527466,-33.677109],[134.549606,-33.723358],[134.518326,-33.718781],[134.446228,-33.772552]]}},{"type":"Feature","properties":{"kind":"coast"},"geometry":{"type":"LineString","coordinates":[[133.539536,-32.281723],[133.539551,-32.280838],[133.550003,-32.265442],[133.672089,-32.236694],[133.612503,-32.260468],[133.628784,-32.27417],[133.6008,-32.31044],[133.571609,-32.320442],[133.539536,-32.281723]]}},{"type":"Feature","properties":{"kind":"coast"},"geometry":{"type":"LineString","coordinates":[[137.340424,-34.500862],[137.342117,-34.499222],[137.373367,-34.46711],[137.384613,-34.498337],[137.368332,-34.532082],[137.344604,-34.527496],[137.340424,-34.500862]]}},{"type":"Feature","properties":{"kind":"coast"},"geometry":{"type":"LineString","coordinates":[[133.787064,-32.362503],[133.787064,-32.361694],[133.831665,-32.356277],[133.857086,-32.391693],[133.787064,-32.362503]]}},{"type":"Feature","properties":{"kind":"coast"},"geometry":{"type":"LineString","coordinates":[[135.914551,-34.696693],[135.914551,-34.695862],[135.919189,-34.675415],[135.936615,-34.682945],[135.956635,-34.727112],[135.941605,-34.722137],[135.932465,-34.735443],[135.914551,-34.696693]]}},{"type":"Feature","properties":{"kind":"coast"},"geometry":{"type":"LineString","coordinates":[[136.44455,-35.152527],[136.44455,-35.150002],[136.460892,-35.133774],[136.499619,-35.162498],[136.497894,-35.176666],[136.44455,-35.152527]]}},{"type":"Feature","properties":{"kind":"coast"},"geometry":{"type":"LineString","coordinates":[[133.267883,-32.503334],[133.267914,-32.502556],[133.289978,-32.493752],[133.313721,-32.51503],[133.287506,-32.532944],[133.267883,-32.503334]]}},{"type":"Feature","properties":{"kind":"coast"},"geometry":{"type":"LineString","coordinates":[[138.521439,-34.773132],[138.519867,-34.761253],[138.548309,-34.805443],[138.520386,-34.808365],[138.521439,-34.773132]]}},{"type":"Feature","properties":{"kind":"coast"},"geometry":{"type":"LineString","coordinates":[[136.274582,-34.548363],[136.274551,-34.547501],[136.282089,-34.508362],[136.309143,-34.505447],[136.287079,-34.520859],[136.291199,-34.549225],[136.274582,-34.548363]]}},{"type":"Feature","properties":{"kind":"coast"},"geometry":{"type":"LineString","coordinates":[[136.330414,-34.665894],[136.330383,-34.664169],[136.33667,-34.652939],[136.35878,-34.660027],[136.345856,-34.686279],[136.330414,-34.665894]]}},{"type":"Feature","properties":{"kind":"coast"},"geometry":{"type":"LineString","coordinates":[[134.776215,-33.596725],[134.776215,-33.595856],[134.814606,-33.594223],[134.806686,-33.612106],[134.776215,-33.596725]]}},{"type":"Feature","properties":{"kind":"coast"},"geometry":{"type":"LineString","coordinates":[[133.497894,-32.320862],[133.49791,-32.319977],[133.527939,-32.306694],[133.497894,-32.320862]]}},{"type":"Feature","properties":{"kind":"coast"},"geometry":{"type":"LineString","coordinates":[[136.004578,-34.881668],[136.004562,-34.880005],[136.01503,-34.866302],[136.01506,-34.891251],[136.004578,-34.881668]]}},{"type":"Feature","properties":{"kind":"coast"},"geometry":{"type":"LineString","coordinates":[[134.665451,-33.214996],[134.665359,-33.210052],[134.682922,-33.20253],[134.677521,-33.218781],[134.665451,-33.214996]]}},{"type":"Feature","properties":{"kind":"coast"},"geometry":{"type":"LineString","coordinates":[[135.949615,-34.576691],[135.949585,-34.574165],[135.962936,-34.575027],[135.957535,-34.596252],[135.949615,-34.576691]]}},{"type":"Feature","properties":{"kind":"coast"},"geometry":{"type":"LineString","coordinates":[[134.762115,-34.642532],[134.762024,-34.640839],[134.792114,-34.648331],[134.762115,-34.642532]]}},{"type":"Feature","properties":{"kind":"coast"},"geometry":{"type":"LineString","coordinates":[[133.274582,-32.567528],[133.274521,-32.566727],[133.3013,-32.557526],[133.274582,-32.567528]]}},{"type":"Feature","properties":{"kind":"coast"},"geometry":{"type":"LineString","coordinates":[[133.664581,-32.458359],[133.664551,-32.455833],[133.68541,-32.442528],[133.664581,-32.458359]]}},{"type":"Feature","properties":{"kind":"coast"},"geometry":{"type":"LineString","coordinates":[[136.033752,-35.224167],[136.033783,-35.221725],[136.050415,-35.214195],[136.049164,-35.226273],[136.033752,-35.224167]]}},{"type":"Feature","properties":{"kind":"coast"},"geometry":{"type":"LineString","coordinates":[[134.257858,-33.943359],[134.257858,-33.942505],[134.278778,-33.949142],[134.257858,-33.943359]]}},{"type":"Feature","properties":{"kind":"coast"},"geometry":{"type":"LineString","coordinates":[[138.000412,-33.095055],[138.000412,-33.085052],[138.003693,-33.084198],[138.020828,-33.098801],[138.000412,-33.095055]]}},{"type":"Feature","properties":{"kind":"coast"},"geometry":{"type":"LineString","coordinates":[[135.966217,-35.02417],[135.966278,-35.022552],[135.981689,-35.035446],[135.966217,-35.02417]]}},{"type":"Feature","properties":{"kind":"coast"},"geometry":{"type":"LineString","coordinates":[[133.632858,-32.459167],[133.63295,-32.456696],[133.657867,-32.459999],[133.632858,-32.459167]]}},{"type":"Feature","properties":{"kind":"coast"},"geometry":{"type":"LineString","coordinates":[[136.052948,-34.971664],[136.052887,-34.968361],[136.071228,-34.963394],[136.052948,-34.971664]]}},{"type":"Feature","properties":{"kind":"coast"},"geometry":{"type":"LineString","coordinates":[[133.473755,-32.380859],[133.485855,-32.367081],[133.474579,-32.380028],[133.473755,-32.380859]]}},{"type":"Feature","properties":{"kind":"coast"},"geometry":{"type":"LineString","coordinates":[[135.621216,-35.001694],[135.620804,-35.002106],[135.624969,-34.980415],[135.621216,-35.001694]]}},{"type":"Feature","properties":{"kind":"coast"},"geometry":{"type":"LineString","coordinates":[[133.366257,-32.399223],[133.368301,-32.397057],[133.383743,-32.393311],[133.366257,-32.399223]]}},{"type":"Feature","properties":{"kind":"coast"},"geometry":{"type":"LineString","coordinates":[[136.31041,-34.600029],[136.310394,-34.598358],[136.330383,-34.596725],[136.31041,-34.600029]]}},{"type":"Feature","properties":{"kind":"coast"},"geometry":{"type":"LineString","coordinates":[[133.274582,-32.588364],[133.274551,-32.58667],[133.289581,-32.589142],[133.274582,-32.588364]]}},{"type":"Feature","properties":{"kind":"coast"},"geometry":{"type":"LineString","coordinates":[[138.00708,-33.122498],[138.00705,-33.121719],[138.017502,-33.135468],[138.00708,-33.122498]]}},{"type":"Feature","properties":{"kind":"coast"},"geometry":{"type":"LineString","coordinates":[[134.25705,-32.679199],[134.258331,-32.677948],[134.277939,-32.683388],[134.25705,-32.679199]]}},{"type":"Feature","properties":{"kind":"coast"},"geometry":{"type":"LineString","coordinates":[[138.530411,-34.811668],[138.530396,-34.81086],[138.547104,-34.808334],[138.530411,-34.811668]]}},{"type":"Feature","properties":{"kind":"coast"},"geometry":{"type":"LineString","coordinates":[[136.029617,-34.915001],[136.029617,-34.911697],[136.042084,-34.90506],[136.029617,-34.915001]]}},{"type":"Feature","properties":{"kind":"coast"},"geometry":{"type":"LineString","coordinates":[[136.85791,-35.379196],[136.860382,-35.376724],[136.869995,-35.369583],[136.85791,-35.379196]]}},{"type":"Feature","properties":{"kind":"coast"},"geometry":{"type":"LineString","coordinates":[[135.155396,-34.734192],[135.155396,-34.732559],[135.170837,-34.719582],[135.155396,-34.734192]]}},{"type":"Feature","properties":{"kind":"coast"},"geometry":{"type":"LineString","coordinates":[[136.269531,-34.68],[136.269577,-34.675858],[136.283691,-34.682526],[136.269531,-34.68]]}},{"type":"Feature","properties":{"kind":"coast"},"geometry":{"type":"LineString","coordinates":[[134.240448,-34.000832],[134.241272,-34.0],[134.242477,-34.012917],[134.240448,-34.000832]]}},{"type":"Feature","properties":{"kind":"coast"},"geometry":{"type":"LineString","coordinates":[[139.377853,-35.862534],[139.377884,-35.861664],[139.388351,-35.86245],[139.377853,-35.862534]]}},{"type":"Feature","properties":{"kind":"coast"},"geometry":{"type":"LineString","coordinates":[[136.468781,-35.119194],[136.46875,-35.118332],[136.483688,-35.120865],[136.468781,-35.119194]]}},{"type":"Feature","properties":{"kind":"coast"},"geometry":{"type":"LineString","coordinates":[[133.756226,-32.368332],[133.756226,-32.366669],[133.776215,-32.365829],[133.756226,-32.368332]]}},{"type":"Feature","properties":{"kind":"coast"},"geometry":{"type":"LineString","coordinates":[[136.292114,-34.585831],[136.292114,-34.585052],[136.307144,-34.588394],[136.292114,-34.585831]]}},{"type":"Feature","properties":{"kind":"coast"},"geometry":{"type":"LineString","coordinates":[[134.260437,-33.957527],[134.260437,-33.956726],[134.274582,-33.965836],[134.260437,-33.957527]]}},{"type":"Feature","properties":{"kind":"coast"},"geometry":{"type":"LineString","coordinates":[[135.3638,-34.818329],[135.365021,-34.817078],[135.380386,-34.822525],[135.3638,-34.818329]]}},{"type":"Feature","properties":{"kind":"coast"},"geometry":{"type":"LineString","coordinates":[[135.871216,-34.780029],[135.871216,-34.779167],[135.881699,-34.770447],[135.871216,-34.780029]]}},{"type":"Feature","properties":{"kind":"coast"},"geometry":{"type":"LineString","coordinates":[[136.090439,-35.311691],[136.090439,-35.31089],[136.099136,-35.303749],[136.090439,-35.311691]]}},{"type":"Feature","properties":{"kind":"coast"},"geometry":{"type":"LineString","coordinates":[[136.254578,-34.529144],[136.254578,-34.528336],[136.265411,-34.525894],[136.254578,-34.529144]]}},{"type":"Feature","properties":{"kind":"coast"},"geometry":{"type":"LineString","coordinates":[[135.042923,-34.759193],[135.042923,-34.758362],[135.052887,-34.754227],[135.042923,-34.759193]]}},{"type":"Feature","properties":{"kind":"coast"},"geometry":{"type":"LineString","coordinates":[[138.016281,-33.065033],[138.01622,-33.061638],[138.024139,-33.077164],[138.016281,-33.065033]]}},{"type":"Feature","properties":{"kind":"coast"},"geometry":{"type":"LineString","coordinates":[[135.327911,-34.705032],[135.328781,-34.704193],[135.341217,-34.700058],[135.327911,-34.705032]]}},{"type":"Feature","properties":{"kind":"coast"},"geometry":{"type":"LineString","coordinates":[[137.749588,-33.698303],[137.749634,-33.696716],[137.758331,-33.682083],[137.749588,-33.698303]]}},{"type":"Feature","properties":{"kind":"coast"},"geometry":{"type":"LineString","coordinates":[[136.973785,-33.720833],[136.973785,-33.720032],[136.977493,-33.70961],[136.973785,-33.720833]]}},{"type":"Feature","properties":{"kind":"coast"},"geometry":{"type":"LineString","coordinates":[[139.364532,-35.850861],[139.364563,-35.849998],[139.375381,-35.853333],[139.364532,-35.850861]]}},{"type":"Feature","properties":{"kind":"coast"},"geometry":{"type":"LineString","coordinates":[[133.314606,-32.482498],[133.321671,-32.473778],[133.315353,-32.48172],[133.314606,-32.482498]]}},{"type":"Feature","properties":{"kind":"coast"},"geometry":{"type":"LineString","coordinates":[[134.752106,-33.595001],[134.753326,-33.59375],[134.767914,-33.596695],[134.752106,-33.595001]]}},{"type":"Feature","properties":{"kind":"coast"},"geometry":{"type":"LineString","coordinates":[[136.962082,-33.730865],[136.962051,-33.729996],[136.972977,-33.722504],[136.962082,-33.730865]]}},{"type":"Feature","properties":{"kind":"coast"},"geometry":{"type":"LineString","coordinates":[[137.826187,-33.231689],[137.826248,-33.229218],[137.833313,-33.217941],[137.826187,-33.231689]]}},{"type":"Feature","properties":{"kind":"coast"},"geometry":{"type":"LineString","coordinates":[[137.775436,-32.580032],[137.775421,-32.579193],[137.780869,-32.588745],[137.775436,-32.580032]]}},{"type":"Feature","properties":{"kind":"coast"},"geometry":{"type":"LineString","coordinates":[[133.595383,-32.252556],[133.595413,-32.251694],[133.605423,-32.244171],[133.595383,-32.252556]]}},{"type":"Feature","properties":{"kind":"coast"},"geometry":{"type":"LineString","coordinates":[[137.533752,-33.984192],[137.535004,-33.982918],[137.54541,-33.985863],[137.533752,-33.984192]]}},{"type":"Feature","properties":{"kind":"coast"},"geometry":{"type":"LineString","coordinates":[[134.280396,-33.739197],[134.280869,-33.738808],[134.2883,-33.745445],[134.280396,-33.739197]]}},{"type":"Feature","properties":{"kind":"coast"},"geometry":{"type":"LineString","coordinates":[[137.510437,-34.010864],[137.510834,-34.010468],[137.522949,-34.010834],[137.510437,-34.010864]]}},{"type":"Feature","properties":{"kind":"border","name":"WA/SA"},"geometry":{"type":"LineString","coordinates":[[129.0,-31.687272],[129.0,-31.602272]]}},{"type":"Feature","properties":{"kind":"border","name":"SA/VIC"},"geometry":{"type":"LineString","coordinates":[[141.0,-38.066071],[141.0,-37.981071]]}}]}
