{"type":"FeatureCollection","features":[{"type":"Feature","properties":{"tier":"regional"},"geometry":{"type":"LineString","coordinates":[[128.729702,-25.97993],[128.737198,-25.981965],[128.739676,-25.982641],[128.74128,-25.983075],[128.744867,-25.983882],[128.745472,-25.984061],[128.745842,-25.984227],[128.74611,-25.984386],[128.746277,-25.984507],[128.746392,-25.984601],[128.747409,-25.985616],[128.7478,-25.986028],[128.748248,-25.986554],[128.749761,-25.988702],[128.750026,-25.98903],[128.750247,-25.989273],[128.750421,-25.98943],[128.750563,-25.989531],[128.750761,-25.989633],[128.751075,-25.989731],[128.751472,-25.989818],[128.751888,-25.989854],[128.752231,-25.989859],[128.752655,-25.989816],[128.756665,-25.989083],[128.759554,-25.988567],[128.760772,-25.9884],[128.770573,-25.987286],[128.77132,-25.987197],[128.786649,-25.985334],[128.787449,-25.985247],[128.787789,-25.985213],[128.788179,-25.985189],[128.788404,-25.985187],[128.78868,-25.985194],[128.78905,-25.985245],[128.789531,-25.985338],[128.790061,-25.985486],[128.793894,-25.98672],[128.796083,-25.987328],[128.798087,-25.987826],[128.799886,-25.988234],[128.800712,-25.988393],[128.801344,-25.988508],[128.801696,-25.988553],[128.802023,-25.988582],[128.802287,-25.988597],[128.802563,-25.988605],[128.802767,-25.988605],[128.803011,-25.9886],[128.803325,-25.988583],[128.803602,-25.98856],[128.804693,-25.988451],[128.825238,-25.98671],[128.825898,-25.986666],[128.826399,-25.986623],[128.826794,-25.98661],[128.827135,-25.986613],[128.82743,-25.986628],[128.827751,-25.986655],[128.828076,-25.986695],[128.828388,-25.986746],[128.829014,-25.986885],[128.829495,-25.987027],[128.869715,-25.9997],[128.87068,-25.99997],[128.87087,-26.00002]]}}]}
