{"type":"FeatureCollection","features":[{"type":"Feature","properties":{"tier":"regional"},"geometry":{"type":"LineString","coordinates":[[128.870717,-25.99998],[128.871989,-26.000313],[128.873298,-26.000626],[128.874409,-26.000809],[128.877499,-26.001157],[128.879355,-26.001277],[128.881184,-26.001316],[128.885304,-26.001426],[128.889284,-26.001446],[128.890123,-26.001461],[128.890669,-26.001455],[128.891012,-26.001477],[128.891231,-26.0015],[128.891528,-26.001545],[128.891887,-26.001619],[128.892173,-26.001694],[128.892525,-26.001808],[128.892888,-26.001951],[128.893484,-26.002188],[128.907276,-26.007598],[128.908194,-26.007955],[128.909251,-26.008326],[128.909939,-26.008545],[128.910865,-26.008817],[128.915774,-26.010086],[128.955866,-26.019506],[128.959644,-26.020373],[128.960432,-26.020633],[128.961023,-26.020899],[128.961851,-26.021453],[128.97931,-26.033541],[129.00002,-26.049728]]}}]}
