{"type":"FeatureCollection","features":[{"type":"Feature","properties":{"tier":"regional"},"geometry":{"type":"LineString","coordinates":[[129.001816,-26.051158],[129.021077,-26.066286],[129.022139,-26.067096],[129.022783,-26.067592],[129.023768,-26.06824],[129.024012,-26.068425],[129.024543,-26.068744],[129.025009,-26.068984],[129.025594,-26.069216],[129.026114,-26.069425],[129.026544,-26.069582],[129.027396,-26.069919],[129.032632,-26.071938],[129.035223,-26.073003],[129.039976,-26.074839],[129.044219,-26.076497],[129.049476,-26.078549],[129.051719,-26.079426],[129.056343,-26.081238],[129.062287,-26.083608],[129.065307,-26.084808],[129.075392,-26.08873],[129.102793,-26.09943],[129.103673,-26.099781],[129.104553,-26.100094],[129.105481,-26.100403],[129.105813,-26.100495],[129.106554,-26.100701],[129.10892,-26.101323],[129.116049,-26.103153],[129.122708,-26.10489],[129.127888,-26.106241],[129.135452,-26.108216],[129.14006,-26.109411],[129.149099,-26.111684],[129.150167,-26.111964],[129.153194,-26.112851],[129.153828,-26.113103],[129.15468,-26.113437],[129.156427,-26.114122],[129.160632,-26.115832],[129.161253,-26.116143],[129.161947,-26.116492],[129.163315,-26.117344],[129.167792,-26.120186],[129.168445,-26.120589],[129.174342,-26.124235],[129.174811,-26.124444],[129.180243,-26.126874],[129.187496,-26.131748],[129.19138,-26.134867],[129.19359,-26.136641],[129.195252,-26.13832],[129.200515,-26.143629],[129.20592,-26.149083],[129.20765,-26.150804],[129.208232,-26.151367],[129.209867,-26.152871],[129.210347,-26.153226],[129.210801,-26.153544],[129.211329,-26.153859],[129.212044,-26.154206],[129.212592,-26.154417],[129.213113,-26.154579],[129.213651,-26.154708],[129.214184,-26.154802],[129.214634,-26.154854],[129.214966,-26.154877],[129.215409,-26.154889],[129.216292,-26.154846],[129.217517,-26.154667],[129.23345,-26.152926],[129.240068,-26.152199],[129.264708,-26.149488],[129.265712,-26.149374],[129.266873,-26.149248],[129.267861,-26.149171],[129.269364,-26.149274],[129.28831,-26.151376],[129.296493,-26.152384],[129.297727,-26.152356],[129.298985,-26.152212],[129.304202,-26.152635],[129.309794,-26.154643],[129.313713,-26.156555],[129.317501,-26.158532],[129.321105,-26.160217],[129.3216,-26.160378],[129.331577,-26.163617],[129.337572,-26.165619],[129.339018,-26.166086],[129.340324,-26.166534],[129.3407,-26.166659],[129.341054,-26.166748],[129.341381,-26.166815],[129.341751,-26.166854],[129.342366,-26.166902],[129.343508,-26.166967],[129.347274,-26.167165],[129.351844,-26.167422],[129.353361,-26.167489],[129.353685,-26.167494],[129.354189,-26.167533],[129.354482,-26.167555],[129.354922,-26.167619],[129.355215,-26.16767],[129.355596,-26.16775],[129.356001,-26.167849],[129.356352,-26.167941],[129.356612,-26.168025],[129.356941,-26.168144],[129.357303,-26.168295],[129.357551,-26.168419],[129.358057,-26.16868],[129.359768,-26.169577],[129.361663,-26.170582],[129.363398,-26.171502],[129.366782,-26.173303],[129.369117,-26.174543],[129.371077,-26.175555],[129.378813,-26.178986],[129.395278,-26.186331],[129.398577,-26.187854],[129.399283,-26.188095],[129.400337,-26.188329],[129.400814,-26.188405],[129.401376,-26.188431],[129.401982,-26.188409],[129.403436,-26.188275],[129.405701,-26.188069],[129.408143,-26.187828],[129.409006,-26.187853],[129.412452,-26.188198],[129.413659,-26.188333],[129.416628,-26.188802],[129.418562,-26.189064],[129.419621,-26.189214],[129.420454,-26.189264],[129.422224,-26.189105],[129.423454,-26.188954],[129.424302,-26.188638],[129.425231,-26.188186],[129.430085,-26.185519],[129.431049,-26.185089],[129.439257,-26.182173],[129.440982,-26.181581],[129.442873,-26.181013],[129.447752,-26.179553],[129.448941,-26.179219],[129.449927,-26.178889],[129.456282,-26.176512],[129.456908,-26.17633],[129.459434,-26.175791],[129.46013,-26.175572],[129.464135,-26.174176],[129.474669,-26.171056],[129.475696,-26.170802],[129.477504,-26.170626],[129.479801,-26.170286],[129.481738,-26.169964],[129.483665,-26.169528],[129.484999,-26.169333],[129.487266,-26.16906],[129.489624,-26.168691],[129.491514,-26.168496],[129.494774,-26.168152],[129.50002,-26.16788]]}},{"type":"Feature","properties":{"tier":"regional"},"geometry":{"type":"LineString","coordinates":[[128.99998,-26.049696],[129.000619,-26.050196],[129.001816,-26.051158]]}},{"type":"Feature","properties":{"tier":"regional"},"geometry":{"type":"LineString","coordinates":[[129.175502,-26.163828],[129.179451,-26.164595],[129.180886,-26.164659],[129.190443,-26.165084],[129.191409,-26.165047],[129.192298,-26.164937],[129.194264,-26.164336],[129.195768,-26.16382],[129.196868,-26.163442],[129.199977,-26.162092],[129.201823,-26.160931],[129.203381,-26.160159],[129.203888,-26.159689],[129.204918,-26.158734],[129.206991,-26.155886],[129.209867,-26.152871]]}},{"type":"Feature","properties":{"tier":"regional"},"geometry":{"type":"LineString","coordinates":[[129.183796,-26.50002],[129.183244,-26.499674],[129.182125,-26.498911],[129.181221,-26.498205],[129.180644,-26.497701],[129.180352,-26.497413],[129.180159,-26.497152],[129.179923,-26.496803],[129.179134,-26.495714],[129.177943,-26.494041],[129.177222,-26.492991],[129.176758,-26.492336],[129.176189,-26.491369],[129.175363,-26.489825],[129.174805,-26.488754],[129.174438,-26.488016],[129.173963,-26.487026],[129.173668,-26.486505],[129.173286,-26.485979],[129.173065,-26.485679],[129.172584,-26.485139],[129.172061,-26.484539],[129.17127,-26.483555],[129.170597,-26.482683],[129.170278,-26.482193],[129.169921,-26.481464],[129.16939,-26.480237],[129.168733,-26.478635],[129.168086,-26.477],[129.16744,-26.475404],[129.166906,-26.474141],[129.166614,-26.473394],[129.166423,-26.472825],[129.166297,-26.472383],[129.166198,-26.471692],[129.16611,-26.471262],[129.165989,-26.470984],[129.165718,-26.470465],[129.165498,-26.469987],[129.165133,-26.469113],[129.164795,-26.468177],[129.164291,-26.466827],[129.163685,-26.465272],[129.163309,-26.464229],[129.162802,-26.462786],[129.162572,-26.462167],[129.1624,-26.461845],[129.162199,-26.461535],[129.161829,-26.461053],[129.161325,-26.460445],[129.160954,-26.459962],[129.160643,-26.459578],[129.16038,-26.459302],[129.159766,-26.458709],[129.158948,-26.457876],[129.158237,-26.457158],[129.157591,-26.456483],[129.157052,-26.45594],[129.156687,-26.455547],[129.156387,-26.455237],[129.156129,-26.454932],[129.155874,-26.454576],[129.155509,-26.454077],[129.154809,-26.453085],[129.15416,-26.452192],[129.153248,-26.450905],[129.152479,-26.449867],[129.152084,-26.449322],[129.151784,-26.448818],[129.151467,-26.448186],[129.15099,-26.447202],[129.150333,-26.445852],[129.149909,-26.445014],[129.149458,-26.444111],[129.149099,-26.443407],[129.148839,-26.442869],[129.148576,-26.442494],[129.148077,-26.441844],[129.147688,-26.441416],[129.147136,-26.44084],[129.146208,-26.439966],[129.145135,-26.438923],[129.144365,-26.4382],[129.143981,-26.437766],[129.143552,-26.437175],[129.142828,-26.43619],[129.141991,-26.435109],[129.140993,-26.433803],[129.139207,-26.431583],[129.138414,-26.430607],[129.138081,-26.430176],[129.137847,-26.429816],[129.1376,-26.429311],[129.136847,-26.427721],[129.135929,-26.425684],[129.135404,-26.4245],[129.135023,-26.423604],[129.134728,-26.422946],[129.134535,-26.422413],[129.134454,-26.421966],[129.134379,-26.420962],[129.13425,-26.419156],[129.134105,-26.416931],[129.133987,-26.415317],[129.133891,-26.413967],[129.133786,-26.412142],[129.133703,-26.410993],[129.133537,-26.41033],[129.133194,-26.409062],[129.132845,-26.407961],[129.132668,-26.407577],[129.132292,-26.406904],[129.131868,-26.406189],[129.131611,-26.405732],[129.131391,-26.405079],[129.130951,-26.403541],[129.130468,-26.401936],[129.130353,-26.401485],[129.130334,-26.401122],[129.130337,-26.400747],[129.130407,-26.399452],[129.130501,-26.397559],[129.130503,-26.397249],[129.130466,-26.396963],[129.130332,-26.3966],[129.12972,-26.395281],[129.129251,-26.39426],[129.128996,-26.393768],[129.128623,-26.393049],[129.128293,-26.392314],[129.127861,-26.391389],[129.127467,-26.390495],[129.126965,-26.389306],[129.126177,-26.387751],[129.12553,-26.38648],[129.124774,-26.384893],[129.124101,-26.383402],[129.123454,-26.382023],[129.123087,-26.38137],[129.122719,-26.380841],[129.122194,-26.380082],[129.121952,-26.379683],[129.121488,-26.378834],[129.121174,-26.378222],[129.120802,-26.377455],[129.120373,-26.376549],[129.12019,-26.376105],[129.120018,-26.375473],[129.119935,-26.374853],[129.119871,-26.374021],[129.11982,-26.372846],[129.119761,-26.371541],[129.119694,-26.370499],[129.119621,-26.369011],[129.119552,-26.368329],[129.119533,-26.367632],[129.119428,-26.366274],[129.119348,-26.365113],[129.119305,-26.364464],[129.119251,-26.363378],[129.119195,-26.361712],[129.11919,-26.360621],[129.119214,-26.359624],[129.119262,-26.358788],[129.11931,-26.357913],[129.119404,-26.35644],[129.119506,-26.354942],[129.119565,-26.354029],[129.11963,-26.352976],[129.119707,-26.351419],[129.119753,-26.350592],[129.119917,-26.349621],[129.120225,-26.347958],[129.120351,-26.347037],[129.120426,-26.346189],[129.120528,-26.345148],[129.120617,-26.343787],[129.120654,-26.342932],[129.120668,-26.341999],[129.120681,-26.341151],[129.120711,-26.340129],[129.120748,-26.339482],[129.120791,-26.338915],[129.120855,-26.338576],[129.121,-26.338047],[129.12126,-26.337129],[129.121529,-26.336295],[129.121848,-26.335223],[129.122239,-26.333951],[129.122585,-26.332805],[129.122891,-26.33167],[129.123167,-26.330655],[129.123301,-26.330095],[129.12339,-26.329542],[129.12346,-26.328795],[129.123572,-26.327261],[129.123688,-26.326114],[129.123774,-26.324907],[129.123819,-26.323804],[129.1239,-26.322595],[129.124071,-26.321537],[129.124216,-26.32052],[129.124423,-26.319219],[129.124586,-26.318219],[129.124659,-26.317625],[129.124782,-26.316846],[129.12486,-26.316356],[129.124892,-26.315858],[129.124876,-26.3153],[129.124771,-26.314817],[129.124492,-26.313639],[129.124141,-26.312062],[129.123792,-26.310514],[129.123605,-26.309561],[129.123521,-26.308847],[129.123436,-26.308052],[129.123369,-26.3069],[129.123339,-26.30596],[129.123323,-26.30468],[129.123334,-26.303026],[129.123328,-26.301059],[129.123323,-26.299088],[129.123301,-26.297111],[129.123328,-26.295197],[129.123331,-26.293586],[129.123336,-26.291837],[129.123344,-26.290291],[129.123347,-26.2895],[129.123377,-26.288822],[129.12346,-26.287908],[129.123621,-26.286335],[129.123768,-26.284589],[129.123878,-26.282968],[129.124026,-26.281653],[129.124184,-26.28022],[129.12428,-26.278988],[129.124393,-26.277593],[129.124508,-26.27649],[129.124551,-26.275826],[129.124543,-26.275155],[129.124519,-26.274719],[129.124369,-26.273745],[129.124028,-26.27191],[129.123774,-26.270681],[129.123621,-26.269582],[129.123476,-26.268305],[129.123395,-26.267718],[129.123216,-26.266886],[129.123017,-26.265875],[129.122647,-26.264177],[129.122331,-26.26283],[129.122132,-26.261856],[129.122052,-26.261572],[129.121867,-26.261185],[129.121652,-26.260812],[129.121204,-26.259973],[129.12111,-26.259679],[129.121097,-26.259499],[129.121067,-26.258768],[129.120925,-26.257798],[129.120855,-26.257262],[129.12089,-26.256891],[129.120936,-26.256605],[129.12111,-26.255982],[129.121158,-26.255732],[129.12115,-26.255398],[129.121107,-26.254938],[129.121137,-26.254635],[129.121247,-26.254291],[129.121515,-26.253668],[129.121947,-26.252614],[129.122269,-26.251703],[129.122486,-26.250714],[129.12284,-26.248944],[129.12342,-26.246216],[129.123838,-26.244142],[129.124197,-26.242448],[129.124412,-26.241736],[129.124659,-26.241212],[129.1249,-26.240783],[129.125082,-26.240432],[129.125184,-26.23998],[129.125318,-26.239172],[129.125512,-26.238065],[129.125785,-26.236655],[129.126037,-26.235211],[129.126386,-26.233123],[129.126665,-26.231694],[129.126917,-26.230943],[129.127421,-26.229755],[129.127926,-26.228658],[129.128655,-26.226988],[129.129084,-26.226069],[129.12946,-26.225072],[129.129631,-26.224495],[129.130061,-26.222594],[129.130479,-26.220587],[129.130726,-26.219461],[129.131139,-26.217796],[129.131917,-26.214697],[129.132797,-26.211169],[129.133649,-26.207622],[129.133802,-26.206833],[129.133907,-26.206036],[129.134084,-26.203589],[129.134175,-26.201971],[129.134245,-26.199695],[129.134336,-26.19749],[129.13435,-26.196865],[129.134411,-26.196379],[129.134779,-26.195404],[129.1352,-26.194675],[129.135784,-26.193589],[129.136385,-26.192441],[129.136786,-26.191709],[129.137705,-26.190318],[129.138123,-26.189716],[129.138534,-26.189187],[129.139073,-26.18859],[129.139521,-26.188178],[129.140333,-26.187534],[129.141948,-26.186154],[129.142911,-26.185331],[129.143855,-26.184539],[129.144711,-26.183901],[129.146234,-26.182794],[129.146688,-26.182474],[129.14933,-26.180609],[129.151964,-26.178702],[129.153034,-26.177937],[129.154678,-26.176858],[129.157135,-26.175328],[129.158396,-26.174475],[129.159688,-26.173633],[129.161126,-26.172771],[129.162252,-26.172116],[129.162891,-26.17177],[129.163722,-26.171399],[129.165278,-26.170735],[129.166319,-26.170292],[129.166748,-26.17013],[129.167289,-26.170007],[129.168014,-26.169858],[129.168301,-26.169769],[129.168475,-26.169673],[129.168706,-26.169502],[129.169752,-26.168178],[129.169871,-26.168034],[129.170268,-26.167558],[129.17063,-26.167329],[129.171046,-26.167175],[129.171348,-26.166922],[129.172365,-26.166103],[129.17244,-26.166043],[129.172906,-26.165677],[129.173285,-26.165365],[129.17333,-26.165328],[129.173775,-26.164918],[129.17397,-26.164705],[129.174156,-26.164501],[129.174325,-26.164181],[129.174374,-26.164046],[129.174468,-26.16379],[129.174511,-26.163627]]}}]}
