{"type":"FeatureCollection","features":[{"type":"Feature","properties":{"tier":"regional"},"geometry":{"type":"LineString","coordinates":[[129.50002,-26.754737],[129.490835,-26.751808],[129.479268,-26.745769],[129.478362,-26.745256],[129.477444,-26.744782],[129.476597,-26.744374],[129.475856,-26.744073],[129.47495,-26.743776],[129.473705,-26.743474],[129.472015,-26.743086],[129.470846,-26.742784],[129.469859,-26.742444],[129.468051,-26.741783],[129.465868,-26.740949],[129.464387,-26.74035],[129.462596,-26.739641],[129.461523,-26.7392],[129.460659,-26.738793],[129.45913,-26.73795],[129.457515,-26.737097],[129.456035,-26.736364],[129.45456,-26.735626],[129.453396,-26.735042],[129.452822,-26.734774],[129.451443,-26.734367],[129.450434,-26.734041],[129.44949,-26.733667],[129.447672,-26.732924],[129.444995,-26.731899],[129.442581,-26.730946],[129.440977,-26.730313],[129.439711,-26.729805],[129.439319,-26.729551],[129.439062,-26.729302],[129.438756,-26.728981],[129.437753,-26.727913],[129.437018,-26.727175],[129.435859,-26.726039],[129.434706,-26.724847],[129.433789,-26.723941],[129.432941,-26.723045],[129.432002,-26.722106],[129.431632,-26.721809],[129.430827,-26.721263],[129.429862,-26.720649],[129.428789,-26.719911],[129.428274,-26.719485],[129.427545,-26.718824],[129.426514,-26.717937],[129.425163,-26.716763],[129.424004,-26.715733],[129.423344,-26.7151],[129.422368,-26.714156],[129.420952,-26.712795],[129.419053,-26.710908],[129.417594,-26.709465],[129.415534,-26.707467],[129.414863,-26.706863],[129.414166,-26.706336],[129.412766,-26.705205],[129.41182,-26.704443],[129.410558,-26.703413],[129.410089,-26.702976],[129.408772,-26.70151],[129.407897,-26.700559],[129.406784,-26.699279],[129.405454,-26.697758],[129.403818,-26.695874],[129.402906,-26.694777],[129.401911,-26.693579],[129.400047,-26.691426],[129.398542,-26.68968],[129.397834,-26.688819],[129.396865,-26.687631],[129.395897,-26.686382],[129.395229,-26.685536],[129.394682,-26.684843],[129.394049,-26.684074],[129.392847,-26.682684],[129.391804,-26.681481],[129.3909,-26.680395],[129.389726,-26.678973],[129.38825,-26.67733],[129.386968,-26.675849],[129.385557,-26.674224],[129.384806,-26.673347],[129.384243,-26.672791],[129.383771,-26.672402],[129.383347,-26.672081],[129.382955,-26.671755],[129.382478,-26.671276],[129.381684,-26.670379],[129.379731,-26.668294],[129.377655,-26.666017],[129.375789,-26.663908],[129.374925,-26.662968],[129.373882,-26.661938],[129.373096,-26.661161],[129.372221,-26.660291],[129.371655,-26.659773],[129.37116,-26.659302],[129.370553,-26.658769],[129.369362,-26.658148],[129.367495,-26.657167],[129.366669,-26.656702],[129.365714,-26.656132],[129.364636,-26.655413],[129.363815,-26.654866],[129.363112,-26.654478],[129.362356,-26.654128],[129.361305,-26.653716],[129.360554,-26.653327],[129.36006,-26.653011],[129.359186,-26.652363],[129.35836,-26.651774],[129.357362,-26.651055],[129.356509,-26.650383],[129.355479,-26.649626],[129.354336,-26.648782],[129.353692,-26.648336],[129.352249,-26.647396],[129.349782,-26.645761],[129.347663,-26.644376],[129.345552,-26.642983],[129.344181,-26.642026],[129.343189,-26.641293],[129.342164,-26.640521],[129.341698,-26.640175],[129.341317,-26.63983],[129.34056,-26.639082],[129.339541,-26.638114],[129.338915,-26.637398],[129.337186,-26.63539],[129.335555,-26.63352],[129.334526,-26.63234],[129.333855,-26.631607],[129.33349,-26.631256],[129.333152,-26.630974],[129.332503,-26.630528],[129.331285,-26.629703],[129.329724,-26.628667],[129.328748,-26.628024],[129.328212,-26.627626],[129.327412,-26.626878],[129.32657,-26.626078],[129.325873,-26.625363],[129.325272,-26.624735],[129.324392,-26.62379],[129.323351,-26.622653],[129.322241,-26.621459],[129.321216,-26.620419],[129.320321,-26.619503],[129.31854,-26.617666],[129.31715,-26.616261],[129.31626,-26.615402],[129.315632,-26.614884],[129.314715,-26.614165],[129.313535,-26.613234],[129.311877,-26.611911],[129.310611,-26.610908],[129.309849,-26.610333],[129.308964,-26.6097],[129.307854,-26.608841],[129.30648,-26.607791],[129.304968,-26.606644],[129.303535,-26.60558],[129.302307,-26.604678],[129.30155,-26.604117],[129.300059,-26.603224],[129.298321,-26.602121],[129.297093,-26.601267],[129.29639,-26.600793],[129.295896,-26.600409],[129.295236,-26.599757],[129.294362,-26.59885],[129.293005,-26.597473],[129.291519,-26.595958],[129.290575,-26.595003],[129.289931,-26.594394],[129.288944,-26.593468],[129.288059,-26.592624],[129.287501,-26.592096],[129.286675,-26.591295],[129.286165,-26.590695],[129.285672,-26.590134],[129.285023,-26.589419],[129.284395,-26.588772],[129.283365,-26.58774],[129.281986,-26.586412],[129.280522,-26.584987],[129.279218,-26.583692],[129.277968,-26.582391],[129.276423,-26.580564],[129.275329,-26.579268],[129.274777,-26.578587],[129.274406,-26.578179],[129.273999,-26.577815],[129.272878,-26.576918],[129.271595,-26.575814],[129.269927,-26.574284],[129.268908,-26.573267],[129.267583,-26.571885],[129.266505,-26.570781],[129.265727,-26.569985],[129.265137,-26.569419],[129.264681,-26.569069],[129.26356,-26.568406],[129.262567,-26.567821],[129.261779,-26.567288],[129.261349,-26.566885],[129.260894,-26.566377],[129.260373,-26.565763],[129.259547,-26.564784],[129.258783,-26.56386],[129.258276,-26.563275],[129.258066,-26.563052],[129.257305,-26.562486],[129.256178,-26.561689],[129.255041,-26.560854],[129.253925,-26.56001],[129.252729,-26.559084],[129.25149,-26.558105],[129.250041,-26.556924],[129.248528,-26.555552],[129.24796,-26.554981],[129.247327,-26.554237],[129.246603,-26.553383],[129.245932,-26.55261],[129.244757,-26.551185],[129.243148,-26.549103],[129.242408,-26.548148],[129.241936,-26.547625],[129.24149,-26.547183],[129.240546,-26.546415],[129.239227,-26.545249],[129.238599,-26.54474],[129.237944,-26.544285],[129.236802,-26.543574],[129.235858,-26.54297],[129.234769,-26.542298],[129.233471,-26.541458],[129.232253,-26.540678],[129.231531,-26.540237],[129.230826,-26.53985],[129.229871,-26.539337],[129.2286,-26.538689],[129.227618,-26.53818],[129.227095,-26.537818],[129.226277,-26.537204],[129.225537,-26.536647],[129.224936,-26.536236],[129.224287,-26.535877],[129.223321,-26.535315],[129.220918,-26.53388],[129.219502,-26.533023],[129.218606,-26.532462],[129.217914,-26.531941],[129.216363,-26.530703],[129.215041,-26.529683],[129.213901,-26.528865],[129.212421,-26.527787],[129.211887,-26.527417],[129.211447,-26.527086],[129.211082,-26.526695],[129.210682,-26.526201],[129.210127,-26.525545],[129.209502,-26.524756],[129.208784,-26.523969],[129.208067,-26.523174],[129.207225,-26.522116],[129.206445,-26.521084],[129.205605,-26.519966],[129.204822,-26.518948],[129.203993,-26.517911],[129.203387,-26.517081],[129.202673,-26.516097],[129.202046,-26.515257],[129.2013,-26.514225],[129.200898,-26.513596],[129.200517,-26.513169],[129.199927,-26.512597],[129.19924,-26.511921],[129.198301,-26.510989],[129.196864,-26.509549],[129.196092,-26.508741],[129.195571,-26.5082],[129.195115,-26.507749],[129.194691,-26.507423],[129.193715,-26.506784],[129.192202,-26.505814],[129.190807,-26.504874],[129.189665,-26.50411],[129.188983,-26.503582],[129.188522,-26.503107],[129.188093,-26.502694],[129.187669,-26.502387],[129.187095,-26.502022],[129.185416,-26.501023],[129.184509,-26.500467],[129.183732,-26.49998]]}}]}
