{"type":"FeatureCollection","features":[{"type":"Feature","properties":{"tier":"high"},"geometry":{"type":"LineString","coordinates":[[128.99998,-31.639263],[129.000002,-31.639252],[129.001048,-31.638746],[129.001938,-31.638316]]}},{"type":"Feature","properties":{"tier":"high"},"geometry":{"type":"LineString","coordinates":[[129.004161,-31.637462],[129.004101,-31.637532],[129.004011,-31.637567],[129.002521,-31.638293],[129.001944,-31.638585]]}},{"type":"Feature","properties":{"tier":"high"},"geometry":{"type":"LineString","coordinates":[[129.011728,-31.633917],[129.012075,-31.633808],[129.012687,-31.633641],[129.013355,-31.633488],[129.014074,-31.633381],[129.014809,-31.633316],[129.015571,-31.633285],[129.016349,-31.633285],[129.017095,-31.633319],[129.017221,-31.633331],[129.01802,-31.633406],[129.021042,-31.633793],[129.02273,-31.633995],[129.054495,-31.637802],[129.057851,-31.638205],[129.070802,-31.639757],[129.077751,-31.64059],[129.079026,-31.640779],[129.079321,-31.640835],[129.079935,-31.64095],[129.081119,-31.641199],[129.082119,-31.641462],[129.083195,-31.641788],[129.08412,-31.642077],[129.097767,-31.64699],[129.099738,-31.6477],[129.100848,-31.648115],[129.118703,-31.654564],[129.126144,-31.657252],[129.129447,-31.658453],[129.13019,-31.658708],[129.130894,-31.658961],[129.131204,-31.659068],[129.131638,-31.65921],[129.132072,-31.659334],[129.132373,-31.659416],[129.132708,-31.659499],[129.133004,-31.659561],[129.133328,-31.659625],[129.13374,-31.659702],[129.134044,-31.659747],[129.134358,-31.659785],[129.134679,-31.659816],[129.135,-31.659839],[129.135337,-31.659856],[129.135662,-31.659861],[129.135981,-31.659862],[129.136443,-31.65984],[129.136796,-31.65982],[129.13717,-31.659789],[129.137493,-31.659755],[129.13788,-31.659708],[129.138476,-31.659631],[129.13941,-31.659509],[129.140261,-31.659412],[129.147284,-31.658545],[129.148524,-31.658388],[129.149698,-31.658238],[129.149795,-31.658226],[129.151183,-31.658054],[129.152176,-31.657934],[129.153328,-31.657795],[129.154086,-31.657709],[129.1548,-31.657642],[129.155672,-31.657572],[129.156446,-31.657521],[129.157282,-31.657477],[129.158153,-31.657446],[129.158951,-31.657426],[129.160298,-31.6574],[129.16054,-31.657397],[129.162702,-31.657367],[129.163441,-31.657351],[129.163891,-31.657344],[129.164198,-31.657339],[129.165251,-31.657323],[129.167773,-31.657288],[129.168909,-31.657267],[129.169558,-31.657248],[129.170141,-31.657215],[129.170607,-31.657189],[129.171114,-31.657147],[129.171717,-31.657086],[129.172298,-31.657019],[129.172973,-31.656929],[129.173594,-31.656833],[129.174189,-31.656729],[129.174946,-31.656582],[129.175576,-31.656445],[129.176173,-31.656297],[129.17678,-31.656139],[129.177371,-31.655972],[129.177602,-31.6559],[129.17794,-31.655795],[129.178893,-31.655482],[129.180083,-31.65508],[129.18063,-31.654891],[129.193527,-31.650659],[129.194711,-31.650314],[129.195548,-31.650088],[129.196314,-31.649911],[129.196979,-31.649797],[129.197776,-31.649702],[129.198788,-31.649607],[129.199716,-31.649544],[129.200302,-31.649536],[129.202966,-31.649499],[129.216811,-31.649437],[129.219575,-31.649394],[129.221424,-31.649287],[129.223599,-31.649058],[129.230384,-31.648254],[129.232672,-31.648052],[129.234275,-31.647947],[129.235846,-31.647896],[129.237395,-31.647875],[129.238896,-31.647901],[129.246208,-31.648102],[129.25333,-31.648356],[129.255896,-31.648434],[129.261508,-31.648577],[129.261934,-31.648577],[129.263038,-31.648577],[129.26421,-31.648535],[129.265318,-31.64846],[129.266491,-31.648358],[129.267873,-31.648175],[129.26975,-31.647827],[129.270543,-31.647668],[129.28622,-31.644528],[129.316923,-31.638499],[129.320058,-31.637883],[129.321269,-31.637653],[129.322402,-31.637485],[129.323558,-31.637346],[129.324716,-31.63726],[129.32559,-31.637202],[129.326698,-31.637175],[129.328362,-31.637175],[129.337149,-31.637294],[129.338873,-31.637318],[129.383803,-31.63787],[129.38655,-31.637832],[129.387833,-31.637784],[129.389637,-31.637648],[129.39153,-31.63745],[129.39353,-31.637196],[129.403138,-31.635884],[129.429653,-31.632194],[129.451675,-31.629098],[129.456642,-31.628444],[129.457802,-31.628282],[129.483005,-31.624751],[129.499536,-31.622432],[129.50002,-31.622364]]}},{"type":"Feature","properties":{"tier":"high"},"geometry":{"type":"LineString","coordinates":[[129.001944,-31.638585],[129.001185,-31.638957],[129.000005,-31.639505],[128.99998,-31.639517]]}},{"type":"Feature","properties":{"tier":"high"},"geometry":{"type":"LineString","coordinates":[[129.001938,-31.638316],[129.002199,-31.638189],[129.00242,-31.6381],[129.003371,-31.637767],[129.003836,-31.637566],[129.004055,-31.637471],[129.004161,-31.637462]]}},{"type":"Feature","properties":{"tier":"high"},"geometry":{"type":"LineString","coordinates":[[129.004161,-31.637462],[129.004346,-31.637378],[129.004516,-31.637299],[129.005714,-31.636697]]}},{"type":"Feature","properties":{"tier":"high"},"geometry":{"type":"LineString","coordinates":[[129.007318,-31.635919],[129.007996,-31.635589],[129.009936,-31.634642],[129.010755,-31.634279],[129.011279,-31.634072],[129.011451,-31.634004],[129.011728,-31.633917]]}},{"type":"Feature","properties":{"tier":"high"},"geometry":{"type":"LineString","coordinates":[[129.005714,-31.636697],[129.007318,-31.635919]]}}]}
