{"type":"FeatureCollection","features":[{"type":"Feature","properties":{"tier":"high"},"geometry":{"type":"LineString","coordinates":[[129.958596,-31.573901],[129.97352,-31.573351],[130.00002,-31.572376]]}},{"type":"Feature","properties":{"tier":"high"},"geometry":{"type":"LineString","coordinates":[[129.49998,-31.622369],[129.513431,-31.620473],[129.528389,-31.618363],[129.530222,-31.618119],[129.572793,-31.612191],[129.578929,-31.611337],[129.579897,-31.61121],[129.58782,-31.610103],[129.588881,-31.609955],[129.605583,-31.607621],[129.607493,-31.607396],[129.609226,-31.607245],[129.610953,-31.607149],[129.614527,-31.607036],[129.616102,-31.607052],[129.623291,-31.607364],[129.624886,-31.607427],[129.625629,-31.607456],[129.630357,-31.607644],[129.642252,-31.608115],[129.680432,-31.609661],[129.684854,-31.609836],[129.699848,-31.610429],[129.716772,-31.611099],[129.718342,-31.611131],[129.719436,-31.611112],[129.72051,-31.611055],[129.72156,-31.610951],[129.722483,-31.610814],[129.724209,-31.610494],[129.73381,-31.608535],[129.75432,-31.604346],[129.774775,-31.600224],[129.781464,-31.598856],[129.791696,-31.596778],[129.793405,-31.596429],[129.83429,-31.588081],[129.835037,-31.587928],[129.871103,-31.580564],[129.873966,-31.579995],[129.875153,-31.579752],[129.880297,-31.578694],[129.887988,-31.577113],[129.889543,-31.576806],[129.890457,-31.576658],[129.891388,-31.576532],[129.892346,-31.576418],[129.894107,-31.57627],[129.909146,-31.575754],[129.958596,-31.573901]]}}]}
