{"type":"FeatureCollection","features":[{"type":"Feature","properties":{"tier":"regional"},"geometry":{"type":"LineString","coordinates":[[129.89687,-27.021061],[129.896452,-27.020851],[129.896233,-27.02071],[129.896111,-27.020635],[129.896047,-27.020598],[129.895611,-27.02035],[129.895169,-27.020056],[129.894058,-27.019169],[129.893466,-27.018636],[129.89313,-27.018302],[129.892876,-27.01792],[129.892664,-27.017549],[129.892514,-27.017212],[129.892205,-27.016354],[129.892047,-27.01581],[129.891821,-27.014675],[129.891599,-27.013116],[129.891333,-27.011363],[129.889418,-26.99998]]}}]}
