{"type":"FeatureCollection","features":[{"type":"Feature","properties":{"tier":"regional"},"geometry":{"type":"LineString","coordinates":[[129.49998,-26.167882],[129.503376,-26.167706],[129.505937,-26.16775],[129.506855,-26.16767],[129.509687,-26.167271],[129.510283,-26.167121],[129.510932,-26.166868],[129.511744,-26.166332],[129.512737,-26.165614],[129.51392,-26.164943],[129.515473,-26.164259],[129.517736,-26.163515],[129.519008,-26.16319],[129.522068,-26.162774],[129.524815,-26.162425],[129.527006,-26.162243],[129.534162,-26.161741],[129.535681,-26.161738],[129.536926,-26.161766],[129.551342,-26.161232],[129.552479,-26.161149],[129.553662,-26.16085],[129.560471,-26.158898],[129.566367,-26.157205],[129.567665,-26.156756],[129.569183,-26.15606],[129.570002,-26.155612],[129.57062,-26.155386],[129.571355,-26.155187],[129.574733,-26.154677],[129.577851,-26.154299],[129.580796,-26.153969],[129.5911,-26.152908],[129.602783,-26.151298],[129.607509,-26.150515],[129.617284,-26.148943],[129.626199,-26.147501],[129.62894,-26.147081],[129.638616,-26.145648],[129.644146,-26.144822],[129.652514,-26.143853],[129.661789,-26.142759],[129.678883,-26.140456],[129.685898,-26.139647],[129.690655,-26.13909],[129.695373,-26.138675],[129.702561,-26.137913],[129.703563,-26.137779],[129.704564,-26.137548],[129.706106,-26.13704],[129.706962,-26.136874],[129.709754,-26.136517],[129.711372,-26.13631],[129.722212,-26.134923],[129.727846,-26.134159],[129.734415,-26.133226],[129.742187,-26.132073],[129.745025,-26.131522],[129.747137,-26.13119],[129.751671,-26.130495],[129.756763,-26.129415],[129.762637,-26.128396],[129.76772,-26.12761],[129.772003,-26.12699],[129.774312,-26.126601],[129.775312,-26.126455],[129.78061,-26.126004],[129.783585,-26.125751],[129.792437,-26.124477],[129.792537,-26.124464],[129.796559,-26.123732],[129.799622,-26.123359],[129.803878,-26.12258],[129.823953,-26.118847],[129.829763,-26.117869],[129.830938,-26.117715],[129.837248,-26.117458],[129.859126,-26.117018],[129.85989,-26.117054],[129.860599,-26.117162],[129.864414,-26.118067],[129.874789,-26.120229],[129.875487,-26.120398],[129.876206,-26.120576],[129.8766,-26.12068],[129.877061,-26.120807],[129.87749,-26.120937],[129.877944,-26.121089],[129.87859,-26.121335],[129.879655,-26.121749],[129.88014,-26.121942],[129.88046,-26.122057],[129.880798,-26.122134],[129.881071,-26.122194],[129.881366,-26.122243],[129.881838,-26.122288],[129.882925,-26.122382],[129.883893,-26.122433],[129.884764,-26.122505],[129.88566,-26.122601],[129.886299,-26.1227],[129.887012,-26.12283],[129.888396,-26.123114],[129.897704,-26.12503],[129.902717,-26.126058],[129.903473,-26.126222],[129.904113,-26.126378],[129.904634,-26.126518],[129.905227,-26.126691],[129.905883,-26.126871],[129.906633,-26.127087],[129.907562,-26.127348],[129.908352,-26.127573],[129.90919,-26.127804],[129.909722,-26.127961],[129.910085,-26.128055],[129.910317,-26.128108],[129.91063,-26.12817],[129.91095,-26.128231],[129.911298,-26.128291],[129.911749,-26.128361],[129.912237,-26.128449],[129.912727,-26.128536],[129.913079,-26.128595],[129.913537,-26.128681],[129.91396,-26.128768],[129.915283,-26.129058],[129.916154,-26.129251],[129.916844,-26.129429],[129.91786,-26.129722],[129.922777,-26.131148],[129.925784,-26.132008],[129.928857,-26.13285],[129.932111,-26.133732],[129.936974,-26.135039],[129.947039,-26.138187],[129.948363,-26.138529],[129.953347,-26.139741],[129.962346,-26.142095],[129.976883,-26.145678],[129.99062,-26.148777],[129.996169,-26.149934],[129.998665,-26.150427],[130.00002,-26.150629]]}}]}
