{"type":"FeatureCollection","features":[{"type":"Feature","properties":{"tier":"regional"},"geometry":{"type":"LineString","coordinates":[[129.889425,-27.00002],[129.889089,-26.998027],[129.888059,-26.995732],[129.887431,-26.994758],[129.88582,-26.99339],[129.884705,-26.992827],[129.88316,-26.992267],[129.881341,-26.991407],[129.880751,-26.991077],[129.878107,-26.990137],[129.876519,-26.989538],[129.874923,-26.988725],[129.873459,-26.987563],[129.872616,-26.98717],[129.871931,-26.98693],[129.870977,-26.986686],[129.859467,-26.985034],[129.852386,-26.985617],[129.850852,-26.98534],[129.849933,-26.984538],[129.849682,-26.983968],[129.848921,-26.982883],[129.846517,-26.981047],[129.844629,-26.980129],[129.831926,-26.97707],[129.830038,-26.976764],[129.827463,-26.973857],[129.824201,-26.972021],[129.81682,-26.969879],[129.81476,-26.969726],[129.799654,-26.965136],[129.791929,-26.963759],[129.788839,-26.9633],[129.786436,-26.961924],[129.784033,-26.959934],[129.781286,-26.956874],[129.779226,-26.95412],[129.777853,-26.952284],[129.773561,-26.949989],[129.768464,-26.946817],[129.765894,-26.945015],[129.761898,-26.944019],[129.757711,-26.942592],[129.754049,-26.941164],[129.750929,-26.940184],[129.746325,-26.937243],[129.737856,-26.929329],[129.722578,-26.915554],[129.710047,-26.906063],[129.701978,-26.896266],[129.679834,-26.875903],[129.661466,-26.860743],[129.646189,-26.849257],[129.615461,-26.831336],[129.605505,-26.824749],[129.60087,-26.822911],[129.588682,-26.815098],[129.573061,-26.801922],[129.566366,-26.795486],[129.562418,-26.792422],[129.559328,-26.791042],[129.554521,-26.788284],[129.549887,-26.785986],[129.545595,-26.782614],[129.540274,-26.778323],[129.534265,-26.774645],[129.524824,-26.77158],[129.520017,-26.768821],[129.509546,-26.760851],[129.504911,-26.757479],[129.500448,-26.754873],[129.49998,-26.754724]]}}]}
