{"type":"FeatureCollection","features":[{"type":"Feature","properties":{"tier":"regional"},"geometry":{"type":"LineString","coordinates":[[129.99998,-26.150623],[130.000966,-26.15077],[130.005015,-26.151379],[130.006621,-26.151613],[130.012355,-26.152643],[130.018936,-26.154028],[130.021817,-26.154631],[130.024176,-26.155168],[130.028441,-26.156153],[130.029516,-26.156401],[130.031251,-26.156903],[130.032953,-26.157277],[130.035603,-26.157814],[130.037423,-26.158226],[130.038231,-26.158334],[130.041731,-26.158959],[130.055955,-26.161909],[130.066724,-26.163689],[130.068502,-26.163804],[130.069803,-26.163866],[130.076447,-26.16454],[130.083597,-26.165224],[130.095496,-26.16622],[130.097838,-26.166442],[130.105413,-26.167441],[130.10691,-26.167638],[130.107982,-26.167779],[130.109982,-26.168043],[130.110392,-26.168162],[130.111359,-26.16854],[130.11249,-26.169051],[130.114319,-26.169876],[130.114835,-26.170096],[130.116177,-26.17067],[130.116818,-26.170861],[130.117805,-26.171061],[130.118423,-26.171115],[130.118718,-26.17114],[130.119787,-26.17114],[130.12043,-26.17106],[130.121274,-26.170852],[130.121911,-26.170651],[130.12242,-26.17049],[130.12445,-26.169847],[130.124811,-26.169732],[130.125014,-26.169673],[130.126074,-26.169525],[130.127147,-26.169436],[130.1284,-26.169449],[130.135952,-26.170017],[130.138245,-26.170244],[130.141292,-26.170601],[130.143896,-26.17097],[130.158386,-26.173507],[130.16024,-26.173648],[130.170215,-26.174215],[130.170597,-26.174253]]}},{"type":"Feature","properties":{"tier":"regional"},"geometry":{"type":"LineString","coordinates":[[130.204635,-26.176454],[130.204859,-26.176192],[130.205042,-26.175974],[130.205215,-26.175785],[130.205338,-26.17567],[130.205488,-26.175587],[130.205659,-26.175514],[130.205912,-26.175442],[130.206257,-26.175368],[130.207778,-26.175171],[130.208931,-26.175041],[130.209196,-26.175027],[130.209462,-26.175019],[130.209784,-26.175046],[130.210175,-26.175096],[130.211219,-26.175277],[130.212531,-26.175561],[130.213359,-26.175742],[130.213545,-26.175782],[130.214211,-26.175929],[130.217697,-26.176722],[130.218032,-26.176794],[130.220585,-26.177345],[130.220899,-26.177414],[130.221221,-26.177484],[130.223629,-26.177985],[130.224659,-26.17818],[130.226159,-26.178449],[130.22658,-26.178528],[130.22665,-26.178541],[130.226955,-26.178628],[130.227159,-26.17871],[130.22736,-26.178837],[130.227492,-26.17895],[130.227597,-26.179071],[130.22769,-26.179229],[130.227833,-26.179484]]}},{"type":"Feature","properties":{"tier":"regional"},"geometry":{"type":"LineString","coordinates":[[130.170597,-26.174253],[130.171222,-26.174312]]}},{"type":"Feature","properties":{"tier":"regional"},"geometry":{"type":"LineString","coordinates":[[130.171222,-26.174312],[130.173229,-26.174453],[130.178055,-26.174921],[130.182353,-26.17537],[130.182403,-26.175374],[130.185101,-26.175591],[130.185647,-26.175627],[130.186263,-26.175667],[130.188393,-26.175807],[130.19072,-26.176009],[130.192459,-26.176161],[130.194151,-26.176183],[130.196697,-26.176139],[130.199634,-26.176083],[130.200522,-26.17604],[130.202201,-26.175915],[130.202324,-26.175913],[130.202636,-26.17591],[130.202966,-26.175961],[130.203296,-26.176028],[130.203934,-26.176218],[130.204635,-26.176454],[130.21153,-26.178878],[130.214499,-26.179923],[130.216844,-26.180751],[130.217713,-26.18102],[130.218311,-26.181198],[130.218962,-26.181359],[130.219303,-26.181446],[130.219633,-26.181492],[130.219995,-26.181547],[130.220322,-26.181586],[130.220693,-26.181624],[130.221033,-26.181641],[130.221658,-26.181618],[130.222708,-26.181493],[130.223736,-26.181185],[130.226355,-26.180069],[130.227833,-26.179484],[130.228358,-26.179328],[130.228777,-26.179229],[130.22905,-26.179176],[130.229329,-26.179155],[130.2296,-26.179157],[130.22996,-26.179179],[130.230367,-26.17922],[130.230885,-26.17928],[130.233283,-26.179758],[130.235832,-26.18019],[130.236901,-26.180271],[130.240336,-26.180406],[130.241158,-26.180389],[130.241685,-26.180323],[130.242308,-26.180211],[130.242822,-26.180035],[130.244384,-26.179216],[130.247828,-26.177346],[130.249331,-26.176545],[130.249862,-26.176317],[130.250307,-26.176156],[130.25427,-26.175027],[130.257798,-26.174037],[130.260553,-26.173316],[130.261136,-26.173225],[130.261718,-26.173163],[130.262872,-26.173189],[130.266172,-26.173196],[130.267055,-26.173118],[130.268163,-26.172905],[130.269265,-26.172645],[130.272306,-26.171569],[130.273991,-26.17115],[130.274342,-26.171067],[130.275321,-26.170768],[130.276496,-26.170304],[130.276958,-26.170138],[130.278557,-26.169671],[130.280788,-26.169136],[130.283996,-26.168498],[130.285042,-26.168376],[130.285938,-26.168275],[130.286575,-26.168219],[130.290362,-26.168043],[130.291425,-26.167983],[130.292094,-26.167894],[130.292726,-26.167778],[130.294346,-26.167405],[130.297424,-26.166566],[130.29831,-26.16633],[130.298811,-26.166217],[130.299725,-26.166112],[130.300889,-26.165893],[130.301478,-26.165887],[130.302276,-26.165994],[130.303298,-26.16621],[130.303974,-26.166329],[130.306992,-26.166718],[130.319319,-26.168367],[130.332967,-26.170172],[130.337506,-26.170754],[130.340589,-26.171136],[130.342432,-26.171394],[130.34327,-26.171415],[130.343697,-26.171409],[130.344718,-26.171375],[130.352735,-26.171028],[130.35327,-26.170971],[130.353935,-26.170846],[130.357887,-26.169895],[130.359154,-26.169624],[130.360177,-26.169431],[130.361744,-26.169214],[130.362757,-26.169041],[130.365429,-26.168515],[130.371124,-26.167445],[130.373114,-26.167148],[130.379405,-26.166533],[130.380124,-26.166383],[130.380896,-26.166151],[130.381757,-26.165768],[130.382495,-26.165226],[130.383266,-26.164468],[130.383897,-26.163662],[130.384956,-26.16201],[130.385496,-26.161445],[130.38608,-26.161023],[130.388386,-26.159825],[130.390521,-26.158841],[130.391921,-26.158202],[130.392829,-26.157734],[130.393725,-26.157379],[130.394617,-26.157111],[130.395461,-26.157008],[130.396282,-26.157086],[130.397059,-26.157313],[130.401493,-26.159169],[130.404389,-26.160197],[130.407133,-26.161184],[130.410291,-26.162293],[130.411372,-26.16264],[130.41245,-26.162873],[130.413598,-26.1631],[130.414313,-26.16319],[130.415276,-26.163243],[130.415446,-26.163253],[130.416384,-26.163242],[130.418482,-26.163119],[130.425477,-26.162575],[130.426315,-26.162553],[130.427399,-26.162569],[130.433904,-26.162671],[130.441148,-26.162797],[130.446693,-26.163311],[130.449132,-26.163568],[130.449768,-26.163637],[130.450661,-26.163806],[130.476436,-26.169366],[130.481555,-26.170477],[130.482699,-26.170693],[130.483715,-26.170829],[130.489629,-26.171395],[130.491588,-26.171742],[130.492891,-26.171974],[130.493826,-26.172055],[130.50002,-26.17192]]}}]}
