{"type":"FeatureCollection","features":[{"type":"Feature","properties":{"tier":"regional"},"geometry":{"type":"LineString","coordinates":[[130.49998,-26.171921],[130.501276,-26.171893],[130.501912,-26.171809],[130.505579,-26.171041],[130.507678,-26.170583],[130.512317,-26.169279],[130.513446,-26.168978],[130.514544,-26.168761],[130.521202,-26.167544],[130.521994,-26.167407],[130.522608,-26.167372],[130.52615,-26.167339],[130.527121,-26.167379],[130.528218,-26.1675],[130.53087,-26.167925],[130.533616,-26.16817],[130.534339,-26.168167],[130.535235,-26.16806],[130.536377,-26.167896],[130.539348,-26.167534],[130.540962,-26.167375],[130.542579,-26.167284],[130.546487,-26.167068],[130.547493,-26.167049],[130.548046,-26.167092],[130.549464,-26.167197],[130.55076,-26.167132],[130.552331,-26.166957],[130.554307,-26.166525],[130.556397,-26.165878],[130.557743,-26.165609],[130.558532,-26.165535],[130.559525,-26.165491],[130.560932,-26.165409],[130.561958,-26.165325],[130.562667,-26.165232],[130.563444,-26.16516],[130.564227,-26.165163],[130.565521,-26.165316],[130.570555,-26.16583],[130.570975,-26.165825],[130.571572,-26.165713],[130.573189,-26.16533],[130.573941,-26.165185],[130.574559,-26.165125],[130.57547,-26.165199],[130.576316,-26.165297],[130.576812,-26.165412],[130.577559,-26.165702],[130.580275,-26.167051],[130.581009,-26.167456],[130.582146,-26.167953],[130.583194,-26.168322],[130.584884,-26.16875],[130.586801,-26.169117],[130.587697,-26.169165],[130.588605,-26.169114],[130.590061,-26.168711],[130.592424,-26.168167],[130.593464,-26.167824],[130.595851,-26.166724],[130.597749,-26.166001],[130.603184,-26.163994],[130.607944,-26.162239],[130.612492,-26.16064],[130.614234,-26.159969],[130.614622,-26.159868],[130.615963,-26.159694],[130.617361,-26.159467],[130.61878,-26.159246],[130.620601,-26.159095],[130.621868,-26.159004],[130.624235,-26.158949],[130.638248,-26.158795],[130.641626,-26.158735],[130.643051,-26.15877],[130.651334,-26.159194],[130.658729,-26.159465],[130.662081,-26.15938],[130.672891,-26.158784],[130.674521,-26.1588],[130.680959,-26.158893],[130.684033,-26.158976],[130.687293,-26.159166],[130.691429,-26.15948],[130.693417,-26.159565],[130.695097,-26.15954],[130.697254,-26.159492],[130.700366,-26.159541],[130.701608,-26.159513],[130.704368,-26.159268],[130.706633,-26.159195],[130.708332,-26.159014],[130.709189,-26.158962],[130.71131,-26.15897],[130.712524,-26.158922],[130.715034,-26.1583],[130.715487,-26.158235],[130.715973,-26.158218],[130.719949,-26.158433],[130.721007,-26.15844],[130.7215,-26.158415],[130.723044,-26.158248],[130.72366,-26.158212],[130.724332,-26.158202],[130.725255,-26.158264],[130.726169,-26.158253],[130.726951,-26.158125],[130.727484,-26.15801],[130.728057,-26.15792],[130.728797,-26.157887],[130.729546,-26.15792],[130.731444,-26.158088],[130.732383,-26.158071],[130.73347,-26.157933],[130.736314,-26.157383],[130.738845,-26.156918],[130.740726,-26.156636],[130.742096,-26.15643],[130.742871,-26.156387],[130.744199,-26.156399],[130.745675,-26.156422],[130.75835,-26.15603],[130.760508,-26.155913],[130.7615,-26.155861],[130.762141,-26.155782],[130.762791,-26.155582],[130.7637,-26.155192],[130.765365,-26.154312],[130.767928,-26.153053],[130.768655,-26.152839],[130.769546,-26.152703],[130.770511,-26.152698],[130.771523,-26.152855],[130.774199,-26.153796],[130.774923,-26.153984],[130.775774,-26.154087],[130.776556,-26.154129],[130.777156,-26.154115],[130.777783,-26.154063],[130.778416,-26.153916],[130.781496,-26.153172],[130.785815,-26.152094],[130.792093,-26.15045],[130.794572,-26.14984],[130.795929,-26.149565],[130.797659,-26.149271],[130.79881,-26.149054],[130.799527,-26.148858],[130.805839,-26.146867],[130.807789,-26.14627],[130.808368,-26.146054],[130.812741,-26.144082],[130.814285,-26.143427],[130.816774,-26.14231],[130.819073,-26.141265],[130.822359,-26.139776],[130.824002,-26.139111],[130.825599,-26.138527],[130.839315,-26.134202],[130.844127,-26.132711],[130.848731,-26.131275],[130.852265,-26.130154],[130.852772,-26.130085],[130.853123,-26.130085],[130.854909,-26.130317],[130.856628,-26.130586],[130.85858,-26.131022],[130.859231,-26.131108],[130.859882,-26.131173],[130.889857,-26.133292],[130.893155,-26.133543],[130.893922,-26.133559],[130.898094,-26.133517],[130.898731,-26.133564],[130.902106,-26.133985],[130.902651,-26.133979],[130.905577,-26.133685],[130.906279,-26.133664],[130.907077,-26.133749],[130.909453,-26.134301],[130.912734,-26.134708],[130.913455,-26.134754],[130.914084,-26.134856],[130.914627,-26.135026],[130.91517,-26.135234],[130.919605,-26.137314],[130.922327,-26.138606],[130.923058,-26.138986],[130.924709,-26.139919],[130.926649,-26.140994],[130.928391,-26.141821],[130.931965,-26.143379],[130.933931,-26.144206],[130.937746,-26.145603],[130.94107,-26.146721],[130.942399,-26.147143],[130.944615,-26.148038],[130.945965,-26.148478],[130.94665,-26.148746],[130.948702,-26.1498],[130.950431,-26.15032],[130.950891,-26.150411],[130.952465,-26.150706],[130.952942,-26.150854],[130.953632,-26.151214],[130.955896,-26.152743],[130.957437,-26.153765],[130.96185,-26.155904],[130.962679,-26.156249],[130.963249,-26.156422],[130.964122,-26.156631],[130.964777,-26.156874],[130.965811,-26.157328],[130.967506,-26.158171],[130.969746,-26.159359],[130.970921,-26.159857],[130.972061,-26.160153],[130.973392,-26.160372],[130.975466,-26.160601],[130.976799,-26.160762],[130.978045,-26.161103],[130.981203,-26.162099],[130.982423,-26.162551],[130.985451,-26.16379],[130.986212,-26.164117],[130.98692,-26.164466],[130.989511,-26.165743],[130.991078,-26.166596],[130.993037,-26.16767],[130.995057,-26.168546],[130.999633,-26.170333],[131.00002,-26.170481]]}}]}
