{"type":"FeatureCollection","features":[{"type":"Feature","properties":{"tier":"high"},"geometry":{"type":"LineString","coordinates":[[130.732776,-31.523629],[130.692801,-31.533951],[130.691577,-31.53427],[130.655009,-31.54373],[130.630306,-31.550108],[130.628692,-31.550516],[130.62765,-31.550731],[130.626721,-31.550885],[130.625557,-31.551035],[130.624865,-31.551096],[130.624134,-31.551152],[130.623043,-31.5512],[130.618248,-31.551285],[130.617097,-31.55134],[130.599288,-31.551839],[130.597652,-31.551885],[130.58247,-31.55231]]}},{"type":"Feature","properties":{"tier":"high"},"geometry":{"type":"LineString","coordinates":[[130.732776,-31.523629],[130.739957,-31.521773],[130.741837,-31.521215],[130.743266,-31.520749],[130.74455,-31.520304],[130.746226,-31.519613],[130.747367,-31.519081],[130.749279,-31.518113],[130.783331,-31.49998]]}},{"type":"Feature","properties":{"tier":"high"},"geometry":{"type":"LineString","coordinates":[[130.49998,-31.555122],[130.502047,-31.554757],[130.50345,-31.554571],[130.504514,-31.554463],[130.505993,-31.554356],[130.50886,-31.554263],[130.517217,-31.554041],[130.571941,-31.55259],[130.58247,-31.55231]]}}]}
