{"type":"FeatureCollection","features":[{"type":"Feature","properties":{"tier":"high"},"geometry":{"type":"LineString","coordinates":[[130.783256,-31.50002],[130.789661,-31.496609],[130.850802,-31.464046],[130.861453,-31.458372],[130.862365,-31.457906],[130.863042,-31.45758],[130.863874,-31.457207],[130.864811,-31.45682],[130.865785,-31.456449],[130.866627,-31.456192],[130.867493,-31.455934],[130.86822,-31.455729],[130.869266,-31.455489],[130.870184,-31.455292],[130.871112,-31.455134],[130.877127,-31.454096],[130.878361,-31.453883],[130.884785,-31.452772],[130.894758,-31.451047],[130.89625,-31.450789],[130.896842,-31.450685],[130.897813,-31.450518],[130.898313,-31.450428],[130.909772,-31.44845],[130.916699,-31.447253],[130.920897,-31.446527],[130.92257,-31.446238],[130.923345,-31.446104],[130.924083,-31.445971],[130.924633,-31.445859],[130.925089,-31.445754],[130.925606,-31.445621],[130.926014,-31.44552],[130.926591,-31.445367],[130.926985,-31.445259],[130.927473,-31.445108],[130.927827,-31.444988],[130.928825,-31.444671],[130.930544,-31.444099],[130.934093,-31.442889],[130.935418,-31.442438],[130.98567,-31.425488],[130.985984,-31.425381],[130.990836,-31.423731],[130.99119,-31.423611],[130.992638,-31.423117],[130.999662,-31.420756],[131.00002,-31.420634]]}}]}
