{"type":"FeatureCollection","features":[{"type":"Feature","properties":{"tier":"arterial"},"geometry":{"type":"LineString","coordinates":[[131.50002,-26.374274],[131.430545,-26.341777],[131.425517,-26.339403],[131.424347,-26.33884],[131.423489,-26.338401],[131.422952,-26.338047],[131.422006,-26.337418],[131.420807,-26.336655],[131.418216,-26.334925],[131.417229,-26.334153],[131.416373,-26.333466],[131.415877,-26.333083],[131.415196,-26.332603],[131.414528,-26.332127],[131.413889,-26.331689],[131.413213,-26.331223],[131.41257,-26.330802],[131.411896,-26.330389],[131.410901,-26.329802],[131.409678,-26.329098],[131.409083,-26.328795],[131.408444,-26.328526],[131.407466,-26.32813],[131.401811,-26.32584],[131.400095,-26.325042],[131.398861,-26.324407],[131.397573,-26.323787],[131.396538,-26.323316],[131.395983,-26.323061],[131.395189,-26.322789],[131.394424,-26.322554],[131.392641,-26.321979],[131.390254,-26.321237],[131.388666,-26.320753],[131.377929,-26.317447],[131.356279,-26.310697],[131.345548,-26.307447],[131.330542,-26.302816],[131.328787,-26.302284],[131.327606,-26.302001],[131.325707,-26.301706],[131.323561,-26.301502],[131.321435,-26.301349],[131.319784,-26.30113],[131.318885,-26.300944],[131.31819,-26.300693],[131.317243,-26.300128],[131.31597,-26.299322],[131.314861,-26.298466],[131.311533,-26.295484],[131.30935,-26.293654],[131.308677,-26.293156],[131.308005,-26.292867],[131.30722,-26.292678],[131.304367,-26.292239],[131.299609,-26.291659],[131.280729,-26.289499],[131.276926,-26.289174],[131.269015,-26.288592],[131.264059,-26.288246],[131.256021,-26.287728],[131.254094,-26.287546],[131.252309,-26.287459],[131.246687,-26.287419],[131.244126,-26.287236],[131.23913,-26.286977],[131.23706,-26.286869],[131.23629,-26.286829],[131.231998,-26.286467],[131.228136,-26.286125],[131.217351,-26.285003],[131.215977,-26.284897],[131.212254,-26.284917],[131.204433,-26.284907],[131.196837,-26.284878],[131.193425,-26.284849],[131.188822,-26.285008],[131.185325,-26.2852],[131.183415,-26.285243],[131.176277,-26.284546],[131.174704,-26.284382],[131.173557,-26.284138],[131.172642,-26.283759],[131.171728,-26.283154],[131.169317,-26.281459],[131.168147,-26.280442],[131.165425,-26.277839],[131.159187,-26.27163],[131.151916,-26.26438],[131.150351,-26.262731],[131.149303,-26.261616],[131.148796,-26.261113],[131.148436,-26.260752],[131.148235,-26.260572],[131.148058,-26.260425],[131.147817,-26.260264],[131.147492,-26.260062],[131.147133,-26.259845],[131.146747,-26.259624],[131.125028,-26.246726],[131.124133,-26.246205],[131.123277,-26.245732],[131.122675,-26.245294],[131.122303,-26.244847],[131.121451,-26.24358],[131.120871,-26.242888],[131.119627,-26.241539],[131.119438,-26.241315],[131.118817,-26.240576],[131.117942,-26.239404],[131.11671,-26.237504],[131.116348,-26.236712],[131.116172,-26.235981],[131.11613,-26.235319],[131.116081,-26.23078],[131.116059,-26.229923],[131.116,-26.22943],[131.115847,-26.228704],[131.114428,-26.223247],[131.114132,-26.222108],[131.113924,-26.220599],[131.113957,-26.219687],[131.114153,-26.218866],[131.114737,-26.216531],[131.115437,-26.213714],[131.116299,-26.210771],[131.11688,-26.209261],[131.117982,-26.207072],[131.119999,-26.203188],[131.120677,-26.201813],[131.121097,-26.201013],[131.121494,-26.200472],[131.123218,-26.198687],[131.123596,-26.198323],[131.123815,-26.198008],[131.126434,-26.1926]]}},{"type":"Feature","properties":{"tier":"arterial"},"geometry":{"type":"LineString","coordinates":[[131.126434,-26.1926],[131.126826,-26.19181],[131.128746,-26.187502],[131.130749,-26.18327],[131.130913,-26.182915],[131.131101,-26.182578],[131.13137,-26.182188],[131.131606,-26.181889],[131.131879,-26.181572],[131.13255,-26.180811],[131.133043,-26.180248],[131.134298,-26.178852],[131.135278,-26.177816],[131.135496,-26.177591],[131.135748,-26.1773],[131.136004,-26.176964],[131.136407,-26.17642],[131.136761,-26.175857],[131.137147,-26.175188],[131.138762,-26.172184],[131.139979,-26.169853],[131.140543,-26.16878],[131.140988,-26.167894],[131.141334,-26.167234],[131.141573,-26.166763],[131.14176,-26.166406],[131.142055,-26.165922],[131.142216,-26.165667],[131.142314,-26.165518],[131.144295,-26.162617],[131.147323,-26.158269],[131.147798,-26.157587],[131.147886,-26.15746],[131.148707,-26.156277],[131.150088,-26.154228],[131.150206,-26.154054],[131.150602,-26.15352],[131.150866,-26.153095],[131.151098,-26.152761],[131.151946,-26.1515],[131.152233,-26.151086],[131.152763,-26.1503],[131.153133,-26.149775],[131.153248,-26.149584],[131.153925,-26.148588],[131.154447,-26.147848],[131.154694,-26.147524],[131.155039,-26.147051],[131.155681,-26.146202],[131.156431,-26.145363],[131.156702,-26.14506],[131.157948,-26.143994],[131.158269,-26.143727],[131.158586,-26.143472],[131.158967,-26.143193],[131.159431,-26.142863],[131.159873,-26.142557],[131.160209,-26.14235],[131.161398,-26.141689],[131.161952,-26.141382],[131.162545,-26.141092],[131.163004,-26.140901],[131.163597,-26.140674],[131.164574,-26.140311],[131.166113,-26.139871],[131.167188,-26.139615],[131.168004,-26.139432],[131.169016,-26.139197],[131.170134,-26.138943],[131.173465,-26.138215],[131.175473,-26.137774],[131.176685,-26.137446],[131.177393,-26.137255],[131.178171,-26.137041],[131.178633,-26.136915],[131.178929,-26.136837],[131.179564,-26.136705],[131.181332,-26.136318],[131.182659,-26.136007],[131.183254,-26.135868],[131.183807,-26.135742],[131.184212,-26.135639],[131.184499,-26.135557],[131.18481,-26.135454],[131.185161,-26.135299],[131.185486,-26.135133],[131.185848,-26.134933],[131.186234,-26.134695],[131.187031,-26.134105],[131.189289,-26.13254],[131.193259,-26.129838],[131.200823,-26.124588],[131.205747,-26.121273],[131.206005,-26.121093],[131.20822,-26.119563],[131.209368,-26.11877],[131.209894,-26.118416],[131.210304,-26.118144],[131.210641,-26.117911],[131.211013,-26.117692],[131.211552,-26.117423],[131.211788,-26.117321],[131.212004,-26.117237],[131.212265,-26.117144],[131.2125,-26.11707],[131.212763,-26.116996],[131.213043,-26.116927],[131.21334,-26.116867],[131.213608,-26.116822],[131.213835,-26.116791],[131.214183,-26.116757],[131.214526,-26.116738],[131.214998,-26.116735],[131.217914,-26.116752],[131.219094,-26.116781],[131.220312,-26.116781],[131.220993,-26.116766],[131.221674,-26.116737],[131.222543,-26.11666],[131.225461,-26.116376],[131.230297,-26.115857],[131.238432,-26.114984],[131.240326,-26.114791],[131.241399,-26.114661],[131.242118,-26.114632],[131.242314,-26.114632],[131.242571,-26.114654],[131.243008,-26.114705],[131.243502,-26.114777],[131.244889,-26.115039],[131.247418,-26.115545],[131.248099,-26.115692],[131.248802,-26.115832],[131.249228,-26.115926],[131.249587,-26.116001],[131.249733,-26.116035],[131.249898,-26.116062],[131.249995,-26.116072],[131.250138,-26.116078],[131.250359,-26.116071],[131.250489,-26.116057],[131.250622,-26.116034],[131.250732,-26.11601],[131.250855,-26.115974],[131.251012,-26.115904],[131.251237,-26.115774],[131.251476,-26.115617],[131.251811,-26.115396],[131.252049,-26.115251],[131.252458,-26.115003],[131.252941,-26.114763],[131.25337,-26.114584],[131.253724,-26.114459],[131.25418,-26.114339],[131.254563,-26.114252],[131.255167,-26.114124],[131.255639,-26.114026],[131.256052,-26.113972],[131.256497,-26.113936],[131.256808,-26.113927],[131.257211,-26.113927],[131.257611,-26.113957],[131.2583,-26.114018],[131.259576,-26.114187],[131.260727,-26.114341],[131.261363,-26.114428],[131.262052,-26.114512],[131.262814,-26.114632],[131.263506,-26.114753],[131.263916,-26.114825],[131.264088,-26.114852],[131.264302,-26.114868],[131.264501,-26.114871],[131.264689,-26.114844],[131.264847,-26.114799],[131.265043,-26.114741],[131.265217,-26.114654],[131.2654,-26.11456],[131.266529,-26.113852],[131.266865,-26.113669],[131.267095,-26.113544],[131.267905,-26.113105],[131.268186,-26.112954],[131.268661,-26.112699],[131.271754,-26.110832],[131.273438,-26.109794],[131.276981,-26.1076],[131.280164,-26.105619],[131.280442,-26.105456],[131.282087,-26.104492],[131.283535,-26.103644],[131.285294,-26.102614],[131.286594,-26.101853],[131.295403,-26.096746],[131.295636,-26.096604],[131.295818,-26.096467],[131.295982,-26.096354],[131.296172,-26.096173],[131.296339,-26.096026],[131.296449,-26.095877],[131.296569,-26.095699],[131.296773,-26.095424],[131.296961,-26.095084],[131.297117,-26.094769],[131.29732,-26.09446],[131.297516,-26.0942],[131.297723,-26.093988],[131.297878,-26.093832],[131.298074,-26.093673],[131.298439,-26.093422],[131.298922,-26.093109],[131.299453,-26.092825],[131.299952,-26.092569],[131.300767,-26.092222],[131.302757,-26.091418],[131.307521,-26.089428],[131.309007,-26.088864],[131.309651,-26.088609],[131.310241,-26.088402],[131.310761,-26.088296],[131.311383,-26.088161],[131.312698,-26.087891],[131.31354,-26.087703],[131.313931,-26.087631],[131.314478,-26.087577],[131.315055,-26.087528],[131.315538,-26.087472],[131.315981,-26.087395],[131.316487,-26.087281],[131.316799,-26.087171],[131.317086,-26.087014],[131.317306,-26.086853],[131.317486,-26.086675],[131.31778,-26.086338],[131.318148,-26.085803],[131.318727,-26.084885],[131.319221,-26.084061],[131.319521,-26.08355],[131.319768,-26.083131],[131.320041,-26.082765],[131.320342,-26.082404],[131.320626,-26.082105],[131.320948,-26.081729],[131.321318,-26.081329],[131.321737,-26.080929],[131.322032,-26.080645],[131.322278,-26.080462],[131.322643,-26.080192],[131.323046,-26.079985],[131.323426,-26.07984],[131.324,-26.079701],[131.327348,-26.078857],[131.329834,-26.07832],[131.330454,-26.07819],[131.330955,-26.078087],[131.331629,-26.077978],[131.332173,-26.077906],[131.332761,-26.077824],[131.334791,-26.077544],[131.338289,-26.077096],[131.340029,-26.076863],[131.341512,-26.076665],[131.342838,-26.07646],[131.343519,-26.076371],[131.344096,-26.076311],[131.344691,-26.076263],[131.345198,-26.076224],[131.345793,-26.076195],[131.346555,-26.076124],[131.346925,-26.076089],[131.347384,-26.07603],[131.348009,-26.075972],[131.348233,-26.075979],[131.348509,-26.076007],[131.348788,-26.076059],[131.349035,-26.076125],[131.349258,-26.076202],[131.349436,-26.076276],[131.34969,-26.076405],[131.349962,-26.076578],[131.350233,-26.076792],[131.351702,-26.078019],[131.352899,-26.078954],[131.353068,-26.079084],[131.353373,-26.079303],[131.353657,-26.079491],[131.353958,-26.079681],[131.354237,-26.079838],[131.354616,-26.080014],[131.355082,-26.080226],[131.355495,-26.080387],[131.355825,-26.08051],[131.356308,-26.080674],[131.356753,-26.080818],[131.35708,-26.080917],[131.357346,-26.080994],[131.357635,-26.081074],[131.357925,-26.081158],[131.358215,-26.081238],[131.358486,-26.081312],[131.35873,-26.081385],[131.358931,-26.081438],[131.359186,-26.081503],[131.359381,-26.081546],[131.359601,-26.081592],[131.359835,-26.081635],[131.36004,-26.081676],[131.360264,-26.081705],[131.360537,-26.081741],[131.360771,-26.081775],[131.360999,-26.081801],[131.361203,-26.081816],[131.361447,-26.081833],[131.361675,-26.081842],[131.361889,-26.081852],[131.36216,-26.08184],[131.362316,-26.081835],[131.362489,-26.081817],[131.362688,-26.081784],[131.36285,-26.081751],[131.363053,-26.081693],[131.36323,-26.081652],[131.36341,-26.081585],[131.363667,-26.081505],[131.363858,-26.08144],[131.364124,-26.08136],[131.364435,-26.081255],[131.364689,-26.081168],[131.364901,-26.081086],[131.365162,-26.080977],[131.365384,-26.080867],[131.365618,-26.080739],[131.36588,-26.080599],[131.366194,-26.080409],[131.366725,-26.080086],[131.367095,-26.079855],[131.367755,-26.079436],[131.369016,-26.078616],[131.375338,-26.074275],[131.382424,-26.069425],[131.39668,-26.059607],[131.401205,-26.056532],[131.40687,-26.052523],[131.412897,-26.048289],[131.417891,-26.044828],[131.420359,-26.043084],[131.421944,-26.041982],[131.423002,-26.041283],[131.425667,-26.039331],[131.427201,-26.038254],[131.429379,-26.036717],[131.430656,-26.03576],[131.432027,-26.034712],[131.433625,-26.033454],[131.441358,-26.027491],[131.442039,-26.026977],[131.442825,-26.026421],[131.443343,-26.026018],[131.44378,-26.025649],[131.444058,-26.025393],[131.444352,-26.025119],[131.444682,-26.024795],[131.444981,-26.02446],[131.445219,-26.02416],[131.445428,-26.023861],[131.445636,-26.023523],[131.445829,-26.023225],[131.44603,-26.022938],[131.446285,-26.022605],[131.446494,-26.022345],[131.446768,-26.022051],[131.447001,-26.021815],[131.447224,-26.021656],[131.447476,-26.021494],[131.447757,-26.02134],[131.448149,-26.021166],[131.448592,-26.020993],[131.448975,-26.020855],[131.449383,-26.020699],[131.449876,-26.020513],[131.450469,-26.02032],[131.451373,-26.020062],[131.452312,-26.019725],[131.453326,-26.019371],[131.454042,-26.019127],[131.454487,-26.018953],[131.45493,-26.01879],[131.455469,-26.018597],[131.45597,-26.018404],[131.456319,-26.0183],[131.45663,-26.018206],[131.456939,-26.018124],[131.457489,-26.017989],[131.457961,-26.017898],[131.458575,-26.017768],[131.459122,-26.01765],[131.459696,-26.017526],[131.460198,-26.017428],[131.461083,-26.017254],[131.461987,-26.017083],[131.462869,-26.016893],[131.463955,-26.016666],[131.464594,-26.016495],[131.465178,-26.016384],[131.466243,-26.016148],[131.467045,-26.015969],[131.467968,-26.015772],[131.4698,-26.015413],[131.471474,-26.015037],[131.473619,-26.014591],[131.475352,-26.014239],[131.476693,-26.013964],[131.478163,-26.013643],[131.47875,-26.013513],[131.479137,-26.013412],[131.479547,-26.013301],[131.480168,-26.01315],[131.48056,-26.013064],[131.480967,-26.012961],[131.481337,-26.012854],[131.481741,-26.012723],[131.482215,-26.012548],[131.482576,-26.0124],[131.482923,-26.012244],[131.48325,-26.012085],[131.484013,-26.011734],[131.48507,-26.011247],[131.485982,-26.01084],[131.486899,-26.01042],[131.487814,-26.009946],[131.488455,-26.009611],[131.488817,-26.009442],[131.489224,-26.009271],[131.489643,-26.009085],[131.490305,-26.008767],[131.491317,-26.008273],[131.492926,-26.007484],[131.495198,-26.006351],[131.497478,-26.005279],[131.499615,-26.004225],[131.50002,-26.004028]]}},{"type":"Feature","properties":{"tier":"regional"},"geometry":{"type":"LineString","coordinates":[[130.99998,-26.170466],[131.003695,-26.171891],[131.006481,-26.172875],[131.008064,-26.173484],[131.008779,-26.173789],[131.009701,-26.174335],[131.01228,-26.175976],[131.013396,-26.176645],[131.014186,-26.177082],[131.015931,-26.177894],[131.016715,-26.178259],[131.017447,-26.17863],[131.020478,-26.180702],[131.020613,-26.180784],[131.023771,-26.18297],[131.024324,-26.183206],[131.024742,-26.183387],[131.025296,-26.183729],[131.027852,-26.185867],[131.02868,-26.186789],[131.029281,-26.187493],[131.030552,-26.188554],[131.032172,-26.189798],[131.032891,-26.190209],[131.034166,-26.190527],[131.035088,-26.190921],[131.037451,-26.19213],[131.043977,-26.195626],[131.046822,-26.196955],[131.047955,-26.197553],[131.050424,-26.198952],[131.05251,-26.199774],[131.058758,-26.201706],[131.064692,-26.203556],[131.066922,-26.204197],[131.068062,-26.204584],[131.069343,-26.205106],[131.069884,-26.205226],[131.07101,-26.205344],[131.072387,-26.205657],[131.074212,-26.206152],[131.075691,-26.206657],[131.077339,-26.207303],[131.078188,-26.207645],[131.078512,-26.207704],[131.078803,-26.207695],[131.082694,-26.207236],[131.085469,-26.207018],[131.086077,-26.206924],[131.091636,-26.205089],[131.09469,-26.204218],[131.095628,-26.203823],[131.096852,-26.203248],[131.100751,-26.20148],[131.103272,-26.200371],[131.104625,-26.199928],[131.10699,-26.199364],[131.111142,-26.19716],[131.119119,-26.193433],[131.121584,-26.192187],[131.122239,-26.191944],[131.122317,-26.191938],[131.122825,-26.191901],[131.123716,-26.192018],[131.124574,-26.192206],[131.124684,-26.192229],[131.125205,-26.192339],[131.126434,-26.1926]]}}]}
