{"type":"FeatureCollection","features":[{"type":"Feature","properties":{"tier":"high"},"geometry":{"type":"LineString","coordinates":[[130.99998,-31.420648],[131.002451,-31.419809],[131.015809,-31.415272],[131.036696,-31.408179],[131.04649,-31.404884],[131.048237,-31.404296],[131.057211,-31.401277],[131.058822,-31.40073],[131.06036,-31.400209],[131.072418,-31.396124],[131.073611,-31.39572],[131.134429,-31.375116],[131.136077,-31.37457],[131.137329,-31.37424],[131.13854,-31.373975],[131.139456,-31.373802],[131.141129,-31.373594],[131.150727,-31.372693],[131.182256,-31.369734],[131.184014,-31.369569],[131.187389,-31.369252],[131.191459,-31.368924],[131.195786,-31.368688],[131.19836,-31.368587],[131.201231,-31.3685],[131.213417,-31.368226],[131.219587,-31.368018],[131.22716,-31.367582],[131.232117,-31.367216],[131.265923,-31.364894],[131.26687,-31.364824],[131.273091,-31.364407],[131.275677,-31.364228],[131.312555,-31.361666],[131.314745,-31.361526],[131.364121,-31.358087],[131.365458,-31.358036],[131.366564,-31.358062],[131.367598,-31.358107],[131.368597,-31.358204],[131.369839,-31.358376],[131.383487,-31.360549],[131.401169,-31.363332],[131.445559,-31.370298]]}},{"type":"Feature","properties":{"tier":"high"},"geometry":{"type":"LineString","coordinates":[[131.445559,-31.370298],[131.452371,-31.371368],[131.453713,-31.371597],[131.455181,-31.3719],[131.467902,-31.374888],[131.469227,-31.3752],[131.49522,-31.381372],[131.497272,-31.381861],[131.50002,-31.382502]]}}]}
