{"type":"FeatureCollection","features":[{"type":"Feature","properties":{"tier":"high"},"geometry":{"type":"LineString","coordinates":[[131.821734,-31.49998],[131.824603,-31.501091],[131.82756,-31.502235],[131.861389,-31.515385],[131.862149,-31.515665],[131.866651,-31.51743],[131.86801,-31.517958],[131.869596,-31.518574],[131.870265,-31.518836],[131.873241,-31.52],[131.879119,-31.522299],[131.879668,-31.522514],[131.880443,-31.522817],[131.88056,-31.522863],[131.881356,-31.523174],[131.881533,-31.523249],[131.881686,-31.523309],[131.882862,-31.523767],[131.887897,-31.525734],[131.892275,-31.527466],[131.895,-31.528536],[131.895318,-31.528661],[131.895711,-31.528815],[131.897939,-31.529689],[131.898086,-31.529747],[131.900757,-31.530798],[131.903022,-31.531689],[131.904668,-31.532389],[131.90563,-31.532815],[131.907081,-31.533519],[131.908127,-31.534044],[131.91548,-31.538235],[131.916468,-31.538736],[131.917126,-31.539052],[131.918081,-31.539446],[131.919231,-31.539886],[131.920164,-31.540192],[131.921014,-31.540422],[131.921815,-31.540618],[131.922827,-31.540824],[131.937108,-31.543416],[131.939304,-31.543899],[131.940417,-31.544176],[131.941688,-31.544538],[131.953581,-31.548104],[131.954935,-31.548526],[131.955685,-31.548817],[131.957035,-31.549393],[131.957785,-31.549776],[131.95844,-31.550135],[131.959302,-31.550689],[131.966848,-31.555893],[131.977003,-31.562959],[131.989729,-31.571776],[131.992034,-31.573387],[131.994542,-31.57523],[131.997955,-31.577786],[132.00002,-31.579342]]}},{"type":"Feature","properties":{"tier":"regional"},"geometry":{"type":"LineString","coordinates":[[131.82756,-31.502235],[131.82875,-31.49998]]}}]}
