{"type":"FeatureCollection","features":[{"type":"Feature","properties":{"tier":"arterial"},"geometry":{"type":"LineString","coordinates":[[132.00002,-26.500595],[131.998661,-26.501043],[131.977864,-26.507634],[131.96744,-26.512311],[131.963346,-26.514388],[131.960667,-26.515585],[131.957978,-26.516203],[131.955388,-26.516615],[131.954019,-26.516793],[131.953365,-26.51698],[131.952665,-26.517237],[131.950829,-26.517871],[131.948395,-26.518748],[131.944294,-26.520036],[131.937636,-26.522075],[131.932681,-26.523514],[131.92388,-26.526183],[131.912198,-26.529726],[131.911466,-26.529858],[131.910948,-26.529771],[131.908664,-26.52889],[131.908542,-26.528845],[131.908428,-26.528803],[131.894645,-26.523733],[131.893498,-26.52332],[131.891927,-26.523027],[131.890845,-26.523109],[131.890133,-26.523332],[131.889272,-26.523683],[131.888932,-26.523822],[131.887894,-26.524125],[131.887735,-26.524172],[131.884161,-26.524448],[131.882534,-26.524568],[131.882333,-26.524583],[131.881314,-26.52464],[131.880679,-26.524511],[131.879388,-26.52373],[131.878723,-26.523328],[131.877931,-26.52285],[131.877094,-26.522117],[131.875183,-26.519833],[131.875068,-26.519696],[131.875044,-26.519663],[131.874748,-26.519263],[131.873853,-26.51805],[131.873643,-26.517626],[131.87357,-26.517481],[131.873549,-26.517436],[131.871783,-26.513806],[131.869932,-26.510534],[131.868026,-26.507534],[131.86618,-26.505157],[131.865657,-26.504484],[131.863161,-26.501472],[131.86249,-26.500928],[131.860997,-26.49998]]}}]}
