{"type":"FeatureCollection","features":[{"type":"Feature","properties":{"tier":"regional"},"geometry":{"type":"LineString","coordinates":[[132.00002,-30.580753],[131.998137,-30.578237],[131.99584,-30.574106],[131.995176,-30.572658],[131.993795,-30.570212],[131.99323,-30.568779],[131.991422,-30.566232],[131.990546,-30.564476],[131.989216,-30.562498],[131.98738,-30.559945],[131.986271,-30.557877],[131.983332,-30.552248],[131.982301,-30.55003],[131.982083,-30.549464],[131.981168,-30.548041],[131.980512,-30.546673],[131.979108,-30.543556],[131.978718,-30.542316],[131.978153,-30.540829],[131.977536,-30.539869],[131.976472,-30.539036],[131.975765,-30.53836],[131.973085,-30.536293],[131.969819,-30.533932],[131.968063,-30.532957],[131.962183,-30.529571],[131.957269,-30.526754],[131.952308,-30.524637],[131.950881,-30.523986],[131.948127,-30.522906],[131.946767,-30.522081],[131.943232,-30.520137],[131.942276,-30.519735],[131.939496,-30.518455],[131.935676,-30.516769],[131.933452,-30.51605],[131.930186,-30.514642],[131.928468,-30.51396],[131.927708,-30.513575],[131.926576,-30.513046],[131.923397,-30.51202],[131.92038,-30.511237],[131.919007,-30.510759],[131.914375,-30.508764],[131.911976,-30.507983],[131.908277,-30.506451],[131.905854,-30.50555],[131.902875,-30.504177],[131.901355,-30.503516],[131.898783,-30.502637],[131.896631,-30.501792],[131.895229,-30.501362],[131.89335,-30.500931],[131.892389,-30.500569],[131.891407,-30.49998]]}}]}
