{"type":"FeatureCollection","features":[{"type":"Feature","properties":{"tier":"high"},"geometry":{"type":"LineString","coordinates":[[131.49998,-31.382493],[131.515816,-31.386188],[131.530335,-31.389531],[131.544945,-31.392915],[131.552891,-31.394735],[131.563292,-31.397154],[131.582791,-31.401654],[131.603592,-31.406454],[131.604694,-31.406727],[131.605636,-31.40699],[131.606601,-31.407287],[131.608759,-31.408077],[131.609793,-31.408521],[131.613169,-31.410075],[131.614498,-31.410687],[131.663837,-31.433626],[131.727934,-31.463379],[131.729344,-31.46401],[131.731836,-31.465041],[131.735168,-31.466348],[131.736307,-31.466795],[131.738839,-31.467788],[131.73892,-31.46782],[131.741121,-31.468659],[131.747446,-31.471119],[131.757197,-31.474935],[131.758377,-31.475378],[131.776283,-31.482338],[131.777062,-31.482641],[131.811059,-31.495853],[131.812851,-31.496542],[131.821837,-31.50002]]}},{"type":"Feature","properties":{"tier":"regional"},"geometry":{"type":"LineString","coordinates":[[131.828729,-31.50002],[131.830819,-31.496062],[131.833582,-31.490835],[131.836637,-31.485052],[131.836998,-31.484383],[131.838045,-31.482428],[131.838201,-31.481975],[131.838296,-31.481415]]}},{"type":"Feature","properties":{"tier":"regional"},"geometry":{"type":"LineString","coordinates":[[131.838296,-31.481415],[131.838282,-31.480808],[131.838094,-31.478842],[131.838094,-31.478535],[131.838173,-31.478041],[131.838261,-31.477777],[131.838416,-31.477462],[131.838615,-31.477149],[131.839047,-31.476734],[131.840146,-31.475908]]}}]}
