{"type":"FeatureCollection","features":[{"type":"Feature","properties":{"tier":"arterial"},"geometry":{"type":"LineString","coordinates":[[131.86106,-26.50002],[131.859018,-26.498722],[131.858491,-26.498387],[131.85556,-26.497252],[131.854335,-26.496558],[131.852324,-26.495268],[131.849773,-26.494324],[131.849096,-26.494073],[131.836927,-26.490194],[131.819579,-26.484184],[131.806079,-26.479507],[131.804383,-26.478919],[131.800537,-26.477621],[131.792881,-26.474334],[131.787215,-26.471902],[131.76693,-26.463487],[131.757324,-26.458657],[131.749825,-26.454935],[131.742842,-26.450687],[131.739836,-26.44885],[131.733506,-26.445334],[131.724108,-26.441694],[131.718328,-26.440326],[131.714508,-26.438846],[131.712234,-26.438039],[131.709992,-26.43728],[131.708955,-26.437018],[131.70825,-26.436756],[131.706888,-26.436362],[131.70505,-26.435848],[131.701982,-26.434662],[131.691614,-26.430768],[131.684975,-26.428271],[131.684349,-26.427995],[131.683016,-26.427331],[131.676198,-26.42409],[131.675328,-26.423812],[131.649965,-26.417116],[131.64947,-26.416999],[131.648149,-26.416802],[131.644777,-26.416522],[131.637823,-26.41607],[131.633382,-26.415865],[131.632004,-26.41584],[131.631458,-26.415765],[131.629996,-26.415401],[131.603204,-26.40789],[131.601358,-26.407325],[131.600407,-26.40707],[131.598996,-26.406896],[131.588203,-26.406049],[131.583167,-26.405624],[131.581489,-26.405389],[131.57789,-26.404537],[131.576,-26.404069],[131.574714,-26.403751],[131.572839,-26.403288],[131.568346,-26.402118],[131.561017,-26.399667],[131.558573,-26.398641],[131.547986,-26.393974],[131.538992,-26.390278],[131.538325,-26.390005],[131.537456,-26.389674],[131.53685,-26.389525],[131.535493,-26.389289],[131.532574,-26.388626],[131.532146,-26.388536],[131.530933,-26.38828],[131.529903,-26.388054],[131.529329,-26.387862],[131.528567,-26.387545],[131.527108,-26.386877],[131.523664,-26.38532],[131.518353,-26.382816],[131.51463,-26.381062],[131.507115,-26.377592],[131.49998,-26.374255]]}},{"type":"Feature","properties":{"tier":"arterial"},"geometry":{"type":"LineString","coordinates":[[131.49998,-26.004048],[131.500734,-26.00368],[131.504398,-26.001906],[131.508335,-25.99998]]}}]}
