{"type":"FeatureCollection","features":[{"type":"Feature","properties":{"tier":"regional"},"geometry":{"type":"LineString","coordinates":[[132.050995,-31.617694],[132.051228,-31.617504],[132.05174,-31.617069],[132.051963,-31.616868],[132.052766,-31.616181],[132.054293,-31.615028],[132.055198,-31.614393],[132.056458,-31.613555],[132.057575,-31.612789],[132.059423,-31.611548],[132.061141,-31.610408],[132.063623,-31.608742],[132.065443,-31.607532],[132.067288,-31.606275],[132.068279,-31.60563],[132.068874,-31.605248],[132.069707,-31.604749],[132.070604,-31.60425],[132.076502,-31.601165],[132.077358,-31.600701],[132.078004,-31.60037],[132.07861,-31.600071],[132.080093,-31.59927],[132.081015,-31.59882],[132.081947,-31.598297],[132.083715,-31.597381],[132.085093,-31.596634],[132.086505,-31.59576],[132.087168,-31.595283],[132.087287,-31.595198],[132.087483,-31.595058],[132.08841,-31.594405],[132.089322,-31.593684],[132.09054,-31.592633],[132.091394,-31.591813],[132.092138,-31.591061],[132.092781,-31.59034],[132.093459,-31.589544],[132.096232,-31.586163],[132.098268,-31.58367],[132.101837,-31.579355],[132.10477,-31.575731],[132.106054,-31.573996],[132.106879,-31.572759],[132.107572,-31.571528],[132.108419,-31.569812],[132.108951,-31.568507],[132.10944,-31.567021],[132.109747,-31.565864],[132.109951,-31.565012],[132.110163,-31.5637],[132.110309,-31.562364],[132.110382,-31.561201],[132.110411,-31.559963],[132.110382,-31.558937],[132.110301,-31.557831],[132.110119,-31.556649],[132.109929,-31.55558],[132.108988,-31.551637],[132.107718,-31.546208],[132.106281,-31.540132],[132.104682,-31.533278],[132.104521,-31.532585],[132.104358,-31.531702],[132.10427,-31.531167],[132.104189,-31.530538],[132.104144,-31.530086],[132.104098,-31.529627],[132.104042,-31.528792],[132.104009,-31.528074],[132.104053,-31.521559],[132.104234,-31.49998]]}},{"type":"Feature","properties":{"tier":"high"},"geometry":{"type":"LineString","coordinates":[[131.99998,-31.579312],[132.009438,-31.586441],[132.034943,-31.605661],[132.03657,-31.606887],[132.045342,-31.613496],[132.045899,-31.613916],[132.050995,-31.617694],[132.051715,-31.618241],[132.052622,-31.619014],[132.054433,-31.620606],[132.055396,-31.621489],[132.056456,-31.62251],[132.057851,-31.624017],[132.059409,-31.625731],[132.060359,-31.626839],[132.063356,-31.630333],[132.064347,-31.631415],[132.065473,-31.632586],[132.06666,-31.633721],[132.068065,-31.635005],[132.069606,-31.636304],[132.071647,-31.637988],[132.072592,-31.638708],[132.07726,-31.64246],[132.079222,-31.644123],[132.081684,-31.646383],[132.083327,-31.647975],[132.094924,-31.659924],[132.095854,-31.660908],[132.11803,-31.683661],[132.133869,-31.699973],[132.146436,-31.712853],[132.149275,-31.715743],[132.162522,-31.728855],[132.164655,-31.731042],[132.167433,-31.734042],[132.171683,-31.738702],[132.180749,-31.748708],[132.182922,-31.751037],[132.184593,-31.752883],[132.184625,-31.752918],[132.184889,-31.75321],[132.185457,-31.753837],[132.189291,-31.757917],[132.206448,-31.775376],[132.207174,-31.77611],[132.208027,-31.776971],[132.209992,-31.778847],[132.210637,-31.779443],[132.21623,-31.78458],[132.219254,-31.787357],[132.221466,-31.789497],[132.223368,-31.79127],[132.224077,-31.791931],[132.225242,-31.79326],[132.225705,-31.793695],[132.227853,-31.795949],[132.234635,-31.803737],[132.238342,-31.807993],[132.239963,-31.809781],[132.241454,-31.811379],[132.243914,-31.813929],[132.248126,-31.818224],[132.249295,-31.819427],[132.250138,-31.820261],[132.250567,-31.820653],[132.250893,-31.820942],[132.251588,-31.821514],[132.252163,-31.821961],[132.252865,-31.822476],[132.253521,-31.822896],[132.25404,-31.823212],[132.254693,-31.823575],[132.255607,-31.824056],[132.256522,-31.824495],[132.257306,-31.824829]]}},{"type":"Feature","properties":{"tier":"regional"},"geometry":{"type":"LineString","coordinates":[[132.257599,-31.824954],[132.257614,-31.82528]]}},{"type":"Feature","properties":{"tier":"regional"},"geometry":{"type":"LineString","coordinates":[[132.43649,-31.989413],[132.436546,-31.989345],[132.436723,-31.988802],[132.436872,-31.98834],[132.437004,-31.987941],[132.437024,-31.987881],[132.437225,-31.987273],[132.437543,-31.986382],[132.437554,-31.986246]]}},{"type":"Feature","properties":{"tier":"regional"},"geometry":{"type":"LineString","coordinates":[[132.437554,-31.986246],[132.437523,-31.986122],[132.437474,-31.986004],[132.437361,-31.98578]]}},{"type":"Feature","properties":{"tier":"regional"},"geometry":{"type":"LineString","coordinates":[[132.297168,-31.901512],[132.297377,-31.901598],[132.297769,-31.901744],[132.301997,-31.903228],[132.306655,-31.904848],[132.328995,-31.912481],[132.330662,-31.913139],[132.331766,-31.913545],[132.333361,-31.914296],[132.334825,-31.915066],[132.345696,-31.920921],[132.349968,-31.923163],[132.350999,-31.923851],[132.351471,-31.924187],[132.351851,-31.924458],[132.353034,-31.925599],[132.353742,-31.926357],[132.355026,-31.927669],[132.358148,-31.930832],[132.361065,-31.93378],[132.37458,-31.947441],[132.375587,-31.948459],[132.375847,-31.948714],[132.393537,-31.966746],[132.393983,-31.967037],[132.395421,-31.968159],[132.397965,-31.969329],[132.405889,-31.972805],[132.407973,-31.974025],[132.408408,-31.974286],[132.408613,-31.974409],[132.40883,-31.974539],[132.408975,-31.974625],[132.409267,-31.974798],[132.41011,-31.975298],[132.420207,-31.981603],[132.421989,-31.982716],[132.423193,-31.983334],[132.423859,-31.983726],[132.42449,-31.984123],[132.425739,-31.984911],[132.427211,-31.985839],[132.429311,-31.987148],[132.429556,-31.987301],[132.430983,-31.988191],[132.431693,-31.988652],[132.431958,-31.988824],[132.43263,-31.989235],[132.432829,-31.989335],[132.432901,-31.989363],[132.433023,-31.989411],[132.433253,-31.989466],[132.433501,-31.989492],[132.433888,-31.989487],[132.43449,-31.989479]]}},{"type":"Feature","properties":{"tier":"regional"},"geometry":{"type":"LineString","coordinates":[[132.257646,-31.82688],[132.257823,-31.832356]]}},{"type":"Feature","properties":{"tier":"regional"},"geometry":{"type":"LineString","coordinates":[[132.437361,-31.98578],[132.437321,-31.985727],[132.43728,-31.98567],[132.437254,-31.985633],[132.436799,-31.985046],[132.436632,-31.984801],[132.436532,-31.984655],[132.436447,-31.984522],[132.436325,-31.984253],[132.436216,-31.983937],[132.43611,-31.983664],[132.436089,-31.983576],[132.436067,-31.983486],[132.436024,-31.983204]]}},{"type":"Feature","properties":{"tier":"regional"},"geometry":{"type":"LineString","coordinates":[[132.43449,-31.989479],[132.434665,-31.989474],[132.435127,-31.989461],[132.435151,-31.98946],[132.436183,-31.989431],[132.436229,-31.989429],[132.436363,-31.989424],[132.43649,-31.989413]]}},{"type":"Feature","properties":{"tier":"regional"},"geometry":{"type":"LineString","coordinates":[[132.436028,-31.982565],[132.436118,-31.98153],[132.436196,-31.980775],[132.436201,-31.98073],[132.436211,-31.980632],[132.436588,-31.977001],[132.436597,-31.976926],[132.436727,-31.975736],[132.437126,-31.971512],[132.437188,-31.970854],[132.437354,-31.969174],[132.43776,-31.965281],[132.438113,-31.961857],[132.438707,-31.956068],[132.438832,-31.954628],[132.438916,-31.954186],[132.439007,-31.953816],[132.4391,-31.953464],[132.439199,-31.95318],[132.439323,-31.9529],[132.43947,-31.952577],[132.439677,-31.952217],[132.439842,-31.951972],[132.440014,-31.951722],[132.440179,-31.951501],[132.442122,-31.94908],[132.443845,-31.946968],[132.448413,-31.941253],[132.449678,-31.939702],[132.453759,-31.934634],[132.454095,-31.93421],[132.45449,-31.933786],[132.454917,-31.933383],[132.455284,-31.933046],[132.455717,-31.932706],[132.456152,-31.932425],[132.456576,-31.932167],[132.457057,-31.931905],[132.45898,-31.930931],[132.467816,-31.926409],[132.474858,-31.922806],[132.480065,-31.92013],[132.481198,-31.919525],[132.481634,-31.91925],[132.481928,-31.919056],[132.482253,-31.91881],[132.48263,-31.918483],[132.484972,-31.916546],[132.490205,-31.912235],[132.493296,-31.909649],[132.493617,-31.90938],[132.497372,-31.906234],[132.50002,-31.904056]]}},{"type":"Feature","properties":{"tier":"regional"},"geometry":{"type":"LineString","coordinates":[[132.436024,-31.983204],[132.43601,-31.983062],[132.436028,-31.982565]]}},{"type":"Feature","properties":{"tier":"regional"},"geometry":{"type":"LineString","coordinates":[[132.294814,-31.897619],[132.2956,-31.898435],[132.295976,-31.898815],[132.296389,-31.899503],[132.296704,-31.900176],[132.29674,-31.900251],[132.297034,-31.901174],[132.297081,-31.901404],[132.297168,-31.901512]]}},{"type":"Feature","properties":{"tier":"regional"},"geometry":{"type":"LineString","coordinates":[[132.257823,-31.832356],[132.2579,-31.836055],[132.257911,-31.836353],[132.257963,-31.836704],[132.258031,-31.837027],[132.258628,-31.839257],[132.259532,-31.842661],[132.259908,-31.844052],[132.260545,-31.845881],[132.261705,-31.849283],[132.262415,-31.851259],[132.263629,-31.854787],[132.264439,-31.857127],[132.265121,-31.859069],[132.266128,-31.861918],[132.266217,-31.862149],[132.266476,-31.862894],[132.267459,-31.865667],[132.26831,-31.868093],[132.268423,-31.86845],[132.268569,-31.868846],[132.268702,-31.869183],[132.268842,-31.86954],[132.269001,-31.869867],[132.26918,-31.870222],[132.269336,-31.870492],[132.26952,-31.87078],[132.269721,-31.871079],[132.269925,-31.871366],[132.270197,-31.871691],[132.271991,-31.873608],[132.27534,-31.877161],[132.279643,-31.881719],[132.283365,-31.885648],[132.286496,-31.888973],[132.290413,-31.893062],[132.294281,-31.897067],[132.294814,-31.897619]]}},{"type":"Feature","properties":{"tier":"high"},"geometry":{"type":"LineString","coordinates":[[132.50002,-31.824966],[132.493459,-31.824741],[132.486258,-31.824513],[132.483446,-31.824497],[132.481129,-31.824541],[132.476023,-31.824638],[132.473707,-31.824664],[132.47175,-31.824704],[132.453988,-31.825033],[132.450293,-31.825083],[132.448541,-31.825103],[132.447216,-31.825088],[132.443938,-31.825017],[132.436947,-31.824811],[132.422782,-31.824395],[132.421335,-31.824379],[132.419854,-31.824382],[132.418918,-31.824384],[132.416434,-31.824389],[132.411627,-31.824475],[132.405668,-31.824651],[132.400451,-31.824906],[132.382612,-31.825731],[132.378868,-31.825903],[132.374925,-31.826084],[132.373805,-31.826145],[132.367342,-31.826359],[132.357083,-31.826503],[132.346874,-31.826697],[132.336938,-31.82684],[132.331051,-31.826908],[132.315811,-31.826825],[132.315359,-31.826823],[132.315149,-31.826822],[132.313889,-31.82682],[132.308184,-31.826764],[132.301949,-31.82673],[132.292826,-31.826683],[132.28759,-31.826671],[132.280262,-31.826643],[132.268303,-31.826604]]}},{"type":"Feature","properties":{"tier":"regional"},"geometry":{"type":"LineString","coordinates":[[132.257614,-31.82528],[132.257646,-31.82688]]}},{"type":"Feature","properties":{"tier":"high"},"geometry":{"type":"LineString","coordinates":[[132.257306,-31.824829],[132.257599,-31.824954]]}},{"type":"Feature","properties":{"tier":"high"},"geometry":{"type":"LineString","coordinates":[[132.257599,-31.824954],[132.258041,-31.825104],[132.258633,-31.825296],[132.25957,-31.82555],[132.260667,-31.825878],[132.261698,-31.826107],[132.263127,-31.826348],[132.26424,-31.826485],[132.265292,-31.826565],[132.266402,-31.826593],[132.268303,-31.826604]]}}]}
