{"type":"FeatureCollection","features":[{"type":"Feature","properties":{"tier":"arterial"},"geometry":{"type":"LineString","coordinates":[[132.022739,-26.494752],[132.015787,-26.495915],[132.011583,-26.49678],[132.001762,-26.50002]]}},{"type":"Feature","properties":{"tier":"regional"},"geometry":{"type":"LineString","coordinates":[[132.177013,-26.263223],[132.181368,-26.260692],[132.183515,-26.259425],[132.185902,-26.258017],[132.1869,-26.257272],[132.189247,-26.255291],[132.189868,-26.254835],[132.190395,-26.254571],[132.190561,-26.25452],[132.191397,-26.254261],[132.192172,-26.254174],[132.192319,-26.254158],[132.193691,-26.254152],[132.194334,-26.254202],[132.196297,-26.254503],[132.198465,-26.25476],[132.206801,-26.255205],[132.210073,-26.25538],[132.219175,-26.256036],[132.220447,-26.256128],[132.226135,-26.256453],[132.230094,-26.256789],[132.230815,-26.256765],[132.231932,-26.256575],[132.234221,-26.255952],[132.236498,-26.25541],[132.237669,-26.255036],[132.239999,-26.254095],[132.240575,-26.253902],[132.242903,-26.253393],[132.246277,-26.252418],[132.247074,-26.252234],[132.248218,-26.252078],[132.249551,-26.251991],[132.250057,-26.251985],[132.251753,-26.251963],[132.260163,-26.251655],[132.260823,-26.251643],[132.261453,-26.25169],[132.262459,-26.251954],[132.270997,-26.255163],[132.273971,-26.256321],[132.27675,-26.257151],[132.278641,-26.257801],[132.279741,-26.257957],[132.280005,-26.257899],[132.28098,-26.257486],[132.281337,-26.257417],[132.283193,-26.257239],[132.284006,-26.257297],[132.285404,-26.257532],[132.29265,-26.259509],[132.29817,-26.261085],[132.300462,-26.261689],[132.302404,-26.262225],[132.306165,-26.263373],[132.306428,-26.263445],[132.31001,-26.26442],[132.31429,-26.265682],[132.316913,-26.266512],[132.317681,-26.266723],[132.318216,-26.26687],[132.319482,-26.267356],[132.321233,-26.268156],[132.323096,-26.269007],[132.323638,-26.269219],[132.324919,-26.269649],[132.326174,-26.270134],[132.329651,-26.27127],[132.332851,-26.272631],[132.336215,-26.274189],[132.344091,-26.277293],[132.344732,-26.277512],[132.345425,-26.277601],[132.346033,-26.277731],[132.348069,-26.278996],[132.348616,-26.279408],[132.348923,-26.279586],[132.352401,-26.281287],[132.354446,-26.282288],[132.355568,-26.282807],[132.356247,-26.282989],[132.356708,-26.283268],[132.357288,-26.283759],[132.358854,-26.285182],[132.359916,-26.286164],[132.360844,-26.286576],[132.362225,-26.287208],[132.362966,-26.287652],[132.363419,-26.28809],[132.363845,-26.288615],[132.364554,-26.289582],[132.364736,-26.289934],[132.36488,-26.290467],[132.364845,-26.292079],[132.364938,-26.2935],[132.365101,-26.294161],[132.365248,-26.294518],[132.365374,-26.294798],[132.365652,-26.295208],[132.36626,-26.295767],[132.367661,-26.296564],[132.368838,-26.297366],[132.369362,-26.297763],[132.371367,-26.299089],[132.371907,-26.299457],[132.372675,-26.299941],[132.373208,-26.300201],[132.374404,-26.30058],[132.379374,-26.301777],[132.387419,-26.30387],[132.393636,-26.305486],[132.394947,-26.305827],[132.396076,-26.306074],[132.398927,-26.306598],[132.401396,-26.30693],[132.40216,-26.306986],[132.40695,-26.306991],[132.407136,-26.307014],[132.40752,-26.307062],[132.409452,-26.307724],[132.410372,-26.308121],[132.411752,-26.308998],[132.412482,-26.309286],[132.413344,-26.309537],[132.414101,-26.309658],[132.414477,-26.309777],[132.414895,-26.309802],[132.416326,-26.309475],[132.418231,-26.309225],[132.41983,-26.30884],[132.420854,-26.308696],[132.42138,-26.308744],[132.423725,-26.309219],[132.426343,-26.309642],[132.426665,-26.309729],[132.427266,-26.310017],[132.442233,-26.319336],[132.445173,-26.321067],[132.445602,-26.321308],[132.449024,-26.322546],[132.449758,-26.322798],[132.452019,-26.323662],[132.453103,-26.324032],[132.453688,-26.324225],[132.454138,-26.324465],[132.454604,-26.324769],[132.455823,-26.325792],[132.457266,-26.327018],[132.458167,-26.327792],[132.458505,-26.328033],[132.458794,-26.328216],[132.459208,-26.328374],[132.459665,-26.328529],[132.465977,-26.328347],[132.471427,-26.329154],[132.474478,-26.330136],[132.475894,-26.331059],[132.47668,-26.331442]]}},{"type":"Feature","properties":{"tier":"regional"},"geometry":{"type":"LineString","coordinates":[[132.139665,-26.273299],[132.139647,-26.273446],[132.139566,-26.274161],[132.139537,-26.274479],[132.139526,-26.274601],[132.139486,-26.27497],[132.139301,-26.276021],[132.139214,-26.27648],[132.139033,-26.277439],[132.138999,-26.277589],[132.138987,-26.277646],[132.138874,-26.278065],[132.138772,-26.278517],[132.138692,-26.279196],[132.138676,-26.27933],[132.138645,-26.27964],[132.138573,-26.280204]]}},{"type":"Feature","properties":{"tier":"regional"},"geometry":{"type":"LineString","coordinates":[[132.044796,-26.474881],[132.044447,-26.474616],[132.04401,-26.474155],[132.043782,-26.473764],[132.041866,-26.469153],[132.041492,-26.468361],[132.041244,-26.467403],[132.041004,-26.466533],[132.040784,-26.466198],[132.040663,-26.466014],[132.040381,-26.465701],[132.040286,-26.465577],[132.040215,-26.465448],[132.040151,-26.465321]]}},{"type":"Feature","properties":{"tier":"regional"},"geometry":{"type":"LineString","coordinates":[[132.138365,-26.284575],[132.13838,-26.284691],[132.138413,-26.284949],[132.138552,-26.286001],[132.13863,-26.286379],[132.138678,-26.286965],[132.138729,-26.28766],[132.13878,-26.289072],[132.138788,-26.289685],[132.138762,-26.290156],[132.138748,-26.290417],[132.138727,-26.291607],[132.138727,-26.292316],[132.138748,-26.292825],[132.138804,-26.293377],[132.138917,-26.293776],[132.138939,-26.294083],[132.138906,-26.294293],[132.138772,-26.294528],[132.138539,-26.294759],[132.138201,-26.295033],[132.137721,-26.295348],[132.137217,-26.295695],[132.136538,-26.296077],[132.136219,-26.296301],[132.135996,-26.296543],[132.135884,-26.296726],[132.135806,-26.296931],[132.135739,-26.297303],[132.135706,-26.29771],[132.135688,-26.298251],[132.135713,-26.298977],[132.135784,-26.300347],[132.136087,-26.306227],[132.13592,-26.30962],[132.135842,-26.310188],[132.135695,-26.311249],[132.135094,-26.312913],[132.134749,-26.315382],[132.13453,-26.316301],[132.134147,-26.317142],[132.133587,-26.317906],[132.132609,-26.318964],[132.131389,-26.320726],[132.130658,-26.321511],[132.129782,-26.322126],[132.128512,-26.322724],[132.126411,-26.323477],[132.123396,-26.324335],[132.121901,-26.324772],[132.120909,-26.325156],[132.119454,-26.325643],[132.11749,-26.326081],[132.113752,-26.326799],[132.111852,-26.327229],[132.105516,-26.328615],[132.104191,-26.329038],[132.103091,-26.329504],[132.101272,-26.330355],[132.098848,-26.331475],[132.097346,-26.332168],[132.096117,-26.332783],[132.095066,-26.333336],[132.094621,-26.333543],[132.094106,-26.333783],[132.093258,-26.334264],[132.091708,-26.335499],[132.088489,-26.338105],[132.085656,-26.340394],[132.08446,-26.34136],[132.083409,-26.34222],[132.082658,-26.342989],[132.081859,-26.343922],[132.081814,-26.343971],[132.077733,-26.34846],[132.073045,-26.353748],[132.065808,-26.362155],[132.064564,-26.363669],[132.063212,-26.36525],[132.062021,-26.366485],[132.061232,-26.367216],[132.060497,-26.367898],[132.059972,-26.36847],[132.057515,-26.371613],[132.057241,-26.372128],[132.057075,-26.372695],[132.056951,-26.37355],[132.056807,-26.37541],[132.056662,-26.378625],[132.056533,-26.380264],[132.056404,-26.38161],[132.056329,-26.383249],[132.056361,-26.385055],[132.056463,-26.386632],[132.056469,-26.386677],[132.056505,-26.386968],[132.056603,-26.387751],[132.05676,-26.388773],[132.056941,-26.389948],[132.057241,-26.391889],[132.057467,-26.393412],[132.05766,-26.394344],[132.058089,-26.395675],[132.059366,-26.399414],[132.060296,-26.402306],[132.060379,-26.403058],[132.060401,-26.403572],[132.06042,-26.404027]]}},{"type":"Feature","properties":{"tier":"regional"},"geometry":{"type":"LineString","coordinates":[[132.060412,-26.404812],[132.060395,-26.405939],[132.060428,-26.407774],[132.060514,-26.409533],[132.060535,-26.41083],[132.060471,-26.411762],[132.060395,-26.413597],[132.060149,-26.417911],[132.059945,-26.423628],[132.059848,-26.42899],[132.05972,-26.433909],[132.059602,-26.435119],[132.059333,-26.436695],[132.058915,-26.438597],[132.058185,-26.441287],[132.057391,-26.443755],[132.056909,-26.445504],[132.056774,-26.446167],[132.056088,-26.449221],[132.055772,-26.450695],[132.055278,-26.453006],[132.054511,-26.456757],[132.053733,-26.460652],[132.052875,-26.464719],[132.052301,-26.467572],[132.052123,-26.468162],[132.051951,-26.468538],[132.051657,-26.468979],[132.051254,-26.469416],[132.049913,-26.470563],[132.049557,-26.470844],[132.04934,-26.471015],[132.049195,-26.47113],[132.046507,-26.473171],[132.045858,-26.473752],[132.045144,-26.474482],[132.044796,-26.474881],[132.044222,-26.475538],[132.043422,-26.476422],[132.042151,-26.477637],[132.040907,-26.478736],[132.040021,-26.479504],[132.038771,-26.480455],[132.037012,-26.481617],[132.034839,-26.483139],[132.032511,-26.484863],[132.031739,-26.485487],[132.030789,-26.486308],[132.030001,-26.487076],[132.029313,-26.487709],[132.02909,-26.487871],[132.028332,-26.488421],[132.027635,-26.488834],[132.025908,-26.489828],[132.024576,-26.490556],[132.023585,-26.491306],[132.022968,-26.492012],[132.022743,-26.492415],[132.022571,-26.49291],[132.022517,-26.493299],[132.02256,-26.493798],[132.022739,-26.494752]]}},{"type":"Feature","properties":{"tier":"regional"},"geometry":{"type":"LineString","coordinates":[[132.138573,-26.280204],[132.138527,-26.280562],[132.138482,-26.280816],[132.13845,-26.280994],[132.138367,-26.281463],[132.138357,-26.281569],[132.138362,-26.281759],[132.138373,-26.282107],[132.138382,-26.282409],[132.138386,-26.282686],[132.138343,-26.28331],[132.138327,-26.283553],[132.138308,-26.28395],[132.138365,-26.284575]]}},{"type":"Feature","properties":{"tier":"regional"},"geometry":{"type":"LineString","coordinates":[[132.47668,-26.331442],[132.477463,-26.332115],[132.479067,-26.334031],[132.479442,-26.334504],[132.479526,-26.334625],[132.479855,-26.334884],[132.48036,-26.335192],[132.481465,-26.335754],[132.482393,-26.336307],[132.482768,-26.336533],[132.48301,-26.336817],[132.483251,-26.337427],[132.48338,-26.337874],[132.483401,-26.338254],[132.483396,-26.338942],[132.483396,-26.339403],[132.48353,-26.339966],[132.483873,-26.340437],[132.48441,-26.341023],[132.485,-26.34172],[132.486212,-26.343124],[132.4875,-26.344508],[132.487838,-26.344946],[132.48817,-26.345561],[132.488499,-26.34649],[132.488616,-26.346821],[132.488894,-26.347681],[132.489415,-26.349325],[132.48971,-26.350195],[132.490005,-26.350839],[132.490246,-26.351109],[132.490675,-26.351508],[132.491443,-26.351955],[132.492161,-26.352262],[132.493089,-26.35256],[132.493814,-26.352714],[132.494549,-26.352887],[132.50002,-26.354722]]}},{"type":"Feature","properties":{"tier":"regional"},"geometry":{"type":"LineString","coordinates":[[132.139665,-26.273299],[132.139782,-26.273091],[132.139916,-26.272955],[132.140127,-26.272817],[132.140505,-26.272649],[132.140942,-26.272425],[132.141292,-26.272187],[132.142055,-26.271385],[132.143174,-26.27034],[132.143765,-26.269874],[132.143875,-26.269787],[132.14479,-26.269451],[132.14516,-26.269367],[132.146222,-26.269124],[132.146585,-26.26907],[132.148377,-26.268799],[132.149697,-26.2686],[132.151612,-26.268364],[132.151966,-26.26837],[132.152984,-26.268673],[132.153374,-26.268738],[132.155007,-26.268836],[132.15565,-26.268844],[132.157243,-26.268864],[132.157955,-26.268948],[132.15827,-26.268985],[132.158676,-26.269],[132.158821,-26.269005],[132.160026,-26.26896],[132.161586,-26.268741],[132.162327,-26.268682],[132.162608,-26.268694],[132.16338,-26.268725],[132.164587,-26.268884],[132.165279,-26.268874],[132.166156,-26.268755],[132.166741,-26.268546],[132.167725,-26.268195],[132.169241,-26.267741],[132.170053,-26.26734],[132.171659,-26.26636],[132.175238,-26.264259],[132.175518,-26.264097],[132.176598,-26.263462],[132.177013,-26.263223]]}}]}
