{"type":"FeatureCollection","features":[{"type":"Feature","properties":{"tier":"regional"},"geometry":{"type":"LineString","coordinates":[[131.99998,-25.984544],[132.000507,-25.984859],[132.003495,-25.986657],[132.004343,-25.987173],[132.006333,-25.988345],[132.007513,-25.989064],[132.008205,-25.989435],[132.008763,-25.989671],[132.009267,-25.989825],[132.010238,-25.990067],[132.01387,-25.990939],[132.01696,-25.991677],[132.020216,-25.992463],[132.023349,-25.993181],[132.025613,-25.993856],[132.026895,-25.994242],[132.028134,-25.99472],[132.031025,-25.995983],[132.033203,-25.996991],[132.034024,-25.997309],[132.034764,-25.997569],[132.03544,-25.997719],[132.036148,-25.997796],[132.037055,-25.997825],[132.08902,-25.997959],[132.103976,-25.99781]]}},{"type":"Feature","properties":{"tier":"regional"},"geometry":{"type":"LineString","coordinates":[[132.259877,-25.976275],[132.261658,-25.976024],[132.262763,-25.975899],[132.263396,-25.975947],[132.264294,-25.976163],[132.265603,-25.976771],[132.266024,-25.976921],[132.266722,-25.977037],[132.267526,-25.977008],[132.270772,-25.976709],[132.296832,-25.974532],[132.297788,-25.974481],[132.298483,-25.974529],[132.299456,-25.974754],[132.31576,-25.979596],[132.317992,-25.980522],[132.321596,-25.98546],[132.323141,-25.986695],[132.342936,-25.993686],[132.344141,-25.994098],[132.344956,-25.994252],[132.346402,-25.994352],[132.367975,-25.994999],[132.369998,-25.995067],[132.371199,-25.995081],[132.371886,-25.995038],[132.372728,-25.994946],[132.377261,-25.994305],[132.380131,-25.9939],[132.380785,-25.993809],[132.381089,-25.993767],[132.385715,-25.993124],[132.38822,-25.992752],[132.392904,-25.992092],[132.39609,-25.991634],[132.397324,-25.991446],[132.398354,-25.99132],[132.399164,-25.99119],[132.399588,-25.991113],[132.399877,-25.991026],[132.400285,-25.990852],[132.400655,-25.99066],[132.403203,-25.988958],[132.407693,-25.985934],[132.411609,-25.983287],[132.415466,-25.980731],[132.419672,-25.977915],[132.424017,-25.974939],[132.427129,-25.972846],[132.430127,-25.970816],[132.432482,-25.969263],[132.433437,-25.968646],[132.433813,-25.968332],[132.434097,-25.968028],[132.43436,-25.967633],[132.434692,-25.967102],[132.453604,-25.938078],[132.455492,-25.935917],[132.48828,-25.916619],[132.49034,-25.916002],[132.50002,-25.91388]]}},{"type":"Feature","properties":{"tier":"regional"},"geometry":{"type":"LineString","coordinates":[[132.103976,-25.99781],[132.104743,-25.997738],[132.105339,-25.997617],[132.105993,-25.9974],[132.106739,-25.99713],[132.107409,-25.996807],[132.108262,-25.996301],[132.109196,-25.995409],[132.110113,-25.994315],[132.113155,-25.990857],[132.116507,-25.987111],[132.117747,-25.985712],[132.118846,-25.98456],[132.119533,-25.983981],[132.120026,-25.983619],[132.121024,-25.983181],[132.121898,-25.982867],[132.123084,-25.982621],[132.124425,-25.982472],[132.126185,-25.982409],[132.135994,-25.982096],[132.145633,-25.981724],[132.149421,-25.981592],[132.150225,-25.98156],[132.150891,-25.981558],[132.152106,-25.981589],[132.164318,-25.982243],[132.172211,-25.982665],[132.179813,-25.983084],[132.184603,-25.983316],[132.187758,-25.983489],[132.188685,-25.983518],[132.189383,-25.983499],[132.207402,-25.981662],[132.215856,-25.980794],[132.229847,-25.979357],[132.246235,-25.977669],[132.257415,-25.97654],[132.259877,-25.976275]]}}]}
