{"type":"FeatureCollection","features":[{"type":"Feature","properties":{"tier":"regional"},"geometry":{"type":"LineString","coordinates":[[132.104234,-31.50002],[132.104294,-31.492936],[132.104371,-31.479131],[132.10483,-31.418823],[132.105038,-31.382248],[132.105304,-31.3552],[132.10548,-31.332124],[132.10549,-31.331105],[132.105485,-31.330651],[132.105473,-31.330157],[132.105413,-31.329203],[132.105313,-31.328279],[132.105177,-31.327314],[132.105043,-31.326602],[132.104919,-31.326049],[132.104756,-31.325346],[132.104606,-31.324794],[132.104313,-31.323818],[132.104041,-31.323024],[132.103641,-31.322005],[132.103342,-31.321309],[132.103006,-31.3206],[132.102623,-31.319856],[132.102389,-31.319432],[132.10219,-31.319089],[132.102029,-31.318813],[132.101589,-31.318087],[132.10112,-31.31739],[132.100575,-31.316612],[132.100025,-31.315903],[132.099368,-31.315103],[132.098739,-31.314396],[132.098119,-31.313751],[132.097169,-31.31282],[132.096399,-31.312122],[132.095572,-31.311434],[132.094526,-31.310562],[132.088269,-31.305404],[132.087724,-31.304939],[132.087163,-31.304442],[132.086679,-31.303992],[132.086101,-31.303424],[132.085591,-31.302894],[132.085101,-31.30236],[132.084593,-31.301775],[132.084174,-31.301278],[132.083368,-31.300227],[132.082917,-31.299579],[132.08283,-31.299441],[132.082517,-31.29899],[132.082206,-31.29849],[132.081914,-31.298001],[132.081469,-31.297208],[132.081138,-31.296555],[132.080869,-31.296001],[132.0806,-31.295412],[132.080319,-31.294731],[132.079952,-31.293772],[132.079601,-31.292698],[132.079356,-31.29184],[132.079177,-31.291138]]}},{"type":"Feature","properties":{"tier":"regional"},"geometry":{"type":"LineString","coordinates":[[132.078271,-31.123541],[132.07855,-31.121147],[132.078989,-31.117947],[132.079198,-31.116684],[132.079343,-31.115605],[132.079488,-31.114428],[132.079861,-31.111389],[132.079962,-31.110532],[132.080071,-31.109599],[132.080253,-31.107674],[132.080425,-31.105885],[132.080594,-31.104061],[132.080648,-31.103176],[132.080672,-31.102335],[132.080666,-31.101406],[132.080658,-31.100435],[132.080641,-31.099396],[132.080602,-31.098153],[132.0806,-31.097054],[132.080624,-31.096298],[132.080692,-31.095253],[132.080781,-31.094377],[132.080916,-31.093374],[132.080957,-31.093071],[132.081101,-31.091986],[132.081569,-31.088477],[132.081791,-31.086584],[132.082909,-31.07408],[132.083889,-31.063104],[132.084631,-31.0548],[132.085294,-31.047377],[132.085473,-31.045375],[132.085573,-31.044253],[132.085633,-31.043584],[132.085772,-31.041888],[132.085796,-31.041601],[132.085919,-31.04026],[132.08597,-31.039663],[132.086002,-31.039068],[132.08601,-31.038856],[132.086032,-31.038195],[132.086044,-31.037628],[132.086046,-31.0367],[132.086015,-31.035375],[132.085962,-31.032929],[132.085907,-31.030756],[132.085768,-31.02528],[132.085612,-31.018689],[132.085566,-31.011892],[132.085699,-30.99998]]}},{"type":"Feature","properties":{"tier":"regional"},"geometry":{"type":"LineString","coordinates":[[132.079177,-31.291138],[132.079031,-31.290447],[132.078898,-31.289707],[132.078708,-31.28836],[132.078629,-31.28737],[132.078527,-31.285921],[132.078433,-31.285054],[132.078359,-31.284412],[132.078252,-31.283497],[132.078192,-31.282686],[132.078144,-31.281879],[132.078123,-31.28126],[132.078122,-31.280589],[132.078238,-31.277201],[132.078286,-31.276153],[132.078326,-31.275584],[132.07838,-31.275006],[132.078484,-31.274212],[132.078626,-31.273314],[132.07873,-31.272683],[132.078776,-31.272456],[132.078839,-31.27214],[132.078982,-31.271499],[132.07929,-31.270137],[132.079611,-31.268715],[132.079816,-31.26781],[132.080778,-31.263562],[132.080923,-31.262749],[132.081018,-31.262075],[132.081169,-31.260728],[132.081239,-31.259713],[132.081504,-31.254884],[132.081591,-31.253259],[132.081605,-31.252365],[132.081603,-31.251534],[132.081557,-31.250518],[132.081484,-31.249451],[132.081424,-31.248549],[132.081381,-31.247912],[132.081344,-31.247347],[132.081312,-31.246923],[132.081037,-31.243151],[132.080904,-31.241469],[132.080806,-31.24022],[132.08071,-31.239293],[132.080641,-31.238685],[132.080525,-31.237668],[132.080032,-31.233746],[132.080003,-31.232977],[132.079886,-31.22988],[132.080798,-31.215292],[132.080901,-31.208233],[132.080923,-31.207781],[132.08094,-31.207418],[132.080985,-31.206463],[132.081032,-31.205473],[132.081269,-31.200481],[132.081238,-31.198463],[132.08141,-31.194482],[132.081412,-31.193433],[132.081419,-31.190907],[132.081354,-31.188692],[132.081179,-31.187292],[132.08112,-31.186821],[132.080414,-31.183246],[132.07998,-31.18105],[132.079925,-31.180773],[132.079539,-31.178822],[132.078972,-31.176047],[132.078626,-31.174356],[132.077611,-31.169385],[132.077548,-31.168669],[132.077303,-31.166542],[132.077238,-31.165125],[132.077271,-31.163284],[132.077421,-31.161798],[132.077742,-31.158615],[132.078351,-31.153382],[132.078571,-31.151486],[132.078639,-31.150752],[132.078692,-31.150095],[132.07872,-31.149483],[132.078727,-31.148295],[132.078664,-31.14702],[132.078589,-31.146177],[132.078404,-31.144156],[132.078126,-31.140886],[132.078058,-31.140208],[132.077695,-31.136575],[132.077592,-31.135379],[132.077563,-31.134871],[132.07755,-31.134305],[132.077539,-31.133657],[132.077553,-31.13312],[132.077589,-31.132268],[132.077665,-31.131088],[132.07778,-31.12943],[132.077895,-31.127664],[132.078052,-31.125702],[132.078271,-31.123541]]}}]}
