{"type":"FeatureCollection","features":[{"type":"Feature","properties":{"tier":"regional"},"geometry":{"type":"LineString","coordinates":[[132.099256,-30.928113],[132.098885,-30.927846],[132.098673,-30.927709],[132.098422,-30.927608],[132.098151,-30.927546],[132.0971,-30.927337],[132.097177,-30.926896],[132.097296,-30.926256],[132.097495,-30.925702],[132.097609,-30.925311],[132.097648,-30.924864],[132.097663,-30.92342],[132.0977,-30.922904],[132.097689,-30.922642],[132.097618,-30.922326],[132.097453,-30.921775],[132.097359,-30.921219],[132.097313,-30.920625],[132.097303,-30.920507],[132.097312,-30.920261],[132.097334,-30.919644],[132.097415,-30.918896],[132.097679,-30.917593],[132.097765,-30.917073],[132.097874,-30.916206],[132.097976,-30.915793],[132.098195,-30.915078],[132.098276,-30.914674],[132.098372,-30.913969],[132.098351,-30.913531],[132.098169,-30.912802],[132.097909,-30.911718],[132.097645,-30.911107],[132.097134,-30.909922],[132.096976,-30.909477],[132.096909,-30.90907],[132.096962,-30.90852],[132.096983,-30.907834],[132.096948,-30.907196],[132.096865,-30.906704],[132.096708,-30.906081],[132.096589,-30.905479],[132.096459,-30.90511],[132.096185,-30.904848],[132.095636,-30.904503],[132.094788,-30.904212],[132.093773,-30.90395],[132.093295,-30.903887],[132.092941,-30.903912],[132.092449,-30.903927],[132.092216,-30.903889],[132.091978,-30.903789],[132.091803,-30.903615],[132.091619,-30.903286],[132.091493,-30.902854],[132.091494,-30.902581],[132.091469,-30.902336],[132.09143,-30.901907],[132.091411,-30.901432],[132.091438,-30.90114],[132.091428,-30.900899],[132.091428,-30.900629],[132.091368,-30.900423],[132.091154,-30.900153],[132.090609,-30.899594],[132.090492,-30.899426],[132.090424,-30.899239],[132.090394,-30.898912],[132.09044,-30.898595],[132.090464,-30.898421],[132.090486,-30.898317],[132.090511,-30.898199],[132.090586,-30.897844],[132.090717,-30.897221],[132.090834,-30.896599],[132.090968,-30.896184],[132.091229,-30.895372],[132.091427,-30.894782],[132.091469,-30.894655],[132.091829,-30.893977],[132.09208,-30.893396],[132.092152,-30.892844],[132.09218,-30.891941],[132.09214,-30.88751],[132.092143,-30.887197],[132.092177,-30.883919],[132.09218,-30.883615],[132.092242,-30.879903],[132.092242,-30.879356],[132.092242,-30.879101],[132.092247,-30.874929],[132.09225,-30.871544],[132.092294,-30.869619],[132.09236,-30.863684],[132.092347,-30.860038],[132.092343,-30.858774],[132.092341,-30.858308],[132.092335,-30.856493],[132.092333,-30.855933],[132.092332,-30.855532],[132.092371,-30.854357],[132.092386,-30.851206],[132.092389,-30.850689],[132.092379,-30.849803],[132.092402,-30.846608],[132.092307,-30.84231],[132.092281,-30.841098],[132.092262,-30.840273],[132.092128,-30.834356],[132.092124,-30.83419],[132.092065,-30.831565],[132.092037,-30.830336],[132.092019,-30.829541],[132.092011,-30.829191],[132.091887,-30.823731],[132.091852,-30.822181],[132.09181,-30.820324],[132.091786,-30.819249],[132.091647,-30.816906],[132.091574,-30.812369],[132.091571,-30.812159],[132.091505,-30.810087],[132.091439,-30.803923],[132.091368,-30.799812],[132.091329,-30.797526],[132.09132,-30.796973],[132.091269,-30.794024],[132.091195,-30.789711],[132.091169,-30.7882],[132.091134,-30.786166],[132.091125,-30.785754],[132.09111,-30.785139],[132.091121,-30.785027],[132.091171,-30.784514],[132.091127,-30.782153],[132.091088,-30.780088],[132.091028,-30.77688],[132.091001,-30.775424],[132.090993,-30.775],[132.090933,-30.771814],[132.090982,-30.771351],[132.09124,-30.768922],[132.091358,-30.767925],[132.091386,-30.767684],[132.091629,-30.765643],[132.091725,-30.764826],[132.091797,-30.764223],[132.091822,-30.764079],[132.091944,-30.763746],[132.092069,-30.763495],[132.092471,-30.762652],[132.092995,-30.762052],[132.093548,-30.761599],[132.093698,-30.761262],[132.093749,-30.761147],[132.09374,-30.760473],[132.093544,-30.759967],[132.093161,-30.759518],[132.092404,-30.758916],[132.091129,-30.758259],[132.089612,-30.757583],[132.088855,-30.757222],[132.088519,-30.757029],[132.087211,-30.754967],[132.086006,-30.753394],[132.083596,-30.750773],[132.08269,-30.749674],[132.081808,-30.747805],[132.080652,-30.74555],[132.080171,-30.744845],[132.079458,-30.74444],[132.076832,-30.741956],[132.073615,-30.738518],[132.072847,-30.737439],[132.070696,-30.735573],[132.0693,-30.733902],[132.068496,-30.732648],[132.06825,-30.731853],[132.067785,-30.731012],[132.067507,-30.730141],[132.067239,-30.729534],[132.066978,-30.728775],[132.066241,-30.727242],[132.065922,-30.726098],[132.065713,-30.725339],[132.065114,-30.724361],[132.064909,-30.723772],[132.064577,-30.7226],[132.064275,-30.721374],[132.063582,-30.719384],[132.063258,-30.71862],[132.062836,-30.717745],[132.062703,-30.717179],[132.062521,-30.716055],[132.06224,-30.71536],[132.062092,-30.714687],[132.061647,-30.713064],[132.061249,-30.712329],[132.060708,-30.710852],[132.060232,-30.709634],[132.059953,-30.709297],[132.058197,-30.706323],[132.057309,-30.704511],[132.057022,-30.703286],[132.056337,-30.701274],[132.056312,-30.700983],[132.056147,-30.700452],[132.055761,-30.699902],[132.055374,-30.698941],[132.055204,-30.697847],[132.054746,-30.696041],[132.054099,-30.694295],[132.053591,-30.693251],[132.053213,-30.69164],[132.050623,-30.684448],[132.050318,-30.683539],[132.049924,-30.681208],[132.049244,-30.679273],[132.048939,-30.678349],[132.045952,-30.672773],[132.045681,-30.672134],[132.045371,-30.671544],[132.044813,-30.670479],[132.044542,-30.669698],[132.043089,-30.666717],[132.042408,-30.665196],[132.041604,-30.663504],[132.040939,-30.662386],[132.040267,-30.660952],[132.039905,-30.660079],[132.039211,-30.658844],[132.038083,-30.656518],[132.03772,-30.65554],[132.037248,-30.654638],[132.036718,-30.653331],[132.036619,-30.652861],[132.036435,-30.652292],[132.035633,-30.65066],[132.035171,-30.649782],[132.034311,-30.648459],[132.033463,-30.646903],[132.033018,-30.645417],[132.031981,-30.643308],[132.031599,-30.642378],[132.031156,-30.641599],[132.030877,-30.641109],[132.030698,-30.64052],[132.029289,-30.637409],[132.02869,-30.635359],[132.027985,-30.633476],[132.026405,-30.63129],[132.024831,-30.62838],[132.024495,-30.627572],[132.023886,-30.626212],[132.023618,-30.624958],[132.019843,-30.616089],[132.019321,-30.615038],[132.018951,-30.61418],[132.017911,-30.612512],[132.016226,-30.60912],[132.014447,-30.60678],[132.013918,-30.60532],[132.013501,-30.60454],[132.013276,-30.603814],[132.01054,-30.598205],[132.010177,-30.596808],[132.009425,-30.595422],[132.009256,-30.594766],[132.008841,-30.59381],[132.007836,-30.592534],[132.007267,-30.591249],[132.006549,-30.590338],[132.005664,-30.588994],[132.003866,-30.586328],[132.002615,-30.584222],[131.99998,-30.5807]]}},{"type":"Feature","properties":{"tier":"regional"},"geometry":{"type":"LineString","coordinates":[[132.085698,-31.00002],[132.085699,-30.999938],[132.0858,-30.992013],[132.085899,-30.984136],[132.086035,-30.973807],[132.08612,-30.972055],[132.08622,-30.970513],[132.086364,-30.969259],[132.086494,-30.968397],[132.086657,-30.967415],[132.086807,-30.966611],[132.086952,-30.965961],[132.087093,-30.965342],[132.087212,-30.964823],[132.087384,-30.964173],[132.087496,-30.963792],[132.087822,-30.962685],[132.088171,-30.961574],[132.089165,-30.958222],[132.09081,-30.952957],[132.091065,-30.952048],[132.09121,-30.951421],[132.09146,-30.950153],[132.091579,-30.949238],[132.091722,-30.948073],[132.091849,-30.946944],[132.092134,-30.944615],[132.092494,-30.941605],[132.092598,-30.941008],[132.09278,-30.940083],[132.093063,-30.938959],[132.093378,-30.937854],[132.093724,-30.936905],[132.094188,-30.935761],[132.094652,-30.934705],[132.095394,-30.933309],[132.095808,-30.932587],[132.096184,-30.932018],[132.096544,-30.931455],[132.096894,-30.930938],[132.097628,-30.929967],[132.098082,-30.929408],[132.098679,-30.928713],[132.099031,-30.928328],[132.099256,-30.928113],[132.100169,-30.927153],[132.10106,-30.926319],[132.101804,-30.925689],[132.102921,-30.924791],[132.104577,-30.923537],[132.105681,-30.922721],[132.106033,-30.92248],[132.106548,-30.922126],[132.107537,-30.92151],[132.109056,-30.920685],[132.110233,-30.920099],[132.111124,-30.919687],[132.112612,-30.91911],[132.115778,-30.917968],[132.118615,-30.916896],[132.119385,-30.916567],[132.119986,-30.916279],[132.120799,-30.915908],[132.128344,-30.912034],[132.138543,-30.906788],[132.13995,-30.906073],[132.143515,-30.90472],[132.15165,-30.901688],[132.156133,-30.900015],[132.158858,-30.898998],[132.167144,-30.895911],[132.175257,-30.892703],[132.176328,-30.892282],[132.178081,-30.891593],[132.179946,-30.890864],[132.1814,-30.890405],[132.18262,-30.890075],[132.184055,-30.889761],[132.185193,-30.889589],[132.186418,-30.889436],[132.188118,-30.889334],[132.18986,-30.889326]]}}]}
