{"type":"FeatureCollection","features":[{"type":"Feature","properties":{"tier":"regional"},"geometry":{"type":"LineString","coordinates":[[132.742294,-26.49998],[132.754762,-26.50811],[132.764432,-26.514513],[132.77368,-26.521273],[132.784709,-26.525458],[132.802871,-26.534571],[132.805051,-26.534673],[132.806768,-26.535671],[132.808184,-26.537015],[132.808021,-26.537989],[132.808828,-26.538896],[132.825136,-26.562544],[132.825479,-26.563389],[132.825007,-26.564349],[132.822775,-26.566153],[132.820286,-26.568456],[132.819951,-26.569544],[132.820681,-26.570465],[132.822956,-26.572845],[132.83009,-26.57519],[132.836911,-26.577351],[132.839808,-26.578233],[132.840925,-26.578599],[132.870368,-26.587914],[132.911696,-26.611399],[132.941694,-26.628395],[132.960122,-26.638827],[132.969546,-26.644161],[132.994522,-26.658391],[132.999895,-26.661473],[133.00002,-26.661544]]}}]}
