{"type":"FeatureCollection","features":[{"type":"Feature","properties":{"tier":"regional"},"geometry":{"type":"LineString","coordinates":[[132.500913,-31.903353],[132.50216,-31.902309],[132.50299,-31.90162],[132.503575,-31.901051]]}},{"type":"Feature","properties":{"tier":"regional"},"geometry":{"type":"LineString","coordinates":[[132.49998,-31.904089],[132.50034,-31.903793],[132.500412,-31.903738]]}},{"type":"Feature","properties":{"tier":"high"},"geometry":{"type":"LineString","coordinates":[[132.998725,-31.927076],[132.99543,-31.926748],[132.995243,-31.926728],[132.99456,-31.926656],[132.993605,-31.926514],[132.992408,-31.926275],[132.991024,-31.925886],[132.989947,-31.925517],[132.989343,-31.925276],[132.988502,-31.9249],[132.987845,-31.924579],[132.987095,-31.924178],[132.986345,-31.923746],[132.98024,-31.920116],[132.977801,-31.918661],[132.975649,-31.917477],[132.967624,-31.913398],[132.965202,-31.912163],[132.964951,-31.912046],[132.963643,-31.911434],[132.95505,-31.907093],[132.94374,-31.901411],[132.942365,-31.900741],[132.940899,-31.900026],[132.939181,-31.899258],[132.937608,-31.898576],[132.935888,-31.897844],[132.934564,-31.897314],[132.933074,-31.89668],[132.931279,-31.895887],[132.929635,-31.895141],[132.92793,-31.894322],[132.922205,-31.891427],[132.919664,-31.890142],[132.916456,-31.888533],[132.908271,-31.884406],[132.907239,-31.883884],[132.905978,-31.883247],[132.899176,-31.879801],[132.886756,-31.873564],[132.884354,-31.872349],[132.883991,-31.872166],[132.883517,-31.871927],[132.882907,-31.871619],[132.882553,-31.87144],[132.882019,-31.87117],[132.881715,-31.871016],[132.879497,-31.869894],[132.864561,-31.862327],[132.862933,-31.861516],[132.862384,-31.861243],[132.845779,-31.852852],[132.843451,-31.851672],[132.841873,-31.850803],[132.841845,-31.850788],[132.840825,-31.850281],[132.839559,-31.849543],[132.826818,-31.842367],[132.826006,-31.841919],[132.825408,-31.84161],[132.82486,-31.841315],[132.824074,-31.840938],[132.823253,-31.840555],[132.822855,-31.840359],[132.822609,-31.840238],[132.822358,-31.840125],[132.821909,-31.839924],[132.821858,-31.839901],[132.821201,-31.839628],[132.821012,-31.839551],[132.820134,-31.839202],[132.819137,-31.838813],[132.817272,-31.838187],[132.816585,-31.837942],[132.815744,-31.83771],[132.815023,-31.837501],[132.814,-31.837213],[132.812858,-31.836948],[132.811857,-31.836706],[132.81105,-31.836538],[132.81016,-31.836346],[132.791683,-31.83252],[132.78944,-31.832054],[132.784286,-31.830958],[132.78243,-31.830572],[132.781096,-31.830318],[132.77976,-31.830116],[132.778412,-31.829914],[132.777227,-31.829787],[132.776573,-31.829736],[132.774831,-31.829585],[132.773922,-31.829525],[132.773077,-31.829497],[132.772324,-31.82948],[132.771683,-31.829473],[132.77117,-31.829466],[132.770518,-31.829473],[132.7696,-31.82949],[132.769019,-31.829516],[132.768356,-31.829536],[132.767512,-31.829576],[132.766788,-31.829626],[132.766076,-31.829682],[132.765144,-31.829774],[132.764142,-31.829887],[132.743533,-31.832203],[132.735914,-31.833049],[132.708427,-31.836194],[132.694495,-31.837769],[132.682225,-31.839156],[132.680891,-31.839317],[132.679957,-31.839381],[132.679617,-31.839404],[132.67828,-31.839539],[132.67742,-31.839619],[132.67692,-31.839632],[132.676449,-31.839664],[132.67537,-31.83972],[132.674204,-31.839772],[132.672305,-31.839823],[132.671196,-31.839863],[132.669311,-31.839829],[132.668971,-31.839823],[132.667327,-31.839823],[132.667036,-31.839813]]}},{"type":"Feature","properties":{"tier":"high"},"geometry":{"type":"LineString","coordinates":[[133.00002,-31.927212],[132.998725,-31.927076]]}},{"type":"Feature","properties":{"tier":"regional"},"geometry":{"type":"LineString","coordinates":[[132.503575,-31.901051],[132.503674,-31.900931],[132.5039,-31.900657],[132.504788,-31.899451],[132.506774,-31.896691],[132.507534,-31.895661],[132.507962,-31.894998],[132.50823,-31.894285],[132.508865,-31.892501],[132.509269,-31.891489],[132.509476,-31.890978],[132.509887,-31.890183],[132.510096,-31.889659],[132.510353,-31.888936],[132.510625,-31.888102],[132.512227,-31.881547],[132.512961,-31.878378],[132.513598,-31.874994],[132.513857,-31.873936],[132.517664,-31.858312],[132.518173,-31.856207],[132.518312,-31.855691],[132.518505,-31.855286],[132.518808,-31.854811],[132.519093,-31.854395],[132.519297,-31.854111],[132.519557,-31.853854],[132.522168,-31.85151],[132.529229,-31.84523],[132.53272,-31.842062],[132.533182,-31.841551],[132.533503,-31.841111],[132.533772,-31.840712],[132.534151,-31.840052],[132.53537,-31.837361],[132.535604,-31.836872],[132.535896,-31.836344],[132.536177,-31.835906],[132.536452,-31.835565],[132.536773,-31.835202],[132.53729,-31.834716],[132.538086,-31.834114],[132.539149,-31.833357],[132.542159,-31.831212],[132.54269,-31.830849],[132.543106,-31.830646],[132.543555,-31.830483],[132.544076,-31.830353],[132.544564,-31.830275],[132.545107,-31.830258],[132.545665,-31.830295],[132.546186,-31.830395],[132.546696,-31.830551],[132.547707,-31.830943],[132.548063,-31.83108],[132.548395,-31.831162],[132.548812,-31.83122],[132.549215,-31.831218],[132.549743,-31.83115],[132.550182,-31.831014],[132.550552,-31.830809],[132.550898,-31.830548],[132.551217,-31.830237],[132.551382,-31.830012],[132.551936,-31.82909]]}},{"type":"Feature","properties":{"tier":"high"},"geometry":{"type":"LineString","coordinates":[[132.551936,-31.82909],[132.550635,-31.82875],[132.549249,-31.8284],[132.547943,-31.828104],[132.546386,-31.827777],[132.54492,-31.8275],[132.543606,-31.827273],[132.54224,-31.827072],[132.54081,-31.826902],[132.539641,-31.826782],[132.538399,-31.826675],[132.537341,-31.82658],[132.537146,-31.826563],[132.536771,-31.826539],[132.5363,-31.82651],[132.535902,-31.826484],[132.535563,-31.826463],[132.534348,-31.826366],[132.530645,-31.8261],[132.529258,-31.826006],[132.527633,-31.825931],[132.526454,-31.825872],[132.49998,-31.824965]]}},{"type":"Feature","properties":{"tier":"high"},"geometry":{"type":"LineString","coordinates":[[132.667036,-31.839813],[132.665641,-31.839764],[132.664374,-31.839706],[132.663032,-31.83965],[132.661807,-31.839587],[132.645619,-31.838498],[132.643522,-31.838392],[132.641169,-31.838244],[132.639483,-31.838208],[132.638349,-31.83822],[132.637295,-31.838237],[132.636075,-31.83831],[132.634646,-31.838464],[132.633581,-31.838586],[132.632634,-31.838725],[132.631602,-31.838883],[132.628307,-31.839442],[132.625583,-31.839904],[132.623281,-31.840295],[132.623111,-31.840324],[132.621409,-31.840612],[132.620319,-31.840792],[132.619426,-31.840911],[132.618569,-31.841012],[132.617606,-31.841073],[132.616572,-31.841154],[132.615715,-31.84118],[132.615117,-31.84119],[132.614366,-31.841155],[132.614167,-31.841146],[132.613203,-31.84109],[132.612651,-31.841055],[132.612004,-31.840968],[132.611748,-31.840934],[132.611183,-31.840849],[132.610544,-31.840757],[132.609931,-31.840653],[132.607757,-31.840118],[132.604129,-31.839207],[132.601815,-31.838609],[132.599981,-31.838199],[132.598617,-31.837938],[132.597463,-31.837734],[132.596407,-31.837565],[132.594998,-31.837387],[132.59442,-31.837305],[132.593368,-31.837185],[132.593009,-31.837142],[132.590905,-31.836891],[132.590855,-31.836885],[132.578703,-31.835432],[132.577121,-31.835258],[132.57517,-31.834964],[132.573442,-31.834636],[132.571955,-31.83428],[132.570144,-31.833855],[132.551936,-31.82909]]}},{"type":"Feature","properties":{"tier":"regional"},"geometry":{"type":"LineString","coordinates":[[132.500412,-31.903738],[132.500913,-31.903353]]}}]}
