{"type":"FeatureCollection","features":[{"type":"Feature","properties":{"tier":"regional"},"geometry":{"type":"LineString","coordinates":[[132.49998,-26.354709],[132.50061,-26.35492],[132.503078,-26.355718],[132.503976,-26.356002],[132.504652,-26.356286],[132.506356,-26.357117],[132.509885,-26.359011],[132.512772,-26.360477],[132.52417,-26.366496],[132.532732,-26.370705],[132.541208,-26.375147],[132.554469,-26.382145],[132.56494,-26.38522],[132.566099,-26.385605],[132.582192,-26.403365],[132.584861,-26.407376],[132.632102,-26.430884],[132.638276,-26.433996],[132.64089,-26.435313],[132.649663,-26.439735],[132.684417,-26.457852],[132.694835,-26.463235],[132.701848,-26.466878],[132.705311,-26.468643],[132.713092,-26.472146],[132.713425,-26.472319],[132.713806,-26.47258],[132.714047,-26.472808],[132.714372,-26.473132],[132.725937,-26.489454],[132.741393,-26.499393],[132.742355,-26.50002]]}}]}
