{"type":"FeatureCollection","features":[{"type":"Feature","properties":{"tier":"regional"},"geometry":{"type":"LineString","coordinates":[[132.49998,-25.913888],[132.510767,-25.911524],[132.512827,-25.911678],[132.566843,-25.927403],[132.568046,-25.927774],[132.569014,-25.928109],[132.569988,-25.92842],[132.571019,-25.928638],[132.571672,-25.928728],[132.572161,-25.92874],[132.572597,-25.928713],[132.573066,-25.928654],[132.573588,-25.928571],[132.573826,-25.928522],[132.591088,-25.924605],[132.595725,-25.923547],[132.597901,-25.923051],[132.59919,-25.922761],[132.599813,-25.922636],[132.600318,-25.922559],[132.600809,-25.922512],[132.603777,-25.922393],[132.610507,-25.922171],[132.61633,-25.921966],[132.618754,-25.921889],[132.621168,-25.921806],[132.623677,-25.921729],[132.625332,-25.921657],[132.625979,-25.921655],[132.626239,-25.921669],[132.626724,-25.92172],[132.627443,-25.921838],[132.62859,-25.922061],[132.636951,-25.923829],[132.647644,-25.926089],[132.669397,-25.930685],[132.669748,-25.930786],[132.670051,-25.9309],[132.670309,-25.93101],[132.670615,-25.931187],[132.687838,-25.942241],[132.689218,-25.943046],[132.693505,-25.945607],[132.69494,-25.946276],[132.698275,-25.947761],[132.703037,-25.949682],[132.703677,-25.949937],[132.704455,-25.950246],[132.704851,-25.950406],[132.705212,-25.950594],[132.705567,-25.950804],[132.706373,-25.951412],[132.706905,-25.951751],[132.707376,-25.952003],[132.707707,-25.952129],[132.708779,-25.952443],[132.710435,-25.952867],[132.712002,-25.953273],[132.71258,-25.953382],[132.71348,-25.953496],[132.714944,-25.95363],[132.716231,-25.953777],[132.7177,-25.953932],[132.719267,-25.954137],[132.720923,-25.954301],[132.721482,-25.954338],[132.722009,-25.95433],[132.722644,-25.954288],[132.725446,-25.953915],[132.730845,-25.953264],[132.7344,-25.952837],[132.736625,-25.952568],[132.737417,-25.952522],[132.738051,-25.952522],[132.738633,-25.952567],[132.743077,-25.953119],[132.748689,-25.953814],[132.75143,-25.954152],[132.752381,-25.954235],[132.753015,-25.954241],[132.753549,-25.954206],[132.755379,-25.954033],[132.758575,-25.953725],[132.759492,-25.953624],[132.761869,-25.95319],[132.763619,-25.952941],[132.76568,-25.95265],[132.767614,-25.952407],[132.769219,-25.95224],[132.770698,-25.952116],[132.772719,-25.951955],[132.775142,-25.951753],[132.77742,-25.95151],[132.777849,-25.951439],[132.778199,-25.951302],[132.778549,-25.951089],[132.779546,-25.950382],[132.780603,-25.949652],[132.781765,-25.94885],[132.782287,-25.948541],[132.782564,-25.948393],[132.78296,-25.94825],[132.783508,-25.94809],[132.784122,-25.947959],[132.784961,-25.947876],[132.804157,-25.946754],[132.8052,-25.94673],[132.806217,-25.94676],[132.806917,-25.946837],[132.807676,-25.946944],[132.808568,-25.947128],[132.812259,-25.948007],[132.824805,-25.951059],[132.830523,-25.95243],[132.839642,-25.95465],[132.844081,-25.955731],[132.844984,-25.955951],[132.853947,-25.958133],[132.866201,-25.961116],[132.866218,-25.96112],[132.877895,-25.964008],[132.884188,-25.965694],[132.892006,-25.967736],[132.894093,-25.968306],[132.896377,-25.968846],[132.899032,-25.969511],[132.902248,-25.970372],[132.904962,-25.971072],[132.908217,-25.972028],[132.919892,-25.97556],[132.920876,-25.975809],[132.921859,-25.976035],[132.925386,-25.976575],[132.926435,-25.976735],[132.926924,-25.976842],[132.928166,-25.977293],[132.929229,-25.977673],[132.930285,-25.978071],[132.931005,-25.978314],[132.932035,-25.978611],[132.934623,-25.979294],[132.935462,-25.979531],[132.93605,-25.979751],[132.936538,-25.979971],[132.937106,-25.980356],[132.937562,-25.980724],[132.938136,-25.98127],[132.938434,-25.981603],[132.939028,-25.982327],[132.939312,-25.982588],[132.939622,-25.982784],[132.940038,-25.98298],[132.940448,-25.983063],[132.940765,-25.983087],[132.941181,-25.983075],[132.942329,-25.982921],[132.944635,-25.982617],[132.94744,-25.982321],[132.949844,-25.981977],[132.950742,-25.981876],[132.95131,-25.98184],[132.951871,-25.981846],[132.952393,-25.981888],[132.953515,-25.982066],[132.955543,-25.982475],[132.958935,-25.983134],[132.963206,-25.98394],[132.965488,-25.984341],[132.967194,-25.984384],[132.96872,-25.984333],[132.974718,-25.983629]]}}]}
