{"type":"FeatureCollection","features":[{"type":"Feature","properties":{"tier":"regional"},"geometry":{"type":"LineString","coordinates":[[133.413575,-31.947946],[133.413625,-31.947887],[133.413642,-31.947826],[133.413754,-31.947162],[133.413869,-31.946581],[133.414015,-31.9459],[133.414164,-31.945328],[133.414279,-31.944967],[133.414962,-31.942974],[133.415533,-31.941236],[133.415878,-31.940121],[133.416281,-31.938823],[133.4167,-31.937469],[133.417057,-31.936224],[133.41758,-31.934218],[133.418598,-31.93019],[133.419084,-31.928289],[133.419161,-31.927993],[133.419397,-31.927071],[133.420768,-31.921698],[133.421289,-31.919707],[133.42201,-31.916927],[133.422227,-31.916006],[133.422427,-31.915149],[133.423526,-31.91032],[133.423596,-31.910016],[133.423663,-31.909659],[133.423703,-31.909358],[133.423744,-31.90898],[133.423761,-31.908664],[133.423756,-31.908188],[133.423745,-31.907743],[133.423664,-31.906719],[133.423647,-31.906353],[133.423587,-31.905482],[133.423593,-31.905259],[133.423612,-31.905082],[133.423663,-31.904913],[133.423728,-31.904768],[133.423831,-31.904608],[133.423943,-31.904468],[133.424238,-31.90414],[133.424613,-31.903717]]}},{"type":"Feature","properties":{"tier":"high"},"geometry":{"type":"LineString","coordinates":[[133.50002,-31.995981],[133.487809,-31.989224],[133.484692,-31.987507],[133.482404,-31.98623],[133.478469,-31.984058],[133.471628,-31.980284],[133.467328,-31.977879],[133.464754,-31.976442],[133.46081,-31.974281],[133.457449,-31.972416],[133.44689,-31.966525],[133.444516,-31.96521],[133.439742,-31.962519],[133.429774,-31.956853],[133.422235,-31.952691],[133.420356,-31.951645],[133.41989,-31.951391],[133.419615,-31.951242],[133.418502,-31.950635],[133.417663,-31.950176],[133.417121,-31.94988],[133.416061,-31.949301],[133.413903,-31.948122],[133.413575,-31.947946],[133.411598,-31.946846],[133.404091,-31.942667],[133.403528,-31.942361],[133.40265,-31.941883],[133.402198,-31.941678],[133.401835,-31.941534],[133.401468,-31.941417],[133.400937,-31.941278],[133.400465,-31.941199],[133.400009,-31.941146],[133.399517,-31.941123],[133.398719,-31.941116],[133.397468,-31.94111],[133.395425,-31.941115],[133.39408,-31.94106],[133.389164,-31.941068],[133.374106,-31.941047],[133.367846,-31.941039],[133.364865,-31.941038],[133.347512,-31.941039],[133.334283,-31.941039],[133.326726,-31.94096],[133.323846,-31.940931],[133.29284,-31.940897],[133.285422,-31.940943],[133.280413,-31.940981],[133.276252,-31.940984],[133.274357,-31.940992],[133.231714,-31.940949],[133.212788,-31.94093],[133.187362,-31.940885],[133.174374,-31.940863],[133.173916,-31.940858],[133.173211,-31.940839],[133.172907,-31.940826],[133.172249,-31.940781],[133.171622,-31.940709],[133.170907,-31.940591],[133.170203,-31.94043],[133.169924,-31.940359],[133.169283,-31.940173],[133.169028,-31.94009],[133.168294,-31.939839],[133.158214,-31.93622],[133.15731,-31.935896],[133.156424,-31.935586],[133.15594,-31.935421],[133.155205,-31.935184],[133.154749,-31.935044],[133.153872,-31.934784],[133.149639,-31.933573],[133.148845,-31.933351],[133.148283,-31.933199],[133.14755,-31.933013],[133.146937,-31.932879],[133.146321,-31.932767],[133.145966,-31.932711],[133.145293,-31.932616],[133.144582,-31.932544],[133.139999,-31.932166],[133.128911,-31.931276],[133.127004,-31.931123],[133.122156,-31.930733],[133.118105,-31.930406],[133.11709,-31.930351],[133.116094,-31.930364],[133.115002,-31.930473],[133.114238,-31.930564],[133.111277,-31.930947],[133.109242,-31.931217],[133.108355,-31.931345],[133.107672,-31.931456],[133.107061,-31.931563],[133.106677,-31.931636],[133.105977,-31.931775],[133.103823,-31.932223],[133.102922,-31.932393],[133.102083,-31.932518],[133.101457,-31.932577],[133.100745,-31.93261],[133.100251,-31.932585],[133.099508,-31.932551],[133.099092,-31.932517],[133.098504,-31.932457],[133.098028,-31.932382],[133.097124,-31.932267],[133.094988,-31.931938],[133.093246,-31.93169],[133.088692,-31.931101],[133.071169,-31.928745],[133.070373,-31.928632],[133.068333,-31.928325],[133.066143,-31.928056],[133.065111,-31.927923],[133.050999,-31.926],[133.050138,-31.925896],[133.049655,-31.925843],[133.048834,-31.925777],[133.04786,-31.92574],[133.046738,-31.92575],[133.045862,-31.925789],[133.035967,-31.926323],[133.034911,-31.926382],[133.032528,-31.926518],[133.031572,-31.926579],[133.030716,-31.926647],[133.030247,-31.926691],[133.029368,-31.926785],[133.029043,-31.926825],[133.028434,-31.926906],[133.021802,-31.927775],[133.019767,-31.928092]]}},{"type":"Feature","properties":{"tier":"high"},"geometry":{"type":"LineString","coordinates":[[133.002695,-31.927493],[133.002638,-31.927487],[133.00194,-31.927414],[132.99998,-31.927208]]}},{"type":"Feature","properties":{"tier":"high"},"geometry":{"type":"LineString","coordinates":[[133.014327,-31.928624],[133.012979,-31.928616]]}},{"type":"Feature","properties":{"tier":"high"},"geometry":{"type":"LineString","coordinates":[[133.019767,-31.928092],[133.017282,-31.928451],[133.016167,-31.928609],[133.015773,-31.928636],[133.015396,-31.928649],[133.014948,-31.928649],[133.014327,-31.928624]]}},{"type":"Feature","properties":{"tier":"high"},"geometry":{"type":"LineString","coordinates":[[133.012979,-31.928616],[133.011673,-31.928595],[133.010367,-31.928595],[133.010189,-31.928596],[133.010152,-31.928596],[133.009563,-31.928598],[133.009445,-31.928592],[133.009335,-31.928587],[133.009094,-31.928561]]}},{"type":"Feature","properties":{"tier":"high"},"geometry":{"type":"LineString","coordinates":[[133.009094,-31.928561],[133.00846,-31.928405],[133.007784,-31.928208],[133.007596,-31.928158],[133.007095,-31.928024],[133.006725,-31.92794],[133.006621,-31.927917],[133.006517,-31.927902],[133.006123,-31.927858],[133.006066,-31.927852],[133.005582,-31.927799],[133.005074,-31.927744],[133.00487,-31.927722],[133.004784,-31.927712],[133.004467,-31.927679],[133.003666,-31.927595],[133.003533,-31.927581],[133.002695,-31.927493]]}}]}
