{"type":"FeatureCollection","features":[{"type":"Feature","properties":{"tier":"high"},"geometry":{"type":"LineString","coordinates":[[133.417501,-27.00002],[133.417484,-26.99999],[133.416822,-26.998651],[133.416612,-26.998233],[133.415936,-26.996786],[133.415195,-26.994845],[133.414756,-26.993657],[133.414065,-26.991382],[133.413442,-26.989139],[133.412915,-26.987152],[133.412899,-26.987092]]}},{"type":"Feature","properties":{"tier":"high"},"geometry":{"type":"LineString","coordinates":[[133.34208,-26.841964],[133.341112,-26.841447],[133.340596,-26.841152],[133.339702,-26.840607],[133.338864,-26.840024],[133.338334,-26.839626],[133.337781,-26.839185],[133.337255,-26.838732],[133.336745,-26.83827],[133.336254,-26.83779],[133.335894,-26.837427],[133.335552,-26.83706],[133.335224,-26.836682],[133.334907,-26.836299],[133.334335,-26.835569],[133.333857,-26.834886],[133.333407,-26.834191],[133.333116,-26.833702],[133.33284,-26.83321],[133.33256,-26.832665],[133.332056,-26.831573],[133.331801,-26.830923],[133.331579,-26.830301],[133.331379,-26.829676],[133.33123,-26.829129],[133.331097,-26.828578],[133.330932,-26.827758],[133.330798,-26.826933],[133.330494,-26.823983],[133.330082,-26.819886]]}},{"type":"Feature","properties":{"tier":"high"},"geometry":{"type":"LineString","coordinates":[[133.412661,-26.98623],[133.412448,-26.985478],[133.412296,-26.98499],[133.412114,-26.984465],[133.41174,-26.983541],[133.411271,-26.982573],[133.410754,-26.981678],[133.410258,-26.98091],[133.409785,-26.980251],[133.409397,-26.979765],[133.408991,-26.979291],[133.408663,-26.978928],[133.408321,-26.978567],[133.407798,-26.97806],[133.407249,-26.977564],[133.406611,-26.977033],[133.406075,-26.976626],[133.405533,-26.976242],[133.404955,-26.975858],[133.404226,-26.975422],[133.403488,-26.975027],[133.402584,-26.974586],[133.401916,-26.974296],[133.400831,-26.973887],[133.400261,-26.973698],[133.399675,-26.973524],[133.398256,-26.973139],[133.396399,-26.972628],[133.395599,-26.972415],[133.394384,-26.972075],[133.393804,-26.971893],[133.393232,-26.971699],[133.392594,-26.971455],[133.391973,-26.971189],[133.391558,-26.971003],[133.391165,-26.970815],[133.390738,-26.970594],[133.390223,-26.970318],[133.389872,-26.970115],[133.389533,-26.969909],[133.38916,-26.969676],[133.388418,-26.969164],[133.387903,-26.968778],[133.38741,-26.968388],[133.386693,-26.967759],[133.385976,-26.967058],[133.385512,-26.966562],[133.385075,-26.966053],[133.384563,-26.965405],[133.384074,-26.96473],[133.383675,-26.964105],[133.383292,-26.963457],[133.382892,-26.962696],[133.382533,-26.961914],[133.382238,-26.96117],[133.382056,-26.960633],[133.381887,-26.960089],[133.381558,-26.958788],[133.381224,-26.957391],[133.380288,-26.953507],[133.379386,-26.94972],[133.377752,-26.942941],[133.376924,-26.93949],[133.376517,-26.9378],[133.376125,-26.936121],[133.376012,-26.935592],[133.375908,-26.935071],[133.375726,-26.934102],[133.375635,-26.933585],[133.37556,-26.933124],[133.375415,-26.932079],[133.375316,-26.93133],[133.375245,-26.930659],[133.375155,-26.929715],[133.37509,-26.928832],[133.375035,-26.927884],[133.375003,-26.927],[133.374987,-26.926039],[133.37499,-26.925085],[133.375,-26.924538],[133.375013,-26.924082],[133.375069,-26.922818],[133.375155,-26.921609],[133.375222,-26.920866],[133.375297,-26.920132],[133.375409,-26.919267],[133.375531,-26.918414],[133.375664,-26.917558],[133.375816,-26.916714],[133.375949,-26.916041],[133.376097,-26.91533],[133.376395,-26.914041],[133.377031,-26.911306],[133.377424,-26.909615],[133.377819,-26.907906],[133.37865,-26.904331],[133.37965,-26.899994],[133.37991,-26.898695],[133.380146,-26.897333],[133.380158,-26.897246],[133.380398,-26.89551],[133.380525,-26.894377],[133.380745,-26.891404],[133.380728,-26.889803],[133.380704,-26.888503],[133.380672,-26.886917],[133.380569,-26.885634],[133.380356,-26.883499],[133.380196,-26.882405],[133.379956,-26.880824],[133.379704,-26.879552],[133.378897,-26.876519],[133.378158,-26.874157],[133.377661,-26.872744],[133.376267,-26.869328],[133.375045,-26.866895],[133.374403,-26.865751],[133.372928,-26.863476],[133.371369,-26.861369],[133.370615,-26.860457],[133.369479,-26.859076],[133.368058,-26.857626],[133.366913,-26.856512],[133.365905,-26.855598],[133.364769,-26.854725],[133.363639,-26.853881],[133.361572,-26.852376],[133.359167,-26.850875],[133.35791,-26.850161],[133.35279,-26.847504],[133.346598,-26.8443],[133.344097,-26.843004],[133.342799,-26.842334]]}},{"type":"Feature","properties":{"tier":"high"},"geometry":{"type":"LineString","coordinates":[[133.278008,-26.638418],[133.277296,-26.636192],[133.276747,-26.634463],[133.27625,-26.632936],[133.275996,-26.632188],[133.27573,-26.63144],[133.275243,-26.630144],[133.274722,-26.628855],[133.27427,-26.627783],[133.273792,-26.626719],[133.273396,-26.625878],[133.272978,-26.625042],[133.27204,-26.623231],[133.271149,-26.621649],[133.27021,-26.620091],[133.269215,-26.618548],[133.268201,-26.617016],[133.263487,-26.609936],[133.262024,-26.607764],[133.259637,-26.604166],[133.258992,-26.603155],[133.258368,-26.602125],[133.257359,-26.600356],[133.257017,-26.599731],[133.25669,-26.599102],[133.255979,-26.597692],[133.255311,-26.596268],[133.254715,-26.594914],[133.254155,-26.593551],[133.253483,-26.591767],[133.253117,-26.590716],[133.252775,-26.589661],[133.252413,-26.588486],[133.252081,-26.587302],[133.251695,-26.585787],[133.251382,-26.584415],[133.251199,-26.583535],[133.251028,-26.582652],[133.250877,-26.581798],[133.250743,-26.580944],[133.250701,-26.580665],[133.250542,-26.579506],[133.250401,-26.578346],[133.250285,-26.577068],[133.250192,-26.575791],[133.250131,-26.57447],[133.250094,-26.573145],[133.250093,-26.571904],[133.250123,-26.570521],[133.25015,-26.569831],[133.250187,-26.569142],[133.250227,-26.568476],[133.250275,-26.567811],[133.250363,-26.566805],[133.250475,-26.5658],[133.250579,-26.564941],[133.250697,-26.564084],[133.251718,-26.557781],[133.252114,-26.555324],[133.252357,-26.553732],[133.252586,-26.55214],[133.252797,-26.550541],[133.252991,-26.548942],[133.25334,-26.545672],[133.253689,-26.541519],[133.254013,-26.536862],[133.254269,-26.533112],[133.254515,-26.52959],[133.254816,-26.52519],[133.255649,-26.51317],[133.25649,-26.501234],[133.256574,-26.49998]]}},{"type":"Feature","properties":{"tier":"high"},"geometry":{"type":"LineString","coordinates":[[133.342799,-26.842334],[133.34208,-26.841964]]}},{"type":"Feature","properties":{"tier":"high"},"geometry":{"type":"LineString","coordinates":[[133.412899,-26.987092],[133.412661,-26.98623]]}},{"type":"Feature","properties":{"tier":"high"},"geometry":{"type":"LineString","coordinates":[[133.330082,-26.819886],[133.330052,-26.819567]]}},{"type":"Feature","properties":{"tier":"high"},"geometry":{"type":"LineString","coordinates":[[133.328042,-26.799353],[133.327895,-26.797894]]}},{"type":"Feature","properties":{"tier":"high"},"geometry":{"type":"LineString","coordinates":[[133.330052,-26.819567],[133.328042,-26.799353]]}},{"type":"Feature","properties":{"tier":"high"},"geometry":{"type":"LineString","coordinates":[[133.278283,-26.639285],[133.278008,-26.638418]]}},{"type":"Feature","properties":{"tier":"high"},"geometry":{"type":"LineString","coordinates":[[133.327895,-26.797894],[133.327446,-26.793436],[133.327122,-26.790174],[133.327087,-26.789823],[133.327068,-26.78963],[133.325598,-26.774838],[133.325477,-26.773713],[133.325345,-26.772558],[133.325059,-26.770283],[133.324743,-26.768005],[133.324392,-26.765728],[133.324127,-26.764137],[133.323845,-26.762551],[133.323549,-26.760963],[133.323236,-26.759375],[133.322631,-26.75651],[133.322307,-26.75508],[133.321972,-26.753651],[133.321625,-26.752229],[133.321264,-26.750808],[133.320891,-26.749386],[133.3205,-26.747968],[133.320136,-26.746664],[133.319755,-26.745361],[133.318967,-26.742768],[133.318557,-26.741474],[133.318135,-26.740182],[133.317701,-26.73889],[133.317256,-26.737599],[133.316677,-26.735976],[133.316085,-26.734359],[133.314867,-26.73113],[133.314269,-26.729538],[133.313423,-26.727294],[133.31227,-26.724233],[133.312085,-26.723743],[133.310733,-26.720163],[133.309565,-26.717157],[133.307377,-26.711357],[133.30664,-26.709401],[133.305808,-26.707199],[133.304958,-26.705004],[133.304411,-26.703655],[133.303852,-26.702307],[133.303275,-26.700969],[133.302683,-26.699634],[133.302169,-26.698507],[133.301644,-26.697384],[133.301008,-26.696073],[133.300362,-26.694765],[133.299699,-26.693464],[133.299016,-26.692172],[133.296987,-26.688413],[133.294951,-26.684656],[133.293523,-26.682024],[133.292822,-26.680705],[133.292144,-26.67937],[133.291737,-26.678538],[133.291343,-26.677705],[133.290956,-26.676865],[133.290577,-26.676025],[133.289852,-26.674334],[133.289502,-26.673487],[133.289162,-26.672637],[133.288598,-26.671181],[133.288075,-26.669722],[133.287641,-26.668451],[133.287226,-26.667172],[133.286407,-26.664617],[133.285145,-26.660688],[133.283816,-26.656465],[133.281269,-26.648593],[133.278283,-26.639285]]}},{"type":"Feature","properties":{"tier":"regional"},"geometry":{"type":"LineString","coordinates":[[132.99998,-26.661521],[133.018049,-26.671866],[133.05845,-26.694783],[133.082336,-26.70833],[133.0834,-26.709275],[133.086147,-26.710425],[133.099365,-26.717762],[133.10048,-26.71813],[133.111381,-26.719395],[133.145713,-26.719855],[133.168501,-26.720238],[133.188328,-26.720622],[133.195109,-26.720545],[133.220772,-26.725988],[133.248796,-26.743734],[133.272099,-26.758564],[133.28536,-26.76688],[133.307075,-26.780826],[133.326859,-26.793238],[133.327446,-26.793436]]}}]}
