{"type":"FeatureCollection","features":[{"type":"Feature","properties":{"tier":"high"},"geometry":{"type":"LineString","coordinates":[[133.50002,-27.124077],[133.495493,-27.121502],[133.493992,-27.120636],[133.492518,-27.119745],[133.491085,-27.118797],[133.48969,-27.117822],[133.488197,-27.116668],[133.486748,-27.115469],[133.485212,-27.114096],[133.483757,-27.112678],[133.482355,-27.111152],[133.481705,-27.110445],[133.480738,-27.109273],[133.479812,-27.108077],[133.479281,-27.107365],[133.478778,-27.106654],[133.477807,-27.10518],[133.476853,-27.103604],[133.475979,-27.10201],[133.475163,-27.100365],[133.47451,-27.098909],[133.474079,-27.097919],[133.47404,-27.097829],[133.473148,-27.095779],[133.472679,-27.094696],[133.47223,-27.09369],[133.471921,-27.092967],[133.471483,-27.091974],[133.471031,-27.090934],[133.470627,-27.090019],[133.470228,-27.089095],[133.469914,-27.088388],[133.469651,-27.087779],[133.469338,-27.087063],[133.46894,-27.08614],[133.468583,-27.085334],[133.465903,-27.079166],[133.46368,-27.074704],[133.461479,-27.070559],[133.458635,-27.065763],[133.454529,-27.05919],[133.443175,-27.041125],[133.437879,-27.032705],[133.432811,-27.024694],[133.425258,-27.012459],[133.420707,-27.005302],[133.418451,-27.001697],[133.417484,-26.99999],[133.417479,-26.99998]]}}]}
