{"type":"FeatureCollection","features":[{"type":"Feature","properties":{"tier":"high"},"geometry":{"type":"LineString","coordinates":[[133.197043,-25.998599],[133.196863,-25.999087],[133.196511,-26.00002]]}},{"type":"Feature","properties":{"tier":"high"},"geometry":{"type":"LineString","coordinates":[[133.226097,-25.959945],[133.222207,-25.964638],[133.221126,-25.965944],[133.21391,-25.974674],[133.208637,-25.98104],[133.206008,-25.984231],[133.204683,-25.985823],[133.204032,-25.986626],[133.203404,-25.987432],[133.202924,-25.988067],[133.202463,-25.988708],[133.202013,-25.989351],[133.201571,-25.990004],[133.201173,-25.99061],[133.200787,-25.991223],[133.200406,-25.991838],[133.200041,-25.99246],[133.199966,-25.992587],[133.19911,-25.994155],[133.198055,-25.99627],[133.197557,-25.997299],[133.19718,-25.998246],[133.197043,-25.998599]]}}]}
