{"type":"FeatureCollection","features":[{"type":"Feature","properties":{"tier":"high"},"geometry":{"type":"LineString","coordinates":[[133.198982,-26.338454],[133.198484,-26.337574],[133.198003,-26.336688],[133.197545,-26.335794],[133.197102,-26.334894],[133.196691,-26.33402],[133.196299,-26.333136],[133.195887,-26.332172],[133.195499,-26.331201],[133.195184,-26.330381],[133.194891,-26.329554],[133.1945,-26.328352],[133.194275,-26.32763],[133.194063,-26.326907],[133.193669,-26.325451],[133.193392,-26.3243],[133.19314,-26.323142],[133.192917,-26.32198],[133.192721,-26.320813],[133.192562,-26.319651],[133.19242,-26.318489],[133.192182,-26.316188],[133.190728,-26.3023],[133.18857,-26.281981],[133.188418,-26.280294],[133.188302,-26.279086],[133.188149,-26.277457],[133.187135,-26.267916],[133.186522,-26.262058],[133.186361,-26.26049],[133.186261,-26.259318],[133.186174,-26.258145],[133.186105,-26.256929],[133.18605,-26.255715],[133.186015,-26.254301],[133.185995,-26.252885],[133.186025,-26.250633],[133.186064,-26.249521],[133.186112,-26.248405],[133.18632,-26.245114],[133.186519,-26.241819],[133.186904,-26.235647],[133.18729,-26.229458],[133.187512,-26.22631],[133.187645,-26.224741],[133.187797,-26.223172],[133.188496,-26.217114],[133.189225,-26.21106],[133.190695,-26.198948],[133.195087,-26.162737],[133.199856,-26.123319],[133.200001,-26.121877],[133.200127,-26.12043],[133.200233,-26.118982],[133.200316,-26.117532],[133.200406,-26.115281],[133.200443,-26.11303],[133.200439,-26.111663],[133.200419,-26.110298],[133.200322,-26.107565],[133.200147,-26.104832],[133.200025,-26.103466],[133.199888,-26.102103],[133.19976,-26.100979],[133.199618,-26.099855],[133.199297,-26.097609],[133.198573,-26.093115],[133.197114,-26.08413],[133.195247,-26.072599],[133.192524,-26.055794],[133.192009,-26.052327],[133.191835,-26.051093],[133.191626,-26.04938],[133.191439,-26.047487],[133.191283,-26.045585],[133.191174,-26.043679],[133.191123,-26.042727],[133.191088,-26.041774]]}},{"type":"Feature","properties":{"tier":"high"},"geometry":{"type":"LineString","coordinates":[[133.196526,-25.99998],[133.195955,-26.001497],[133.195733,-26.002157],[133.19555,-26.0028],[133.195231,-26.003947],[133.19494,-26.0051],[133.194675,-26.006263],[133.194442,-26.007437],[133.194324,-26.008105],[133.194223,-26.008776],[133.194034,-26.010122],[133.193451,-26.014381],[133.193182,-26.016324],[133.192925,-26.018268],[133.192373,-26.022146],[133.191849,-26.026027],[133.191726,-26.026995],[133.191619,-26.027969],[133.191435,-26.029921],[133.191297,-26.031276],[133.191253,-26.032097],[133.191191,-26.032959],[133.191126,-26.034465],[133.191085,-26.03597],[133.191043,-26.037421],[133.191036,-26.038872],[133.191048,-26.040323],[133.191088,-26.041774]]}},{"type":"Feature","properties":{"tier":"high"},"geometry":{"type":"LineString","coordinates":[[133.256571,-26.50002],[133.257009,-26.49345],[133.257382,-26.488018],[133.258449,-26.472502],[133.258573,-26.470581],[133.258627,-26.468659],[133.258625,-26.467429],[133.258594,-26.466204],[133.258561,-26.46544],[133.258516,-26.464677],[133.258449,-26.463598],[133.258338,-26.462353],[133.258194,-26.46104],[133.257982,-26.459473],[133.257844,-26.458629],[133.257695,-26.457786],[133.257493,-26.456749],[133.257275,-26.455713],[133.256975,-26.454414],[133.256641,-26.45312],[133.256308,-26.451939],[133.255956,-26.450765],[133.254056,-26.445219]]}},{"type":"Feature","properties":{"tier":"high"},"geometry":{"type":"LineString","coordinates":[[133.253759,-26.44436],[133.252631,-26.441118],[133.251101,-26.436718],[133.247025,-26.424954],[133.233854,-26.386972],[133.23352,-26.386002],[133.23317,-26.385033],[133.232799,-26.384072],[133.232407,-26.383121],[133.231904,-26.381957],[133.231372,-26.380806],[133.230811,-26.379672],[133.230216,-26.378545],[133.229596,-26.377427],[133.229265,-26.376857],[133.228926,-26.376291],[133.228236,-26.375177],[133.227874,-26.374611],[133.22752,-26.374098],[133.226579,-26.372763],[133.226427,-26.372556],[133.225797,-26.371697],[133.224987,-26.370653],[133.224246,-26.369748],[133.223374,-26.36873],[133.222544,-26.367795],[133.221682,-26.366876],[133.210053,-26.354972],[133.209402,-26.354293],[133.208774,-26.353604],[133.207795,-26.35247],[133.206849,-26.351325],[133.205987,-26.350184],[133.205173,-26.349044],[133.204305,-26.34774],[133.20363,-26.346646],[133.202996,-26.345539],[133.202269,-26.344293],[133.201561,-26.343037],[133.201223,-26.342431],[133.200646,-26.341403]]}},{"type":"Feature","properties":{"tier":"high"},"geometry":{"type":"LineString","coordinates":[[133.254056,-26.445219],[133.253759,-26.44436]]}},{"type":"Feature","properties":{"tier":"high"},"geometry":{"type":"LineString","coordinates":[[133.199913,-26.340096],[133.198982,-26.338454]]}},{"type":"Feature","properties":{"tier":"high"},"geometry":{"type":"LineString","coordinates":[[133.200646,-26.341403],[133.199913,-26.340096]]}}]}
