{"type":"FeatureCollection","features":[{"type":"Feature","properties":{"tier":"high"},"geometry":{"type":"LineString","coordinates":[[134.00002,-27.757428],[133.999711,-27.75712],[133.997611,-27.755033],[133.996589,-27.753958],[133.995591,-27.75285],[133.994639,-27.751764],[133.993682,-27.750611],[133.992778,-27.749469],[133.99191,-27.748311],[133.991048,-27.747118],[133.990176,-27.745835],[133.989353,-27.744571],[133.988558,-27.743267],[133.987793,-27.741955],[133.987152,-27.740779],[133.986545,-27.739603],[133.985987,-27.738475],[133.984943,-27.736265],[133.982224,-27.730473],[133.981661,-27.729282],[133.981063,-27.728102],[133.980159,-27.726484],[133.979685,-27.725691],[133.979193,-27.724908],[133.978399,-27.723715],[133.977564,-27.722536],[133.976862,-27.721614],[133.976136,-27.720706],[133.974888,-27.719238],[133.97334,-27.717577],[133.972006,-27.716284],[133.971407,-27.715725],[133.970789,-27.715178],[133.970166,-27.714637],[133.969526,-27.7141],[133.968219,-27.713062],[133.966897,-27.712037],[133.965732,-27.711118],[133.964591,-27.71018],[133.964277,-27.709902],[133.963494,-27.709208],[133.962459,-27.708233],[133.961356,-27.707131],[133.960289,-27.705991],[133.959311,-27.704864],[133.95842,-27.703723],[133.957987,-27.703122],[133.957574,-27.702513],[133.957179,-27.701886],[133.956803,-27.70125],[133.956264,-27.700275],[133.955767,-27.699285],[133.955249,-27.698302],[133.954707,-27.69733],[133.954492,-27.696963],[133.953661,-27.695608],[133.952772,-27.694277],[133.951833,-27.692978],[133.950886,-27.691682],[133.949771,-27.690075],[133.948706,-27.688448],[133.948186,-27.687617],[133.94768,-27.686782],[133.946688,-27.68511],[133.945182,-27.682304]]}},{"type":"Feature","properties":{"tier":"high"},"geometry":{"type":"LineString","coordinates":[[133.819935,-27.554616],[133.818128,-27.552151],[133.810719,-27.542043],[133.805588,-27.535102]]}},{"type":"Feature","properties":{"tier":"high"},"geometry":{"type":"LineString","coordinates":[[133.945025,-27.682038],[133.944551,-27.681224],[133.943872,-27.680166],[133.942817,-27.678569],[133.940893,-27.676],[133.939969,-27.674837],[133.93901,-27.673685],[133.936937,-27.671389],[133.935834,-27.670257],[133.934692,-27.669138],[133.93347,-27.668007],[133.932204,-27.666901],[133.930509,-27.665503],[133.928762,-27.664153],[133.927252,-27.663052],[133.910067,-27.6504]]}},{"type":"Feature","properties":{"tier":"high"},"geometry":{"type":"LineString","coordinates":[[133.945182,-27.682304],[133.945025,-27.682038]]}},{"type":"Feature","properties":{"tier":"high"},"geometry":{"type":"LineString","coordinates":[[133.874888,-27.62321],[133.874099,-27.62249],[133.872728,-27.621207],[133.871592,-27.620131],[133.868612,-27.61722],[133.865717,-27.614256],[133.864321,-27.612776],[133.862953,-27.611296],[133.861666,-27.60986],[133.860256,-27.608288],[133.857356,-27.6049],[133.85456,-27.601471],[133.851524,-27.59753],[133.848575,-27.593539],[133.838882,-27.580354],[133.831192,-27.569909]]}},{"type":"Feature","properties":{"tier":"high"},"geometry":{"type":"LineString","coordinates":[[133.910067,-27.6504],[133.909952,-27.650315]]}},{"type":"Feature","properties":{"tier":"high"},"geometry":{"type":"LineString","coordinates":[[133.805588,-27.535102],[133.801863,-27.53004],[133.799992,-27.527516],[133.799038,-27.526261],[133.798067,-27.525008],[133.795949,-27.522359],[133.793791,-27.519744],[133.791556,-27.517155],[133.789272,-27.514593],[133.788305,-27.51354],[133.787802,-27.512992],[133.786594,-27.511717],[133.783882,-27.508843],[133.778469,-27.503109],[133.776891,-27.501442],[133.775512,-27.49998]]}},{"type":"Feature","properties":{"tier":"high"},"geometry":{"type":"LineString","coordinates":[[133.909952,-27.650315],[133.902761,-27.645054],[133.88993,-27.63562],[133.88819,-27.634311],[133.886671,-27.633146],[133.885427,-27.632167],[133.88404,-27.631058],[133.882924,-27.630147],[133.88146,-27.628943],[133.879985,-27.627697],[133.87833,-27.626279],[133.876904,-27.62503],[133.875497,-27.623766],[133.874952,-27.623269]]}},{"type":"Feature","properties":{"tier":"high"},"geometry":{"type":"LineString","coordinates":[[133.874952,-27.623269],[133.874888,-27.62321]]}},{"type":"Feature","properties":{"tier":"high"},"geometry":{"type":"LineString","coordinates":[[133.831129,-27.569823],[133.821821,-27.557179],[133.820838,-27.555835],[133.819935,-27.554616]]}},{"type":"Feature","properties":{"tier":"high"},"geometry":{"type":"LineString","coordinates":[[133.831192,-27.569909],[133.831129,-27.569823]]}}]}
