{"type":"FeatureCollection","features":[{"type":"Feature","properties":{"tier":"high"},"geometry":{"type":"LineString","coordinates":[[133.596894,-27.277372],[133.593651,-27.27415],[133.593026,-27.273527],[133.591571,-27.272069],[133.590641,-27.27114],[133.59035,-27.27085],[133.588989,-27.269475],[133.587775,-27.268231],[133.586935,-27.267349],[133.58623,-27.266601],[133.585491,-27.265816],[133.584754,-27.26502],[133.58392,-27.264106],[133.583004,-27.263093],[133.582332,-27.262336],[133.581433,-27.261308],[133.580395,-27.260102],[133.578502,-27.257862],[133.577639,-27.256808],[133.5768,-27.255769],[133.575672,-27.254358],[133.574912,-27.253378],[133.574081,-27.252293],[133.573405,-27.251406],[133.572929,-27.250779],[133.572258,-27.249879],[133.571591,-27.24898],[133.570943,-27.248094],[133.570043,-27.24687],[133.569648,-27.246322],[133.568878,-27.245282],[133.567974,-27.244061],[133.567334,-27.243187],[133.566614,-27.2422],[133.565044,-27.240072],[133.564041,-27.238712],[133.563336,-27.237757],[133.562886,-27.23714],[133.562112,-27.236086],[133.561336,-27.235027],[133.560487,-27.233882],[133.5598,-27.232949],[133.559178,-27.232111],[133.558435,-27.231086],[133.557736,-27.23014],[133.557018,-27.229167],[133.556383,-27.228302],[133.555343,-27.226893],[133.554584,-27.225843],[133.553826,-27.224787],[133.553208,-27.223907],[133.552777,-27.22327],[133.552345,-27.222638],[133.551669,-27.221648],[133.551264,-27.221025],[133.550612,-27.220031],[133.550014,-27.219101],[133.549268,-27.217913],[133.548643,-27.216901],[133.548026,-27.215888],[133.547302,-27.214674],[133.546605,-27.213462],[133.545593,-27.211709],[133.543046,-27.206831],[133.54215,-27.20501],[133.541586,-27.203851],[133.540739,-27.202007],[133.540243,-27.200914],[133.539948,-27.200251],[133.538867,-27.197684],[133.538218,-27.196107],[133.537837,-27.195148],[133.537399,-27.194008],[133.536675,-27.192043],[133.536359,-27.191145],[133.535966,-27.190015],[133.535661,-27.189123],[133.535346,-27.188187],[133.534513,-27.185548],[133.534234,-27.184582],[133.533918,-27.183508],[133.533524,-27.18211],[133.533262,-27.181151],[133.532987,-27.180116],[133.5327,-27.178983],[133.532455,-27.177975],[133.532229,-27.177023],[133.532113,-27.176501],[133.532002,-27.176005],[133.531859,-27.175372],[133.531662,-27.174435],[133.531433,-27.17339],[133.531237,-27.172465],[133.531017,-27.171439],[133.530799,-27.170395],[133.530576,-27.169362],[133.53038,-27.168425],[133.530184,-27.167495],[133.529959,-27.166459],[133.529758,-27.165499],[133.529553,-27.164545],[133.529349,-27.16358],[133.529127,-27.162536],[133.528893,-27.161445],[133.528694,-27.160482],[133.528484,-27.159516],[133.528258,-27.158444],[133.528043,-27.157419],[133.527823,-27.156407],[133.527574,-27.155348],[133.527324,-27.154392],[133.527131,-27.153712],[133.526866,-27.152861],[133.526586,-27.152014],[133.526285,-27.151171],[133.525966,-27.150336],[133.525613,-27.149466],[133.525238,-27.148598],[133.524847,-27.147734],[133.524438,-27.14688],[133.52363,-27.145341],[133.522766,-27.14383],[133.522075,-27.142725],[133.521359,-27.141638],[133.520775,-27.140818],[133.520177,-27.140006],[133.51956,-27.139204],[133.518917,-27.13841],[133.518355,-27.137739],[133.517776,-27.13708],[133.51719,-27.136427],[133.516582,-27.135788],[133.515257,-27.134462],[133.51388,-27.133184],[133.513147,-27.132555],[133.512395,-27.131927],[133.511788,-27.131438],[133.510848,-27.130723],[133.510096,-27.130166],[133.509327,-27.129616],[133.508549,-27.129084],[133.507748,-27.128567],[133.506939,-27.128055],[133.506115,-27.12756],[133.504445,-27.126593],[133.49998,-27.124054]]}},{"type":"Feature","properties":{"tier":"arterial"},"geometry":{"type":"LineString","coordinates":[[134.00002,-27.361754],[133.999798,-27.361712],[133.999523,-27.361638],[133.999144,-27.361519],[133.998827,-27.361411],[133.998295,-27.361216],[133.996817,-27.360618],[133.994127,-27.359496],[133.992166,-27.358652],[133.987887,-27.356838],[133.985287,-27.355768],[133.982322,-27.354645],[133.980853,-27.354059],[133.979613,-27.353526],[133.977054,-27.35239],[133.971315,-27.349784],[133.966912,-27.347791],[133.965984,-27.347389],[133.965037,-27.346974],[133.964441,-27.346676],[133.963813,-27.34632],[133.963205,-27.345935],[133.962539,-27.345591],[133.96073,-27.344873],[133.960409,-27.344739],[133.960177,-27.34462],[133.957618,-27.343219],[133.956293,-27.342509],[133.955612,-27.342104],[133.954984,-27.341632],[133.954539,-27.341351],[133.954014,-27.341108],[133.953096,-27.340812],[133.951385,-27.340298],[133.945245,-27.338437],[133.944092,-27.338106],[133.941236,-27.337248],[133.939068,-27.336586],[133.938205,-27.336252],[133.937092,-27.335737],[133.931054,-27.332814],[133.927299,-27.33101],[133.922444,-27.328694],[133.920996,-27.328017],[133.920196,-27.327722],[133.918646,-27.327231],[133.915583,-27.326334],[133.915327,-27.326275],[133.914974,-27.326214],[133.914632,-27.326157],[133.914363,-27.326129],[133.91396,-27.326122],[133.913603,-27.32614],[133.913207,-27.326201],[133.911262,-27.32669],[133.9088,-27.327276],[133.908177,-27.327413],[133.907692,-27.327495],[133.907283,-27.327536],[133.906745,-27.327562],[133.906218,-27.32758],[133.905707,-27.327576],[133.905251,-27.327576],[133.904905,-27.327557],[133.904436,-27.327525],[133.90402,-27.327473],[133.903447,-27.327383],[133.898119,-27.326556],[133.889974,-27.32526],[133.881874,-27.323758],[133.881456,-27.323671],[133.879251,-27.323248],[133.878653,-27.323167],[133.878343,-27.323142],[133.878047,-27.32313],[133.877615,-27.323137],[133.877158,-27.323168],[133.876247,-27.323279],[133.874864,-27.323463],[133.869541,-27.32433],[133.85507,-27.326764],[133.852792,-27.327133],[133.851634,-27.327302],[133.851289,-27.327333],[133.851006,-27.32734],[133.850783,-27.327333],[133.850502,-27.327293],[133.850238,-27.327242],[133.849937,-27.327163],[133.848217,-27.326581],[133.833506,-27.321468],[133.829033,-27.319899],[133.814592,-27.314906],[133.808064,-27.312628],[133.804995,-27.31156],[133.797602,-27.308354],[133.787599,-27.302914],[133.778615,-27.298347],[133.770321,-27.294147],[133.765305,-27.291578],[133.76366,-27.290708],[133.762309,-27.290163],[133.757813,-27.289176],[133.745986,-27.286748],[133.731048,-27.283824],[133.727955,-27.283195],[133.727352,-27.283101],[133.72676,-27.283054],[133.726299,-27.283065],[133.725793,-27.283112],[133.725363,-27.283238],[133.724677,-27.283483],[133.723687,-27.283854],[133.712722,-27.287894],[133.699981,-27.292548],[133.692241,-27.295116],[133.68414,-27.297777],[133.681751,-27.298523],[133.679846,-27.299105],[133.677802,-27.299786],[133.67493,-27.300811],[133.673031,-27.301505],[133.672506,-27.301682],[133.671969,-27.301833],[133.671533,-27.301925],[133.671255,-27.301967],[133.670815,-27.302008],[133.670306,-27.302036],[133.66868,-27.302112],[133.667071,-27.302165],[133.665247,-27.302265],[133.663686,-27.30236],[133.662822,-27.302446],[133.654652,-27.303333],[133.644943,-27.304362],[133.632538,-27.305677],[133.629243,-27.306065],[133.628347,-27.30618],[133.627539,-27.306343]]}},{"type":"Feature","properties":{"tier":"arterial"},"geometry":{"type":"LineString","coordinates":[[133.627539,-27.306343],[133.627094,-27.306504],[133.626651,-27.306727],[133.626273,-27.306982],[133.625864,-27.307327],[133.625214,-27.307971]]}},{"type":"Feature","properties":{"tier":"high"},"geometry":{"type":"LineString","coordinates":[[133.77555,-27.50002],[133.772164,-27.49643],[133.76796,-27.491972],[133.760814,-27.48441],[133.753604,-27.476767],[133.751893,-27.474956],[133.750742,-27.47374],[133.749455,-27.472372],[133.747977,-27.470806],[133.746574,-27.469309],[133.745155,-27.467824],[133.743905,-27.466501],[133.742594,-27.465097],[133.741269,-27.463697],[133.739904,-27.462253],[133.73886,-27.461151],[133.738064,-27.460289],[133.736671,-27.458828],[133.735762,-27.457857],[133.734164,-27.456079],[133.733209,-27.454981],[133.732702,-27.454379],[133.732232,-27.453802],[133.731747,-27.453218],[133.730848,-27.452099],[133.729961,-27.45095],[133.729226,-27.449959],[133.728563,-27.449053],[133.72792,-27.448138],[133.727099,-27.446953],[133.726476,-27.446013],[133.725884,-27.445101],[133.725267,-27.444132],[133.724623,-27.443073],[133.724154,-27.442278],[133.723582,-27.441307],[133.722821,-27.440033],[133.722169,-27.438969],[133.72156,-27.437996],[133.720763,-27.43676],[133.720182,-27.435892],[133.719208,-27.434461],[133.718201,-27.433031],[133.717155,-27.431591],[133.71609,-27.43017],[133.715281,-27.429123],[133.714453,-27.428081],[133.713062,-27.426377],[133.711632,-27.424701],[133.708949,-27.421708],[133.70615,-27.418792],[133.703831,-27.416534],[133.701459,-27.414328],[133.699039,-27.412145],[133.69669,-27.409928],[133.695374,-27.408625],[133.694098,-27.407302],[133.692859,-27.405971],[133.691657,-27.40463],[133.690667,-27.403482],[133.689695,-27.40232],[133.688746,-27.401147],[133.687821,-27.399964],[133.687506,-27.399546],[133.686502,-27.398198],[133.685524,-27.396827],[133.684539,-27.395406],[133.683595,-27.393967],[133.680038,-27.388431],[133.67906,-27.38691],[133.678203,-27.385576],[133.670456,-27.373537],[133.662726,-27.361496],[133.660528,-27.358085],[133.659077,-27.355825],[133.65487,-27.349275],[133.654636,-27.34891],[133.652619,-27.345775],[133.650691,-27.342774],[133.647906,-27.338436],[133.645193,-27.334217],[133.641096,-27.327842],[133.637711,-27.322567],[133.636142,-27.320127],[133.635526,-27.319171],[133.634893,-27.318224],[133.634393,-27.317515],[133.633877,-27.316812],[133.633397,-27.316181],[133.6329,-27.315556],[133.632339,-27.314867],[133.631752,-27.314187],[133.631143,-27.313502],[133.630516,-27.312827],[133.630012,-27.312295],[133.629494,-27.311776],[133.628806,-27.311103],[133.628094,-27.310438],[133.627366,-27.309784],[133.626624,-27.309139],[133.625214,-27.307971],[133.624797,-27.307641],[133.624459,-27.307364],[133.623261,-27.306359],[133.622098,-27.305322],[133.62123,-27.30449],[133.620243,-27.303486],[133.619341,-27.302524],[133.618484,-27.301553],[133.617296,-27.300118],[133.616128,-27.298676],[133.615807,-27.298277],[133.613861,-27.295849],[133.613817,-27.295794],[133.613728,-27.295684],[133.61216,-27.293761],[133.610561,-27.291857],[133.608922,-27.289965],[133.607259,-27.288096],[133.605714,-27.2864],[133.604144,-27.284717],[133.602562,-27.283068],[133.600949,-27.28143],[133.596894,-27.277372]]}}]}
