{"type":"FeatureCollection","features":[{"type":"Feature","properties":{"tier":"high"},"geometry":{"type":"LineString","coordinates":[[133.67355,-32.118254],[133.673535,-32.118074],[133.673431,-32.116745],[133.673311,-32.115505],[133.673193,-32.114344],[133.673155,-32.113967],[133.673105,-32.113586],[133.673082,-32.113406],[133.673065,-32.11327],[133.673051,-32.113166],[133.672999,-32.112761],[133.672946,-32.112372],[133.672844,-32.111625],[133.672799,-32.111288],[133.672647,-32.11023]]}},{"type":"Feature","properties":{"tier":"regional"},"geometry":{"type":"LineString","coordinates":[[133.673825,-32.126156],[133.673832,-32.127025]]}},{"type":"Feature","properties":{"tier":"high"},"geometry":{"type":"LineString","coordinates":[[133.685835,-32.122143],[133.68615,-32.122146],[133.686557,-32.122159],[133.687337,-32.122204],[133.688407,-32.122268],[133.689699,-32.122349]]}},{"type":"Feature","properties":{"tier":"arterial"},"geometry":{"type":"LineString","coordinates":[[133.74363,-32.134289],[133.746773,-32.136481],[133.756574,-32.143344],[133.767567,-32.150984],[133.783322,-32.161979],[133.784035,-32.162613],[133.784437,-32.162946],[133.784907,-32.163476],[133.795118,-32.17551],[133.810193,-32.193415],[133.819372,-32.20428],[133.829705,-32.21651],[133.833006,-32.220467],[133.842531,-32.231852],[133.843007,-32.232407],[133.844994,-32.234792],[133.856268,-32.248083]]}},{"type":"Feature","properties":{"tier":"regional"},"geometry":{"type":"LineString","coordinates":[[133.679045,-32.121276],[133.683196,-32.116511]]}},{"type":"Feature","properties":{"tier":"regional"},"geometry":{"type":"LineString","coordinates":[[133.963366,-32.374064],[133.96308,-32.374203],[133.962209,-32.37445],[133.961683,-32.374477],[133.954926,-32.374441],[133.953651,-32.374435],[133.9516,-32.374424],[133.949861,-32.37443],[133.949581,-32.374431],[133.948294,-32.374422],[133.946666,-32.374367],[133.944885,-32.374362],[133.94475,-32.374361],[133.944465,-32.374361],[133.943993,-32.374369]]}},{"type":"Feature","properties":{"tier":"arterial"},"geometry":{"type":"LineString","coordinates":[[133.678423,-32.121971],[133.676733,-32.123964],[133.676633,-32.124109],[133.676602,-32.124205],[133.676572,-32.124349],[133.676555,-32.124953],[133.676551,-32.125066],[133.676535,-32.125577]]}},{"type":"Feature","properties":{"tier":"high"},"geometry":{"type":"LineString","coordinates":[[133.679309,-32.121787],[133.679433,-32.121802],[133.680266,-32.121875],[133.680471,-32.121888],[133.681965,-32.121984],[133.68265,-32.122029],[133.68284,-32.122038],[133.683568,-32.122072],[133.683658,-32.122078]]}},{"type":"Feature","properties":{"tier":"arterial"},"geometry":{"type":"LineString","coordinates":[[133.676533,-32.128276],[133.676493,-32.128844],[133.676476,-32.129153],[133.676336,-32.129444]]}},{"type":"Feature","properties":{"tier":"arterial"},"geometry":{"type":"LineString","coordinates":[[133.672261,-32.133116],[133.671967,-32.13355],[133.671805,-32.133879],[133.671554,-32.134249],[133.671261,-32.134613],[133.670172,-32.135768],[133.667916,-32.138152],[133.666658,-32.13912],[133.665353,-32.140103],[133.665042,-32.140323],[133.664156,-32.140996],[133.660942,-32.143424],[133.659977,-32.144138],[133.659747,-32.144275],[133.659507,-32.144399]]}},{"type":"Feature","properties":{"tier":"regional"},"geometry":{"type":"LineString","coordinates":[[133.686557,-32.122159],[133.686584,-32.121862],[133.686614,-32.121512],[133.686652,-32.121045],[133.686668,-32.120849],[133.686646,-32.120276],[133.68655,-32.119958],[133.68641,-32.119604],[133.685649,-32.118186],[133.685434,-32.117914],[133.685187,-32.117714],[133.683196,-32.116511]]}},{"type":"Feature","properties":{"tier":"arterial"},"geometry":{"type":"LineString","coordinates":[[133.676336,-32.129444],[133.676009,-32.129816],[133.675785,-32.130001],[133.67557,-32.13022],[133.674958,-32.130899]]}},{"type":"Feature","properties":{"tier":"regional"},"geometry":{"type":"LineString","coordinates":[[133.637046,-32.08885],[133.63787,-32.089125],[133.639237,-32.089799],[133.640091,-32.09027],[133.641858,-32.091243],[133.642869,-32.091758],[133.644514,-32.092538],[133.646272,-32.093236],[133.648608,-32.094162],[133.650883,-32.095113],[133.65195,-32.095716],[133.653111,-32.096676],[133.654158,-32.097626],[133.655925,-32.099231],[133.656903,-32.100118],[133.657128,-32.100321],[133.658296,-32.101374],[133.658527,-32.101582],[133.659117,-32.101967],[133.659872,-32.10232],[133.660491,-32.102525],[133.66143,-32.102631],[133.664439,-32.102852],[133.6648,-32.102889],[133.665165,-32.102926],[133.665668,-32.103055],[133.665774,-32.103082],[133.666123,-32.10322],[133.66679,-32.103484],[133.666929,-32.103553],[133.668803,-32.1045],[133.670229,-32.105322],[133.670511,-32.105474],[133.670989,-32.105679],[133.671391,-32.105779],[133.671858,-32.105905],[133.672064,-32.105987]]}},{"type":"Feature","properties":{"tier":"high"},"geometry":{"type":"LineString","coordinates":[[133.683964,-32.122595],[133.684095,-32.122449],[133.684123,-32.122346],[133.684116,-32.122294],[133.684087,-32.122241],[133.683858,-32.122093]]}},{"type":"Feature","properties":{"tier":"regional"},"geometry":{"type":"LineString","coordinates":[[133.577241,-32.063639],[133.577547,-32.064945],[133.581178,-32.081408],[133.582218,-32.086132],[133.582302,-32.086396]]}},{"type":"Feature","properties":{"tier":"regional"},"geometry":{"type":"LineString","coordinates":[[133.572559,-32.063453],[133.572489,-32.062834],[133.571673,-32.059666],[133.571645,-32.059551],[133.571558,-32.059182],[133.57154,-32.05911],[133.570018,-32.052873],[133.568553,-32.04711],[133.568542,-32.046865],[133.568643,-32.046563],[133.568879,-32.046332],[133.576257,-32.040079],[133.57774,-32.038899]]}},{"type":"Feature","properties":{"tier":"arterial"},"geometry":{"type":"LineString","coordinates":[[133.676985,-32.125769],[133.677552,-32.125507],[133.678542,-32.125064],[133.679259,-32.124728],[133.680121,-32.124338],[133.680728,-32.124066],[133.681244,-32.123824],[133.6822,-32.123388],[133.683115,-32.122972],[133.683705,-32.122708]]}},{"type":"Feature","properties":{"tier":"arterial"},"geometry":{"type":"LineString","coordinates":[[133.676543,-32.126319],[133.676531,-32.12738],[133.676533,-32.128276]]}},{"type":"Feature","properties":{"tier":"arterial"},"geometry":{"type":"LineString","coordinates":[[133.676593,-32.125851],[133.676611,-32.125863],[133.676636,-32.125892],[133.676648,-32.125927],[133.676646,-32.125963],[133.676632,-32.125991],[133.67661,-32.126014],[133.676581,-32.126031],[133.676549,-32.126041],[133.676515,-32.126042],[133.676482,-32.126036],[133.676468,-32.12603],[133.67644,-32.126013],[133.676419,-32.125989],[133.676406,-32.125962],[133.676403,-32.125933],[133.676412,-32.125899],[133.676435,-32.125869],[133.676467,-32.125847],[133.676502,-32.125836],[133.676538,-32.125835],[133.676574,-32.125842],[133.676593,-32.125851]]}},{"type":"Feature","properties":{"tier":"regional"},"geometry":{"type":"LineString","coordinates":[[133.67373,-32.125971],[133.673765,-32.125967],[133.6738,-32.125973],[133.673832,-32.125987],[133.673852,-32.126002],[133.673867,-32.12602],[133.673879,-32.126045],[133.673882,-32.126072],[133.673877,-32.126098],[133.673864,-32.126122],[133.673847,-32.126141],[133.673825,-32.126156],[133.673791,-32.126168],[133.673755,-32.126171],[133.673719,-32.126165],[133.673687,-32.126149],[133.673662,-32.126127],[133.673647,-32.126103],[133.673641,-32.126076],[133.673643,-32.12605],[133.673653,-32.126024],[133.673672,-32.126001],[133.673697,-32.125983],[133.67373,-32.125971]]}},{"type":"Feature","properties":{"tier":"regional"},"geometry":{"type":"LineString","coordinates":[[133.673673,-32.12416],[133.673693,-32.124136],[133.673721,-32.124117],[133.673758,-32.124104],[133.673798,-32.124102],[133.673837,-32.124109],[133.673872,-32.124127],[133.673899,-32.124154],[133.673915,-32.124186],[133.673918,-32.124221],[133.673908,-32.124255],[133.673887,-32.124284],[133.673856,-32.124306],[133.673824,-32.124318],[133.67379,-32.124322],[133.673755,-32.124319],[133.673723,-32.124308],[133.67369,-32.124284],[133.673667,-32.124253],[133.673658,-32.124217],[133.673661,-32.124188],[133.673673,-32.12416]]}},{"type":"Feature","properties":{"tier":"regional"},"geometry":{"type":"LineString","coordinates":[[133.673721,-32.124117],[133.673727,-32.12406],[133.673737,-32.123983],[133.673734,-32.123848],[133.673748,-32.123306],[133.673746,-32.122421],[133.673743,-32.122299],[133.673736,-32.121247]]}},{"type":"Feature","properties":{"tier":"high"},"geometry":{"type":"LineString","coordinates":[[133.672647,-32.11023],[133.672599,-32.110069],[133.672563,-32.109839],[133.6725,-32.109443],[133.672398,-32.108643],[133.672341,-32.108304]]}},{"type":"Feature","properties":{"tier":"high"},"geometry":{"type":"LineString","coordinates":[[133.672397,-32.10821],[133.672437,-32.108405],[133.672494,-32.108707],[133.672503,-32.108769],[133.67252,-32.108887],[133.672532,-32.109006],[133.672555,-32.109219]]}},{"type":"Feature","properties":{"tier":"high"},"geometry":{"type":"LineString","coordinates":[[133.672644,-32.094773],[133.672777,-32.093461],[133.67291,-32.092313],[133.672955,-32.091836],[133.672994,-32.091321],[133.673019,-32.090879],[133.673029,-32.090545],[133.673049,-32.08899],[133.673054,-32.088295],[133.673055,-32.087879],[133.673049,-32.087437],[133.673031,-32.087149],[133.673013,-32.086877],[133.67296,-32.0865],[133.672931,-32.086352],[133.67277,-32.085802],[133.672697,-32.085616],[133.672512,-32.085227],[133.672258,-32.084803],[133.671993,-32.084451],[133.67188,-32.084322],[133.671742,-32.084181],[133.671381,-32.083839],[133.671271,-32.083742],[133.67107,-32.083573],[133.670776,-32.083356],[133.670469,-32.083118],[133.669592,-32.082473],[133.657177,-32.073794],[133.656202,-32.073107],[133.654352,-32.071798],[133.653479,-32.071186],[133.651264,-32.069642],[133.650582,-32.06916],[133.649431,-32.06834],[133.648922,-32.067988],[133.648373,-32.067639],[133.647951,-32.067395],[133.647638,-32.067241],[133.647378,-32.06712],[133.647039,-32.066981],[133.646804,-32.066895],[133.64645,-32.066776],[133.646065,-32.066676],[133.64583,-32.066622],[133.645474,-32.06655],[133.64516,-32.066505],[133.644857,-32.06647],[133.644419,-32.066433],[133.643495,-32.066384],[133.643001,-32.066363],[133.640357,-32.066268],[133.637568,-32.066157],[133.635817,-32.066088],[133.630467,-32.065876],[133.629914,-32.065854],[133.628849,-32.065812],[133.62843,-32.065778],[133.628213,-32.065755],[133.627866,-32.065717],[133.627325,-32.065628],[133.626861,-32.065556],[133.626039,-32.065297],[133.625846,-32.06522],[133.625416,-32.065048],[133.624714,-32.06471],[133.624094,-32.064366],[133.623048,-32.063801],[133.617131,-32.06055],[133.611472,-32.057473],[133.59543,-32.048613],[133.59352,-32.04755],[133.588448,-32.044746],[133.585913,-32.043299],[133.583454,-32.042015],[133.580691,-32.040484],[133.579976,-32.040131],[133.57774,-32.038899],[133.576034,-32.037962],[133.573293,-32.036456],[133.569668,-32.034452],[133.561178,-32.029798],[133.550946,-32.02413],[133.550859,-32.024077],[133.550021,-32.02362],[133.52989,-32.012418],[133.508855,-32.000819],[133.507286,-31.99998]]}},{"type":"Feature","properties":{"tier":"high"},"geometry":{"type":"LineString","coordinates":[[133.678262,-32.121445],[133.67798,-32.121355],[133.677484,-32.121264],[133.677042,-32.121216],[133.676513,-32.121199]]}},{"type":"Feature","properties":{"tier":"high"},"geometry":{"type":"LineString","coordinates":[[133.678683,-32.121757],[133.678632,-32.121735],[133.678592,-32.1217],[133.678574,-32.121672],[133.678564,-32.121642],[133.678562,-32.121598],[133.678576,-32.121557],[133.678603,-32.12152],[133.678641,-32.121491],[133.678687,-32.121473],[133.678746,-32.121468],[133.678793,-32.121475],[133.678835,-32.121493],[133.67887,-32.12152],[133.67889,-32.121546],[133.678904,-32.121574],[133.678911,-32.121619],[133.678901,-32.121664],[133.678876,-32.121705],[133.678837,-32.121736],[133.678789,-32.121757],[133.678739,-32.121764],[133.678683,-32.121757]]}},{"type":"Feature","properties":{"tier":"high"},"geometry":{"type":"LineString","coordinates":[[133.673707,-32.120004],[133.673603,-32.119148],[133.67358,-32.118758],[133.67355,-32.118254]]}},{"type":"Feature","properties":{"tier":"high"},"geometry":{"type":"LineString","coordinates":[[133.673735,-32.121138],[133.673707,-32.120004]]}},{"type":"Feature","properties":{"tier":"high"},"geometry":{"type":"LineString","coordinates":[[133.673707,-32.120004],[133.673813,-32.120561],[133.673874,-32.121139]]}},{"type":"Feature","properties":{"tier":"regional"},"geometry":{"type":"LineString","coordinates":[[133.678746,-32.121468],[133.679045,-32.121276]]}},{"type":"Feature","properties":{"tier":"regional"},"geometry":{"type":"LineString","coordinates":[[133.679045,-32.121276],[133.67887,-32.12152]]}},{"type":"Feature","properties":{"tier":"high"},"geometry":{"type":"LineString","coordinates":[[133.678262,-32.121445],[133.678512,-32.121468],[133.678687,-32.121473]]}},{"type":"Feature","properties":{"tier":"high"},"geometry":{"type":"LineString","coordinates":[[133.678564,-32.121642],[133.678425,-32.121533],[133.678262,-32.121445]]}},{"type":"Feature","properties":{"tier":"high"},"geometry":{"type":"LineString","coordinates":[[133.679309,-32.121787],[133.679117,-32.121774],[133.678976,-32.121763],[133.678789,-32.121757]]}},{"type":"Feature","properties":{"tier":"high"},"geometry":{"type":"LineString","coordinates":[[133.678904,-32.121574],[133.679036,-32.121669],[133.679179,-32.121735],[133.679309,-32.121787]]}},{"type":"Feature","properties":{"tier":"high"},"geometry":{"type":"LineString","coordinates":[[133.676513,-32.121199],[133.676403,-32.121247],[133.675861,-32.121251],[133.67527,-32.12125],[133.675144,-32.12125],[133.674341,-32.12125],[133.673878,-32.121247]]}},{"type":"Feature","properties":{"tier":"high"},"geometry":{"type":"LineString","coordinates":[[133.673874,-32.121139],[133.674339,-32.121139],[133.675494,-32.121138],[133.675857,-32.121143],[133.676388,-32.121151],[133.676513,-32.121199]]}},{"type":"Feature","properties":{"tier":"arterial"},"geometry":{"type":"LineString","coordinates":[[133.676985,-32.125769],[133.676923,-32.125847],[133.676646,-32.125963]]}},{"type":"Feature","properties":{"tier":"arterial"},"geometry":{"type":"LineString","coordinates":[[133.676611,-32.125863],[133.676871,-32.125771],[133.676985,-32.125769]]}},{"type":"Feature","properties":{"tier":"arterial"},"geometry":{"type":"LineString","coordinates":[[133.685142,-32.122195],[133.684853,-32.122295],[133.684433,-32.122408],[133.683964,-32.122595]]}},{"type":"Feature","properties":{"tier":"regional"},"geometry":{"type":"LineString","coordinates":[[133.676468,-32.12603],[133.676254,-32.126062],[133.676058,-32.126096],[133.675729,-32.126139],[133.675222,-32.126137],[133.675115,-32.126137],[133.673978,-32.126116],[133.673864,-32.126122]]}},{"type":"Feature","properties":{"tier":"regional"},"geometry":{"type":"LineString","coordinates":[[133.673867,-32.12602],[133.674034,-32.126036],[133.67511,-32.126041],[133.675222,-32.126045],[133.675405,-32.126046],[133.675735,-32.12604],[133.675852,-32.126038],[133.676036,-32.126009],[133.676212,-32.125977],[133.676403,-32.125933]]}},{"type":"Feature","properties":{"tier":"arterial"},"geometry":{"type":"LineString","coordinates":[[133.676581,-32.126031],[133.676585,-32.126231],[133.676543,-32.126319]]}},{"type":"Feature","properties":{"tier":"arterial"},"geometry":{"type":"LineString","coordinates":[[133.676467,-32.125847],[133.676479,-32.125625],[133.676535,-32.125577]]}},{"type":"Feature","properties":{"tier":"arterial"},"geometry":{"type":"LineString","coordinates":[[133.676535,-32.125577],[133.676585,-32.125625],[133.676574,-32.125842]]}},{"type":"Feature","properties":{"tier":"arterial"},"geometry":{"type":"LineString","coordinates":[[133.676543,-32.126319],[133.676485,-32.126234],[133.676482,-32.126036]]}},{"type":"Feature","properties":{"tier":"arterial"},"geometry":{"type":"LineString","coordinates":[[133.678739,-32.121764],[133.678617,-32.121863],[133.678423,-32.121971]]}},{"type":"Feature","properties":{"tier":"arterial"},"geometry":{"type":"LineString","coordinates":[[133.678423,-32.121971],[133.678542,-32.121797],[133.678592,-32.1217]]}},{"type":"Feature","properties":{"tier":"regional"},"geometry":{"type":"LineString","coordinates":[[133.673697,-32.125983],[133.673718,-32.125915],[133.673733,-32.124399],[133.673723,-32.124308]]}},{"type":"Feature","properties":{"tier":"regional"},"geometry":{"type":"LineString","coordinates":[[133.673856,-32.124306],[133.673833,-32.124367],[133.673831,-32.124468],[133.673836,-32.125203],[133.673835,-32.125296],[133.673834,-32.125478],[133.673834,-32.125562],[133.673832,-32.12588],[133.673832,-32.125987]]}},{"type":"Feature","properties":{"tier":"regional"},"geometry":{"type":"LineString","coordinates":[[133.673878,-32.121247],[133.673884,-32.121403],[133.673867,-32.122296],[133.673871,-32.122423],[133.67386,-32.123303],[133.673838,-32.123919],[133.673832,-32.124031],[133.673837,-32.124109]]}},{"type":"Feature","properties":{"tier":"regional"},"geometry":{"type":"LineString","coordinates":[[133.582302,-32.086396],[133.58233,-32.086604],[133.582786,-32.08857],[133.583276,-32.090956],[133.583327,-32.091379],[133.583293,-32.092067],[133.583228,-32.09268],[133.5832,-32.092984],[133.58309,-32.093392],[133.582968,-32.093623],[133.582887,-32.093757],[133.582532,-32.094323],[133.582185,-32.094683],[133.581805,-32.095046],[133.581264,-32.095612],[133.581174,-32.095731],[133.581054,-32.095891],[133.580711,-32.096349],[133.58061,-32.096524],[133.580589,-32.096561],[133.580179,-32.09726],[133.579354,-32.098835],[133.579274,-32.098995],[133.579201,-32.099384],[133.579127,-32.100192],[133.579079,-32.10116]]}},{"type":"Feature","properties":{"tier":"regional"},"geometry":{"type":"LineString","coordinates":[[133.673748,-32.123306],[133.67386,-32.123303]]}},{"type":"Feature","properties":{"tier":"regional"},"geometry":{"type":"LineString","coordinates":[[133.673787,-32.127159],[133.673904,-32.128307],[133.673955,-32.129265],[133.674041,-32.130187],[133.674138,-32.131073],[133.674155,-32.1312],[133.674178,-32.131384],[133.674187,-32.131448]]}},{"type":"Feature","properties":{"tier":"arterial"},"geometry":{"type":"LineString","coordinates":[[133.674155,-32.1312],[133.674277,-32.131255],[133.674427,-32.131277]]}},{"type":"Feature","properties":{"tier":"arterial"},"geometry":{"type":"LineString","coordinates":[[133.735166,-32.127786],[133.735162,-32.127786],[133.735157,-32.127783],[133.73515,-32.127777],[133.735136,-32.12776],[133.73511,-32.127724],[133.735065,-32.127652],[133.734996,-32.12754],[133.734896,-32.127333],[133.734739,-32.127093],[133.734597,-32.126979],[133.734458,-32.126897],[133.734331,-32.126857],[133.734209,-32.126825],[133.73398,-32.126765]]}},{"type":"Feature","properties":{"tier":"regional"},"geometry":{"type":"LineString","coordinates":[[133.577241,-32.063639],[133.572559,-32.063453]]}},{"type":"Feature","properties":{"tier":"regional"},"geometry":{"type":"LineString","coordinates":[[133.582302,-32.086396],[133.582695,-32.086362],[133.583908,-32.086154],[133.586214,-32.08573],[133.588268,-32.085392],[133.588875,-32.085316],[133.589954,-32.085198],[133.590533,-32.085143],[133.590785,-32.085127],[133.592979,-32.084969],[133.595153,-32.084722],[133.598203,-32.084321],[133.602584,-32.08369],[133.603014,-32.083667],[133.603583,-32.08369],[133.604275,-32.083801],[133.610883,-32.085019],[133.611461,-32.085152],[133.615915,-32.086309],[133.617627,-32.086732],[133.618297,-32.086847],[133.619703,-32.086932],[133.621245,-32.08701],[133.624637,-32.087169],[133.625633,-32.087246],[133.631149,-32.087844],[133.634456,-32.088159],[133.635346,-32.088346],[133.635878,-32.088458],[133.637046,-32.08885]]}},{"type":"Feature","properties":{"tier":"high"},"geometry":{"type":"LineString","coordinates":[[133.685142,-32.122195],[133.685236,-32.122195]]}},{"type":"Feature","properties":{"tier":"high"},"geometry":{"type":"LineString","coordinates":[[133.756546,-32.129116],[133.762601,-32.129777],[133.776321,-32.131217],[133.776803,-32.131239],[133.777128,-32.131253],[133.77748,-32.131247],[133.777879,-32.131215],[133.781699,-32.130726],[133.802354,-32.128109],[133.808711,-32.1273],[133.814293,-32.126582],[133.816105,-32.126349],[133.818169,-32.126083],[133.820074,-32.125841],[133.821421,-32.125667],[133.825904,-32.125088],[133.826337,-32.125032],[133.826647,-32.124995],[133.826972,-32.124966],[133.827297,-32.124961],[133.827616,-32.12497],[133.827901,-32.124983],[133.828238,-32.125016],[133.828505,-32.125055],[133.828792,-32.125107],[133.829092,-32.125173],[133.829433,-32.125248],[133.829864,-32.125347],[133.830239,-32.125436],[133.832757,-32.125989],[133.837427,-32.127029],[133.842884,-32.128235],[133.845533,-32.128821],[133.84583,-32.128893],[133.846135,-32.128975],[133.84642,-32.12906],[133.846696,-32.129156],[133.846949,-32.129246],[133.847287,-32.129394],[133.847547,-32.129528],[133.847857,-32.129706],[133.848126,-32.129882],[133.848341,-32.130038],[133.848624,-32.130259],[133.848874,-32.130497],[133.849126,-32.130743],[133.849375,-32.131032],[133.849573,-32.131285],[133.849783,-32.131569],[133.851708,-32.134171],[133.852203,-32.134793],[133.852404,-32.135021],[133.852635,-32.135261],[133.852809,-32.135419],[133.853318,-32.135844],[133.855577,-32.137575],[133.857172,-32.138847],[133.857494,-32.139101],[133.857714,-32.139265],[133.857977,-32.139423],[133.858265,-32.139589],[133.858527,-32.13972],[133.858822,-32.139847],[133.859136,-32.139968],[133.859475,-32.140083],[133.859851,-32.140194],[133.860249,-32.140285],[133.860698,-32.140379],[133.864559,-32.141223],[133.874074,-32.143325],[133.874199,-32.143353],[133.877802,-32.144144],[133.880756,-32.144792],[133.885085,-32.145768],[133.88523,-32.145799],[133.888345,-32.146468],[133.890497,-32.146939],[133.891508,-32.14716],[133.895178,-32.147962],[133.900877,-32.149189],[133.91022,-32.151213],[133.917522,-32.152791],[133.9239,-32.154189],[133.929869,-32.15549],[133.937803,-32.157204],[133.944455,-32.158642],[133.955957,-32.161132],[133.969092,-32.163978],[133.981728,-32.166723],[134.00002,-32.170686]]}},{"type":"Feature","properties":{"tier":"high"},"geometry":{"type":"LineString","coordinates":[[133.683858,-32.122093],[133.684052,-32.122117],[133.684409,-32.122151]]}},{"type":"Feature","properties":{"tier":"high"},"geometry":{"type":"LineString","coordinates":[[133.689699,-32.122349],[133.690457,-32.122397],[133.692925,-32.122539],[133.693286,-32.122554],[133.69408,-32.122606],[133.694382,-32.122627],[133.694807,-32.122657],[133.695023,-32.122675],[133.695326,-32.1227],[133.695635,-32.122724],[133.695938,-32.122753],[133.696174,-32.122776],[133.696541,-32.122809],[133.697309,-32.122882],[133.697682,-32.122917],[133.698261,-32.122973],[133.699118,-32.123056],[133.699212,-32.123067],[133.70021,-32.123193],[133.701464,-32.12335],[133.702034,-32.123413],[133.702189,-32.12343],[133.703023,-32.123517],[133.704104,-32.123631],[133.704159,-32.123637],[133.705765,-32.123804]]}},{"type":"Feature","properties":{"tier":"arterial"},"geometry":{"type":"LineString","coordinates":[[134.00002,-32.393377],[133.994013,-32.391519],[133.991302,-32.390682],[133.990075,-32.390272],[133.984204,-32.388508],[133.983725,-32.388362],[133.983272,-32.388209],[133.976764,-32.386199],[133.975653,-32.385832],[133.974551,-32.385384],[133.973568,-32.384901],[133.972627,-32.384321],[133.97191,-32.383746],[133.97097,-32.382888],[133.970125,-32.381993],[133.967586,-32.379019],[133.963933,-32.374722],[133.963366,-32.374064],[133.96026,-32.370427],[133.959514,-32.369553],[133.953984,-32.363112],[133.948372,-32.356557],[133.936308,-32.342394],[133.923789,-32.327694],[133.921935,-32.325519],[133.916476,-32.319137],[133.889928,-32.287833],[133.885237,-32.282295],[133.864273,-32.257536],[133.856268,-32.248083]]}},{"type":"Feature","properties":{"tier":"regional"},"geometry":{"type":"LineString","coordinates":[[133.673722,-32.127024],[133.673719,-32.126165]]}},{"type":"Feature","properties":{"tier":"high"},"geometry":{"type":"LineString","coordinates":[[133.673735,-32.121138],[133.673874,-32.121139]]}},{"type":"Feature","properties":{"tier":"high"},"geometry":{"type":"LineString","coordinates":[[133.673874,-32.121139],[133.673878,-32.121247]]}},{"type":"Feature","properties":{"tier":"high"},"geometry":{"type":"LineString","coordinates":[[133.73398,-32.126765],[133.734715,-32.126838]]}},{"type":"Feature","properties":{"tier":"high"},"geometry":{"type":"LineString","coordinates":[[133.705765,-32.123804],[133.724122,-32.125717],[133.725985,-32.125922],[133.732257,-32.126563]]}},{"type":"Feature","properties":{"tier":"high"},"geometry":{"type":"LineString","coordinates":[[133.672318,-32.10781],[133.672397,-32.10821]]}},{"type":"Feature","properties":{"tier":"high"},"geometry":{"type":"LineString","coordinates":[[133.672341,-32.108304],[133.672318,-32.10781]]}},{"type":"Feature","properties":{"tier":"arterial"},"geometry":{"type":"LineString","coordinates":[[133.683964,-32.122595],[133.68426,-32.122374],[133.684361,-32.122244]]}},{"type":"Feature","properties":{"tier":"arterial"},"geometry":{"type":"LineString","coordinates":[[133.683705,-32.122708],[133.683791,-32.122671]]}},{"type":"Feature","properties":{"tier":"arterial"},"geometry":{"type":"LineString","coordinates":[[133.684361,-32.122244],[133.684409,-32.122151]]}},{"type":"Feature","properties":{"tier":"arterial"},"geometry":{"type":"LineString","coordinates":[[133.673929,-32.131462],[133.674076,-32.131323],[133.674155,-32.1312]]}},{"type":"Feature","properties":{"tier":"high"},"geometry":{"type":"LineString","coordinates":[[133.734715,-32.126838],[133.737318,-32.12711]]}},{"type":"Feature","properties":{"tier":"arterial"},"geometry":{"type":"LineString","coordinates":[[133.734715,-32.126838],[133.73497,-32.127375],[133.735166,-32.127786]]}},{"type":"Feature","properties":{"tier":"high"},"geometry":{"type":"LineString","coordinates":[[133.732257,-32.126563],[133.73398,-32.126765]]}},{"type":"Feature","properties":{"tier":"arterial"},"geometry":{"type":"LineString","coordinates":[[133.735166,-32.127786],[133.735333,-32.128053],[133.735465,-32.128258],[133.735591,-32.128416],[133.735783,-32.128639]]}},{"type":"Feature","properties":{"tier":"high"},"geometry":{"type":"LineString","coordinates":[[133.684409,-32.122151],[133.684672,-32.122186],[133.684977,-32.122194],[133.685142,-32.122195]]}},{"type":"Feature","properties":{"tier":"high"},"geometry":{"type":"LineString","coordinates":[[133.673736,-32.121247],[133.673735,-32.121138]]}},{"type":"Feature","properties":{"tier":"high"},"geometry":{"type":"LineString","coordinates":[[133.673878,-32.121247],[133.673736,-32.121247]]}},{"type":"Feature","properties":{"tier":"arterial"},"geometry":{"type":"LineString","coordinates":[[133.735783,-32.128639],[133.735984,-32.128851],[133.736263,-32.129109],[133.736783,-32.129512],[133.74363,-32.134289]]}},{"type":"Feature","properties":{"tier":"high"},"geometry":{"type":"LineString","coordinates":[[133.737318,-32.12711],[133.740383,-32.12743],[133.756546,-32.129116]]}},{"type":"Feature","properties":{"tier":"high"},"geometry":{"type":"LineString","coordinates":[[133.671943,-32.105165],[133.671759,-32.104003],[133.671722,-32.103548],[133.671725,-32.10288],[133.671754,-32.102491],[133.67179,-32.102133],[133.672061,-32.099983],[133.672085,-32.099795],[133.672137,-32.09938],[133.672191,-32.098989],[133.672644,-32.094773]]}},{"type":"Feature","properties":{"tier":"high"},"geometry":{"type":"LineString","coordinates":[[133.672318,-32.10781],[133.672155,-32.106681],[133.672064,-32.105987],[133.671943,-32.105165]]}},{"type":"Feature","properties":{"tier":"high"},"geometry":{"type":"LineString","coordinates":[[133.672555,-32.109219],[133.672576,-32.109433],[133.672599,-32.109732],[133.67263,-32.110043],[133.672647,-32.11023]]}},{"type":"Feature","properties":{"tier":"regional"},"geometry":{"type":"LineString","coordinates":[[133.938438,-32.376242],[133.937322,-32.376805],[133.937174,-32.376858]]}},{"type":"Feature","properties":{"tier":"regional"},"geometry":{"type":"LineString","coordinates":[[133.943993,-32.374369],[133.943467,-32.374376],[133.94279,-32.374448],[133.942519,-32.374499],[133.94242,-32.374516],[133.941723,-32.374708],[133.941222,-32.374886],[133.940183,-32.375381],[133.939395,-32.375757],[133.938438,-32.376242]]}},{"type":"Feature","properties":{"tier":"regional"},"geometry":{"type":"LineString","coordinates":[[133.923821,-32.459562],[133.923584,-32.4591]]}},{"type":"Feature","properties":{"tier":"arterial"},"geometry":{"type":"LineString","coordinates":[[133.673163,-32.132097],[133.673522,-32.131727],[133.673613,-32.131645],[133.673715,-32.131563],[133.673818,-32.131506],[133.673929,-32.131462],[133.674178,-32.131384]]}},{"type":"Feature","properties":{"tier":"regional"},"geometry":{"type":"LineString","coordinates":[[133.657583,-32.144865],[133.655383,-32.145199],[133.653848,-32.145431],[133.652709,-32.145604],[133.651521,-32.145784],[133.650814,-32.145891],[133.650211,-32.145982]]}},{"type":"Feature","properties":{"tier":"regional"},"geometry":{"type":"LineString","coordinates":[[133.659507,-32.144399],[133.659382,-32.144463],[133.659189,-32.144545],[133.658921,-32.144627],[133.658541,-32.144706],[133.657583,-32.144865]]}},{"type":"Feature","properties":{"tier":"high"},"geometry":{"type":"LineString","coordinates":[[133.683658,-32.122078],[133.683858,-32.122093]]}},{"type":"Feature","properties":{"tier":"high"},"geometry":{"type":"LineString","coordinates":[[133.685236,-32.122195],[133.685414,-32.122182],[133.685613,-32.122154],[133.685835,-32.122143]]}},{"type":"Feature","properties":{"tier":"arterial"},"geometry":{"type":"LineString","coordinates":[[133.683791,-32.122671],[133.683964,-32.122595]]}},{"type":"Feature","properties":{"tier":"arterial"},"geometry":{"type":"LineString","coordinates":[[133.674187,-32.131448],[133.674049,-32.131494],[133.673935,-32.131545],[133.67384,-32.131598],[133.673764,-32.131645],[133.67361,-32.131757],[133.673239,-32.13215],[133.672358,-32.133069],[133.672261,-32.133116]]}},{"type":"Feature","properties":{"tier":"arterial"},"geometry":{"type":"LineString","coordinates":[[133.674958,-32.130899],[133.674959,-32.130954],[133.674775,-32.131129],[133.674669,-32.131217],[133.674498,-32.131325],[133.674411,-32.131366],[133.674325,-32.131402],[133.674187,-32.131448]]}},{"type":"Feature","properties":{"tier":"arterial"},"geometry":{"type":"LineString","coordinates":[[133.674178,-32.131384],[133.674309,-32.131334],[133.674427,-32.131277],[133.67457,-32.131191],[133.674686,-32.1311],[133.674883,-32.130912],[133.674958,-32.130899]]}},{"type":"Feature","properties":{"tier":"arterial"},"geometry":{"type":"LineString","coordinates":[[133.672261,-32.133116],[133.672284,-32.133013],[133.673163,-32.132097]]}},{"type":"Feature","properties":{"tier":"regional"},"geometry":{"type":"LineString","coordinates":[[133.673787,-32.127159],[133.673722,-32.127024]]}},{"type":"Feature","properties":{"tier":"regional"},"geometry":{"type":"LineString","coordinates":[[133.673832,-32.127025],[133.673787,-32.127159]]}},{"type":"Feature","properties":{"tier":"arterial"},"geometry":{"type":"LineString","coordinates":[[133.676585,-32.125625],[133.676654,-32.125702],[133.676747,-32.125754],[133.676871,-32.125771]]}},{"type":"Feature","properties":{"tier":"arterial"},"geometry":{"type":"LineString","coordinates":[[133.676485,-32.126234],[133.67643,-32.126143],[133.67636,-32.126097],[133.676254,-32.126062]]}},{"type":"Feature","properties":{"tier":"regional"},"geometry":{"type":"LineString","coordinates":[[133.650211,-32.145982],[133.650116,-32.146018],[133.649985,-32.146077]]}}]}
