{"type":"FeatureCollection","features":[{"type":"Feature","properties":{"tier":"regional"},"geometry":{"type":"LineString","coordinates":[[134.21981,-32.488306],[134.21996,-32.488143],[134.220389,-32.487926],[134.228093,-32.484089],[134.230153,-32.483039],[134.230882,-32.482623],[134.23571,-32.479582],[134.255644,-32.466983],[134.261438,-32.463344],[134.261674,-32.463163],[134.263412,-32.461841],[134.265708,-32.460048],[134.265965,-32.459904],[134.269754,-32.458149],[134.270674,-32.457723],[134.27685,-32.454869],[134.279439,-32.453672],[134.290599,-32.448515],[134.2912,-32.448279],[134.2915,-32.448225],[134.293195,-32.448062],[134.294075,-32.4477],[134.300341,-32.444875],[134.301907,-32.444006],[134.302376,-32.443511],[134.302594,-32.443281],[134.302832,-32.443032],[134.304868,-32.440909],[134.306228,-32.439859],[134.306392,-32.439732],[134.306757,-32.439533],[134.318996,-32.433097],[134.324631,-32.430134],[134.327785,-32.428649],[134.330629,-32.427174],[134.33207,-32.426427],[134.346754,-32.418813],[134.350358,-32.416767],[134.350938,-32.41635],[134.3598,-32.410209],[134.360508,-32.409684],[134.360851,-32.409285],[134.360876,-32.409233],[134.36098,-32.409013],[134.361148,-32.408689],[134.361924,-32.407184],[134.362848,-32.406007],[134.363104,-32.40568],[134.365787,-32.403452],[134.366752,-32.402582],[134.368898,-32.399991],[134.370043,-32.398383],[134.370316,-32.398]]}},{"type":"Feature","properties":{"tier":"high"},"geometry":{"type":"LineString","coordinates":[[133.99998,-32.170677],[134.00055,-32.170801],[134.004474,-32.171641],[134.006388,-32.172069],[134.006639,-32.17213],[134.006919,-32.172207],[134.007127,-32.172273],[134.007413,-32.172376],[134.007711,-32.172496],[134.007968,-32.17261],[134.008248,-32.172735],[134.0086,-32.172897],[134.008962,-32.173063],[134.009555,-32.173333],[134.010386,-32.173702],[134.012877,-32.174798],[134.013767,-32.1752],[134.014637,-32.175597],[134.01546,-32.175961],[134.016646,-32.176478],[134.017901,-32.177056],[134.019225,-32.177647],[134.025104,-32.180265],[134.039046,-32.186516],[134.039931,-32.186901],[134.040177,-32.186998],[134.04045,-32.187097],[134.040705,-32.187177],[134.041015,-32.187262],[134.041323,-32.18734],[134.041724,-32.187431],[134.042269,-32.187545],[134.043186,-32.187745],[134.046301,-32.188432],[134.054392,-32.190185],[134.059433,-32.191287],[134.065549,-32.192615],[134.06967,-32.193518],[134.069956,-32.19359],[134.070281,-32.19368],[134.070591,-32.193785],[134.070862,-32.193887],[134.071104,-32.193993],[134.071404,-32.194131],[134.071761,-32.194301],[134.07212,-32.194474],[134.074178,-32.195495],[134.079185,-32.198026],[134.082842,-32.199865],[134.087773,-32.202368],[134.088906,-32.202923],[134.09022,-32.203596],[134.093152,-32.205087],[134.095256,-32.206128],[134.099107,-32.208076],[134.101231,-32.209148],[134.10384,-32.210494],[134.104249,-32.210678],[134.104562,-32.210798],[134.104891,-32.210916],[134.105244,-32.211028],[134.105586,-32.211113],[134.105932,-32.211186],[134.106239,-32.211236],[134.106544,-32.211271],[134.106885,-32.211299],[134.10738,-32.211318],[134.108028,-32.211312],[134.111378,-32.211268],[134.118965,-32.211193],[134.11955,-32.21118],[134.12038,-32.211134],[134.121239,-32.211064],[134.124403,-32.210792],[134.129172,-32.210365],[134.12942,-32.21034],[134.130608,-32.210225],[134.133661,-32.209903],[134.139835,-32.209386],[134.139998,-32.209378],[134.140212,-32.20938],[134.140427,-32.209388],[134.140656,-32.209407],[134.140947,-32.209441],[134.141216,-32.209478],[134.141443,-32.209522],[134.14168,-32.209573],[134.14186,-32.209616],[134.142062,-32.209672],[134.142284,-32.20974],[134.142472,-32.209806],[134.14269,-32.209889],[134.142866,-32.20996],[134.143061,-32.210044],[134.143748,-32.210377],[134.149287,-32.212998],[134.159053,-32.217633],[134.160146,-32.218156],[134.161588,-32.218845],[134.161903,-32.219013],[134.162178,-32.219183],[134.16239,-32.219319],[134.162632,-32.21949],[134.162858,-32.219678],[134.163159,-32.219951],[134.163565,-32.22034],[134.163737,-32.220505],[134.167166,-32.224055],[134.167666,-32.224586],[134.168024,-32.225038],[134.168301,-32.225494],[134.168451,-32.225843],[134.168585,-32.226267],[134.168689,-32.226724],[134.168734,-32.227164],[134.169754,-32.237607],[134.169809,-32.237919],[134.169875,-32.238182],[134.169961,-32.23844],[134.170097,-32.238779],[134.17023,-32.239041],[134.170386,-32.239365],[134.171935,-32.242537],[134.172579,-32.2438],[134.172843,-32.244228],[134.173083,-32.244545],[134.173266,-32.244764],[134.173507,-32.245035],[134.173844,-32.245369],[134.174059,-32.245544],[134.174397,-32.245795],[134.174809,-32.24608],[134.175367,-32.24647],[134.178201,-32.248319],[134.183884,-32.252095],[134.190799,-32.256668],[134.195716,-32.25989],[134.196513,-32.260412],[134.196968,-32.260726],[134.197133,-32.260838],[134.197269,-32.260932],[134.197426,-32.261046],[134.197609,-32.261191],[134.197789,-32.261354],[134.197947,-32.261492],[134.198121,-32.261656],[134.198275,-32.261815],[134.198442,-32.261992],[134.200276,-32.263885],[134.201965,-32.265608],[134.203334,-32.267018],[134.20494,-32.268645],[134.20604,-32.269788],[134.20732,-32.271105],[134.208268,-32.272062],[134.208664,-32.27243],[134.208816,-32.272559],[134.208949,-32.272658],[134.209084,-32.272751],[134.209265,-32.272868],[134.209395,-32.272945],[134.209448,-32.272981],[134.209607,-32.273071],[134.214565,-32.27594],[134.216335,-32.276973],[134.216491,-32.277072],[134.216694,-32.277199],[134.216929,-32.277359],[134.217142,-32.277523],[134.217275,-32.277632],[134.217429,-32.277763],[134.217612,-32.277935],[134.217776,-32.278104],[134.218953,-32.279315],[134.219255,-32.279593],[134.219615,-32.279888],[134.219817,-32.280035],[134.220027,-32.280171],[134.220371,-32.280382],[134.220618,-32.28051],[134.221892,-32.28107],[134.225826,-32.28277],[134.226318,-32.283011],[134.226598,-32.28317],[134.226884,-32.283357],[134.227089,-32.283505],[134.227282,-32.283651],[134.227513,-32.283832],[134.230385,-32.286197],[134.234847,-32.289883],[134.23928,-32.293577],[134.241607,-32.295499],[134.242887,-32.296557],[134.24314,-32.296764],[134.246513,-32.299531],[134.250721,-32.302987],[134.252437,-32.304401],[134.253224,-32.30505],[134.253763,-32.305493],[134.256579,-32.307808],[134.259447,-32.310183],[134.2598,-32.310451],[134.260032,-32.310614],[134.260229,-32.310739],[134.262585,-32.312248],[134.265665,-32.31422],[134.266246,-32.314597],[134.266461,-32.31475],[134.266688,-32.314922],[134.266883,-32.315092],[134.267114,-32.315312],[134.267352,-32.31555],[134.267662,-32.315882],[134.270643,-32.319183],[134.270926,-32.319501],[134.271072,-32.31966],[134.271223,-32.319807],[134.271423,-32.319997],[134.271771,-32.3203],[134.273036,-32.321336],[134.275558,-32.323439],[134.277519,-32.325047],[134.284737,-32.33103],[134.288219,-32.333917],[134.288506,-32.334154],[134.288845,-32.33443],[134.289222,-32.334691],[134.289528,-32.334872],[134.289847,-32.335034],[134.290249,-32.33521],[134.290648,-32.335364],[134.291021,-32.335488],[134.304054,-32.339722],[134.313019,-32.342652],[134.313293,-32.342749],[134.313573,-32.342853],[134.313824,-32.342956],[134.314086,-32.343077],[134.314358,-32.34322],[134.314662,-32.343388],[134.314974,-32.343572],[134.315291,-32.343767],[134.317257,-32.344976],[134.320475,-32.346905],[134.323922,-32.349003],[134.329348,-32.352265],[134.330065,-32.352717],[134.330429,-32.352944],[134.330652,-32.353099],[134.33082,-32.353228],[134.331033,-32.353414],[134.331303,-32.353669],[134.331493,-32.353872],[134.331703,-32.354114],[134.332079,-32.354553],[134.332607,-32.355177],[134.335711,-32.358909],[134.337513,-32.361021],[134.337919,-32.361512],[134.338195,-32.361834],[134.338499,-32.362227],[134.338756,-32.362593],[134.339003,-32.362963],[134.339204,-32.363303],[134.33944,-32.363702],[134.339822,-32.364366],[134.340285,-32.365153],[134.341419,-32.367127],[134.343974,-32.371469],[134.345173,-32.373543],[134.346462,-32.375772],[134.347247,-32.37713],[134.350638,-32.382941],[134.351018,-32.383558],[134.351239,-32.383876],[134.351427,-32.384114],[134.351587,-32.384296],[134.351742,-32.384458],[134.351951,-32.384664],[134.352182,-32.384866],[134.35249,-32.385118],[134.352729,-32.385309],[134.353013,-32.385535],[134.353492,-32.385917],[134.357724,-32.389418],[134.360007,-32.391245],[134.364239,-32.394315],[134.365557,-32.395279],[134.366039,-32.395612],[134.366407,-32.395845],[134.366828,-32.396093],[134.367311,-32.396366],[134.370316,-32.398],[134.372096,-32.398985],[134.373108,-32.399507],[134.373966,-32.399922],[134.375571,-32.400703],[134.376576,-32.401172],[134.377074,-32.401429],[134.377495,-32.401662],[134.378837,-32.402424],[134.383032,-32.404795],[134.385707,-32.406324],[134.386149,-32.406574],[134.386534,-32.406776],[134.386873,-32.406943],[134.387112,-32.407047],[134.38739,-32.407145],[134.387658,-32.407231],[134.387912,-32.407305],[134.388233,-32.40739],[134.388664,-32.4075],[134.389064,-32.407606],[134.38945,-32.407708],[134.389755,-32.407799],[134.390039,-32.407894],[134.390338,-32.408006],[134.390623,-32.408125],[134.391018,-32.408311],[134.391719,-32.408641],[134.39533,-32.410328],[134.395689,-32.410496],[134.396886,-32.411052],[134.397143,-32.411177],[134.397391,-32.411298],[134.397637,-32.411419],[134.397945,-32.411575],[134.398162,-32.411667],[134.398393,-32.411772],[134.398651,-32.411874],[134.398877,-32.411955],[134.399096,-32.412027],[134.399313,-32.412094],[134.39953,-32.412147],[134.399788,-32.412208],[134.400032,-32.412255],[134.400249,-32.412287],[134.400525,-32.412321],[134.400786,-32.412341],[134.401051,-32.412354],[134.401266,-32.412359],[134.401483,-32.412356],[134.401733,-32.41235],[134.401936,-32.412337],[134.40217,-32.412317],[134.403057,-32.412238],[134.404232,-32.412134],[134.406383,-32.411956],[134.409245,-32.411705],[134.410609,-32.411594],[134.416052,-32.411133],[134.416533,-32.411093],[134.416871,-32.411073],[134.417147,-32.411059],[134.417378,-32.411055],[134.417649,-32.411056],[134.41794,-32.411061],[134.420125,-32.411075],[134.431768,-32.411188],[134.432307,-32.411197],[134.432814,-32.411197],[134.433241,-32.411174],[134.433648,-32.411139],[134.434045,-32.411098],[134.434305,-32.411069],[134.434549,-32.411052],[134.434937,-32.411045],[134.439436,-32.411084],[134.44029,-32.411095],[134.443496,-32.411135],[134.445724,-32.411138],[134.454253,-32.411229],[134.457809,-32.411274],[134.466736,-32.411387],[134.47799,-32.411479],[134.48361,-32.411535],[134.491688,-32.411645],[134.492636,-32.411659],[134.493857,-32.411661],[134.494131,-32.411638],[134.494398,-32.411609],[134.494729,-32.411516],[134.495097,-32.41144],[134.496308,-32.41111],[134.50002,-32.40989]]}},{"type":"Feature","properties":{"tier":"regional"},"geometry":{"type":"LineString","coordinates":[[134.215698,-32.50002],[134.21584,-32.497473],[134.215926,-32.49693],[134.216173,-32.496396],[134.218458,-32.49237],[134.219005,-32.4917],[134.219145,-32.491573],[134.219661,-32.491187]]}},{"type":"Feature","properties":{"tier":"arterial"},"geometry":{"type":"LineString","coordinates":[[134.228179,-32.50002],[134.219661,-32.491187],[134.21941,-32.490922],[134.213128,-32.484427],[134.208344,-32.479438],[134.203534,-32.474454],[134.198886,-32.469673],[134.196442,-32.46716],[134.193571,-32.464201],[134.186182,-32.456619],[134.178932,-32.449136],[134.178593,-32.448831],[134.178192,-32.448499],[134.177644,-32.44808],[134.177004,-32.447742],[134.176466,-32.447504],[134.175775,-32.447263],[134.156691,-32.441467],[134.1402,-32.436422],[134.139318,-32.436152],[134.130644,-32.433484],[134.126201,-32.43212],[134.122005,-32.430894],[134.119987,-32.430324],[134.116797,-32.429423],[134.095436,-32.422873],[134.074191,-32.416325],[133.99998,-32.393365]]}},{"type":"Feature","properties":{"tier":"regional"},"geometry":{"type":"LineString","coordinates":[[134.21941,-32.490922],[134.21981,-32.488306]]}},{"type":"Feature","properties":{"tier":"regional"},"geometry":{"type":"LineString","coordinates":[[134.272987,-32.25176],[134.272985,-32.251588],[134.272979,-32.251443],[134.273002,-32.251293],[134.273147,-32.251268],[134.273225,-32.251275]]}}]}
