{"type":"FeatureCollection","features":[{"type":"Feature","properties":{"tier":"high"},"geometry":{"type":"LineString","coordinates":[[134.207819,-28.492771],[134.207192,-28.491761],[134.206613,-28.490778],[134.206037,-28.489742],[134.205494,-28.488699],[134.204889,-28.487441],[134.20119,-28.479134],[134.199008,-28.474223],[134.198788,-28.473683],[134.198583,-28.473121],[134.198382,-28.472534],[134.198219,-28.472009],[134.198053,-28.471414],[134.197904,-28.470831],[134.197784,-28.470279],[134.197677,-28.46971],[134.19759,-28.469197],[134.197512,-28.46866],[134.19745,-28.468111],[134.19741,-28.467609],[134.197376,-28.467088],[134.197355,-28.466564],[134.19735,-28.465901],[134.197363,-28.465301],[134.197398,-28.464638],[134.197452,-28.46398],[134.197523,-28.463379],[134.197607,-28.462778],[134.197733,-28.462077],[134.197884,-28.461369],[134.198029,-28.460776],[134.198192,-28.460184],[134.198344,-28.459685],[134.198508,-28.459193],[134.199168,-28.457264],[134.199604,-28.455888],[134.199725,-28.455393],[134.199832,-28.454902],[134.199924,-28.454406],[134.200005,-28.453897],[134.200061,-28.453416],[134.200104,-28.452922],[134.200134,-28.45243],[134.200142,-28.451911]]}},{"type":"Feature","properties":{"tier":"high"},"geometry":{"type":"LineString","coordinates":[[134.130873,-28.152366],[134.130898,-28.15054],[134.130958,-28.148716],[134.13115,-28.145687],[134.131442,-28.14265],[134.131958,-28.138896],[134.131977,-28.138761],[134.132578,-28.134884],[134.133189,-28.130937],[134.13366,-28.127894],[134.134078,-28.125187],[134.134398,-28.123139],[134.134555,-28.122113],[134.134697,-28.121087],[134.134808,-28.120058],[134.134896,-28.119027],[134.134955,-28.117992],[134.134991,-28.116954],[134.134982,-28.11513],[134.134892,-28.113304],[134.134718,-28.111479],[134.134597,-28.110567],[134.134458,-28.10966],[134.134237,-28.108448],[134.13398,-28.107239],[134.133683,-28.106034],[134.133353,-28.104834],[134.133137,-28.104125],[134.132909,-28.103418],[134.132668,-28.102715],[134.132415,-28.102011],[134.132162,-28.101359],[134.131899,-28.100707],[134.131585,-28.099967],[134.131257,-28.099229],[134.130572,-28.097807],[134.129847,-28.096425],[134.129053,-28.095044],[134.128639,-28.094369],[134.128213,-28.093699],[134.127629,-28.092822],[134.127019,-28.091948],[134.126383,-28.091092],[134.125734,-28.090249],[134.12527,-28.089679],[134.1248,-28.089114],[134.124315,-28.088549],[134.123825,-28.087992],[134.122784,-28.086874],[134.12174,-28.08577],[134.120634,-28.084594],[134.120085,-28.084002],[134.119546,-28.083403],[134.119034,-28.082815],[134.118485,-28.082166],[134.117491,-28.080936],[134.116536,-28.079682],[134.115618,-28.078404],[134.115119,-28.077676],[134.11464,-28.076945],[134.113714,-28.075465],[134.113271,-28.074708],[134.112843,-28.073952],[134.112428,-28.07319],[134.112024,-28.072424],[134.111202,-28.070744],[134.110442,-28.069036],[134.10976,-28.067329],[134.109439,-28.066467],[134.109138,-28.065606],[134.108878,-28.064811],[134.108631,-28.064016],[134.108398,-28.063215],[134.108175,-28.062413],[134.107777,-28.060812],[134.107601,-28.060008],[134.107436,-28.059203],[134.107266,-28.058275],[134.107112,-28.057348],[134.106981,-28.056421],[134.106864,-28.055492],[134.106767,-28.05457],[134.106689,-28.053647],[134.106628,-28.052725],[134.106582,-28.051803],[134.106551,-28.05053],[134.106555,-28.049254],[134.106591,-28.048014],[134.10662,-28.047394],[134.106659,-28.046775],[134.106764,-28.045464],[134.106908,-28.044156],[134.107064,-28.042977],[134.107251,-28.041803],[134.10748,-28.040586],[134.107737,-28.039375],[134.10832,-28.036948],[134.1095,-28.032106],[134.111318,-28.024668],[134.111744,-28.022709],[134.112128,-28.020741],[134.112456,-28.01877],[134.112601,-28.017781],[134.112738,-28.016792],[134.112974,-28.014751],[134.113156,-28.012712],[134.113228,-28.011689],[134.11329,-28.010666],[134.113369,-28.00862],[134.113389,-28.007528],[134.113396,-28.006437],[134.11338,-28.004784],[134.113324,-28.003131],[134.113236,-28.001435],[134.113128,-27.99998]]}},{"type":"Feature","properties":{"tier":"arterial"},"geometry":{"type":"LineString","coordinates":[[134.480997,-27.99998],[134.481007,-28.001291],[134.48106,-28.003023],[134.481011,-28.003527],[134.480997,-28.003902],[134.480836,-28.004199],[134.480616,-28.004518],[134.480353,-28.004833],[134.480079,-28.005126],[134.479816,-28.005371],[134.479577,-28.005552],[134.479254,-28.005695],[134.478864,-28.005833],[134.478366,-28.006001],[134.478078,-28.006074],[134.477614,-28.006143],[134.477131,-28.006199],[134.47677,-28.006233],[134.476316,-28.006229],[134.475804,-28.006199],[134.47516,-28.006156],[134.473705,-28.006044],[134.472838,-28.005986],[134.471221,-28.00588],[134.470806,-28.005854],[134.470601,-28.005816],[134.470596,-28.005815],[134.470381,-28.005759],[134.470123,-28.005634],[134.467678,-28.004208],[134.462284,-28.001441],[134.459516,-27.99998]]}},{"type":"Feature","properties":{"tier":"high"},"geometry":{"type":"LineString","coordinates":[[134.184557,-28.391983],[134.184501,-28.391533],[134.184341,-28.390294],[134.183657,-28.385772]]}},{"type":"Feature","properties":{"tier":"high"},"geometry":{"type":"LineString","coordinates":[[134.184573,-28.392133],[134.184557,-28.391983]]}},{"type":"Feature","properties":{"tier":"high"},"geometry":{"type":"LineString","coordinates":[[134.183657,-28.385772],[134.183646,-28.385713]]}},{"type":"Feature","properties":{"tier":"high"},"geometry":{"type":"LineString","coordinates":[[134.183646,-28.385713],[134.183503,-28.384884],[134.183209,-28.383277],[134.183131,-28.382851],[134.18269,-28.380677],[134.182216,-28.378505],[134.181253,-28.374165],[134.178742,-28.362833],[134.178095,-28.35993],[134.177395,-28.357031],[134.176645,-28.354136],[134.176243,-28.352684],[134.175839,-28.351253],[134.175261,-28.3493],[134.174863,-28.348018],[134.174657,-28.347354],[134.174593,-28.347156],[134.174035,-28.34543],[134.173389,-28.343516],[134.172806,-28.341839],[134.172201,-28.340168],[134.170936,-28.336842],[134.16837,-28.330211],[134.167857,-28.328742],[134.16735,-28.327227],[134.166407,-28.324222],[134.165982,-28.322742],[134.165573,-28.32126],[134.165184,-28.319773],[134.164816,-28.318283],[134.164521,-28.317011],[134.164246,-28.315772],[134.163974,-28.314474],[134.163718,-28.313179],[134.162797,-28.308018],[134.160827,-28.296814],[134.159924,-28.291653],[134.15978,-28.290828],[134.158339,-28.282598],[134.156538,-28.27237],[134.156216,-28.270508],[134.155911,-28.268645],[134.155408,-28.2652],[134.154783,-28.259876],[134.154613,-28.258032],[134.15447,-28.256437],[134.154366,-28.254941],[134.154265,-28.253511],[134.154189,-28.252085],[134.154118,-28.250627],[134.154005,-28.248656],[134.153955,-28.246614],[134.153934,-28.244568],[134.153937,-28.242525],[134.154006,-28.238151],[134.153976,-28.235956],[134.15393,-28.234848],[134.15387,-28.233767],[134.153744,-28.23216],[134.153574,-28.23055],[134.153329,-28.228693],[134.153027,-28.226836],[134.152824,-28.225722],[134.152596,-28.224614],[134.152353,-28.223507],[134.152088,-28.222402],[134.151611,-28.220609],[134.151083,-28.218821],[134.1508,-28.21793],[134.150502,-28.21704],[134.150194,-28.21616],[134.149872,-28.215284],[134.14941,-28.214072],[134.148917,-28.212875],[134.145969,-28.206013],[134.141263,-28.195078],[134.140512,-28.193331],[134.137942,-28.187352],[134.136911,-28.184802],[134.13643,-28.183529],[134.135969,-28.18226]]}},{"type":"Feature","properties":{"tier":"high"},"geometry":{"type":"LineString","coordinates":[[134.185448,-28.412786],[134.185444,-28.412555]]}},{"type":"Feature","properties":{"tier":"high"},"geometry":{"type":"LineString","coordinates":[[134.185444,-28.412555],[134.18545,-28.411965],[134.185456,-28.409199],[134.185457,-28.406523],[134.185443,-28.405157],[134.185413,-28.403846],[134.185368,-28.402372],[134.185302,-28.4009],[134.185225,-28.399432],[134.185128,-28.397965],[134.185,-28.396343],[134.184882,-28.395046],[134.184737,-28.393597],[134.184573,-28.392133]]}},{"type":"Feature","properties":{"tier":"high"},"geometry":{"type":"LineString","coordinates":[[134.213653,-28.50002],[134.213293,-28.499657],[134.212688,-28.499012],[134.212076,-28.498339],[134.211499,-28.497676],[134.210937,-28.497017],[134.210403,-28.496354],[134.209358,-28.494985],[134.208811,-28.494229],[134.208728,-28.494114],[134.208125,-28.493237]]}},{"type":"Feature","properties":{"tier":"high"},"geometry":{"type":"LineString","coordinates":[[134.208125,-28.493237],[134.207819,-28.492771]]}},{"type":"Feature","properties":{"tier":"high"},"geometry":{"type":"LineString","coordinates":[[134.200147,-28.45163],[134.200138,-28.451147],[134.200113,-28.450679],[134.200077,-28.450211],[134.200021,-28.449745],[134.19994,-28.449174],[134.199836,-28.448609],[134.199717,-28.448053],[134.199574,-28.4475],[134.199415,-28.446954],[134.199241,-28.446424],[134.199012,-28.44581],[134.19876,-28.445201],[134.198363,-28.444358],[134.19791,-28.443533],[134.197662,-28.443113],[134.197391,-28.442683],[134.197102,-28.442252],[134.196826,-28.441873],[134.196248,-28.44113],[134.195658,-28.440446],[134.193854,-28.438575],[134.192043,-28.436718],[134.191411,-28.436055],[134.190792,-28.435375],[134.190112,-28.434521],[134.18945,-28.433633],[134.188954,-28.432898],[134.188484,-28.432145],[134.188054,-28.431402],[134.187666,-28.430654],[134.187349,-28.429976],[134.187051,-28.429302],[134.186746,-28.42852],[134.186497,-28.427809],[134.186329,-28.427275],[134.186182,-28.426761],[134.186024,-28.42616],[134.185845,-28.425366],[134.185739,-28.424802],[134.185605,-28.423901],[134.185507,-28.423016],[134.185468,-28.422443],[134.18544,-28.421872],[134.185429,-28.42067],[134.185444,-28.413951],[134.185448,-28.412786]]}},{"type":"Feature","properties":{"tier":"high"},"geometry":{"type":"LineString","coordinates":[[134.200142,-28.451911],[134.200147,-28.45163]]}},{"type":"Feature","properties":{"tier":"high"},"geometry":{"type":"LineString","coordinates":[[134.130873,-28.152677],[134.130873,-28.152366]]}},{"type":"Feature","properties":{"tier":"high"},"geometry":{"type":"LineString","coordinates":[[134.135969,-28.18226],[134.135613,-28.181222],[134.135267,-28.180184],[134.135065,-28.179558],[134.134643,-28.178189],[134.134242,-28.176815],[134.133711,-28.174864],[134.133226,-28.172896],[134.132992,-28.171869],[134.13277,-28.170846],[134.132369,-28.168823],[134.132013,-28.166778],[134.131703,-28.164732],[134.13145,-28.162737],[134.131243,-28.160744],[134.131083,-28.158724],[134.130963,-28.156737],[134.130926,-28.15572],[134.130898,-28.154704],[134.13088,-28.15369],[134.130873,-28.152677]]}}]}
