{"type":"FeatureCollection","features":[{"type":"Feature","properties":{"tier":"regional"},"geometry":{"type":"LineString","coordinates":[[134.341191,-28.9366],[134.341257,-28.93665],[134.350522,-28.943814],[134.36454,-28.954614],[134.366102,-28.95603],[134.366928,-28.957246],[134.36764,-28.958843],[134.367847,-28.959667],[134.37196,-28.979784],[134.372095,-28.98042],[134.372159,-28.980687],[134.372247,-28.980969],[134.372374,-28.981268],[134.372599,-28.98165],[134.372808,-28.981947],[134.373081,-28.982282],[134.373387,-28.982589],[134.373717,-28.982872],[134.374045,-28.983095],[134.374459,-28.983324],[134.374737,-28.983446],[134.375101,-28.983566],[134.375427,-28.983652],[134.375763,-28.983713],[134.376145,-28.983745],[134.37653,-28.983746],[134.376915,-28.983726],[134.377203,-28.983687],[134.377458,-28.983638],[134.378012,-28.983506],[134.378248,-28.983448],[134.378306,-28.983434],[134.379224,-28.983215],[134.380611,-28.982896],[134.383471,-28.982218],[134.385984,-28.98163],[134.389551,-28.980791],[134.392746,-28.980052],[134.395927,-28.979316],[134.398617,-28.978695],[134.399146,-28.978591],[134.399646,-28.978549],[134.400255,-28.97857],[134.401258,-28.978711],[134.409274,-28.979945],[134.42193,-28.9819],[134.448003,-28.985939],[134.479638,-28.990791],[134.481985,-28.991167],[134.492397,-28.992787],[134.50002,-28.993993]]}},{"type":"Feature","properties":{"tier":"high"},"geometry":{"type":"LineString","coordinates":[[134.50002,-28.752735],[134.49929,-28.751901],[134.496716,-28.748968],[134.495453,-28.747531],[134.494211,-28.746056],[134.49347,-28.745109],[134.492756,-28.744149],[134.492072,-28.743179],[134.491421,-28.742193],[134.49087,-28.741324],[134.490318,-28.740453],[134.489756,-28.739601],[134.489174,-28.73876],[134.488588,-28.737958],[134.487964,-28.737136],[134.487318,-28.736324],[134.486649,-28.735522],[134.485585,-28.734327],[134.484486,-28.733176],[134.483344,-28.732047],[134.482146,-28.730952],[134.480921,-28.729895],[134.479652,-28.728874],[134.479526,-28.72878],[134.478334,-28.727888],[134.476954,-28.726914],[134.474029,-28.724863],[134.472578,-28.723786],[134.471908,-28.723267],[134.471206,-28.722698],[134.470129,-28.721817],[134.469075,-28.720905],[134.468047,-28.719972],[134.467045,-28.719012],[134.466105,-28.718055],[134.465189,-28.717091],[134.464304,-28.716111],[134.463481,-28.715158],[134.462854,-28.714409],[134.462243,-28.713643],[134.46164,-28.712857],[134.461057,-28.712065],[134.460597,-28.711396]]}},{"type":"Feature","properties":{"tier":"high"},"geometry":{"type":"LineString","coordinates":[[134.218562,-28.504428],[134.217913,-28.503877],[134.216188,-28.502411],[134.215043,-28.501371],[134.21449,-28.500847],[134.213942,-28.50031],[134.213614,-28.49998]]}},{"type":"Feature","properties":{"tier":"high"},"geometry":{"type":"LineString","coordinates":[[134.218793,-28.50463],[134.218562,-28.504428]]}},{"type":"Feature","properties":{"tier":"high"},"geometry":{"type":"LineString","coordinates":[[134.446407,-28.690219],[134.444793,-28.68782],[134.444632,-28.687601],[134.44395,-28.686677],[134.443473,-28.686085],[134.442995,-28.685535],[134.442603,-28.685105],[134.442546,-28.685044],[134.442165,-28.684636],[134.441715,-28.684175],[134.441262,-28.68373],[134.440786,-28.683285],[134.440307,-28.682857],[134.43932,-28.682035],[134.438904,-28.681709],[134.438478,-28.681391],[134.437614,-28.680771],[134.437167,-28.680472],[134.436662,-28.680143],[134.436214,-28.679858],[134.435747,-28.679575],[134.435026,-28.679171],[134.434227,-28.678746],[134.433415,-28.678342],[134.432712,-28.678027],[134.431841,-28.677656],[134.430972,-28.677311],[134.430053,-28.676954],[134.429363,-28.676714],[134.428778,-28.676528],[134.428183,-28.676352],[134.427016,-28.676047],[134.425806,-28.675754],[134.424629,-28.675516],[134.421963,-28.674909],[134.420515,-28.67454],[134.419817,-28.674336],[134.419213,-28.674151],[134.418358,-28.67384],[134.417194,-28.673373],[134.416546,-28.67308],[134.416002,-28.672817],[134.415492,-28.672553],[134.41498,-28.672265],[134.41442,-28.67195],[134.413884,-28.671626],[134.413357,-28.671294],[134.41284,-28.670952],[134.410829,-28.66958],[134.408673,-28.668108],[134.407594,-28.667373],[134.407078,-28.667025],[134.406554,-28.666685],[134.405426,-28.666003],[134.404268,-28.665363],[134.403083,-28.664761],[134.401865,-28.664202],[134.401323,-28.663971],[134.400806,-28.663765],[134.400233,-28.663549],[134.399664,-28.663346],[134.398944,-28.663102],[134.398218,-28.662866],[134.397843,-28.662753],[134.397447,-28.662634],[134.396674,-28.662425],[134.395106,-28.66206],[134.394381,-28.661915],[134.393596,-28.661772],[134.392187,-28.661551],[134.390787,-28.661312],[134.389524,-28.661029],[134.388878,-28.660863],[134.388293,-28.660696],[134.387136,-28.660303],[134.386051,-28.659873],[134.385016,-28.659389],[134.384004,-28.658855],[134.383329,-28.658454],[134.382678,-28.658034],[134.382043,-28.657594],[134.381427,-28.657139],[134.380351,-28.656222],[134.379993,-28.655889],[134.379645,-28.655553],[134.379338,-28.655232],[134.377824,-28.653533],[134.377429,-28.653105],[134.377018,-28.652689],[134.376595,-28.652287],[134.376123,-28.651856],[134.375456,-28.651284],[134.374716,-28.6507],[134.373938,-28.650136],[134.373151,-28.649611],[134.372588,-28.649273],[134.371969,-28.648921],[134.37138,-28.648597],[134.370739,-28.648266],[134.370081,-28.647954],[134.369413,-28.647655],[134.368738,-28.647375],[134.368001,-28.647098],[134.36748,-28.646914],[134.366897,-28.646722],[134.365772,-28.6464],[134.365231,-28.646264],[134.364633,-28.646127],[134.364028,-28.646008],[134.363421,-28.645899],[134.362991,-28.645827],[134.362498,-28.645756],[134.362012,-28.645696],[134.36152,-28.645645],[134.360661,-28.645555],[134.359796,-28.645452],[134.359013,-28.645343],[134.358149,-28.645195],[134.357548,-28.645073],[134.356954,-28.644935],[134.356409,-28.644784],[134.355874,-28.644629],[134.355299,-28.644443],[134.354724,-28.644237],[134.354148,-28.644018],[134.353641,-28.643808],[134.352267,-28.643165],[134.351633,-28.642826],[134.351015,-28.642471],[134.349809,-28.641697],[134.348631,-28.640904],[134.344624,-28.638217],[134.342287,-28.63666],[134.341638,-28.636248],[134.340975,-28.63584],[134.340404,-28.635502],[134.339819,-28.635185],[134.338706,-28.634602],[134.337564,-28.634052],[134.336393,-28.633535],[134.335199,-28.633049],[134.332101,-28.632033],[134.328996,-28.631034],[134.327903,-28.63064],[134.326817,-28.630221],[134.325749,-28.62979],[134.324714,-28.629345],[134.323566,-28.628833],[134.322465,-28.628299],[134.321341,-28.627732],[134.320282,-28.627166],[134.319235,-28.626582],[134.318201,-28.62597],[134.317188,-28.625345],[134.316183,-28.624688],[134.315862,-28.624461],[134.315304,-28.624099],[134.314436,-28.623482],[134.313579,-28.622852],[134.312739,-28.622207],[134.311501,-28.621204],[134.31033,-28.620198],[134.309174,-28.619147],[134.308087,-28.618097],[134.307209,-28.617202],[134.306305,-28.616233],[134.305442,-28.615252],[134.304625,-28.614285],[134.303727,-28.613155],[134.302878,-28.612015],[134.302058,-28.61085],[134.301276,-28.609668],[134.30043,-28.608288],[134.299633,-28.606883],[134.298894,-28.605474],[134.29853,-28.604729],[134.298182,-28.603979],[134.297654,-28.602787],[134.297145,-28.601525],[134.296734,-28.600279],[134.296312,-28.599034],[134.295643,-28.596856],[134.295457,-28.596317],[134.29525,-28.59579],[134.294791,-28.59475],[134.294539,-28.594253],[134.294294,-28.593809],[134.293736,-28.592881],[134.293102,-28.591963],[134.292399,-28.591077],[134.291618,-28.59021],[134.291175,-28.589764],[134.290755,-28.58936],[134.28981,-28.588542],[134.288773,-28.587766],[134.286555,-28.586238],[134.284434,-28.584717],[134.28348,-28.583986],[134.282565,-28.583254],[134.281642,-28.582493],[134.28071,-28.581692],[134.279496,-28.58059],[134.278439,-28.579572],[134.278315,-28.579452],[134.278025,-28.579156],[134.277251,-28.578366],[134.276106,-28.577133],[134.275038,-28.575916],[134.27452,-28.575302],[134.274021,-28.574681],[134.273516,-28.574043],[134.273023,-28.573399],[134.272546,-28.572756],[134.272113,-28.572147],[134.271433,-28.571168],[134.27074,-28.570118],[134.269023,-28.567364],[134.268677,-28.566839],[134.268286,-28.566273],[134.267882,-28.565721],[134.267463,-28.565178],[134.267026,-28.564639],[134.266616,-28.564157],[134.266191,-28.563677],[134.265724,-28.563163],[134.265001,-28.56243],[134.264263,-28.561723],[134.263257,-28.560832],[134.262156,-28.559938],[134.261591,-28.559512],[134.261015,-28.559098],[134.26037,-28.558659],[134.259718,-28.558231],[134.256679,-28.556303],[134.255524,-28.555569],[134.25452,-28.55493],[134.253551,-28.55426],[134.252597,-28.553571],[134.251659,-28.552862],[134.250925,-28.552266],[134.250206,-28.551661],[134.249509,-28.551052],[134.248819,-28.550424],[134.247955,-28.549592],[134.2472,-28.548821],[134.246177,-28.547714],[134.245207,-28.546579],[134.244269,-28.545394],[134.243416,-28.544234],[134.242867,-28.543442],[134.242302,-28.542577],[134.241794,-28.541746],[134.241307,-28.540914],[134.240709,-28.539811],[134.239488,-28.537477],[134.237143,-28.532997],[134.235515,-28.529887],[134.232229,-28.523612],[134.230006,-28.519355],[134.228882,-28.517209],[134.228305,-28.516177],[134.227683,-28.515125],[134.227028,-28.514096],[134.226335,-28.513067],[134.225432,-28.511805],[134.224514,-28.510603],[134.223751,-28.509687],[134.222989,-28.508798],[134.222291,-28.508025],[134.221595,-28.507285],[134.221003,-28.506686],[134.220403,-28.5061],[134.219606,-28.505355],[134.218793,-28.50463]]}},{"type":"Feature","properties":{"tier":"regional"},"geometry":{"type":"LineString","coordinates":[[134.327044,-28.9302],[134.328124,-28.930401],[134.331522,-28.930843],[134.333818,-28.931044],[134.334403,-28.931295],[134.335448,-28.93222],[134.341191,-28.9366]]}},{"type":"Feature","properties":{"tier":"high"},"geometry":{"type":"LineString","coordinates":[[134.460485,-28.711233],[134.459941,-28.710458],[134.458859,-28.70884],[134.454584,-28.702445],[134.45254,-28.699403],[134.450557,-28.696421],[134.449137,-28.694228],[134.446407,-28.690219]]}},{"type":"Feature","properties":{"tier":"high"},"geometry":{"type":"LineString","coordinates":[[134.460597,-28.711396],[134.460485,-28.711233]]}}]}
