{"type":"FeatureCollection","features":[{"type":"Feature","properties":{"tier":"arterial"},"geometry":{"type":"LineString","coordinates":[[134.50002,-27.162942],[134.498918,-27.16281],[134.496292,-27.162524],[134.493704,-27.162235],[134.492902,-27.162152],[134.491426,-27.161975],[134.489876,-27.161787],[134.488926,-27.161674],[134.4881,-27.161615],[134.485224,-27.161472],[134.484136,-27.161425],[134.482459,-27.161341],[134.480995,-27.161269],[134.479848,-27.16122],[134.478762,-27.161145],[134.473653,-27.160881],[134.469937,-27.160702],[134.465044,-27.160446],[134.461225,-27.160244],[134.453598,-27.15987],[134.450785,-27.15972],[134.448208,-27.159579],[134.444221,-27.159466],[134.438185,-27.159278],[134.427689,-27.158954],[134.423507,-27.158813],[134.418658,-27.158665],[134.416619,-27.158593],[134.415391,-27.15856],[134.413497,-27.158515],[134.408168,-27.158338],[134.406408,-27.158297],[134.403734,-27.158204],[134.400363,-27.158109],[134.396865,-27.158013],[134.394623,-27.157949],[134.392195,-27.157877],[134.38962,-27.157803],[134.387169,-27.157746],[134.386772,-27.157744],[134.386268,-27.157765],[134.385871,-27.157806],[134.385556,-27.15786],[134.385176,-27.157943],[134.384355,-27.158265],[134.383929,-27.158448],[134.383608,-27.158618],[134.383231,-27.158853],[134.382617,-27.159316],[134.382116,-27.159827],[134.38134,-27.160748],[134.377756,-27.164892],[134.376566,-27.166058],[134.37562,-27.166731],[134.373726,-27.167748],[134.370675,-27.169391],[134.369587,-27.169751],[134.368484,-27.169962],[134.367349,-27.169962],[134.366293,-27.169837],[134.364939,-27.169814],[134.363922,-27.170009],[134.361966,-27.170737],[134.360448,-27.171386],[134.359204,-27.171629],[134.357396,-27.171715],[134.348797,-27.172098],[134.341497,-27.172443],[134.332796,-27.172826],[134.32814,-27.173061],[134.327139,-27.173225],[134.325816,-27.173679],[134.324283,-27.174367],[134.321317,-27.175877],[134.320214,-27.176472],[134.319455,-27.176989],[134.318845,-27.177505],[134.317962,-27.178371],[134.317425,-27.178792],[134.316867,-27.179019],[134.315727,-27.179268],[134.311049,-27.18009],[134.304038,-27.181358],[134.298169,-27.182429],[134.29295,-27.183368],[134.287551,-27.184362],[134.285081,-27.184791],[134.2845,-27.184991],[134.283433,-27.185577],[134.280008,-27.187453],[134.274025,-27.190772],[134.268868,-27.193612],[134.261693,-27.197602],[134.255449,-27.201092],[134.247343,-27.205599],[134.244448,-27.2072],[134.243463,-27.207764],[134.242716,-27.208112],[134.242168,-27.208267],[134.241305,-27.208328],[134.240254,-27.208295],[134.23897,-27.208179],[134.237305,-27.207869],[134.235059,-27.20741],[134.23028,-27.206468],[134.229079,-27.206341],[134.228072,-27.206524],[134.227414,-27.206905],[134.226728,-27.207652],[134.225002,-27.21022],[134.221864,-27.214816],[134.216113,-27.223251],[134.209693,-27.232537],[134.209201,-27.233245],[134.208697,-27.23386],[134.208061,-27.234324],[134.207287,-27.23464],[134.205184,-27.235232],[134.199994,-27.236643],[134.192652,-27.238634],[134.188586,-27.239708],[134.187889,-27.239957],[134.187407,-27.240255],[134.186981,-27.240659],[134.185028,-27.242662],[134.180906,-27.246945],[134.175946,-27.252193],[134.175402,-27.252692],[134.175123,-27.252903],[134.174856,-27.253068],[134.174167,-27.253429],[134.17384,-27.253603],[134.168673,-27.256345],[134.162963,-27.259305],[134.160529,-27.260583],[134.159721,-27.261048],[134.159019,-27.261612],[134.157685,-27.262879],[134.153989,-27.266475],[134.148949,-27.271361],[134.141425,-27.278834],[134.135964,-27.284135],[134.135138,-27.285203],[134.13429,-27.286414],[134.133593,-27.287578],[134.131383,-27.291411],[134.128089,-27.297036],[134.127697,-27.297703],[134.127311,-27.298118],[134.126694,-27.298709],[134.125471,-27.299815],[134.121727,-27.303185],[134.12104,-27.303891],[134.120632,-27.304377],[134.120128,-27.305101],[134.119205,-27.306426],[134.117628,-27.308695],[134.116673,-27.310087],[134.115257,-27.312175],[134.113661,-27.31446],[134.112881,-27.315559],[134.111754,-27.317165],[134.111443,-27.317685],[134.111274,-27.318047],[134.111143,-27.318438],[134.110681,-27.320044],[134.109818,-27.322846],[134.109501,-27.323838],[134.109303,-27.324448],[134.10912,-27.324934],[134.108874,-27.325382],[134.108605,-27.325758],[134.108085,-27.326449],[134.104413,-27.331034],[134.103346,-27.33238],[134.101101,-27.335247],[134.100379,-27.336099],[134.099757,-27.336781],[134.098965,-27.337543],[134.098166,-27.338161],[134.097657,-27.338499],[134.097217,-27.338756],[134.096168,-27.339292],[134.092928,-27.340884],[134.092178,-27.34125],[134.091573,-27.341496],[134.090806,-27.341749],[134.08998,-27.341946],[134.084465,-27.3432],[134.0792,-27.344405],[134.078263,-27.344643],[134.077151,-27.344946],[134.07301,-27.34603],[134.067932,-27.34735],[134.061862,-27.34891],[134.056117,-27.350389],[134.053808,-27.350995],[134.051764,-27.351529],[134.050788,-27.351793],[134.050113,-27.351994],[134.049715,-27.352136],[134.049379,-27.352274],[134.048839,-27.352522],[134.048291,-27.352806],[134.044419,-27.354772],[134.039532,-27.357257],[134.037369,-27.358373],[134.036443,-27.358819],[134.035464,-27.359176],[134.034909,-27.359307],[134.034429,-27.359428],[134.033246,-27.359638],[134.030373,-27.360142],[134.026474,-27.360808],[134.023086,-27.361377],[134.020802,-27.361803],[134.016565,-27.362532],[134.016142,-27.362598],[134.015533,-27.362654],[134.014285,-27.362713],[134.009834,-27.36283],[134.009376,-27.362848],[134.00888,-27.362835],[134.007906,-27.362747],[134.003563,-27.362214],[134.000875,-27.361888],[134.000051,-27.36176],[133.99998,-27.361747]]}}]}
