{"type":"FeatureCollection","features":[{"type":"Feature","properties":{"tier":"arterial"},"geometry":{"type":"LineString","coordinates":[[134.50002,-30.717051],[134.497299,-30.7165],[134.496418,-30.716354],[134.495849,-30.716271],[134.495516,-30.716253],[134.495116,-30.716341],[134.493953,-30.716729],[134.491549,-30.717623],[134.491088,-30.717769],[134.490826,-30.7178],[134.490606,-30.717813],[134.489658,-30.717733],[134.484702,-30.717363],[134.484016,-30.717324],[134.477538,-30.716909],[134.46959,-30.716359],[134.464209,-30.715954],[134.458136,-30.715517],[134.449045,-30.714887],[134.444458,-30.714596],[134.443925,-30.714575],[134.443018,-30.714438],[134.440287,-30.713861],[134.439498,-30.713698],[134.438519,-30.713442],[134.436915,-30.712856],[134.431739,-30.710878],[134.426548,-30.708926],[134.420403,-30.706639],[134.413628,-30.704137],[134.408806,-30.702467],[134.40834,-30.702301],[134.407591,-30.702045],[134.406832,-30.701858],[134.406242,-30.701761],[134.405518,-30.701655],[134.404931,-30.701602],[134.404407,-30.701586],[134.403938,-30.701586],[134.403461,-30.701604],[134.402919,-30.701655],[134.40205,-30.701743],[134.399024,-30.702149],[134.393939,-30.702817],[134.390742,-30.703256],[134.387866,-30.703648],[134.386359,-30.703839],[134.383282,-30.70424],[134.381957,-30.704436],[134.379165,-30.704796],[134.37717,-30.705078],[134.374597,-30.705417],[134.37368,-30.705537],[134.37111,-30.705882],[134.368174,-30.706277],[134.36614,-30.706577],[134.364708,-30.706791],[134.363804,-30.706916],[134.362967,-30.707006],[134.362385,-30.707052],[134.361666,-30.707047],[134.361036,-30.707003],[134.360486,-30.706964],[134.359749,-30.706867],[134.358971,-30.706736],[134.35822,-30.706602],[134.357262,-30.70642],[134.353675,-30.705745],[134.346428,-30.704458],[134.327595,-30.701096],[134.302576,-30.696581],[134.27711,-30.69202],[134.273437,-30.691339],[134.25233,-30.687429],[134.231482,-30.683628],[134.207058,-30.679134],[134.202459,-30.678294],[134.198832,-30.677644],[134.197386,-30.677381],[134.195707,-30.67707],[134.194812,-30.676915],[134.194248,-30.676795],[134.193774,-30.67668],[134.193244,-30.676541],[134.190602,-30.675868],[134.188594,-30.675356],[134.187688,-30.675127],[134.186801,-30.674894],[134.183674,-30.674105],[134.181632,-30.673588],[134.171217,-30.670949],[134.157422,-30.66741],[134.13473,-30.661486],[134.120321,-30.657734],[134.119756,-30.657605],[134.119222,-30.657503],[134.118707,-30.657446],[134.118028,-30.657395],[134.117105,-30.657358],[134.116462,-30.657362],[134.116035,-30.657388],[134.115531,-30.657425],[134.115048,-30.657492],[134.1146,-30.657593],[134.114021,-30.657729],[134.113259,-30.657916],[134.110381,-30.658675],[134.107549,-30.659397],[134.103823,-30.660357],[134.100293,-30.661255],[134.097638,-30.661935],[134.096383,-30.662249],[134.094821,-30.662558],[134.093172,-30.662872],[134.092469,-30.663004],[134.092196,-30.66302],[134.09185,-30.663008],[134.091278,-30.662978],[134.090798,-30.662918],[134.090348,-30.662851],[134.089993,-30.662787],[134.089575,-30.662722],[134.089189,-30.662697],[134.088658,-30.662665],[134.088025,-30.662651],[134.087534,-30.662653],[134.086963,-30.662637],[134.086386,-30.662616],[134.085982,-30.662588],[134.085919,-30.662581],[134.085745,-30.66257],[134.085549,-30.662528],[134.085222,-30.662457],[134.084887,-30.662364],[134.08418,-30.662182],[134.083235,-30.661998],[134.082223,-30.661931]]}},{"type":"Feature","properties":{"tier":"regional"},"geometry":{"type":"LineString","coordinates":[[134.082223,-30.661931],[134.082171,-30.662057],[134.081991,-30.662293],[134.081648,-30.662662],[134.081396,-30.663207],[134.081399,-30.663394],[134.081392,-30.663603],[134.081389,-30.663685],[134.081413,-30.663805],[134.081373,-30.663895],[134.081072,-30.664153],[134.080609,-30.664301],[134.080206,-30.664619],[134.07915,-30.665541],[134.07824,-30.666737],[134.078094,-30.667136],[134.07824,-30.668125],[134.078377,-30.668923],[134.078429,-30.670274],[134.078566,-30.671602],[134.078798,-30.673463],[134.079116,-30.674917],[134.079382,-30.675995],[134.079641,-30.677534],[134.07971,-30.678243],[134.079581,-30.678627],[134.078765,-30.679852],[134.077178,-30.683107],[134.076457,-30.685351],[134.075161,-30.688348],[134.074731,-30.690311],[134.074568,-30.691935],[134.074225,-30.693677],[134.073676,-30.696135],[134.073255,-30.698157],[134.072285,-30.701921],[134.07177,-30.703847],[134.071496,-30.705419],[134.071444,-30.707434],[134.071393,-30.708378],[134.071161,-30.710179],[134.071084,-30.711802],[134.070491,-30.715691],[134.070345,-30.718347],[134.070097,-30.720583],[134.069873,-30.722044],[134.069444,-30.724531],[134.06971,-30.725305],[134.069745,-30.725777],[134.069727,-30.725888],[134.06959,-30.726242],[134.068629,-30.727083],[134.06747,-30.727674],[134.067298,-30.727873],[134.067127,-30.728183],[134.067401,-30.731341],[134.067676,-30.732632],[134.068397,-30.735302],[134.068586,-30.736792],[134.068921,-30.738187],[134.070543,-30.74268],[134.07056,-30.742952],[134.070612,-30.743233],[134.071006,-30.744361],[134.071221,-30.745106],[134.07135,-30.745372],[134.071641,-30.745697],[134.072148,-30.746582],[134.072225,-30.746781],[134.072277,-30.748507],[134.072474,-30.748869],[134.072603,-30.7501],[134.0728,-30.750432],[134.07286,-30.75072],[134.072749,-30.751273],[134.072783,-30.751812],[134.073538,-30.753073],[134.073899,-30.754349],[134.074362,-30.755367],[134.074954,-30.756414],[134.075684,-30.757985],[134.076285,-30.759106],[134.076911,-30.760523],[134.077581,-30.76188],[134.078044,-30.76303],[134.07813,-30.763458],[134.078345,-30.764181],[134.078611,-30.765435],[134.079409,-30.768384],[134.079572,-30.768539],[134.079795,-30.768657],[134.081237,-30.768694],[134.082336,-30.768901],[134.083203,-30.769196],[134.083932,-30.76921],[134.085692,-30.769506],[134.086353,-30.769771],[134.086859,-30.769815],[134.087211,-30.76997],[134.087451,-30.770162],[134.088361,-30.770612],[134.089271,-30.771165],[134.090069,-30.771851],[134.092146,-30.773812],[134.09249,-30.773997],[134.093743,-30.774336],[134.094266,-30.774395],[134.095039,-30.774432],[134.095751,-30.774653],[134.096189,-30.774749],[134.097107,-30.774874],[134.09976,-30.774528],[134.10085,-30.774284],[134.102498,-30.774321],[134.104352,-30.774469],[134.105665,-30.774749],[134.10648,-30.774631],[134.108205,-30.774808],[134.109613,-30.775376],[134.112377,-30.775862],[134.113681,-30.776312],[134.114454,-30.776696],[134.116256,-30.777219],[134.117501,-30.7775],[134.118273,-30.777566],[134.119827,-30.777898],[134.12108,-30.778267],[134.123887,-30.77862],[134.125174,-30.778849],[134.125826,-30.778849],[134.127861,-30.779299],[134.130092,-30.779918],[134.13138,-30.780014],[134.132066,-30.780213],[134.133053,-30.78053],[134.133551,-30.780862],[134.133774,-30.781054],[134.133989,-30.781282],[134.13562,-30.781939],[134.137045,-30.782897],[134.137276,-30.783192],[134.137577,-30.783893],[134.137654,-30.784151],[134.13768,-30.784549],[134.137311,-30.786636],[134.137285,-30.787336],[134.137388,-30.787616],[134.137517,-30.788346],[134.137774,-30.789047],[134.137714,-30.79117],[134.137825,-30.791871],[134.138092,-30.792748],[134.138098,-30.792941],[134.1381,-30.793014],[134.136787,-30.798123],[134.135405,-30.802075],[134.134186,-30.805643],[134.133809,-30.806786],[134.133646,-30.807346],[134.132435,-30.810796],[134.131757,-30.81286],[134.131672,-30.813228],[134.129929,-30.818138],[134.129852,-30.818477],[134.1295,-30.819582],[134.129397,-30.819818],[134.127706,-30.824639],[134.127655,-30.824919],[134.127543,-30.825118],[134.126985,-30.826622],[134.126968,-30.826784],[134.12653,-30.82786],[134.126504,-30.827985],[134.123337,-30.836814],[134.121844,-30.841037],[134.121827,-30.841457],[134.121578,-30.841826],[134.121303,-30.842651],[134.12072,-30.844265],[134.120119,-30.845864],[134.119698,-30.847264],[134.119089,-30.848944],[134.118848,-30.849799],[134.118668,-30.850167],[134.11835,-30.851273],[134.118196,-30.851648],[134.117964,-30.852444],[134.117913,-30.852496],[134.117707,-30.853137],[134.117647,-30.85321],[134.117544,-30.853564],[134.117441,-30.853807],[134.117329,-30.854249],[134.117226,-30.854441],[134.117218,-30.85464],[134.116977,-30.855406],[134.116162,-30.857572],[134.115218,-30.860306],[134.11472,-30.861824],[134.114625,-30.862008],[134.114308,-30.862944],[134.113939,-30.864108],[134.113467,-30.865272],[134.113415,-30.865493],[134.112617,-30.867578],[134.111699,-30.869611],[134.111476,-30.870046],[134.111424,-30.870215],[134.110214,-30.872867],[134.110205,-30.872956],[134.110154,-30.873111],[134.109596,-30.874297],[134.109338,-30.874938],[134.109021,-30.875593],[134.10872,-30.876286],[134.10836,-30.876772],[134.108111,-30.877199],[134.108068,-30.877516],[134.107072,-30.879637],[134.106935,-30.879844],[134.10618,-30.88128],[134.105167,-30.883269],[134.104712,-30.884109],[134.10466,-30.884271],[134.104145,-30.885147],[134.10333,-30.886731],[134.103167,-30.887107],[134.102695,-30.888381],[134.102609,-30.888572],[134.102086,-30.890127],[134.101056,-30.892793],[134.099837,-30.895297],[134.09976,-30.895518],[134.098961,-30.897138],[134.098043,-30.898935],[134.097983,-30.899016],[134.097511,-30.899967],[134.097125,-30.900688],[134.096953,-30.901115],[134.096764,-30.901417],[134.095159,-30.904916],[134.095013,-30.905151],[134.094919,-30.905402],[134.094181,-30.906933],[134.094121,-30.907162],[134.093889,-30.907515],[134.093794,-30.90778],[134.093657,-30.907972],[134.093494,-30.908539],[134.092859,-30.909805],[134.092747,-30.910063]]}},{"type":"Feature","properties":{"tier":"regional"},"geometry":{"type":"LineString","coordinates":[[134.092747,-30.910063],[134.085077,-30.926418],[134.083467,-30.929759],[134.082555,-30.931728],[134.081568,-30.933836],[134.080635,-30.935823],[134.079111,-30.939136],[134.076993,-30.9435]]}}]}
