{"type":"FeatureCollection","features":[{"type":"Feature","properties":{"tier":"regional"},"geometry":{"type":"LineString","coordinates":[[134.976067,-26.49998],[134.976183,-26.500145],[134.976771,-26.500884],[134.977154,-26.501917],[134.97753,-26.502779],[134.977968,-26.503429],[134.978358,-26.504202],[134.978727,-26.504797],[134.979097,-26.505816],[134.979665,-26.506808],[134.980417,-26.50791],[134.981108,-26.509121],[134.981867,-26.510201],[134.98262,-26.511323],[134.983345,-26.512233],[134.984241,-26.513328],[134.985479,-26.514662],[134.987279,-26.516495],[134.987963,-26.517076],[134.988736,-26.517419],[134.989515,-26.517767],[134.99076,-26.518547],[134.9918,-26.51932],[134.992525,-26.520387],[134.9931,-26.521174],[134.993791,-26.521742],[134.994591,-26.522959],[134.995857,-26.524848],[134.996815,-26.526202],[134.997478,-26.5269],[134.998388,-26.527755],[134.998812,-26.528391],[135.00002,-26.53021]]}}]}
