{"type":"FeatureCollection","features":[{"type":"Feature","properties":{"tier":"regional"},"geometry":{"type":"LineString","coordinates":[[134.754785,-26.247004],[134.75534,-26.2461],[134.75585,-26.24481],[134.7565,-26.24351],[134.75785,-26.24042],[134.75905,-26.23851],[134.75937,-26.23823],[134.76015,-26.23688],[134.76161,-26.23396],[134.76199,-26.23342],[134.76233,-26.23252],[134.76266,-26.23188],[134.76294,-26.23112],[134.76354,-26.22992],[134.76437,-26.22806],[134.76515,-26.22696],[134.76609,-26.22597],[134.76686,-26.22531],[134.76761,-26.22443],[134.7683,-26.22295],[134.76909,-26.22097],[134.76963,-26.21997],[134.77038,-26.21866],[134.77186,-26.2164],[134.77197,-26.21619],[134.77223,-26.21533],[134.77384,-26.2131],[134.77386,-26.21297],[134.77433,-26.21209],[134.7751,-26.21095],[134.77656,-26.20937],[134.78079,-26.20544],[134.78369,-26.20289],[134.78437,-26.20224],[134.78484,-26.20145],[134.7857,-26.20027],[134.78628,-26.19879],[134.7866,-26.19711],[134.78697,-26.19553],[134.78686,-26.19203],[134.78708,-26.19169],[134.7874,-26.19132],[134.78755,-26.19068],[134.78787,-26.1901],[134.78823,-26.18965],[134.78834,-26.18849],[134.78871,-26.1872],[134.78886,-26.18576],[134.78894,-26.18411],[134.79008,-26.18203],[134.79051,-26.18085],[134.79089,-26.18021],[134.79102,-26.17971],[134.79158,-26.17866],[134.79197,-26.17812],[134.79233,-26.17724],[134.79291,-26.17609],[134.79366,-26.17488],[134.79444,-26.17317],[134.79774,-26.16733],[134.79933,-26.16426],[134.79989,-26.1634],[134.79999,-26.16295],[134.80019,-26.16252],[134.80055,-26.16207],[134.80132,-26.16068],[134.80156,-26.16038],[134.80182,-26.15984],[134.80248,-26.15903],[134.80561,-26.1522],[134.80641,-26.15104],[134.80789,-26.14926],[134.808,-26.14877],[134.80845,-26.14815],[134.8092,-26.14722],[134.81025,-26.14617],[134.81132,-26.14499],[134.81207,-26.14377],[134.814,-26.14087],[134.81493,-26.14019],[134.81714,-26.13941],[134.81855,-26.13899],[134.82008,-26.13868],[134.82209,-26.13834],[134.82381,-26.13823],[134.82426,-26.13826],[134.82553,-26.13808],[134.82791,-26.13755],[134.82853,-26.13753],[134.83169,-26.13699],[134.83518,-26.13671],[134.83641,-26.13669],[134.83855,-26.13643],[134.83956,-26.1362],[134.84046,-26.1357],[134.840791,-26.135566],[134.84096,-26.13549],[134.841103,-26.135451],[134.841208,-26.135428],[134.841328,-26.135444],[134.84143,-26.13547],[134.84162,-26.13551],[134.841793,-26.135536],[134.841976,-26.135497],[134.842302,-26.135283],[134.84291,-26.13497],[134.84319,-26.13476],[134.84327,-26.13452],[134.843303,-26.134203],[134.843423,-26.133935],[134.84364,-26.13373],[134.843838,-26.13359],[134.84422,-26.13332],[134.8451,-26.13302],[134.84771,-26.13169],[134.8493,-26.13081],[134.85008,-26.1306],[134.850204,-26.130584],[134.850484,-26.130527],[134.85244,-26.1304],[134.85336,-26.13017],[134.85368,-26.12995],[134.85394,-26.12952],[134.85443,-26.12847],[134.85608,-26.1256],[134.85686,-26.12437],[134.85696,-26.12401],[134.85709,-26.1192],[134.85771,-26.11476],[134.85765,-26.11225],[134.85789,-26.11064],[134.8581,-26.10845],[134.85842,-26.10656],[134.85909,-26.10354],[134.85952,-26.10223],[134.85984,-26.0998],[134.86055,-26.09695],[134.86046,-26.0956],[134.86053,-26.09352],[134.86037,-26.09193],[134.86037,-26.09028],[134.86014,-26.08886],[134.86012,-26.08686],[134.86018,-26.08644],[134.86072,-26.08523],[134.86104,-26.08345],[134.86201,-26.07611],[134.86216,-26.07388],[134.86282,-26.06966],[134.86334,-26.06695],[134.86467,-26.06219],[134.8648,-26.06101],[134.86475,-26.05944],[134.86484,-26.05875],[134.86613,-26.05601],[134.86651,-26.05425],[134.86703,-26.05219],[134.86758,-26.05032],[134.86782,-26.0485],[134.86823,-26.04642],[134.86907,-26.04339],[134.86941,-26.04279],[134.86982,-26.04155],[134.87031,-26.03959],[134.87042,-26.0379],[134.87025,-26.03676],[134.87037,-26.03552],[134.87065,-26.03494],[134.87085,-26.03346],[134.87136,-26.02914],[134.87143,-26.02786],[134.8722,-26.02633],[134.87256,-26.02541],[134.87374,-26.02296],[134.87372,-26.022],[134.87346,-26.02062],[134.87368,-26.01962],[134.87432,-26.01874],[134.87518,-26.0173],[134.87664,-26.01547],[134.87715,-26.01509],[134.87836,-26.0144],[134.87868,-26.01387],[134.87874,-26.01337],[134.87911,-26.01271],[134.88046,-26.01133],[134.88211,-26.00975],[134.88288,-26.0091],[134.88381,-26.00779],[134.88406,-26.007],[134.88436,-26.00511],[134.88475,-26.00312],[134.88531,-26.00127],[134.885978,-25.99998]]}},{"type":"Feature","properties":{"tier":"regional"},"geometry":{"type":"LineString","coordinates":[[134.754785,-26.247004],[134.75438,-26.247569],[134.753868,-26.248148],[134.75335,-26.248789],[134.752605,-26.249761],[134.751965,-26.250687],[134.75158,-26.251451],[134.751139,-26.252139],[134.750285,-26.253297],[134.749222,-26.255],[134.748743,-26.255688],[134.748491,-26.255892],[134.747983,-26.256229],[134.747267,-26.25668],[134.746949,-26.257012],[134.746792,-26.257444],[134.746199,-26.25892],[134.745241,-26.261302],[134.744481,-26.263333],[134.744315,-26.263698],[134.74404,-26.26412],[134.743594,-26.264642],[134.74218,-26.266332],[134.740377,-26.268571],[134.738042,-26.271385],[134.736666,-26.27306],[134.735352,-26.274674],[134.734721,-26.275433],[134.734227,-26.276012],[134.734014,-26.276391],[134.733942,-26.276781],[134.733762,-26.27745],[134.733416,-26.278361],[134.733269,-26.278812],[134.733012,-26.279182],[134.732756,-26.279514],[134.732557,-26.279917],[134.732334,-26.280178],[134.731788,-26.280444],[134.731204,-26.280819],[134.730701,-26.281175],[134.730251,-26.281502],[134.729752,-26.281796],[134.729069,-26.282195],[134.728623,-26.282522],[134.728101,-26.282954],[134.72774,-26.283391],[134.727413,-26.283813],[134.727138,-26.284221],[134.727138,-26.284511],[134.727332,-26.284748],[134.727726,-26.284938],[134.728428,-26.285279],[134.728938,-26.285598],[134.729266,-26.285921],[134.729631,-26.286267],[134.729755,-26.286595],[134.72984,-26.28687],[134.730096,-26.287102],[134.730457,-26.287245],[134.730931,-26.287368],[134.731387,-26.28752],[134.731548,-26.287733],[134.731501,-26.287938],[134.731389,-26.288099],[134.731242,-26.288172],[134.730879,-26.288201],[134.730507,-26.288168],[134.730068,-26.288032],[134.729773,-26.288016],[134.729536,-26.288063],[134.729012,-26.288255],[134.728764,-26.288373],[134.728409,-26.28854],[134.727832,-26.288843],[134.727547,-26.289138],[134.72707,-26.289738],[134.726638,-26.290185],[134.726299,-26.290416],[134.725839,-26.290644],[134.725326,-26.290839],[134.724733,-26.291065],[134.723965,-26.291444],[134.722541,-26.292379],[134.722209,-26.292702],[134.721924,-26.293153],[134.72154,-26.294026],[134.721435,-26.294624],[134.721535,-26.295222],[134.721758,-26.296156],[134.722014,-26.296854],[134.722399,-26.297822],[134.722883,-26.298937],[134.723424,-26.29972],[134.723912,-26.300361],[134.724121,-26.300674],[134.724411,-26.301281],[134.724619,-26.301694],[134.725051,-26.302577],[134.725227,-26.303065],[134.725374,-26.303602],[134.725587,-26.304712],[134.726356,-26.308176],[134.726679,-26.309685],[134.726846,-26.31025],[134.726884,-26.310882],[134.726808,-26.311574],[134.726447,-26.314051],[134.726146,-26.315956],[134.726173,-26.316533],[134.726254,-26.317278],[134.726482,-26.318103],[134.727314,-26.321526],[134.728045,-26.324438],[134.728267,-26.325304],[134.728878,-26.327995],[134.729763,-26.331525],[134.731032,-26.336981],[134.73226,-26.341994],[134.733394,-26.346698],[134.734051,-26.349496],[134.734226,-26.350047],[134.734508,-26.350677],[134.73487,-26.351651],[134.735132,-26.35257],[134.735452,-26.353478],[134.735751,-26.353995],[134.736149,-26.35438],[134.736695,-26.354693],[134.737506,-26.355053],[134.738612,-26.355485],[134.739115,-26.355765],[134.73967,-26.356154],[134.740297,-26.35661],[134.740614,-26.356904],[134.741146,-26.357369],[134.741715,-26.357825],[134.742195,-26.358095],[134.742811,-26.358427],[134.743575,-26.358769],[134.74414,-26.359063],[134.744629,-26.359438],[134.745236,-26.359908],[134.746461,-26.360753],[134.74834,-26.362053],[134.748734,-26.362257],[134.749113,-26.362475],[134.749792,-26.362878],[134.75048,-26.363263],[134.751396,-26.363766],[134.752544,-26.364468],[134.752947,-26.364786],[134.753502,-26.36536],[134.754053,-26.365972],[134.754395,-26.366228],[134.754879,-26.366485],[134.756402,-26.367201],[134.757327,-26.367695],[134.758305,-26.368259],[134.759216,-26.368853],[134.759999,-26.369488],[134.760497,-26.369844],[134.761166,-26.370319],[134.761745,-26.370599],[134.762333,-26.370964],[134.763354,-26.371671],[134.764246,-26.372321],[134.764806,-26.372606],[134.765555,-26.37291],[134.766414,-26.373323],[134.767045,-26.373745],[134.767553,-26.374229],[134.768032,-26.374642],[134.768796,-26.375083],[134.769261,-26.375373],[134.770106,-26.375733],[134.770917,-26.376018],[134.772156,-26.376483],[134.77283,-26.376692],[134.77376,-26.376967],[134.774358,-26.377223],[134.775283,-26.377669],[134.775862,-26.378072],[134.776408,-26.378462],[134.776968,-26.37868],[134.777551,-26.378908],[134.778496,-26.379202],[134.779862,-26.379553],[134.780394,-26.379605],[134.780973,-26.379676],[134.781594,-26.379947],[134.782292,-26.38026],[134.783084,-26.38064],[134.784446,-26.381314],[134.785737,-26.381954],[134.787293,-26.382789],[134.788076,-26.383207],[134.789775,-26.38409],[134.790971,-26.384744],[134.792043,-26.385247],[134.793196,-26.385769],[134.794288,-26.386196],[134.795303,-26.386661],[134.796086,-26.386937],[134.796978,-26.387193],[134.798013,-26.387563],[134.798701,-26.387739],[134.799916,-26.388351],[134.800717,-26.38873],[134.801519,-26.389034],[134.802834,-26.389456],[134.804841,-26.390106],[134.806848,-26.390733],[134.807869,-26.391013],[134.809411,-26.391516],[134.810796,-26.391943],[134.812301,-26.392484],[134.813112,-26.392631],[134.814047,-26.392802],[134.814735,-26.392906],[134.815741,-26.393234],[134.816486,-26.393551],[134.818066,-26.394401],[134.81938,-26.395136],[134.8205,-26.395748],[134.821691,-26.39637],[134.822602,-26.396735],[134.823827,-26.397305],[134.825136,-26.397884],[134.826679,-26.398577],[134.828031,-26.399198],[134.829578,-26.399891],[134.83074,-26.400385],[134.831599,-26.400826],[134.832779,-26.401453],[134.833312,-26.401658],[134.834434,-26.401952],[134.837827,-26.402807],[134.838751,-26.402978],[134.840824,-26.403498],[134.843293,-26.403991],[134.845414,-26.404531],[134.850182,-26.405845],[134.85157,-26.406187],[134.853178,-26.406413],[134.85417,-26.406344],[134.855292,-26.406242],[134.85601,-26.406337],[134.857741,-26.40683],[134.859157,-26.40735],[134.860046,-26.407794],[134.860566,-26.40826],[134.861264,-26.408814],[134.862037,-26.409881],[134.862166,-26.410063],[134.862454,-26.410469],[134.862776,-26.411235],[134.862796,-26.411906],[134.862571,-26.412603],[134.861948,-26.413397],[134.861493,-26.413718],[134.861113,-26.413985],[134.859177,-26.415189],[134.858145,-26.416092],[134.857869,-26.416485],[134.857488,-26.41703],[134.856612,-26.419116],[134.856236,-26.420019],[134.856092,-26.420881],[134.855969,-26.422208],[134.855846,-26.424862],[134.855812,-26.427557],[134.855805,-26.429076],[134.855976,-26.429747],[134.856509,-26.431074],[134.857378,-26.433441],[134.857595,-26.433979],[134.858432,-26.436054],[134.859294,-26.438688],[134.859544,-26.439577],[134.860094,-26.441526],[134.860942,-26.444468],[134.861202,-26.445604],[134.861278,-26.446459],[134.861551,-26.447505],[134.862064,-26.448743],[134.862461,-26.449475],[134.863179,-26.450481],[134.864069,-26.45161],[134.864712,-26.451849],[134.866538,-26.452561],[134.867592,-26.453005],[134.868084,-26.453135],[134.869315,-26.453299],[134.871997,-26.453676],[134.872914,-26.453861],[134.874056,-26.454223],[134.874779,-26.454393],[134.87487,-26.454415],[134.875979,-26.454969],[134.87736,-26.455899],[134.878414,-26.456522],[134.879741,-26.457171],[134.881061,-26.457856],[134.882265,-26.45815],[134.88325,-26.458122],[134.884222,-26.458061],[134.885015,-26.458081],[134.886554,-26.457869],[134.88888,-26.457548],[134.889886,-26.457267],[134.89176,-26.456959],[134.894319,-26.456583],[134.896781,-26.456316],[134.897732,-26.456268],[134.898731,-26.456487],[134.899586,-26.456795],[134.89999,-26.456864],[134.901118,-26.456891],[134.902247,-26.456864],[134.903068,-26.456994],[134.904265,-26.45713],[134.905606,-26.45713],[134.907419,-26.457151],[134.908855,-26.457171],[134.909581,-26.457308],[134.910511,-26.457637],[134.912283,-26.458266],[134.914499,-26.459059],[134.915252,-26.45921],[134.916442,-26.459319],[134.917988,-26.459401],[134.919363,-26.459388],[134.921203,-26.459306],[134.923146,-26.459244],[134.926566,-26.459135],[134.929015,-26.459025],[134.933585,-26.458868],[134.938093,-26.45867],[134.939434,-26.45856],[134.94059,-26.458505],[134.94152,-26.458676],[134.943579,-26.459142],[134.944257,-26.45934],[134.945454,-26.459737],[134.946206,-26.460134],[134.946856,-26.460804],[134.947444,-26.461851],[134.947684,-26.462473],[134.94767,-26.462945],[134.947568,-26.46367],[134.947663,-26.464382],[134.948026,-26.465421],[134.948744,-26.467159],[134.949469,-26.468445],[134.950249,-26.470032],[134.950981,-26.471428],[134.951535,-26.472365],[134.952,-26.472892],[134.953458,-26.474458],[134.954415,-26.475642],[134.955127,-26.476709],[134.955537,-26.477085],[134.955975,-26.477263],[134.957535,-26.477913],[134.958732,-26.47846],[134.959546,-26.478911],[134.960175,-26.479411],[134.960743,-26.479698],[134.961516,-26.479862],[134.962207,-26.480403],[134.962782,-26.481237],[134.963787,-26.483098],[134.964328,-26.484316],[134.964499,-26.484747],[134.964964,-26.485178],[134.965545,-26.485869],[134.965983,-26.486772],[134.96638,-26.487558],[134.967057,-26.488468],[134.967392,-26.489118],[134.967816,-26.489946],[134.968521,-26.491122],[134.969554,-26.492306],[134.970211,-26.493045],[134.971107,-26.49416],[134.971764,-26.494714],[134.972865,-26.495801],[134.97374,-26.496964],[134.974575,-26.497895],[134.975163,-26.498688],[134.976095,-26.50002]]}},{"type":"Feature","properties":{"tier":"regional"},"geometry":{"type":"LineString","coordinates":[[135.00002,-26.271158],[134.96442,-26.27254],[134.962,-26.27243],[134.95648,-26.27183],[134.95228,-26.27119],[134.9488,-26.27056],[134.94633,-26.26975],[134.94393,-26.26919],[134.94299,-26.26889],[134.94209,-26.26906],[134.94018,-26.27005],[134.93897,-26.27028],[134.932,-26.27129],[134.92943,-26.27142],[134.92852,-26.27153],[134.92803,-26.27164],[134.92413,-26.2731],[134.92119,-26.27449],[134.91904,-26.27509],[134.91853,-26.27509],[134.91694,-26.27455],[134.91574,-26.27408],[134.91488,-26.27316],[134.91335,-26.27116],[134.91138,-26.2684],[134.90964,-26.26561],[134.90844,-26.26438],[134.90539,-26.26222],[134.90376,-26.26138],[134.90125,-26.26026],[134.89863,-26.25947],[134.89578,-26.2588],[134.89048,-26.25825],[134.88881,-26.25775],[134.88735,-26.25702],[134.88565,-26.25644],[134.88402,-26.2561],[134.88115,-26.25507],[134.87381,-26.25215],[134.87001,-26.25069],[134.86806,-26.24975],[134.8648,-26.24805],[134.8637,-26.24797],[134.86115,-26.2487],[134.85842,-26.24966],[134.85497,-26.25125],[134.8492,-26.2552],[134.84722,-26.2561],[134.844,-26.25694],[134.84156,-26.25692],[134.83048,-26.25593],[134.82866,-26.25619],[134.8246,-26.25713],[134.82091,-26.25762],[134.81385,-26.25715],[134.81188,-26.25664],[134.80879,-26.25565],[134.80592,-26.25481],[134.80366,-26.25449],[134.80113,-26.25426],[134.79806,-26.25368],[134.79677,-26.25293],[134.79514,-26.25224],[134.79246,-26.25153],[134.78954,-26.25089],[134.78796,-26.25039],[134.78759,-26.25031],[134.787049,-26.250324],[134.786,-26.25035],[134.78433,-26.25016],[134.77212,-26.24844],[134.76798,-26.24748],[134.76341,-26.2473],[134.7609,-26.24677],[134.76002,-26.24664],[134.75774,-26.2469],[134.755857,-26.246978],[134.755499,-26.246947],[134.755177,-26.246929],[134.75496,-26.246958],[134.754785,-26.247004]]}}]}
