{"type":"FeatureCollection","features":[{"type":"Feature","properties":{"tier":"regional"},"geometry":{"type":"LineString","coordinates":[[134.880885,-33.637498],[134.881031,-33.637453],[134.881126,-33.637436],[134.881226,-33.637392],[134.881304,-33.637333],[134.881375,-33.63725],[134.881429,-33.637168],[134.881554,-33.637008],[134.88168,-33.636809],[134.881837,-33.636585],[134.881884,-33.636522],[134.881905,-33.636492],[134.881971,-33.636403],[134.882094,-33.636273]]}},{"type":"Feature","properties":{"tier":"arterial"},"geometry":{"type":"LineString","coordinates":[[134.887829,-33.63927],[134.888257,-33.639743],[134.888312,-33.639808]]}},{"type":"Feature","properties":{"tier":"regional"},"geometry":{"type":"LineString","coordinates":[[134.895658,-33.647344],[134.895636,-33.647349],[134.895606,-33.647346],[134.895546,-33.647329],[134.895446,-33.647301],[134.895233,-33.647268],[134.89489,-33.647269],[134.894561,-33.647263]]}},{"type":"Feature","properties":{"tier":"regional"},"geometry":{"type":"LineString","coordinates":[[134.890083,-33.64382],[134.890036,-33.643817],[134.889965,-33.643781],[134.889881,-33.643734],[134.889771,-33.643686],[134.889676,-33.643689],[134.88958,-33.643724]]}},{"type":"Feature","properties":{"tier":"regional"},"geometry":{"type":"LineString","coordinates":[[134.889257,-33.648579],[134.88933,-33.648491],[134.889597,-33.64818],[134.88969,-33.648081],[134.889806,-33.648018],[134.890378,-33.647889],[134.891503,-33.647649],[134.892099,-33.647522],[134.892496,-33.647436],[134.892838,-33.647381],[134.893212,-33.647345],[134.894036,-33.647292]]}},{"type":"Feature","properties":{"tier":"regional"},"geometry":{"type":"LineString","coordinates":[[134.887388,-33.647347],[134.887426,-33.647303],[134.887921,-33.646709],[134.888745,-33.645698],[134.88902,-33.64532],[134.889185,-33.645045],[134.889288,-33.644776],[134.88935,-33.644563],[134.889427,-33.644284]]}},{"type":"Feature","properties":{"tier":"arterial"},"geometry":{"type":"LineString","coordinates":[[134.912026,-33.49998],[134.908607,-33.505286],[134.905556,-33.510019],[134.905277,-33.510495],[134.905017,-33.511079],[134.904721,-33.511794],[134.904447,-33.512676],[134.90274,-33.518615],[134.898835,-33.532015],[134.898412,-33.533325],[134.897929,-33.534534],[134.897313,-33.535773],[134.896612,-33.537052],[134.894243,-33.541309],[134.890436,-33.547659],[134.889915,-33.548608],[134.889604,-33.549282],[134.889397,-33.550006],[134.889291,-33.550728],[134.888816,-33.556845],[134.888684,-33.558294],[134.888542,-33.559344],[134.88674,-33.566684],[134.886557,-33.567428],[134.886339,-33.568123],[134.886098,-33.568717],[134.88576,-33.569429],[134.878175,-33.584837],[134.878146,-33.584897],[134.873881,-33.593584],[134.871542,-33.59763],[134.87093,-33.59872],[134.87058,-33.599505],[134.870369,-33.600177],[134.870295,-33.601007],[134.870278,-33.602364],[134.870377,-33.605029],[134.87058,-33.608342],[134.870641,-33.609037],[134.870786,-33.609792],[134.871039,-33.610476],[134.871375,-33.611242],[134.874087,-33.617258],[134.875087,-33.619477],[134.875544,-33.620488],[134.876191,-33.621898],[134.876418,-33.622419],[134.876567,-33.62284],[134.87664,-33.623118],[134.876695,-33.623451],[134.876847,-33.624903],[134.877095,-33.62752],[134.877198,-33.628388],[134.877258,-33.629207],[134.877346,-33.629915],[134.877426,-33.630279]]}},{"type":"Feature","properties":{"tier":"regional"},"geometry":{"type":"LineString","coordinates":[[134.889427,-33.644284],[134.889454,-33.644129],[134.889512,-33.643852],[134.88958,-33.643724],[134.889627,-33.643653],[134.889667,-33.643587],[134.889685,-33.643563],[134.889751,-33.643471]]}},{"type":"Feature","properties":{"tier":"arterial"},"geometry":{"type":"LineString","coordinates":[[134.901517,-33.650061],[134.903827,-33.651076],[134.904876,-33.651555],[134.905156,-33.651705],[134.905234,-33.65175],[134.905612,-33.65199],[134.905866,-33.652174],[134.906148,-33.652409],[134.906532,-33.652764],[134.906718,-33.65296],[134.907152,-33.653454],[134.907392,-33.653777],[134.909056,-33.655889],[134.910606,-33.657832],[134.910867,-33.658116],[134.911135,-33.658377],[134.911318,-33.658536],[134.911671,-33.658806],[134.912007,-33.659034],[134.912331,-33.659231],[134.91273,-33.659437],[134.913103,-33.659594],[134.920972,-33.662725],[134.92467,-33.66418],[134.924925,-33.664284],[134.925171,-33.664384],[134.925393,-33.66448],[134.925587,-33.664576],[134.925767,-33.66467],[134.925963,-33.664775],[134.92618,-33.6649],[134.926402,-33.66504],[134.926641,-33.665205],[134.926862,-33.665365],[134.92722,-33.665634],[134.931013,-33.668515],[134.942021,-33.676978],[134.949759,-33.683006],[134.954962,-33.68694],[134.960484,-33.690569],[134.974053,-33.699628],[134.974898,-33.700151],[134.97508,-33.700263],[134.975249,-33.700359],[134.975415,-33.700454],[134.975603,-33.700549],[134.975814,-33.700643],[134.976035,-33.700735],[134.976274,-33.70083],[134.976596,-33.700958],[134.983351,-33.703499],[134.987643,-33.70511],[134.991227,-33.706454],[134.991809,-33.706669],[135.00002,-33.709727]]}},{"type":"Feature","properties":{"tier":"arterial"},"geometry":{"type":"LineString","coordinates":[[134.897447,-33.648277],[134.898633,-33.648793],[134.901517,-33.650061]]}},{"type":"Feature","properties":{"tier":"arterial"},"geometry":{"type":"LineString","coordinates":[[134.88915,-33.641272],[134.889216,-33.641452],[134.889231,-33.641509],[134.88933,-33.641869],[134.8894,-33.642207],[134.889406,-33.642251],[134.889483,-33.642809],[134.889534,-33.64303],[134.889632,-33.643279],[134.889751,-33.643471],[134.889883,-33.643634],[134.889961,-33.643706],[134.890083,-33.64382],[134.890586,-33.644216],[134.891,-33.644472],[134.893349,-33.645923],[134.895016,-33.646952],[134.895545,-33.647279],[134.895658,-33.647344],[134.896319,-33.647753],[134.896653,-33.647911],[134.897447,-33.648277]]}},{"type":"Feature","properties":{"tier":"arterial"},"geometry":{"type":"LineString","coordinates":[[134.877426,-33.630279],[134.877559,-33.630704],[134.877712,-33.631081],[134.877848,-33.631345],[134.878093,-33.631761],[134.878278,-33.632034],[134.878425,-33.632233],[134.878733,-33.632604],[134.879881,-33.633932],[134.880593,-33.634798],[134.881069,-33.635353],[134.881381,-33.635679],[134.881976,-33.636193],[134.882094,-33.636273],[134.882133,-33.636301],[134.882314,-33.63643],[134.88254,-33.636572],[134.8827,-33.636657],[134.882866,-33.636747],[134.883,-33.636818],[134.883754,-33.63715],[134.886331,-33.638215],[134.886696,-33.638415],[134.887163,-33.638711],[134.88762,-33.639075],[134.887829,-33.63927]]}},{"type":"Feature","properties":{"tier":"arterial"},"geometry":{"type":"LineString","coordinates":[[134.888312,-33.639808],[134.888463,-33.639999],[134.888709,-33.640356],[134.889013,-33.640897],[134.88915,-33.641272]]}},{"type":"Feature","properties":{"tier":"arterial"},"geometry":{"type":"LineString","coordinates":[[134.991373,-33.626538],[134.989273,-33.629631],[134.988866,-33.630124],[134.98865,-33.630358],[134.98827,-33.630724],[134.987855,-33.631078],[134.98741,-33.631417],[134.986766,-33.631864],[134.98473,-33.633211],[134.984304,-33.633465],[134.983924,-33.633669],[134.983515,-33.633866],[134.983051,-33.634062],[134.98256,-33.634234],[134.982053,-33.634378],[134.97984,-33.634948],[134.972736,-33.636733],[134.971998,-33.63693],[134.970906,-33.637303],[134.97027,-33.637561],[134.968477,-33.638376],[134.968064,-33.638542],[134.967822,-33.638636],[134.967013,-33.638892],[134.966333,-33.639038],[134.965727,-33.639139],[134.965301,-33.639186],[134.960223,-33.639628],[134.958974,-33.639736],[134.958566,-33.639765],[134.958103,-33.639781],[134.957335,-33.639769],[134.952989,-33.639545],[134.952606,-33.639534],[134.952185,-33.639543],[134.951533,-33.639603],[134.951115,-33.639673],[134.950646,-33.639781],[134.949983,-33.639976],[134.945296,-33.641543],[134.943774,-33.642052],[134.943206,-33.642212],[134.942564,-33.642355],[134.942018,-33.642433],[134.940227,-33.642634],[134.937411,-33.642949],[134.936248,-33.643088],[134.93579,-33.64315],[134.93536,-33.643238],[134.934713,-33.643395],[134.925933,-33.645756],[134.924465,-33.646159],[134.923931,-33.646332],[134.923506,-33.64651],[134.922995,-33.64677],[134.91684,-33.650479],[134.916287,-33.650776],[134.916026,-33.650887],[134.915635,-33.651044],[134.915082,-33.651228],[134.913174,-33.651759],[134.909992,-33.652664],[134.907152,-33.653454]]}},{"type":"Feature","properties":{"tier":"arterial"},"geometry":{"type":"LineString","coordinates":[[134.993506,-33.623293],[134.992877,-33.624322],[134.991373,-33.626538]]}},{"type":"Feature","properties":{"tier":"arterial"},"geometry":{"type":"LineString","coordinates":[[134.998164,-33.615648],[134.996755,-33.616467],[134.995886,-33.616972],[134.995802,-33.617033]]}},{"type":"Feature","properties":{"tier":"arterial"},"geometry":{"type":"LineString","coordinates":[[134.995802,-33.617033],[134.995538,-33.617225],[134.995236,-33.617493],[134.994996,-33.617728],[134.9948,-33.617953],[134.994579,-33.618281],[134.994387,-33.618617],[134.994269,-33.618873],[134.994158,-33.619181],[134.994077,-33.619493],[134.994023,-33.619823],[134.994007,-33.620045],[134.993996,-33.620189],[134.993988,-33.620622],[134.993983,-33.621171],[134.993983,-33.621208],[134.99398,-33.621482],[134.993975,-33.621767],[134.99395,-33.622],[134.993913,-33.622266],[134.993805,-33.622661],[134.993686,-33.622968],[134.993551,-33.623258],[134.993506,-33.623293]]}},{"type":"Feature","properties":{"tier":"arterial"},"geometry":{"type":"LineString","coordinates":[[135.00002,-33.614354],[134.999612,-33.61472],[134.999054,-33.615108],[134.998164,-33.615648]]}},{"type":"Feature","properties":{"tier":"regional"},"geometry":{"type":"LineString","coordinates":[[134.894036,-33.647292],[134.894561,-33.647263],[134.894718,-33.647222],[134.894835,-33.647161],[134.894925,-33.647083],[134.895016,-33.646952]]}}]}
