{"type":"FeatureCollection","features":[{"type":"Feature","properties":{"tier":"regional"},"geometry":{"type":"LineString","coordinates":[[134.885957,-26.00002],[134.88662,-25.99874],[134.88799,-25.99636],[134.88831,-25.99597],[134.88981,-25.99507],[134.890366,-25.994959],[134.89087,-25.99498],[134.89117,-25.99503],[134.891364,-25.995046],[134.891544,-25.995026],[134.89194,-25.99488],[134.89329,-25.99442],[134.894164,-25.994322],[134.894434,-25.994272],[134.894678,-25.994176],[134.895019,-25.993851],[134.895445,-25.993272],[134.895644,-25.992939],[134.895726,-25.992587],[134.895694,-25.992156],[134.895555,-25.991721],[134.895213,-25.990876],[134.895169,-25.990567],[134.89516,-25.99026],[134.895334,-25.987859],[134.895438,-25.987235],[134.89545,-25.986802],[134.89532,-25.985971],[134.89531,-25.98503],[134.89546,-25.98404],[134.89527,-25.9826],[134.89563,-25.98131],[134.89904,-25.97631],[134.89945,-25.97552],[134.90039,-25.97447],[134.90134,-25.97282],[134.90263,-25.97142],[134.90406,-25.96953],[134.9069,-25.96447],[134.90906,-25.95964],[134.91054,-25.95675],[134.91067,-25.95556],[134.91121,-25.95348],[134.91157,-25.95166],[134.91179,-25.9464],[134.91192,-25.94544],[134.91213,-25.94269],[134.912168,-25.941102],[134.912152,-25.940897],[134.91232,-25.939],[134.91237,-25.93692],[134.91254,-25.93469],[134.91295,-25.93306],[134.91385,-25.93158],[134.91513,-25.93009],[134.91606,-25.9293],[134.91657,-25.92898],[134.91672,-25.92881],[134.9164,-25.92808],[134.91634,-25.92784],[134.916299,-25.927615],[134.916312,-25.927347],[134.916382,-25.927116],[134.91647,-25.9269],[134.917087,-25.925952],[134.917338,-25.925521],[134.91747,-25.92507],[134.9178,-25.92179],[134.91747,-25.91939],[134.91704,-25.91698],[134.916944,-25.916741],[134.916885,-25.916679],[134.91659,-25.91647],[134.91509,-25.91535],[134.91327,-25.91389],[134.9114,-25.91271],[134.90928,-25.91162],[134.90621,-25.90986],[134.90438,-25.90889],[134.9005,-25.90602],[134.89904,-25.90405],[134.89771,-25.90246],[134.89486,-25.89967],[134.89305,-25.89836],[134.89093,-25.89671],[134.88909,-25.89544],[134.88722,-25.89407],[134.88503,-25.89237],[134.88471,-25.892109],[134.88361,-25.89121],[134.88001,-25.88787],[134.87763,-25.88544],[134.876,-25.8837],[134.87396,-25.88194],[134.87243,-25.88014],[134.8713,-25.87793],[134.87089,-25.87624],[134.87072,-25.87373],[134.8705,-25.87304],[134.8696,-25.87169],[134.86857,-25.86999],[134.86677,-25.86469],[134.8658,-25.86338],[134.86542,-25.863],[134.864,-25.86216],[134.86344,-25.86132],[134.8631,-25.85907],[134.8628,-25.85795],[134.86293,-25.8572],[134.8637,-25.85529],[134.86364,-25.85446],[134.86355,-25.85433],[134.85201,-25.84051],[134.85145,-25.84017],[134.84967,-25.83886],[134.84765,-25.83781],[134.84454,-25.83555],[134.84396,-25.83452],[134.84368,-25.83141],[134.84335,-25.828975],[134.84302,-25.82654],[134.84314,-25.8248],[134.84293,-25.82334],[134.84278,-25.82285],[134.84237,-25.82208],[134.84194,-25.82038],[134.84113,-25.81761],[134.84031,-25.81397],[134.83956,-25.81122],[134.83879,-25.80802],[134.83778,-25.80444],[134.83729,-25.80227],[134.83714,-25.8006],[134.83673,-25.79744],[134.83643,-25.7968],[134.83546,-25.79519],[134.83503,-25.79339],[134.83452,-25.78873],[134.83493,-25.78663],[134.83525,-25.78371],[134.8351,-25.77865],[134.83456,-25.77607],[134.83439,-25.77408],[134.83454,-25.77142],[134.83375,-25.76418],[134.83394,-25.76242],[134.83458,-25.76127],[134.83469,-25.76092],[134.83473,-25.75944],[134.83505,-25.7573],[134.83559,-25.75584],[134.83636,-25.7518],[134.83634,-25.75002],[134.83525,-25.74575],[134.83463,-25.74408],[134.83418,-25.74223],[134.83372,-25.74077],[134.83295,-25.73966],[134.83222,-25.73786],[134.83136,-25.73539],[134.83061,-25.73258],[134.82982,-25.73073],[134.82879,-25.72856],[134.8281,-25.72687],[134.82742,-25.72408],[134.82673,-25.7203],[134.82671,-25.71829],[134.82694,-25.7159],[134.82656,-25.71404],[134.82662,-25.71202],[134.82707,-25.71],[134.82765,-25.70824],[134.82769,-25.70754],[134.82797,-25.70691],[134.82885,-25.70526],[134.8292,-25.70354],[134.82952,-25.70121],[134.83147,-25.68925],[134.83167,-25.6878]]}}]}
