{"type":"FeatureCollection","features":[{"type":"Feature","properties":{"tier":"arterial"},"geometry":{"type":"LineString","coordinates":[[134.947433,-28.49998],[134.947091,-28.500393],[134.946476,-28.500982],[134.945597,-28.501579],[134.945175,-28.501862],[134.94219,-28.503786],[134.937771,-28.506634],[134.93762,-28.506731],[134.933342,-28.509442],[134.932854,-28.509823],[134.932355,-28.510276],[134.931856,-28.510804],[134.931523,-28.511285],[134.931169,-28.511935],[134.929195,-28.516611],[134.926974,-28.521876],[134.925966,-28.524294],[134.92379,-28.529387],[134.922589,-28.5322],[134.922575,-28.532231],[134.922144,-28.533275],[134.921165,-28.535643],[134.920979,-28.53608],[134.919886,-28.53866],[134.918992,-28.54077],[134.918183,-28.542669],[134.91683,-28.545846],[134.91604,-28.547715],[134.915795,-28.548296],[134.91555,-28.548876],[134.914475,-28.55142],[134.913689,-28.553281],[134.912903,-28.555143],[134.91218,-28.55685],[134.91175,-28.557866],[134.910521,-28.560745],[134.910379,-28.561082],[134.909331,-28.563558],[134.909255,-28.56373],[134.90836,-28.565758],[134.907711,-28.567322],[134.9077,-28.567349],[134.907496,-28.567883],[134.907362,-28.568448],[134.907308,-28.568839],[134.907297,-28.569254],[134.907297,-28.569682],[134.907378,-28.570314],[134.907813,-28.572137],[134.908419,-28.574587],[134.908826,-28.576231],[134.909009,-28.57689],[134.909261,-28.577602],[134.909475,-28.578148],[134.910656,-28.580579],[134.911739,-28.58284],[134.912378,-28.584145],[134.912914,-28.585167],[134.913408,-28.585935],[134.914416,-28.587428],[134.914743,-28.587923],[134.915087,-28.58853],[134.915258,-28.588912],[134.915419,-28.589369],[134.915543,-28.589915],[134.915628,-28.590433],[134.915639,-28.590895],[134.915564,-28.591597],[134.915521,-28.591936],[134.915344,-28.592487],[134.914936,-28.593401],[134.914411,-28.594616],[134.913896,-28.595831],[134.91374,-28.596302],[134.913649,-28.596736],[134.913611,-28.597145],[134.913579,-28.597692],[134.913617,-28.598149],[134.913681,-28.598699],[134.913869,-28.599383],[134.914781,-28.601959],[134.915736,-28.604818],[134.916245,-28.606282],[134.916583,-28.607196],[134.916862,-28.607855],[134.917168,-28.608373],[134.917613,-28.608976],[134.918793,-28.610474],[134.919389,-28.611197],[134.91995,-28.611908],[134.920888,-28.612972],[134.922025,-28.614083],[134.92456,-28.61636],[134.926306,-28.617888],[134.927248,-28.61875],[134.927503,-28.618993],[134.927741,-28.619259],[134.928023,-28.619593],[134.928294,-28.619934],[134.928653,-28.620464],[134.930512,-28.623311],[134.932175,-28.625861],[134.932443,-28.626329],[134.93265,-28.626711],[134.932867,-28.62725],[134.933015,-28.627697],[134.933092,-28.628081],[134.933162,-28.628584],[134.933167,-28.629004],[134.933132,-28.629489],[134.933049,-28.629933],[134.932752,-28.631221],[134.932349,-28.632806],[134.9321,-28.633625],[134.931958,-28.634169],[134.931907,-28.634451],[134.93185,-28.634877],[134.93185,-28.635438],[134.93188,-28.636092],[134.931944,-28.636699],[134.932046,-28.637356],[134.932105,-28.637676],[134.932239,-28.63815],[134.932433,-28.638651],[134.932647,-28.639087],[134.932894,-28.639494],[134.933138,-28.639842],[134.93354,-28.640379],[134.936115,-28.643634],[134.937832,-28.645789],[134.938424,-28.646542],[134.938966,-28.647209],[134.939912,-28.648467],[134.940246,-28.648985],[134.941667,-28.651518],[134.942971,-28.65389],[134.943269,-28.654476],[134.943472,-28.655067],[134.943585,-28.655566],[134.94369,-28.656409],[134.94377,-28.657105],[134.943883,-28.657858],[134.944012,-28.658256],[134.944191,-28.658699],[134.94447,-28.659221],[134.944843,-28.659723],[134.945294,-28.660132],[134.945776,-28.660509],[134.94656,-28.661008],[134.94743,-28.661465],[134.947454,-28.661478],[134.948609,-28.662085],[134.949703,-28.662702],[134.951747,-28.663799],[134.95333,-28.66486],[134.953952,-28.665298],[134.953963,-28.665305],[134.954502,-28.665722],[134.955092,-28.666239],[134.955475,-28.666663],[134.955808,-28.667068],[134.956149,-28.6676],[134.956454,-28.668261],[134.95661,-28.668698],[134.956902,-28.669515],[134.958959,-28.675864],[134.959399,-28.677289],[134.959407,-28.677314],[134.96003,-28.679331],[134.960555,-28.680912],[134.960759,-28.681557],[134.960974,-28.682522],[134.961119,-28.683759],[134.961221,-28.685053],[134.961312,-28.686192],[134.961628,-28.690338],[134.961856,-28.693846],[134.961937,-28.694957],[134.96195,-28.695392],[134.961958,-28.695966],[134.961923,-28.696413],[134.961827,-28.697058],[134.96136,-28.698973],[134.961183,-28.699658],[134.960395,-28.7027],[134.958903,-28.708543],[134.958847,-28.708761],[134.957691,-28.71322],[134.956479,-28.71793],[134.955765,-28.720719],[134.954461,-28.725833],[134.953169,-28.730843],[134.953165,-28.730859],[134.952533,-28.733362],[134.952531,-28.733373],[134.952348,-28.734098],[134.952171,-28.73477],[134.951854,-28.735881],[134.951168,-28.737649],[134.950643,-28.738879],[134.950175,-28.739975],[134.949317,-28.742038],[134.949014,-28.742705],[134.948748,-28.743216],[134.948486,-28.743682],[134.947646,-28.744843],[134.947017,-28.745678],[134.946318,-28.746605],[134.945272,-28.747947],[134.944918,-28.748411],[134.94443,-28.749008],[134.944038,-28.749436],[134.94369,-28.749786],[134.943121,-28.750315],[134.942198,-28.75108],[134.941675,-28.751538],[134.940994,-28.752143],[134.940573,-28.752549],[134.940305,-28.752841],[134.93991,-28.753304],[134.9395,-28.753835],[134.939371,-28.754],[134.938341,-28.755331],[134.937354,-28.756556],[134.936587,-28.757591],[134.936322,-28.758017],[134.936113,-28.758419],[134.93597,-28.758767],[134.935847,-28.759155],[134.935737,-28.75959],[134.935589,-28.760471],[134.935416,-28.761572],[134.935321,-28.762171],[134.935072,-28.763683],[134.934715,-28.765882],[134.934415,-28.767652],[134.934094,-28.769613]]}},{"type":"Feature","properties":{"tier":"high"},"geometry":{"type":"LineString","coordinates":[[134.625043,-28.882065],[134.624863,-28.881785],[134.624192,-28.880696],[134.623592,-28.879694],[134.622037,-28.87698],[134.621549,-28.876176],[134.621191,-28.875646],[134.620763,-28.874998],[134.620345,-28.874339],[134.619616,-28.873334],[134.618846,-28.872318],[134.618082,-28.871407],[134.617275,-28.870459],[134.616787,-28.869909],[134.616324,-28.869407],[134.615818,-28.86887],[134.615308,-28.868346],[134.614778,-28.867821],[134.614239,-28.867302],[134.613696,-28.866795],[134.613147,-28.866296],[134.608828,-28.862406],[134.607043,-28.8608],[134.60411,-28.858162],[134.602571,-28.856778],[134.601764,-28.856079],[134.600981,-28.855437],[134.600275,-28.85488],[134.599548,-28.854339],[134.598805,-28.853807],[134.598059,-28.853295],[134.596508,-28.852321],[134.595716,-28.851856],[134.594909,-28.851405],[134.593944,-28.850901],[134.592964,-28.850418],[134.592483,-28.850191],[134.591955,-28.84995],[134.591427,-28.849716],[134.590895,-28.84949],[134.586621,-28.847778],[134.585933,-28.84748],[134.585238,-28.847161],[134.584563,-28.846836],[134.583947,-28.846516],[134.58333,-28.846192],[134.582725,-28.845852],[134.582121,-28.845508],[134.581532,-28.845144],[134.581046,-28.844838],[134.580568,-28.844524],[134.580096,-28.844199],[134.579631,-28.84387],[134.579171,-28.843539],[134.57872,-28.843198],[134.578273,-28.842851],[134.577836,-28.842496],[134.5771,-28.841864],[134.576391,-28.841225],[134.575707,-28.84056],[134.575045,-28.839885],[134.573742,-28.838513],[134.572471,-28.837125],[134.572073,-28.83671],[134.570938,-28.835414],[134.570184,-28.834524],[134.569468,-28.83368],[134.568036,-28.831936],[134.566647,-28.83017],[134.566275,-28.829679],[134.56535,-28.828461],[134.564054,-28.826682],[134.5628,-28.824893],[134.561604,-28.823123],[134.560642,-28.821641],[134.559703,-28.820143],[134.558682,-28.818465],[134.557842,-28.817085],[134.556224,-28.814417],[134.555575,-28.813353],[134.555425,-28.813107],[134.554994,-28.812424],[134.554779,-28.812108],[134.554551,-28.811798],[134.554158,-28.811276],[134.553774,-28.810807],[134.553676,-28.810696],[134.553328,-28.810301],[134.552883,-28.809829],[134.552389,-28.80934],[134.551885,-28.80888],[134.551376,-28.808437],[134.550897,-28.808052],[134.550025,-28.807413],[134.549554,-28.807094],[134.549072,-28.806788],[134.548077,-28.806214],[134.547568,-28.805948],[134.547054,-28.805692],[134.546523,-28.805452],[134.545985,-28.805224],[134.54489,-28.80481],[134.542657,-28.804028],[134.539597,-28.802947],[134.538993,-28.802726],[134.538398,-28.802488],[134.537607,-28.802141],[134.53688,-28.801789],[134.536122,-28.801378],[134.535427,-28.800968],[134.534763,-28.800539],[134.53411,-28.800088],[134.533482,-28.799612],[134.532876,-28.799116],[134.532252,-28.798556],[134.531691,-28.798009],[134.531123,-28.797408],[134.530588,-28.79679],[134.530083,-28.796143],[134.52964,-28.795524],[134.52918,-28.794828],[134.528821,-28.794206],[134.524551,-28.786439],[134.522193,-28.782144],[134.521041,-28.78009],[134.519839,-28.77805],[134.518988,-28.776672],[134.518126,-28.775297],[134.517237,-28.773944],[134.51633,-28.772597],[134.515226,-28.771006],[134.514614,-28.770146],[134.513998,-28.769314],[134.513671,-28.76885],[134.513389,-28.768472],[134.512789,-28.767694],[134.511553,-28.76611],[134.510288,-28.76453],[134.508989,-28.762982],[134.508588,-28.762515]]}},{"type":"Feature","properties":{"tier":"high"},"geometry":{"type":"LineString","coordinates":[[134.692527,-29.00002],[134.692137,-28.999629],[134.691709,-28.999179],[134.691316,-28.998739],[134.6909,-28.998235],[134.690535,-28.997752],[134.689816,-28.996752],[134.689343,-28.996035],[134.688917,-28.995358],[134.6885,-28.994661],[134.688114,-28.993954],[134.6875,-28.992738],[134.686928,-28.991466],[134.686413,-28.990136],[134.685992,-28.988865],[134.685604,-28.98747],[134.68528,-28.98602],[134.684992,-28.984381],[134.684756,-28.982807],[134.684564,-28.981381],[134.684406,-28.979957],[134.684259,-28.978312],[134.68415,-28.976713],[134.684062,-28.974853],[134.684027,-28.973863],[134.684003,-28.973179],[134.68384,-28.968738],[134.683738,-28.967414],[134.683669,-28.966735],[134.683594,-28.966093]]}},{"type":"Feature","properties":{"tier":"regional"},"geometry":{"type":"LineString","coordinates":[[134.49998,-28.993987],[134.505981,-28.994936],[134.519641,-28.99708],[134.53443,-28.99944],[134.538256,-29.00002]]}},{"type":"Feature","properties":{"tier":"arterial"},"geometry":{"type":"LineString","coordinates":[[134.770939,-28.976097],[134.76771,-28.981235],[134.767116,-28.982194],[134.76672,-28.982834],[134.766349,-28.983393],[134.765863,-28.984034],[134.765344,-28.984677],[134.765023,-28.985036],[134.764089,-28.986079],[134.76361,-28.98662],[134.763255,-28.987021],[134.762854,-28.987474],[134.762104,-28.988336],[134.76127,-28.989274],[134.760393,-28.990258],[134.759572,-28.99119],[134.757882,-28.993095],[134.757232,-28.993841],[134.756347,-28.99484],[134.7554,-28.99589],[134.75468,-28.996742],[134.753905,-28.997603],[134.753506,-28.998056],[134.751777,-29.00002]]}},{"type":"Feature","properties":{"tier":"high"},"geometry":{"type":"LineString","coordinates":[[134.508492,-28.762403],[134.507661,-28.761438],[134.507604,-28.761374],[134.50632,-28.759928],[134.505722,-28.759245],[134.50041,-28.75318],[134.500393,-28.753161],[134.49998,-28.752689]]}},{"type":"Feature","properties":{"tier":"high"},"geometry":{"type":"LineString","coordinates":[[134.508588,-28.762515],[134.508492,-28.762403]]}},{"type":"Feature","properties":{"tier":"high"},"geometry":{"type":"LineString","coordinates":[[134.625118,-28.882183],[134.625043,-28.882065]]}},{"type":"Feature","properties":{"tier":"high"},"geometry":{"type":"LineString","coordinates":[[134.683594,-28.966093],[134.683346,-28.964486],[134.683189,-28.963683],[134.683014,-28.962882],[134.682745,-28.961808],[134.682443,-28.960773],[134.6822,-28.960006],[134.681953,-28.959299],[134.68169,-28.958591],[134.681407,-28.957887],[134.681116,-28.957195],[134.68083,-28.956557],[134.680529,-28.955925],[134.680217,-28.955318],[134.679781,-28.954491],[134.679355,-28.953736],[134.678872,-28.952928],[134.678403,-28.95219],[134.677309,-28.950605],[134.676124,-28.949056],[134.673883,-28.946146],[134.671691,-28.943235],[134.669644,-28.940222],[134.66867,-28.938687],[134.667749,-28.937161],[134.665593,-28.933222],[134.664053,-28.930222],[134.663554,-28.929249],[134.659998,-28.922343],[134.658545,-28.91952],[134.657754,-28.918127],[134.657335,-28.91745],[134.656903,-28.916776],[134.6561,-28.91562],[134.65523,-28.914463],[134.654363,-28.913368],[134.653595,-28.912481],[134.653114,-28.911958],[134.652197,-28.911047],[134.651754,-28.910612],[134.650873,-28.909793],[134.649889,-28.908928],[134.647306,-28.906736],[134.643497,-28.903488],[134.641723,-28.901907],[134.639993,-28.900293],[134.638972,-28.899302],[134.637958,-28.898288],[134.636961,-28.897271],[134.636025,-28.896278],[134.634943,-28.895106],[134.633885,-28.893912],[134.632857,-28.892719],[134.631844,-28.891508],[134.630963,-28.890408],[134.630096,-28.889306],[134.629211,-28.888136],[134.628385,-28.887011],[134.627522,-28.885804],[134.626681,-28.884594],[134.626225,-28.883835],[134.625118,-28.882183]]}},{"type":"Feature","properties":{"tier":"arterial"},"geometry":{"type":"LineString","coordinates":[[134.934094,-28.769613],[134.933803,-28.771282],[134.933731,-28.77163],[134.933589,-28.772077],[134.933403,-28.77246],[134.933218,-28.772806],[134.932832,-28.773335],[134.932483,-28.773781],[134.931975,-28.774316],[134.931467,-28.774851],[134.930891,-28.775461],[134.930475,-28.775902],[134.929828,-28.77661],[134.929477,-28.777033],[134.929158,-28.777442],[134.928581,-28.778321],[134.928387,-28.778627],[134.927485,-28.780048],[134.926771,-28.781163],[134.926368,-28.781791],[134.926123,-28.782183],[134.925614,-28.782999],[134.924418,-28.784835],[134.922675,-28.787348],[134.921473,-28.789029],[134.921132,-28.789574],[134.920977,-28.789817],[134.920792,-28.790171],[134.920623,-28.79059],[134.920274,-28.791481],[134.920208,-28.79165],[134.919984,-28.792224],[134.91952,-28.793422],[134.919174,-28.794306],[134.918646,-28.795681],[134.918131,-28.797033],[134.917678,-28.79817],[134.91734,-28.799071],[134.916894,-28.800192],[134.916229,-28.801846],[134.915618,-28.803269],[134.915079,-28.804557],[134.91443,-28.806098],[134.91411,-28.806829],[134.914022,-28.807031],[134.913864,-28.807369],[134.913729,-28.807657],[134.913257,-28.808479],[134.91283,-28.809154],[134.912313,-28.809969],[134.911422,-28.811344],[134.910629,-28.812569],[134.90951,-28.814298],[134.908484,-28.815895],[134.908075,-28.816531],[134.907673,-28.817174],[134.906839,-28.81851],[134.906632,-28.818827],[134.904857,-28.821555],[134.904031,-28.822859],[134.902628,-28.825087],[134.901421,-28.826962],[134.900179,-28.828917],[134.898782,-28.831199],[134.898752,-28.831246],[134.897641,-28.833039],[134.896952,-28.834136],[134.896571,-28.834693],[134.896083,-28.835294],[134.89545,-28.835969],[134.894894,-28.836534],[134.894702,-28.836729],[134.893793,-28.837653],[134.892301,-28.839164],[134.890051,-28.841493],[134.889625,-28.841924],[134.888302,-28.843262],[134.885786,-28.845848],[134.884981,-28.846673],[134.88249,-28.849224],[134.881602,-28.85008],[134.881007,-28.850578],[134.879301,-28.852001],[134.878131,-28.852957],[134.877608,-28.853432],[134.876704,-28.85436],[134.874545,-28.856648],[134.872327,-28.859016],[134.868341,-28.863188],[134.864673,-28.86702],[134.855837,-28.876262],[134.855783,-28.876318],[134.855266,-28.87686],[134.854302,-28.877871],[134.852696,-28.879569],[134.850977,-28.881527],[134.849421,-28.883376],[134.847809,-28.885334],[134.847333,-28.88592],[134.846457,-28.886997],[134.846047,-28.8875],[134.84593,-28.887635],[134.845548,-28.888077],[134.844901,-28.888761],[134.844402,-28.889219],[134.843525,-28.889937],[134.843426,-28.890017],[134.841581,-28.891478],[134.840014,-28.892716],[134.839483,-28.893145],[134.838931,-28.893648],[134.838362,-28.894197],[134.837587,-28.895014],[134.833406,-28.899468],[134.832361,-28.900581],[134.832095,-28.900863],[134.831324,-28.901711],[134.830786,-28.902302],[134.829889,-28.903205],[134.829352,-28.903764],[134.82829,-28.904905],[134.827967,-28.9053],[134.827087,-28.906377],[134.82578,-28.907976],[134.823768,-28.910451],[134.821188,-28.91356],[134.819509,-28.915644],[134.816692,-28.919021],[134.81445,-28.921753],[134.812675,-28.923946],[134.810936,-28.926012],[134.808174,-28.929416],[134.805459,-28.932698],[134.80311,-28.935547],[134.800154,-28.939134],[134.797472,-28.94235],[134.795042,-28.945354],[134.794682,-28.945789],[134.792879,-28.947965],[134.791662,-28.949434],[134.790761,-28.950518],[134.789506,-28.952034],[134.789354,-28.95222],[134.788728,-28.952992],[134.787848,-28.953888],[134.786831,-28.954843],[134.786765,-28.954905],[134.786616,-28.955031],[134.782924,-28.958371],[134.781438,-28.959732],[134.78103,-28.960098],[134.78074,-28.960427],[134.78059,-28.960586],[134.780429,-28.960802],[134.780032,-28.961408],[134.779818,-28.961717],[134.779056,-28.962952],[134.775317,-28.969025],[134.770939,-28.976097]]}}]}
