{"type":"FeatureCollection","features":[{"type":"Feature","properties":{"tier":"arterial"},"geometry":{"type":"LineString","coordinates":[[134.541548,-32.403309],[134.541133,-32.403338],[134.540165,-32.403407],[134.537255,-32.403599],[134.536709,-32.403613],[134.536394,-32.403584],[134.536244,-32.40357],[134.536122,-32.403559],[134.535744,-32.403527],[134.535615,-32.403516],[134.535471,-32.403523],[134.53506,-32.403541],[134.533958,-32.403647],[134.533639,-32.403668],[134.533444,-32.40368],[134.53327,-32.403691],[134.533035,-32.403706],[134.531811,-32.403785],[134.53114,-32.403827],[134.530732,-32.403854],[134.529988,-32.403901],[134.52917,-32.403376],[134.528969,-32.403322],[134.528705,-32.403456],[134.528485,-32.403715],[134.527742,-32.40459]]}},{"type":"Feature","properties":{"tier":"arterial"},"geometry":{"type":"LineString","coordinates":[[134.856154,-32.382338],[134.855885,-32.382443],[134.853042,-32.383318],[134.852712,-32.38345],[134.852248,-32.383747],[134.851875,-32.384109],[134.850721,-32.385999],[134.848883,-32.388002],[134.846657,-32.389256],[134.840477,-32.390225],[134.834229,-32.391333],[134.821478,-32.3934],[134.820765,-32.393399],[134.820285,-32.393399],[134.739363,-32.392903],[134.739286,-32.392903],[134.739188,-32.392902],[134.737012,-32.392872],[134.734968,-32.392899],[134.733686,-32.392913],[134.731988,-32.392951],[134.729743,-32.392899],[134.7251,-32.392838],[134.719857,-32.392795],[134.717172,-32.39277],[134.711968,-32.392786],[134.708624,-32.392795],[134.704852,-32.392793],[134.703294,-32.392775],[134.70281,-32.392779],[134.702569,-32.392785],[134.702369,-32.392792],[134.702121,-32.39281],[134.700636,-32.392917],[134.699282,-32.393015],[134.695462,-32.393291],[134.692694,-32.393468],[134.692045,-32.393527],[134.691441,-32.393549],[134.690972,-32.393558],[134.690154,-32.393572],[134.688148,-32.393594],[134.686726,-32.393613],[134.685777,-32.393647],[134.685122,-32.393656],[134.684744,-32.393674],[134.684704,-32.393675],[134.68424,-32.393692],[134.683725,-32.393721],[134.681072,-32.393896],[134.678714,-32.39405],[134.676646,-32.394195],[134.676233,-32.394226],[134.675944,-32.394238],[134.67497,-32.394299],[134.67174,-32.394516],[134.667744,-32.394799],[134.664493,-32.395028],[134.627326,-32.39757],[134.583201,-32.400517],[134.580518,-32.400722],[134.575661,-32.401062],[134.565981,-32.40166],[134.564327,-32.401765],[134.564001,-32.401785],[134.560713,-32.401993],[134.560193,-32.402026],[134.554737,-32.402422],[134.546116,-32.403002],[134.545583,-32.403037],[134.543419,-32.403183],[134.541548,-32.403309]]}},{"type":"Feature","properties":{"tier":"high"},"geometry":{"type":"LineString","coordinates":[[134.49998,-32.409903],[134.501823,-32.409298],[134.513216,-32.405609],[134.513916,-32.40538],[134.514264,-32.405271],[134.514525,-32.405191],[134.514788,-32.40512],[134.515064,-32.405052],[134.515321,-32.405005],[134.515622,-32.404956],[134.515864,-32.40493],[134.516118,-32.404909],[134.516499,-32.404882],[134.525121,-32.40431],[134.525366,-32.404293],[134.52564,-32.404282],[134.525949,-32.404279],[134.526251,-32.404289],[134.526563,-32.404316],[134.526888,-32.404364],[134.52719,-32.404429],[134.527476,-32.404509],[134.527742,-32.40459]]}},{"type":"Feature","properties":{"tier":"arterial"},"geometry":{"type":"LineString","coordinates":[[135.00002,-32.30258],[134.998187,-32.304021],[134.993653,-32.307629],[134.993403,-32.307814],[134.99308,-32.308001],[134.990778,-32.309233],[134.990355,-32.309494]]}},{"type":"Feature","properties":{"tier":"high"},"geometry":{"type":"LineString","coordinates":[[134.536812,-32.410161],[134.536981,-32.410263],[134.537871,-32.410862],[134.53919,-32.411737],[134.541907,-32.413589],[134.542411,-32.41393],[134.542839,-32.414218],[134.54321,-32.414481],[134.543547,-32.414747],[134.543909,-32.415053],[134.547532,-32.418427],[134.552357,-32.422951],[134.561026,-32.431045],[134.566693,-32.436215],[134.567082,-32.436607],[134.567563,-32.437032],[134.567997,-32.437418],[134.568541,-32.437838],[134.56906,-32.438194],[134.569733,-32.438594],[134.570307,-32.438914],[134.578107,-32.443097],[134.58228,-32.44536],[134.582543,-32.445502],[134.589178,-32.44907],[134.591777,-32.450591],[134.594525,-32.452042],[134.594826,-32.452206],[134.595102,-32.452354],[134.595323,-32.452483],[134.59558,-32.452648],[134.595858,-32.452845],[134.596193,-32.453109],[134.597664,-32.454359],[134.601405,-32.457575],[134.608378,-32.463518],[134.609251,-32.464274],[134.61055,-32.465399],[134.610992,-32.465775],[134.613362,-32.467793],[134.616127,-32.470163],[134.618172,-32.471905],[134.620243,-32.473669],[134.622768,-32.475819],[134.624551,-32.477307],[134.626322,-32.478945],[134.631011,-32.483609],[134.631283,-32.483879],[134.636238,-32.48893],[134.637326,-32.490027],[134.63775,-32.490481],[134.638024,-32.490758],[134.638328,-32.49111],[134.638577,-32.491428],[134.638773,-32.491707],[134.638958,-32.492019],[134.63911,-32.492362],[134.639234,-32.492669],[134.639327,-32.492951],[134.639406,-32.493276],[134.640918,-32.499516],[134.641039,-32.50002]]}},{"type":"Feature","properties":{"tier":"high"},"geometry":{"type":"LineString","coordinates":[[134.527742,-32.40459],[134.528116,-32.40473],[134.528402,-32.404864],[134.52869,-32.40502],[134.529046,-32.405247],[134.53307,-32.407966]]}},{"type":"Feature","properties":{"tier":"high"},"geometry":{"type":"LineString","coordinates":[[134.53307,-32.407966],[134.5343,-32.408767],[134.534931,-32.409122],[134.535238,-32.409291],[134.535702,-32.409546],[134.536166,-32.40979],[134.536545,-32.409999],[134.536812,-32.410161]]}},{"type":"Feature","properties":{"tier":"arterial"},"geometry":{"type":"LineString","coordinates":[[134.990355,-32.309494],[134.98931,-32.310171]]}},{"type":"Feature","properties":{"tier":"arterial"},"geometry":{"type":"LineString","coordinates":[[134.98931,-32.310171],[134.989047,-32.310291],[134.988748,-32.310361],[134.98836,-32.310403],[134.987861,-32.310451],[134.986493,-32.31065],[134.985847,-32.310744],[134.985492,-32.310844],[134.985184,-32.310966],[134.984874,-32.311112],[134.978672,-32.314866],[134.978273,-32.315117],[134.977918,-32.315394],[134.971099,-32.321541],[134.970766,-32.321864],[134.970528,-32.322121],[134.969709,-32.323198],[134.96939,-32.323554],[134.968091,-32.324645],[134.966051,-32.326233],[134.965561,-32.326596],[134.964477,-32.327582],[134.964046,-32.327905],[134.963584,-32.328133],[134.963155,-32.328302],[134.962537,-32.328461],[134.961136,-32.328711],[134.959672,-32.328981],[134.959328,-32.329011],[134.959076,-32.328999],[134.958712,-32.328918],[134.95824,-32.328778],[134.95758,-32.328549],[134.956996,-32.328423],[134.956319,-32.328352],[134.955693,-32.328338],[134.95516,-32.328421],[134.954579,-32.328604],[134.953773,-32.328987],[134.952254,-32.329906],[134.951373,-32.33059],[134.950666,-32.331271],[134.950123,-32.331869],[134.949471,-32.332664],[134.949048,-32.333254],[134.948674,-32.33386],[134.948487,-32.334178],[134.948357,-32.334432],[134.948284,-32.334648],[134.948251,-32.334846],[134.948237,-32.335048],[134.948131,-32.335316],[134.947801,-32.335786],[134.947602,-32.336007],[134.947329,-32.336228],[134.946818,-32.336504],[134.946435,-32.336755],[134.945293,-32.337518],[134.944761,-32.337845],[134.944377,-32.338147],[134.943924,-32.338509],[134.943543,-32.338822],[134.943363,-32.338932],[134.943123,-32.339038],[134.942814,-32.339136],[134.941974,-32.339346],[134.941468,-32.339524],[134.941171,-32.33966],[134.94084,-32.339861],[134.938269,-32.341713],[134.937165,-32.342425],[134.936172,-32.343034],[134.935591,-32.34335],[134.934654,-32.3439],[134.934183,-32.344206],[134.933518,-32.344685],[134.93306,-32.345056],[134.932745,-32.345373],[134.931672,-32.346664],[134.931518,-32.34685],[134.931313,-32.347031],[134.9309,-32.347339],[134.928978,-32.348808],[134.926717,-32.350534],[134.923207,-32.353454],[134.922697,-32.353871],[134.922423,-32.354163],[134.922287,-32.354356],[134.922152,-32.354652],[134.919431,-32.360804],[134.919257,-32.361072],[134.919015,-32.361351],[134.918728,-32.361579],[134.913048,-32.365755],[134.912701,-32.365993],[134.912257,-32.36626],[134.911675,-32.366453],[134.911301,-32.366534],[134.910922,-32.366572],[134.910526,-32.36662],[134.910176,-32.366719],[134.909194,-32.367105],[134.908965,-32.367164],[134.908502,-32.367215],[134.908098,-32.367193],[134.907604,-32.367109],[134.905953,-32.366755],[134.905483,-32.366648],[134.905161,-32.366609],[134.903242,-32.366525],[134.902695,-32.366556],[134.902291,-32.366625],[134.901862,-32.366732],[134.901493,-32.366769],[134.900895,-32.366805],[134.900423,-32.366876],[134.89987,-32.367041],[134.899237,-32.367317],[134.898791,-32.367594],[134.898546,-32.367745],[134.898235,-32.367842],[134.897708,-32.367956],[134.895616,-32.368347],[134.894943,-32.368548],[134.894289,-32.368826],[134.893738,-32.369152],[134.893031,-32.369655],[134.892416,-32.370083],[134.891156,-32.370692],[134.890413,-32.371118],[134.889858,-32.371412],[134.88855,-32.372017],[134.88773,-32.372414],[134.887385,-32.37264],[134.887051,-32.372879],[134.886553,-32.373163],[134.886063,-32.373391],[134.885665,-32.373594],[134.885474,-32.373714],[134.885283,-32.373885],[134.884202,-32.375088],[134.88348,-32.37576],[134.882975,-32.376122],[134.88265,-32.37628],[134.880998,-32.376809],[134.880494,-32.376993],[134.880045,-32.377082],[134.879452,-32.377105],[134.877792,-32.3771],[134.877424,-32.377147],[134.877079,-32.37725],[134.876776,-32.377401],[134.875868,-32.378008],[134.875441,-32.378157],[134.873948,-32.378535],[134.873594,-32.378652],[134.873306,-32.37884],[134.871944,-32.379904],[134.87053,-32.381203],[134.870158,-32.381455],[134.869815,-32.38157],[134.869411,-32.381647],[134.869025,-32.381684],[134.868371,-32.381664],[134.867866,-32.381582],[134.867465,-32.381446],[134.866242,-32.380747],[134.866042,-32.380648],[134.865826,-32.380615],[134.865568,-32.38063],[134.865364,-32.380711],[134.864453,-32.381348],[134.864072,-32.381546],[134.863692,-32.381641],[134.863292,-32.381641],[134.862833,-32.381556],[134.862299,-32.381358],[134.861733,-32.381077],[134.86119,-32.380793],[134.860869,-32.380672],[134.860498,-32.380593],[134.859613,-32.380557],[134.859104,-32.380639],[134.858688,-32.380786],[134.858342,-32.380969],[134.857604,-32.381445],[134.857118,-32.381826],[134.856566,-32.382161],[134.856154,-32.382338]]}}]}
