{"type":"FeatureCollection","features":[{"type":"Feature","properties":{"tier":"regional"},"geometry":{"type":"LineString","coordinates":[[134.565124,-29.506466],[134.565502,-29.506935],[134.565856,-29.507404],[134.566203,-29.507865],[134.566764,-29.508315],[134.567774,-29.508785],[134.568172,-29.50897],[134.568825,-29.509273],[134.569623,-29.509733],[134.570583,-29.510381],[134.573604,-29.512822],[134.580315,-29.518173],[134.591297,-29.526932],[134.596379,-29.530959],[134.597533,-29.53171],[134.598482,-29.532274],[134.599723,-29.532846],[134.601417,-29.53355],[134.603586,-29.534151],[134.605916,-29.534564],[134.607782,-29.534677],[134.614298,-29.534714],[134.636544,-29.534789],[134.641464,-29.534827],[134.644496,-29.534996],[134.647096,-29.535268],[134.65072,-29.535859],[134.654378,-29.536535],[134.66098,-29.537746],[134.667723,-29.538975],[134.67357,-29.540036],[134.680658,-29.54135],[134.685505,-29.542237]]}},{"type":"Feature","properties":{"tier":"regional"},"geometry":{"type":"LineString","coordinates":[[134.685505,-29.542237],[134.685719,-29.542276]]}},{"type":"Feature","properties":{"tier":"regional"},"geometry":{"type":"LineString","coordinates":[[134.685719,-29.542276],[134.687736,-29.542645],[134.693432,-29.543687],[134.69956,-29.544795],[134.702516,-29.545349],[134.710397,-29.54674],[134.713755,-29.547188],[134.718346,-29.547552],[134.728239,-29.547552],[134.734204,-29.547496],[134.737916,-29.547244],[134.740995,-29.546908],[134.751513,-29.545525],[134.75167,-29.545517],[134.764169,-29.543987],[134.783438,-29.541531],[134.809329,-29.540567],[134.859245,-29.538676],[134.867987,-29.538344],[134.870219,-29.538139],[134.873072,-29.537831],[134.878544,-29.536851],[134.881916,-29.535954],[134.882798,-29.535719],[134.901246,-29.530064],[134.912168,-29.52662],[134.922768,-29.523847],[134.931083,-29.521308],[134.939827,-29.518619],[134.945653,-29.516761],[134.947262,-29.516378],[134.952777,-29.515715],[134.957165,-29.515584],[134.964504,-29.515426],[134.998503,-29.514573],[135.00002,-29.514532]]}}]}
