{"type":"FeatureCollection","features":[{"type":"Feature","properties":{"tier":"arterial"},"geometry":{"type":"LineString","coordinates":[[135.00002,-30.860747],[135.00001,-30.860781],[135.00002,-30.860822]]}},{"type":"Feature","properties":{"tier":"arterial"},"geometry":{"type":"LineString","coordinates":[[135.00002,-30.862008],[134.999838,-30.862225],[134.998379,-30.862608],[134.995247,-30.862977],[134.992672,-30.863036],[134.992397,-30.863036],[134.992088,-30.862977],[134.990019,-30.862572],[134.984955,-30.861194],[134.970596,-30.857377],[134.97045,-30.85734],[134.970135,-30.857258],[134.969783,-30.85726],[134.969445,-30.857406],[134.969299,-30.857524],[134.968669,-30.858028],[134.968243,-30.858334],[134.967904,-30.858483],[134.96742,-30.858497],[134.964805,-30.858304],[134.963232,-30.858188],[134.96284,-30.858086],[134.962511,-30.857896],[134.962387,-30.85776],[134.962122,-30.857378],[134.961704,-30.857024],[134.961116,-30.856683],[134.960816,-30.856583],[134.960473,-30.856535],[134.959693,-30.85663],[134.958996,-30.856785],[134.958322,-30.857009],[134.948022,-30.859573],[134.940658,-30.861098],[134.938152,-30.861194],[134.933225,-30.860457],[134.929165,-30.85972],[134.927217,-30.85916],[134.924762,-30.857944],[134.924136,-30.857576],[134.918111,-30.853752],[134.917381,-30.853361],[134.916051,-30.852661],[134.915433,-30.852404],[134.907227,-30.849147],[134.905227,-30.848277],[134.904751,-30.847952],[134.903347,-30.846689],[134.903109,-30.846464],[134.902711,-30.846237],[134.902378,-30.846166],[134.902051,-30.846142],[134.901851,-30.846174],[134.901654,-30.846252],[134.901357,-30.84638],[134.901099,-30.846619],[134.900858,-30.847028],[134.90077,-30.847208],[134.900461,-30.847547],[134.90021,-30.847703],[134.899911,-30.847798],[134.899516,-30.847863],[134.899073,-30.847813],[134.898584,-30.847688],[134.889726,-30.844666],[134.886422,-30.843399],[134.882019,-30.841387],[134.877813,-30.839434],[134.876139,-30.838859],[134.870328,-30.836965],[134.866878,-30.835897],[134.866363,-30.835653],[134.866205,-30.835581],[134.864749,-30.834916],[134.86305,-30.833907],[134.860818,-30.833096],[134.847206,-30.829079],[134.844768,-30.828512],[134.83979,-30.82779],[134.823911,-30.825409],[134.814942,-30.824031],[134.800119,-30.821746],[134.792609,-30.820625],[134.787121,-30.81974],[134.786083,-30.819578],[134.785399,-30.819447],[134.785101,-30.819366],[134.784737,-30.81926],[134.784305,-30.819081],[134.783744,-30.818807],[134.782931,-30.818371],[134.782006,-30.817876],[134.781008,-30.817339],[134.776843,-30.815082],[134.770808,-30.81182],[134.769848,-30.811311],[134.768807,-30.810783],[134.768262,-30.810465],[134.768008,-30.810313],[134.767721,-30.810127],[134.767466,-30.809945],[134.767257,-30.809754],[134.766972,-30.809461],[134.766522,-30.809005],[134.766004,-30.808454],[134.754988,-30.796965],[134.754243,-30.796179],[134.754001,-30.79594],[134.753762,-30.79567],[134.752727,-30.794689],[134.752521,-30.794518],[134.752333,-30.794325],[134.752209,-30.79417],[134.752129,-30.793958],[134.7521,-30.793758],[134.752108,-30.793537],[134.752164,-30.793256],[134.752384,-30.79212],[134.752443,-30.791562],[134.752475,-30.791055],[134.752395,-30.790617],[134.752239,-30.790235],[134.75145,-30.788654],[134.751198,-30.788083],[134.750871,-30.787474],[134.750442,-30.786839],[134.749793,-30.785949],[134.746553,-30.781433],[134.746274,-30.781011],[134.744595,-30.778795],[134.740644,-30.77333],[134.740243,-30.772776],[134.738398,-30.770151],[134.737911,-30.769369],[134.737624,-30.769048],[134.737423,-30.768868],[134.737036,-30.768578],[134.736089,-30.767956],[134.735432,-30.767506],[134.734869,-30.76711],[134.734467,-30.766827],[134.734089,-30.766511],[134.733654,-30.766087],[134.733187,-30.765621],[134.732806,-30.765227],[134.73249,-30.764877],[134.732243,-30.76457],[134.731983,-30.764243],[134.731597,-30.763669],[134.731275,-30.76319],[134.731044,-30.762899],[134.730843,-30.762634],[134.730532,-30.762293],[134.730119,-30.761885],[134.72885,-30.760719],[134.728491,-30.76038],[134.728212,-30.760039],[134.728011,-30.759719],[134.727874,-30.759467],[134.7243,-30.753382],[134.721595,-30.748742],[134.720667,-30.74717],[134.72035,-30.746658],[134.720144,-30.746407],[134.7199,-30.746156],[134.719575,-30.745921],[134.718939,-30.74549],[134.707696,-30.737976],[134.703577,-30.735232],[134.70241,-30.734492],[134.701522,-30.733976],[134.700235,-30.733409],[134.69838,-30.732596],[134.698008,-30.732408],[134.697699,-30.732139],[134.697492,-30.731787],[134.69744,-30.731632],[134.697423,-30.731351],[134.697417,-30.731119],[134.697423,-30.730477],[134.697343,-30.730198],[134.697215,-30.729896],[134.697067,-30.729653],[134.696838,-30.729383],[134.696577,-30.729205],[134.696067,-30.728902],[134.693476,-30.727737],[134.692736,-30.7274],[134.689613,-30.725978],[134.686683,-30.72463],[134.683823,-30.723268],[134.682308,-30.722679],[134.681861,-30.722547],[134.680787,-30.722231],[134.669794,-30.718152],[134.649272,-30.710551],[134.637048,-30.706037],[134.635762,-30.705584],[134.635134,-30.705397],[134.634071,-30.705173],[134.633453,-30.705105],[134.633071,-30.705072],[134.632417,-30.705059],[134.628947,-30.705349],[134.614572,-30.706546],[134.614077,-30.706587],[134.61239,-30.706686],[134.596357,-30.70802],[134.592065,-30.70833],[134.591207,-30.708392],[134.575759,-30.709718],[134.575524,-30.709734],[134.574995,-30.709769],[134.574246,-30.709819],[134.573699,-30.709774],[134.573443,-30.70969],[134.573214,-30.709616],[134.571374,-30.708856],[134.570737,-30.708721],[134.570455,-30.708708],[134.570351,-30.708703],[134.570153,-30.708694],[134.568609,-30.708832],[134.567578,-30.708923],[134.56656,-30.709022],[134.566184,-30.709053],[134.565446,-30.709112],[134.564995,-30.709146],[134.564385,-30.709173],[134.563996,-30.709225],[134.561817,-30.709582],[134.559123,-30.7098],[134.548051,-30.710861],[134.544472,-30.711171],[134.542987,-30.711466],[134.542155,-30.711806],[134.541171,-30.712212],[134.540474,-30.712385],[134.539987,-30.712438],[134.535054,-30.712873],[134.534856,-30.712905],[134.534608,-30.71301],[134.534437,-30.713156],[134.534349,-30.713341],[134.534232,-30.713621],[134.534198,-30.713824],[134.533632,-30.716123],[134.533422,-30.716499],[134.533111,-30.716834],[134.532585,-30.717185],[134.530113,-30.718735],[134.529584,-30.71905],[134.529098,-30.71928],[134.528508,-30.71948],[134.527987,-30.719619],[134.527491,-30.7197],[134.526817,-30.719775],[134.524578,-30.719933],[134.523039,-30.720046],[134.522454,-30.72009],[134.521955,-30.720094],[134.521413,-30.720076],[134.519729,-30.719993],[134.515746,-30.71979],[134.512916,-30.719679],[134.512162,-30.719652],[134.511637,-30.719601],[134.511039,-30.719499],[134.510081,-30.719278],[134.509027,-30.719029],[134.505143,-30.718149],[134.502729,-30.717599],[134.49998,-30.717043]]}}]}
