{"type":"FeatureCollection","features":[{"type":"Feature","properties":{"tier":"arterial"},"geometry":{"type":"LineString","coordinates":[[134.832824,-32.721849],[134.832102,-32.722365],[134.83184,-32.722525],[134.831202,-32.722861],[134.824564,-32.726225],[134.821014,-32.728024],[134.820599,-32.728207],[134.820507,-32.728248],[134.81962,-32.728558],[134.811287,-32.731472],[134.809471,-32.732107],[134.806366,-32.733193],[134.805669,-32.7334],[134.805143,-32.7335],[134.804488,-32.733564],[134.803733,-32.73359],[134.798035,-32.733726],[134.797426,-32.733778],[134.796964,-32.733858],[134.796449,-32.733994],[134.792869,-32.734985],[134.791502,-32.735382],[134.790775,-32.73557],[134.790668,-32.73559],[134.790213,-32.735675],[134.789578,-32.735749],[134.779127,-32.736463],[134.778404,-32.736498],[134.777933,-32.736492],[134.777508,-32.736458],[134.776931,-32.736376],[134.765044,-32.734673],[134.764457,-32.734599],[134.764044,-32.734572],[134.763557,-32.734566],[134.753571,-32.734657],[134.753414,-32.734658],[134.741191,-32.734747],[134.740115,-32.734766],[134.739618,-32.734805],[134.738794,-32.734898],[134.729491,-32.736066],[134.728757,-32.736184],[134.728189,-32.73633],[134.727711,-32.736481],[134.72715,-32.736718],[134.714202,-32.742568],[134.713241,-32.742937],[134.703743,-32.746685],[134.701663,-32.747509],[134.70087,-32.747824],[134.700437,-32.747952],[134.699675,-32.748108],[134.697011,-32.748629],[134.696359,-32.74876],[134.696023,-32.748837],[134.695534,-32.748972],[134.692917,-32.749914],[134.689878,-32.751005],[134.688598,-32.751466],[134.687746,-32.751758],[134.687462,-32.751853],[134.68715,-32.751937],[134.686543,-32.752065],[134.676487,-32.754035],[134.674792,-32.754341],[134.673949,-32.754504],[134.672591,-32.754768],[134.672246,-32.754835],[134.671898,-32.754902],[134.66897,-32.75547],[134.668478,-32.755555],[134.668054,-32.755602],[134.667615,-32.755623],[134.663226,-32.755559],[134.662718,-32.75552],[134.662268,-32.755462],[134.661596,-32.75533],[134.655622,-32.753725],[134.655106,-32.75362],[134.654562,-32.753554],[134.653836,-32.753537],[134.653311,-32.75356],[134.652814,-32.753608],[134.645732,-32.754553],[134.642175,-32.755028],[134.635611,-32.755909],[134.634876,-32.756015],[134.634092,-32.756158],[134.630409,-32.756885],[134.623631,-32.758241],[134.614693,-32.760055],[134.586516,-32.765638],[134.585856,-32.765757],[134.585254,-32.765805],[134.584676,-32.765822],[134.584161,-32.765794],[134.583204,-32.765675],[134.54461,-32.760626],[134.544293,-32.760582],[134.543995,-32.760529],[134.543744,-32.760477],[134.543469,-32.76041],[134.543351,-32.760379],[134.543105,-32.760308],[134.542938,-32.760255],[134.542814,-32.760213],[134.542632,-32.760148],[134.54249,-32.760093],[134.542326,-32.760027],[134.542116,-32.759935],[134.531376,-32.755627],[134.49998,-32.742979]]}},{"type":"Feature","properties":{"tier":"high"},"geometry":{"type":"LineString","coordinates":[[134.64103,-32.49998],[134.642726,-32.507052],[134.644049,-32.512581],[134.644476,-32.513975],[134.64455,-32.514303],[134.644618,-32.51461],[134.644707,-32.514888],[134.644714,-32.515156],[134.644807,-32.51538],[134.644919,-32.515616],[134.645071,-32.515922],[134.645237,-32.516205],[134.64542,-32.516454],[134.64571,-32.516801],[134.652146,-32.524124],[134.653559,-32.525682],[134.653891,-32.52608],[134.654147,-32.526408],[134.654357,-32.526734],[134.654547,-32.527101],[134.654709,-32.527451],[134.654851,-32.5279],[134.654965,-32.528389],[134.655123,-32.529016],[134.655269,-32.529472],[134.655442,-32.529862],[134.655631,-32.530205],[134.655836,-32.530515],[134.656203,-32.531022],[134.659409,-32.535344],[134.663117,-32.540361],[134.667248,-32.545974],[134.669507,-32.548972],[134.671187,-32.551252],[134.671449,-32.551612],[134.67167,-32.551897],[134.671958,-32.552228],[134.672258,-32.55256],[134.672555,-32.552867],[134.672905,-32.553207],[134.673267,-32.553563],[134.674295,-32.554573],[134.676488,-32.556707],[134.682571,-32.562516],[134.685029,-32.564816],[134.68714,-32.566936],[134.687453,-32.567225],[134.687709,-32.56747],[134.688029,-32.567767],[134.68838,-32.568038],[134.68884,-32.568347],[134.689245,-32.568605],[134.689907,-32.568973],[134.693858,-32.571269],[134.696877,-32.573011],[134.698435,-32.57391],[134.698819,-32.574133],[134.699122,-32.574311],[134.699428,-32.574487],[134.699747,-32.574683],[134.700042,-32.574883],[134.70027,-32.575044],[134.700552,-32.575256],[134.700804,-32.575461],[134.701013,-32.575639],[134.701198,-32.575797],[134.701456,-32.576014],[134.701708,-32.576247],[134.704421,-32.578609],[134.708937,-32.582559],[134.712936,-32.586078],[134.713618,-32.586676],[134.714993,-32.587869],[134.715279,-32.588139],[134.715484,-32.588361],[134.71568,-32.588585],[134.715876,-32.588861],[134.71602,-32.589077],[134.716172,-32.589331],[134.71669,-32.590352],[134.719105,-32.595355],[134.727099,-32.611751],[134.727657,-32.612897],[134.72783,-32.613241],[134.727988,-32.613557],[134.72816,-32.61385],[134.728328,-32.614121],[134.728506,-32.61438],[134.728749,-32.614684],[134.728992,-32.61497],[134.729307,-32.615314],[134.729623,-32.615633],[134.729968,-32.615968],[134.738978,-32.625242],[134.744442,-32.630869],[134.746072,-32.632534],[134.747514,-32.633992],[134.747665,-32.634147],[134.747869,-32.63434],[134.748086,-32.634559],[134.748279,-32.634743],[134.748457,-32.634912],[134.748617,-32.635048],[134.748824,-32.635222],[134.749041,-32.635387],[134.749234,-32.635525],[134.74965,-32.635827],[134.751723,-32.637388],[134.772341,-32.652899],[134.772486,-32.653017],[134.772639,-32.653146],[134.7728,-32.653286],[134.772964,-32.65344],[134.773119,-32.653596],[134.774318,-32.654953],[134.774441,-32.655096],[134.776059,-32.656985],[134.776906,-32.657968],[134.777958,-32.659191],[134.778462,-32.659729],[134.778752,-32.660032],[134.778891,-32.66016],[134.779109,-32.660345],[134.77932,-32.660517],[134.779489,-32.660669],[134.779683,-32.660849],[134.779885,-32.661053],[134.780088,-32.661266],[134.780498,-32.661741],[134.799421,-32.683683],[134.800796,-32.685263],[134.815863,-32.702576],[134.819177,-32.706384],[134.821614,-32.709206],[134.822789,-32.710567],[134.824181,-32.712179],[134.829722,-32.718595],[134.830032,-32.718931],[134.830257,-32.719153],[134.830449,-32.719315],[134.830644,-32.719473],[134.830887,-32.719651],[134.831191,-32.719846]]}},{"type":"Feature","properties":{"tier":"high"},"geometry":{"type":"LineString","coordinates":[[134.833997,-32.720967],[134.834185,-32.721026],[134.834603,-32.721158],[134.83506,-32.721303],[134.835609,-32.721478],[134.836168,-32.721655],[134.836925,-32.721896],[134.837812,-32.722178],[134.840607,-32.72304]]}},{"type":"Feature","properties":{"tier":"high"},"geometry":{"type":"LineString","coordinates":[[134.888126,-32.73781],[134.888192,-32.737859],[134.888517,-32.738082],[134.889018,-32.738393],[134.889386,-32.738591],[134.889599,-32.738692],[134.889967,-32.738843],[134.890595,-32.739048],[134.891286,-32.739218],[134.899686,-32.740939],[134.903356,-32.741709],[134.903935,-32.741848],[134.904367,-32.741968],[134.904962,-32.74218],[134.905267,-32.742315],[134.905625,-32.742494],[134.906088,-32.742757],[134.906538,-32.743027],[134.920354,-32.751844],[134.921132,-32.752324],[134.928639,-32.757101],[134.928876,-32.757244],[134.929185,-32.757402],[134.929409,-32.757509],[134.9298,-32.757672],[134.930193,-32.757812],[134.930412,-32.757876],[134.930747,-32.757961],[134.931454,-32.758101],[134.934751,-32.758562],[134.940412,-32.759378],[134.944228,-32.759941],[134.946222,-32.760222],[134.946573,-32.760288],[134.946854,-32.760356],[134.94718,-32.760447],[134.94991,-32.76134],[134.958224,-32.764095],[134.958593,-32.764223],[134.960019,-32.764819],[134.961708,-32.765388],[134.964294,-32.766241],[134.96801,-32.767468],[134.968883,-32.767746],[134.970469,-32.768144],[134.975007,-32.76961],[134.975074,-32.769632],[134.976383,-32.770068],[134.98666,-32.773486],[134.987082,-32.773613],[134.987773,-32.773775],[134.988463,-32.773891],[134.992479,-32.774437],[134.994546,-32.774732],[134.994973,-32.7748],[134.995593,-32.774922],[134.995944,-32.775018],[134.996533,-32.775213],[135.00002,-32.776664]]}},{"type":"Feature","properties":{"tier":"high"},"geometry":{"type":"LineString","coordinates":[[134.833745,-32.720887],[134.833997,-32.720967]]}},{"type":"Feature","properties":{"tier":"high"},"geometry":{"type":"LineString","coordinates":[[134.831191,-32.719846],[134.831485,-32.720015],[134.831916,-32.720244]]}},{"type":"Feature","properties":{"tier":"high"},"geometry":{"type":"LineString","coordinates":[[134.840607,-32.72304],[134.841053,-32.72317],[134.841395,-32.723242],[134.84178,-32.723307],[134.842221,-32.723356],[134.842667,-32.72338],[134.843161,-32.723382]]}},{"type":"Feature","properties":{"tier":"arterial"},"geometry":{"type":"LineString","coordinates":[[134.833745,-32.720887],[134.833664,-32.720991],[134.833611,-32.72106],[134.83351,-32.721221],[134.833441,-32.721315],[134.83337,-32.721398],[134.833292,-32.721473],[134.833146,-32.721604],[134.832824,-32.721849]]}},{"type":"Feature","properties":{"tier":"high"},"geometry":{"type":"LineString","coordinates":[[134.86608,-32.726423],[134.868164,-32.727293],[134.879622,-32.731957],[134.880479,-32.73232],[134.8809,-32.732521],[134.881358,-32.73278],[134.881846,-32.733094],[134.883137,-32.734049],[134.888126,-32.73781]]}},{"type":"Feature","properties":{"tier":"high"},"geometry":{"type":"LineString","coordinates":[[134.844255,-32.723416],[134.857052,-32.724593],[134.86,-32.724869],[134.860668,-32.724944],[134.861715,-32.725108],[134.862746,-32.725307],[134.863114,-32.725395],[134.864047,-32.72566],[134.865053,-32.726007],[134.86608,-32.726423]]}},{"type":"Feature","properties":{"tier":"high"},"geometry":{"type":"LineString","coordinates":[[134.843161,-32.723382],[134.843869,-32.723379],[134.844255,-32.723416]]}},{"type":"Feature","properties":{"tier":"high"},"geometry":{"type":"LineString","coordinates":[[134.831916,-32.720244],[134.832486,-32.720475],[134.833745,-32.720887]]}}]}
