{"type":"FeatureCollection","features":[{"type":"Feature","properties":{"tier":"arterial"},"geometry":{"type":"LineString","coordinates":[[134.705685,-33.174894],[134.708836,-33.171673],[134.712608,-33.167617],[134.715731,-33.164376],[134.719573,-33.160391],[134.721127,-33.158723],[134.721735,-33.157552],[134.721876,-33.156547],[134.722074,-33.153921],[134.722258,-33.153199],[134.72254,-33.152513],[134.723275,-33.151532],[134.724235,-33.150716],[134.72627,-33.149012],[134.727626,-33.147581],[134.728205,-33.146753],[134.730353,-33.143595],[134.732655,-33.140423],[134.735289,-33.136691],[134.736748,-33.134485],[134.737422,-33.133059],[134.737599,-33.132687],[134.738855,-33.129192],[134.740516,-33.124883],[134.744487,-33.114499],[134.745945,-33.112259],[134.751172,-33.099022],[134.753171,-33.093696],[134.753487,-33.092888],[134.753821,-33.092334],[134.753955,-33.092214],[134.754455,-33.091699],[134.756543,-33.090139],[134.760267,-33.087271],[134.760635,-33.087006],[134.761393,-33.086604],[134.762151,-33.08622],[134.766896,-33.084503],[134.767212,-33.084408],[134.768886,-33.083842],[134.770545,-33.082943],[134.773939,-33.080495],[134.7752,-33.079495],[134.777167,-33.077767],[134.77834,-33.076548],[134.780092,-33.074938],[134.781307,-33.073707],[134.782351,-33.072775],[134.783222,-33.072107],[134.784501,-33.071229],[134.786309,-33.070181],[134.787811,-33.069412],[134.790387,-33.068208],[134.791889,-33.067392],[134.794568,-33.065745],[134.795254,-33.065365],[134.798507,-33.063275],[134.799137,-33.062848],[134.799434,-33.062661],[134.801538,-33.061271],[134.802029,-33.06096],[134.803624,-33.059911],[134.806043,-33.058272],[134.807461,-33.057185],[134.809908,-33.055196],[134.810121,-33.055017],[134.813199,-33.05229],[134.815433,-33.05055],[134.819165,-33.047736],[134.819851,-33.047203],[134.820582,-33.046563]]}},{"type":"Feature","properties":{"tier":"arterial"},"geometry":{"type":"LineString","coordinates":[[134.932659,-33.013908],[134.937283,-33.013347],[134.944637,-33.012247],[134.947448,-33.011972],[134.949458,-33.011511],[134.950977,-33.010968],[134.953442,-33.009945],[134.955558,-33.008985],[134.957947,-33.007899],[134.965192,-33.004872],[134.968129,-33.003536],[134.970469,-33.002471],[134.971874,-33.002057],[134.973001,-33.001906],[134.974684,-33.001837],[134.980302,-33.00181],[134.990739,-33.001714],[134.997632,-33.001632],[134.999428,-33.001604],[135.00002,-33.001714]]}},{"type":"Feature","properties":{"tier":"arterial"},"geometry":{"type":"LineString","coordinates":[[134.693626,-33.170636],[134.70098,-33.172969],[134.702244,-33.173381],[134.703414,-33.173798],[134.704693,-33.174357],[134.70518,-33.174605],[134.705685,-33.174894],[134.70643,-33.175323],[134.707016,-33.175722],[134.708357,-33.176702],[134.709249,-33.177536],[134.709821,-33.178084],[134.710463,-33.178786],[134.711316,-33.179866],[134.711359,-33.17992],[134.71212,-33.181148],[134.713892,-33.18444],[134.714574,-33.185719],[134.71608,-33.188534],[134.718611,-33.193211],[134.721139,-33.197925],[134.723407,-33.202179],[134.723713,-33.202755],[134.724483,-33.204202],[134.724791,-33.20478],[134.725375,-33.205957],[134.725888,-33.207265],[134.726558,-33.209334],[134.726958,-33.210315],[134.727381,-33.211174],[134.728239,-33.212792],[134.729525,-33.215025],[134.732008,-33.219426],[134.742634,-33.237868],[134.743264,-33.238805],[134.744136,-33.239905],[134.752527,-33.24881],[134.754015,-33.250194],[134.755587,-33.25134],[134.761744,-33.255553],[134.762019,-33.255741],[134.771818,-33.262493],[134.78196,-33.26917],[134.788232,-33.272299],[134.78858,-33.272474],[134.791094,-33.273749],[134.793256,-33.274819],[134.793554,-33.274968],[134.793998,-33.275188],[134.797689,-33.277021],[134.80509,-33.28066],[134.823759,-33.289911],[134.824299,-33.290179],[134.824775,-33.290415],[134.830226,-33.293088],[134.830916,-33.293427],[134.832398,-33.294124],[134.834082,-33.29474],[134.847141,-33.29935],[134.848694,-33.299932],[134.849975,-33.300468],[134.858869,-33.304367],[134.860686,-33.305264],[134.862146,-33.306201],[134.871672,-33.312577],[134.872804,-33.313366],[134.873891,-33.314305],[134.876689,-33.316964],[134.877469,-33.31785],[134.879551,-33.320831],[134.880863,-33.322741],[134.881324,-33.323545],[134.881723,-33.324434],[134.88194,-33.325282],[134.88222,-33.32628],[134.884437,-33.334468],[134.896006,-33.377717],[134.89604,-33.377844],[134.896249,-33.378639],[134.901748,-33.399198],[134.907238,-33.419556],[134.907282,-33.419718],[134.907323,-33.419876],[134.917427,-33.457354],[134.922349,-33.475622],[134.922596,-33.476518],[134.922822,-33.477363],[134.923323,-33.479214],[134.923474,-33.479808],[134.923511,-33.480007],[134.923563,-33.480583],[134.923557,-33.48085],[134.923541,-33.48111],[134.923509,-33.481358],[134.923429,-33.481763],[134.923407,-33.48187],[134.923336,-33.482116],[134.923232,-33.482419],[134.923099,-33.48273],[134.923002,-33.482926],[134.922844,-33.483192],[134.921609,-33.485108],[134.920799,-33.486365],[134.920316,-33.487116],[134.912,-33.50002]]}},{"type":"Feature","properties":{"tier":"arterial"},"geometry":{"type":"LineString","coordinates":[[134.677417,-33.163251],[134.681302,-33.16551],[134.681349,-33.165541],[134.681732,-33.165776]]}},{"type":"Feature","properties":{"tier":"arterial"},"geometry":{"type":"LineString","coordinates":[[134.688118,-33.168891],[134.689048,-33.169183],[134.691484,-33.169956],[134.692196,-33.170182],[134.693626,-33.170636]]}},{"type":"Feature","properties":{"tier":"arterial"},"geometry":{"type":"LineString","coordinates":[[134.681732,-33.165776],[134.683227,-33.166663],[134.683497,-33.166822],[134.684405,-33.167347],[134.684616,-33.167469],[134.684666,-33.167497],[134.685295,-33.167858],[134.685626,-33.168037],[134.685838,-33.168126],[134.686109,-33.168234],[134.686824,-33.168479],[134.687295,-33.168642],[134.688118,-33.168891]]}},{"type":"Feature","properties":{"tier":"arterial"},"geometry":{"type":"LineString","coordinates":[[134.829316,-33.039404],[134.82953,-33.039326],[134.829743,-33.039257],[134.829959,-33.039199],[134.830124,-33.039167],[134.830423,-33.039112],[134.830693,-33.039069],[134.831007,-33.03904],[134.832185,-33.038932],[134.84031,-33.038133],[134.844671,-33.037759],[134.845726,-33.037525],[134.846349,-33.037259],[134.847455,-33.036811],[134.849108,-33.035713],[134.85174,-33.033997],[134.852096,-33.033752],[134.854182,-33.03243],[134.85525,-33.031737],[134.856813,-33.030714],[134.861264,-33.027867],[134.868907,-33.022928],[134.872552,-33.020646],[134.876771,-33.018965],[134.889827,-33.013974],[134.89778,-33.010954],[134.899831,-33.01045],[134.901982,-33.01045],[134.908985,-33.011415],[134.916789,-33.012338],[134.920941,-33.013009],[134.921143,-33.013055],[134.927594,-33.014519],[134.930791,-33.014204],[134.932659,-33.013908]]}},{"type":"Feature","properties":{"tier":"arterial"},"geometry":{"type":"LineString","coordinates":[[134.820582,-33.046563],[134.821288,-33.045945],[134.822,-33.045285],[134.824212,-33.043291],[134.826425,-33.041437],[134.828066,-33.040052],[134.828404,-33.039826],[134.828722,-33.039648],[134.829021,-33.039514],[134.829316,-33.039404]]}},{"type":"Feature","properties":{"tier":"arterial"},"geometry":{"type":"LineString","coordinates":[[134.49998,-33.001774],[134.502782,-33.005355],[134.506319,-33.009295],[134.513097,-33.016863],[134.523991,-33.028929],[134.543492,-33.04734],[134.54437,-33.048169],[134.564289,-33.067576],[134.577711,-33.080659],[134.590339,-33.093052],[134.590537,-33.093244],[134.590964,-33.09366],[134.592318,-33.094979],[134.593347,-33.09599],[134.599985,-33.102511],[134.606735,-33.109109],[134.609188,-33.1115],[134.609936,-33.112231],[134.611401,-33.113645],[134.611618,-33.113848],[134.612041,-33.114226],[134.612522,-33.114626],[134.613856,-33.11566],[134.623569,-33.12331],[134.635984,-33.133088],[134.640397,-33.136443],[134.644519,-33.139731],[134.6478,-33.142372],[134.648948,-33.143268],[134.653641,-33.146906],[134.664021,-33.155042],[134.665226,-33.15595],[134.666592,-33.15685],[134.667849,-33.15766],[134.66812,-33.157824],[134.668837,-33.158239],[134.668989,-33.158337],[134.674309,-33.16139],[134.677417,-33.163251]]}}]}
