{"type":"FeatureCollection","features":[{"type":"Feature","properties":{"tier":"arterial"},"geometry":{"type":"LineString","coordinates":[[135.450113,-27.590341],[135.451153,-27.589852],[135.452622,-27.589197],[135.453276,-27.588906],[135.453707,-27.588714],[135.454794,-27.587997],[135.455456,-27.587495],[135.455701,-27.587288],[135.456049,-27.586994],[135.456394,-27.586702],[135.456639,-27.586495],[135.456981,-27.586207],[135.457378,-27.585868],[135.45807,-27.585279],[135.458087,-27.585265],[135.458712,-27.584734],[135.459391,-27.58416],[135.459891,-27.583676],[135.460313,-27.583191],[135.460739,-27.582535],[135.460978,-27.582126],[135.461132,-27.581698],[135.461272,-27.58115],[135.461333,-27.580844],[135.461386,-27.580583],[135.461425,-27.58012],[135.461493,-27.578146],[135.461502,-27.577678],[135.461543,-27.575459],[135.461549,-27.575234],[135.461615,-27.572689],[135.46159,-27.57158],[135.461529,-27.570873],[135.461411,-27.570261],[135.461239,-27.569767],[135.460868,-27.568987],[135.460145,-27.567805],[135.459663,-27.567055],[135.459558,-27.566906],[135.458029,-27.564519],[135.455644,-27.560845],[135.45386,-27.558094],[135.452101,-27.55521],[135.450564,-27.552503],[135.450077,-27.551671]]}},{"type":"Feature","properties":{"tier":"arterial"},"geometry":{"type":"LineString","coordinates":[[135.50002,-27.639594],[135.496186,-27.636035],[135.494675,-27.634659],[135.494239,-27.634245],[135.492615,-27.632707],[135.491463,-27.631433],[135.490472,-27.630338],[135.489228,-27.628908],[135.487144,-27.626577],[135.485951,-27.625277],[135.484441,-27.623474],[135.483966,-27.622848],[135.483629,-27.622369],[135.482762,-27.621039],[135.482439,-27.620545],[135.479529,-27.616254],[135.479213,-27.615758],[135.476992,-27.612429],[135.476115,-27.611139],[135.475771,-27.610671],[135.475518,-27.610367],[135.475119,-27.609935],[135.474693,-27.609526],[135.47422,-27.609168],[135.473698,-27.608859],[135.473144,-27.608597],[135.472183,-27.60823],[135.470969,-27.607843],[135.46463,-27.605995],[135.463877,-27.605712],[135.463501,-27.605552],[135.463147,-27.605369],[135.462645,-27.605038],[135.462014,-27.604546],[135.460905,-27.603605],[135.459793,-27.602622],[135.45892,-27.601879],[135.457466,-27.600641],[135.455394,-27.598854],[135.454684,-27.598242],[135.454386,-27.597976],[135.454104,-27.597696],[135.453736,-27.597248],[135.453516,-27.596936],[135.453319,-27.596614],[135.452737,-27.595516],[135.452117,-27.594345],[135.451973,-27.594073],[135.451433,-27.593137],[135.451344,-27.592998],[135.450422,-27.591563],[135.449758,-27.590555],[135.449736,-27.590519]]}},{"type":"Feature","properties":{"tier":"arterial"},"geometry":{"type":"LineString","coordinates":[[135.446011,-27.544722],[135.445151,-27.54345],[135.445023,-27.5433],[135.44487,-27.543177],[135.444134,-27.542757],[135.442981,-27.542316],[135.441213,-27.54162],[135.440229,-27.540955],[135.438402,-27.539637],[135.436423,-27.538328],[135.434772,-27.537103],[135.433589,-27.535992],[135.432734,-27.534694],[135.432184,-27.533531],[135.430228,-27.529097],[135.427956,-27.524175],[135.425965,-27.519719],[135.424104,-27.515669],[135.424,-27.515439],[135.423706,-27.514792],[135.422019,-27.511078],[135.420684,-27.508284],[135.419092,-27.504732],[135.417511,-27.50118],[135.416966,-27.49998]]}},{"type":"Feature","properties":{"tier":"arterial"},"geometry":{"type":"LineString","coordinates":[[135.124838,-27.857702],[135.124139,-27.857624],[135.123707,-27.857572],[135.118931,-27.856701],[135.116833,-27.856255],[135.114486,-27.855645],[135.113796,-27.85548],[135.113154,-27.855376],[135.112353,-27.855346],[135.111546,-27.855407],[135.109247,-27.855706],[135.101303,-27.856194],[135.099273,-27.856341],[135.098714,-27.856371],[135.093324,-27.856402],[135.09235,-27.856438],[135.086552,-27.856383],[135.080119,-27.856475],[135.077614,-27.85653],[135.077172,-27.856554],[135.076606,-27.856609],[135.07602,-27.85664],[135.075619,-27.856597],[135.075122,-27.856548],[135.074218,-27.856426],[135.073438,-27.856328],[135.072417,-27.85606],[135.071671,-27.855895],[135.071264,-27.855871],[135.069642,-27.856066],[135.069221,-27.856096],[135.066094,-27.856096],[135.065576,-27.856084],[135.065169,-27.856054],[135.064672,-27.855974],[135.064237,-27.855932],[135.062774,-27.855932],[135.06216,-27.855913],[135.061539,-27.855846],[135.06109,-27.855755],[135.060351,-27.855639],[135.059861,-27.855633],[135.05954,-27.855671],[135.059358,-27.855694],[135.058936,-27.855749],[135.058508,-27.855645],[135.057522,-27.85545],[135.05688,-27.855328],[135.056258,-27.855303],[135.055748,-27.855328],[135.05532,-27.855389],[135.054802,-27.855486],[135.054326,-27.855596],[135.053815,-27.855804],[135.047707,-27.858843],[135.042999,-27.860801],[135.039306,-27.862028],[135.038554,-27.862333],[135.037678,-27.862809],[135.037215,-27.863022],[135.036656,-27.863175],[135.031362,-27.864145],[135.026751,-27.865085],[135.02526,-27.865475],[135.024867,-27.865616],[135.024177,-27.865952],[135.023611,-27.866189],[135.02301,-27.866415],[135.022444,-27.866574],[135.020974,-27.86708],[135.019904,-27.867495],[135.019131,-27.867764],[135.018627,-27.867977],[135.016653,-27.869076],[135.015411,-27.86971],[135.014189,-27.870259],[135.013595,-27.870583],[135.01325,-27.870833],[135.012809,-27.871126],[135.012339,-27.871364],[135.011898,-27.871559],[135.011483,-27.871705],[135.010973,-27.871895],[135.009813,-27.872279],[135.009281,-27.872468],[135.008764,-27.872712],[135.007825,-27.873273],[135.007287,-27.873548],[135.006824,-27.873749],[135.006314,-27.873957],[135.005782,-27.874091],[135.005257,-27.874207],[135.004892,-27.874262],[135.004498,-27.874292],[135.003753,-27.874305],[135.0026,-27.874189],[135.00182,-27.874115],[135.000799,-27.874073],[134.99998,-27.874067]]}},{"type":"Feature","properties":{"tier":"arterial"},"geometry":{"type":"LineString","coordinates":[[135.253678,-27.740947],[135.253555,-27.741009],[135.252951,-27.741388],[135.252326,-27.741949],[135.252238,-27.742051],[135.251782,-27.742583],[135.251275,-27.74338],[135.250587,-27.744556],[135.250168,-27.745274],[135.245368,-27.753489],[135.244795,-27.754469],[135.243614,-27.75649],[135.238907,-27.764501],[135.237826,-27.766402],[135.237344,-27.767098],[135.237272,-27.767178],[135.237205,-27.767252],[135.236879,-27.767565],[135.23634,-27.768016],[135.235458,-27.768609],[135.234669,-27.769012],[135.233646,-27.769532],[135.227934,-27.772432],[135.225008,-27.773923],[135.224242,-27.774318],[135.222661,-27.775133],[135.221677,-27.775669],[135.221078,-27.776045],[135.220808,-27.776215],[135.220379,-27.776543],[135.205711,-27.787124],[135.205339,-27.787392],[135.204669,-27.787841],[135.204049,-27.788133],[135.203319,-27.788375],[135.202268,-27.788647],[135.201704,-27.788793],[135.198756,-27.789556],[135.1974,-27.789908],[135.196414,-27.790144],[135.195219,-27.790496],[135.19398,-27.791037],[135.191646,-27.792152],[135.189836,-27.792954],[135.189184,-27.793221],[135.187376,-27.793959],[135.185298,-27.794807],[135.183853,-27.795407],[135.177351,-27.798106],[135.176262,-27.798558],[135.171973,-27.800338],[135.165042,-27.803197],[135.164575,-27.803389],[135.163813,-27.803814],[135.163415,-27.804093],[135.163231,-27.804222],[135.162765,-27.804668],[135.162343,-27.80519],[135.160822,-27.807397],[135.159739,-27.808969],[135.159411,-27.809449],[135.157156,-27.812741],[135.156255,-27.814068],[135.155691,-27.814869],[135.154635,-27.816174],[135.154027,-27.816871],[135.153388,-27.817602],[135.15303,-27.81802],[135.151434,-27.81988],[135.151062,-27.820314],[135.149873,-27.821708],[135.149184,-27.822515],[135.147353,-27.824643],[135.145126,-27.827274],[135.143385,-27.829306],[135.142653,-27.830305],[135.141531,-27.832032],[135.134746,-27.842472],[135.132514,-27.845906],[135.130406,-27.84915],[135.125975,-27.855967],[135.125028,-27.857411],[135.124838,-27.857702],[135.123922,-27.859145],[135.123673,-27.859536],[135.123352,-27.860038],[135.123078,-27.860553],[135.122848,-27.861274],[135.122719,-27.861895],[135.122684,-27.862523],[135.122722,-27.863152],[135.122869,-27.863804],[135.123201,-27.864948],[135.123451,-27.86581],[135.123594,-27.866315],[135.124385,-27.869106],[135.125079,-27.871599],[135.125098,-27.871666],[135.125267,-27.872245],[135.125348,-27.872753],[135.125401,-27.873371],[135.125366,-27.873912],[135.125239,-27.874626],[135.12509,-27.875067],[135.124466,-27.876538],[135.123069,-27.879828],[135.122698,-27.880703],[135.121198,-27.884235],[135.119315,-27.888704],[135.118752,-27.890007],[135.118007,-27.891745],[135.117545,-27.892952],[135.11749,-27.893148],[135.117344,-27.893673],[135.117175,-27.894502],[135.116907,-27.896357],[135.116869,-27.896621],[135.116298,-27.900353],[135.115944,-27.902666],[135.115942,-27.90268],[135.115381,-27.906333],[135.114721,-27.910645],[135.114182,-27.914095],[135.113814,-27.916658],[135.113761,-27.917032],[135.113636,-27.917859],[135.113393,-27.919476],[135.112765,-27.923526],[135.112197,-27.927209],[135.111607,-27.9311],[135.111137,-27.93432],[135.11095,-27.936856],[135.110622,-27.939633],[135.110335,-27.941778],[135.110201,-27.942905],[135.110177,-27.944282],[135.110302,-27.954878],[135.110319,-27.956328],[135.110318,-27.956383],[135.1103,-27.957136],[135.110157,-27.958273],[135.109099,-27.966683],[135.108208,-27.973458],[135.107632,-27.977987],[135.107144,-27.981853],[135.10702,-27.984084],[135.107018,-27.984419],[135.107009,-27.985442],[135.106985,-27.986878],[135.106969,-27.987777],[135.106962,-27.988088],[135.106962,-27.988096],[135.106902,-27.990818],[135.106867,-27.993381],[135.106806,-27.994557],[135.1068,-27.99466],[135.106733,-27.995268],[135.106623,-27.995829],[135.106421,-27.996744],[135.105699,-28.00002]]}},{"type":"Feature","properties":{"tier":"arterial"},"geometry":{"type":"LineString","coordinates":[[135.43461,-27.598007],[135.434372,-27.598193],[135.434099,-27.598405],[135.43407,-27.59843],[135.433051,-27.599305],[135.432512,-27.599843],[135.432072,-27.600328],[135.431862,-27.600558],[135.430514,-27.602035],[135.430256,-27.602317],[135.429456,-27.603225],[135.429049,-27.603753],[135.428703,-27.604304],[135.428314,-27.605141],[135.428271,-27.605241],[135.42781,-27.606329],[135.427743,-27.606483],[135.427472,-27.607109],[135.427169,-27.607841],[135.426801,-27.608732],[135.426165,-27.610241],[135.425412,-27.612053],[135.425147,-27.612686],[135.424771,-27.613583],[135.424738,-27.613658],[135.424127,-27.615083],[135.424104,-27.615128],[135.423851,-27.615634],[135.423341,-27.616513],[135.423105,-27.616878],[135.422907,-27.617188],[135.420793,-27.620442],[135.419218,-27.622861],[135.418282,-27.624249],[135.417759,-27.625064],[135.41736,-27.625601],[135.41692,-27.626058],[135.416598,-27.626324],[135.415925,-27.626883],[135.413674,-27.628749],[135.413444,-27.62894],[135.412114,-27.630026],[135.410984,-27.63095],[135.408681,-27.632832],[135.408063,-27.633336],[135.40617,-27.634914],[135.405681,-27.635418],[135.405255,-27.635991],[135.405207,-27.636061],[135.404687,-27.636815],[135.404147,-27.637597],[135.402256,-27.640289],[135.400685,-27.642572],[135.400529,-27.642754],[135.400054,-27.643309],[135.39963,-27.643682],[135.39842,-27.644563],[135.397741,-27.645057],[135.396793,-27.645747],[135.394794,-27.647189],[135.39366,-27.648006],[135.392949,-27.648584],[135.392311,-27.649178],[135.391855,-27.649689],[135.391412,-27.650226],[135.391114,-27.650684],[135.390848,-27.651241],[135.390092,-27.652972],[135.389561,-27.654226],[135.386463,-27.661529],[135.385533,-27.663703],[135.38476,-27.665558],[135.3845,-27.666195],[135.384444,-27.6663],[135.384122,-27.666903],[135.383856,-27.667338],[135.383631,-27.667621],[135.383253,-27.668098],[135.381169,-27.670207],[135.378861,-27.672548],[135.377663,-27.673763],[135.377246,-27.674194],[135.375314,-27.676186],[135.372658,-27.67887],[135.37222,-27.679274],[135.372001,-27.679476],[135.371615,-27.679861],[135.371229,-27.680196],[135.370826,-27.680424],[135.37005,-27.680843],[135.368445,-27.681608],[135.365025,-27.683238],[135.364365,-27.683556],[135.361114,-27.685124],[135.358791,-27.686231],[135.358753,-27.686249],[135.35674,-27.687212],[135.353128,-27.688938],[135.347663,-27.691551],[135.346623,-27.692033],[135.344515,-27.693063],[135.340227,-27.695123],[135.337288,-27.696558],[135.336295,-27.697118],[135.335555,-27.697688],[135.334758,-27.698343],[135.334056,-27.698842],[135.332589,-27.699683],[135.332106,-27.699959],[135.32904,-27.70171],[135.328581,-27.701972],[135.327513,-27.702583],[135.325095,-27.703967],[135.32205,-27.705705],[135.319004,-27.707465],[135.318609,-27.707693],[135.316117,-27.709118],[135.315184,-27.709649],[135.313072,-27.710852],[135.31197,-27.711492],[135.310495,-27.712347],[135.3097,-27.712804],[135.309269,-27.713052],[135.307657,-27.713978],[135.304576,-27.715735],[135.301785,-27.717312],[135.301134,-27.71768],[135.298528,-27.718958],[135.298145,-27.719146],[135.281136,-27.727491],[135.278732,-27.728665],[135.271568,-27.732163],[135.265452,-27.735166],[135.262192,-27.736766],[135.261379,-27.737165],[135.259988,-27.737838],[135.257318,-27.739131],[135.256431,-27.739573],[135.254203,-27.740685]]}},{"type":"Feature","properties":{"tier":"arterial"},"geometry":{"type":"LineString","coordinates":[[135.254203,-27.740685],[135.253923,-27.740825],[135.253678,-27.740947]]}},{"type":"Feature","properties":{"tier":"arterial"},"geometry":{"type":"LineString","coordinates":[[135.449736,-27.590519],[135.448327,-27.591162],[135.447264,-27.591647],[135.443648,-27.593296],[135.438356,-27.5958],[135.437983,-27.595984],[135.436476,-27.596712],[135.436293,-27.596815],[135.435762,-27.597111]]}},{"type":"Feature","properties":{"tier":"arterial"},"geometry":{"type":"LineString","coordinates":[[135.435762,-27.597111],[135.435381,-27.597407],[135.435218,-27.597533],[135.43461,-27.598007]]}},{"type":"Feature","properties":{"tier":"arterial"},"geometry":{"type":"LineString","coordinates":[[135.450077,-27.551671],[135.44981,-27.551215],[135.449196,-27.550166]]}},{"type":"Feature","properties":{"tier":"arterial"},"geometry":{"type":"LineString","coordinates":[[135.449736,-27.590519],[135.450113,-27.590341]]}}]}
