{"type":"FeatureCollection","features":[{"type":"Feature","properties":{"tier":"arterial"},"geometry":{"type":"LineString","coordinates":[[135.50002,-31.66304],[135.499207,-31.662509],[135.496569,-31.660508],[135.495599,-31.659783],[135.494943,-31.659366],[135.493418,-31.658391],[135.492766,-31.658004],[135.490763,-31.656971],[135.488538,-31.655905],[135.483297,-31.653574],[135.4813,-31.652739],[135.478753,-31.651851],[135.47439,-31.650474],[135.472466,-31.649808],[135.472161,-31.649672],[135.471747,-31.649488],[135.471256,-31.649203],[135.470991,-31.648983],[135.470794,-31.648725],[135.470646,-31.648447],[135.469353,-31.646351],[135.468867,-31.645536],[135.468578,-31.645172],[135.468325,-31.644904],[135.467942,-31.644605],[135.467688,-31.644357],[135.466763,-31.643184],[135.46613,-31.642353],[135.465596,-31.641397],[135.464849,-31.639912],[135.464524,-31.639333],[135.463919,-31.638417],[135.463417,-31.637886],[135.462784,-31.637421],[135.462364,-31.637147],[135.461785,-31.636467],[135.461318,-31.636053],[135.460232,-31.635596],[135.459272,-31.635325],[135.458119,-31.634785],[135.456516,-31.634264],[135.452847,-31.633083],[135.451636,-31.632613],[135.451249,-31.632431],[135.450925,-31.632141],[135.449843,-31.631183],[135.449351,-31.630783],[135.448903,-31.630538],[135.447614,-31.629932],[135.447147,-31.629664],[135.446717,-31.6293],[135.446285,-31.628922],[135.445809,-31.628648],[135.445321,-31.628453],[135.444618,-31.628212],[135.443605,-31.62796],[135.443164,-31.627772],[135.441174,-31.626396],[135.439722,-31.625412],[135.438921,-31.624758],[135.435722,-31.622037],[135.435108,-31.621514],[135.43466,-31.621228],[135.434032,-31.620794],[135.433758,-31.62049],[135.433308,-31.619796],[135.432509,-31.618602],[135.432233,-31.618287],[135.431954,-31.618063],[135.431518,-31.617881],[135.430732,-31.617603],[135.429764,-31.617313]]}},{"type":"Feature","properties":{"tier":"arterial"},"geometry":{"type":"LineString","coordinates":[[135.429764,-31.617313],[135.429758,-31.616054],[135.429458,-31.613642],[135.429544,-31.612728],[135.431818,-31.609987],[135.434565,-31.606807],[135.434994,-31.60615],[135.435209,-31.605492],[135.435166,-31.604688],[135.435251,-31.603006],[135.435423,-31.601617],[135.435809,-31.60074],[135.435852,-31.599022],[135.435809,-31.598254],[135.43538,-31.596134],[135.434822,-31.593722],[135.434608,-31.592077],[135.434522,-31.590907],[135.434264,-31.588933],[135.433964,-31.587215],[135.433749,-31.586264],[135.43332,-31.584875],[135.431861,-31.581548],[135.431089,-31.579538],[135.430145,-31.578185],[135.429673,-31.577344],[135.429158,-31.57632],[135.428857,-31.57526],[135.428814,-31.574748],[135.427784,-31.57281],[135.426711,-31.569446],[135.426068,-31.56707],[135.425724,-31.564656],[135.425513,-31.563576],[135.425459,-31.562679],[135.42551,-31.561804],[135.426153,-31.559427],[135.426454,-31.558074],[135.426557,-31.557531],[135.426546,-31.557086],[135.42646,-31.555906],[135.426368,-31.55471],[135.426302,-31.554199],[135.426198,-31.55387],[135.425996,-31.553438],[135.425553,-31.552625],[135.424728,-31.551013],[135.42435,-31.549934],[135.424257,-31.549487],[135.424171,-31.548814],[135.423963,-31.547435],[135.423783,-31.546619],[135.423149,-31.54425],[135.422637,-31.542024],[135.422427,-31.541251],[135.422363,-31.540557],[135.422281,-31.538976],[135.422162,-31.537959],[135.422027,-31.537272],[135.421804,-31.536735],[135.421476,-31.536167],[135.42066,-31.534777],[135.42008,-31.533881],[135.41965,-31.533157],[135.419244,-31.532677],[135.418815,-31.53229],[135.417303,-31.530801],[135.416697,-31.530402],[135.416055,-31.530111],[135.415288,-31.529796],[135.414882,-31.529565],[135.414689,-31.529395],[135.414455,-31.529056],[135.41376,-31.527874],[135.413292,-31.527195],[135.412867,-31.526698],[135.411766,-31.52575],[135.410724,-31.524803],[135.409369,-31.523861],[135.408516,-31.523411],[135.408028,-31.523139],[135.406927,-31.522267],[135.405039,-31.520438],[135.40412,-31.519649],[135.400483,-31.516913],[135.399448,-31.516069],[135.398751,-31.515388],[135.3983,-31.514896],[135.398163,-31.514596],[135.397872,-31.513816],[135.397313,-31.512244],[135.397114,-31.511541],[135.39705,-31.511237],[135.397058,-31.510936],[135.3974,-31.508913],[135.397951,-31.506216],[135.398559,-31.503974],[135.399074,-31.502181],[135.399518,-31.50086],[135.399872,-31.49998]]}},{"type":"Feature","properties":{"tier":"arterial"},"geometry":{"type":"LineString","coordinates":[[135.157104,-32.00002],[135.158216,-31.998848],[135.15858,-31.998562],[135.159052,-31.998234],[135.163443,-31.995106],[135.164814,-31.994146],[135.166726,-31.992768],[135.172041,-31.989009],[135.172895,-31.988398],[135.173284,-31.988061],[135.176197,-31.985234],[135.176624,-31.984726],[135.177796,-31.983258],[135.179422,-31.981142],[135.181221,-31.978421],[135.182353,-31.976606],[135.182723,-31.975969],[135.182884,-31.975635],[135.182962,-31.975475],[135.183746,-31.973494],[135.184723,-31.971333],[135.185259,-31.970397],[135.185829,-31.969375],[135.186768,-31.967577],[135.187298,-31.967054],[135.187853,-31.966552],[135.188535,-31.965773],[135.189545,-31.964518],[135.189993,-31.963876],[135.190831,-31.962414],[135.191821,-31.960769],[135.192079,-31.960343],[135.19235,-31.959896],[135.192646,-31.959262],[135.20138,-31.937487],[135.201876,-31.936299],[135.202227,-31.93524],[135.20259,-31.933479],[135.203002,-31.931487],[135.203218,-31.930778],[135.20369,-31.929747],[135.204297,-31.928594],[135.205061,-31.927425],[135.205563,-31.926727],[135.20584,-31.926442],[135.206355,-31.926037],[135.207057,-31.9256],[135.212725,-31.923568],[135.213378,-31.923318],[135.214022,-31.922952],[135.21459,-31.922421],[135.215204,-31.921745],[135.215596,-31.921233],[135.2158,-31.920782],[135.215863,-31.920454],[135.215899,-31.920214],[135.215923,-31.920057],[135.216088,-31.918971],[135.216223,-31.917977],[135.216445,-31.91724],[135.216741,-31.916457],[135.21712,-31.915877],[135.217865,-31.915155],[135.218263,-31.914593],[135.218624,-31.913889],[135.219295,-31.912814],[135.219757,-31.911716],[135.219984,-31.911077],[135.220445,-31.910227],[135.220854,-31.909472],[135.221273,-31.908504],[135.22217,-31.906289],[135.222333,-31.905897],[135.222382,-31.90552],[135.222423,-31.904685],[135.222402,-31.903002],[135.222338,-31.902116],[135.222299,-31.90147],[135.222331,-31.90101],[135.222449,-31.900552],[135.222669,-31.89986],[135.222996,-31.899183],[135.223319,-31.898688],[135.223634,-31.898259],[135.224393,-31.897477],[135.224636,-31.897139],[135.224785,-31.896736],[135.22492,-31.896254],[135.224923,-31.895896],[135.224876,-31.895271],[135.224874,-31.894999],[135.22506,-31.892525],[135.225042,-31.891842],[135.224946,-31.890683],[135.224865,-31.89025],[135.224579,-31.888979],[135.224382,-31.888248],[135.224175,-31.887671],[135.223945,-31.887134],[135.223683,-31.886643],[135.223361,-31.886087],[135.22317,-31.885656],[135.222992,-31.884938],[135.222844,-31.883999],[135.222772,-31.883558],[135.222765,-31.883191],[135.222795,-31.882953],[135.22288,-31.882749],[135.222961,-31.882334],[135.222975,-31.881709],[135.222975,-31.881198],[135.222989,-31.88091],[135.223234,-31.879323],[135.224596,-31.870319],[135.224614,-31.869803],[135.224549,-31.869385],[135.224034,-31.86599],[135.224175,-31.865083],[135.225128,-31.857156],[135.225116,-31.856829],[135.225069,-31.856603],[135.224959,-31.85623],[135.223122,-31.851139],[135.223015,-31.850748],[135.222971,-31.850508],[135.222972,-31.850194],[135.223208,-31.846531],[135.223211,-31.846297],[135.22316,-31.845917],[135.223095,-31.845486],[135.223122,-31.845163],[135.223225,-31.844852],[135.223382,-31.844459],[135.224166,-31.842429],[135.224369,-31.841759],[135.22442,-31.841452],[135.22445,-31.840987],[135.224538,-31.839821],[135.224554,-31.839498],[135.224537,-31.839155],[135.224431,-31.837599],[135.224333,-31.836535],[135.224156,-31.835367],[135.223784,-31.833257],[135.223244,-31.830276],[135.222971,-31.828878],[135.222937,-31.828436],[135.222977,-31.827977],[135.223079,-31.82759],[135.223273,-31.827148],[135.223849,-31.825786],[135.224444,-31.823229],[135.224451,-31.822679],[135.224366,-31.822342],[135.224193,-31.822032],[135.223984,-31.821783],[135.222791,-31.820327],[135.220748,-31.817725],[135.220422,-31.817219],[135.220115,-31.816571],[135.219816,-31.816089],[135.219489,-31.815713],[135.218906,-31.81518],[135.217485,-31.813802],[135.215076,-31.81146],[135.214648,-31.811004],[135.214198,-31.810437],[135.213511,-31.809479],[135.211486,-31.806699],[135.211296,-31.806378],[135.211107,-31.80597],[135.209997,-31.803494],[135.20982,-31.802952],[135.209735,-31.80259],[135.209501,-31.800766],[135.209481,-31.800375],[135.209332,-31.799072],[135.209159,-31.797873],[135.208982,-31.79677],[135.208751,-31.795676],[135.208454,-31.79425],[135.207948,-31.79228],[135.207559,-31.79102],[135.207504,-31.790596],[135.207547,-31.79014],[135.207547,-31.789517],[135.20745,-31.789208],[135.20727,-31.788743],[135.207171,-31.788309],[135.207157,-31.787917],[135.207169,-31.787503],[135.207169,-31.787169],[135.207109,-31.786835],[135.206947,-31.786511],[135.206636,-31.786076],[135.205935,-31.785274],[135.205691,-31.784946],[135.205464,-31.784524],[135.205204,-31.784044],[135.204934,-31.783386],[135.2048,-31.78308],[135.20463,-31.782766],[135.204486,-31.7824],[135.204398,-31.78194],[135.204396,-31.78153],[135.204554,-31.78095],[135.204621,-31.780481],[135.20464,-31.779931],[135.204628,-31.778848],[135.204644,-31.778537],[135.204755,-31.777516],[135.204808,-31.777231],[135.204907,-31.777032],[135.20509,-31.776759],[135.205516,-31.776228],[135.205822,-31.775762],[135.20627,-31.775033],[135.206517,-31.774656],[135.20672,-31.774431],[135.207284,-31.773977],[135.208059,-31.773286],[135.208596,-31.772642],[135.208923,-31.772209],[135.20908,-31.77187],[135.209309,-31.770965],[135.209416,-31.770579],[135.209612,-31.770125],[135.209781,-31.769763],[135.210063,-31.769017],[135.210395,-31.768326],[135.210433,-31.768155],[135.210443,-31.767758],[135.210436,-31.767474],[135.210396,-31.767041],[135.210322,-31.766509],[135.210181,-31.765833],[135.210094,-31.765334],[135.210071,-31.764908],[135.210104,-31.764074],[135.210161,-31.763177],[135.210264,-31.762048],[135.210379,-31.761442],[135.210583,-31.760865],[135.210808,-31.760372],[135.211004,-31.760092],[135.211229,-31.759845],[135.211565,-31.759613],[135.21199,-31.759448],[135.21231,-31.759304],[135.212609,-31.759039],[135.212908,-31.758722],[135.213155,-31.758303],[135.213244,-31.758041],[135.213321,-31.757648],[135.213383,-31.757396],[135.213607,-31.757003],[135.213934,-31.756527],[135.214402,-31.756016],[135.214706,-31.755765],[135.215062,-31.755455],[135.215435,-31.755017],[135.215698,-31.754629],[135.21576,-31.75436],[135.215778,-31.754114],[135.21576,-31.753756],[135.215768,-31.753453],[135.215808,-31.753157],[135.215903,-31.752851],[135.216036,-31.752526],[135.216355,-31.751867],[135.216902,-31.750691],[135.217605,-31.749092],[135.218321,-31.747192],[135.218799,-31.745921],[135.219366,-31.74416],[135.219542,-31.743684],[135.219674,-31.743191],[135.219834,-31.742311],[135.219853,-31.741684],[135.219794,-31.741394],[135.219609,-31.740867],[135.219437,-31.740429],[135.219369,-31.74006],[135.219409,-31.739662],[135.219511,-31.739287],[135.219696,-31.738849],[135.219908,-31.73837],[135.220109,-31.737869],[135.22022,-31.737466],[135.220321,-31.737002],[135.220454,-31.736501],[135.220635,-31.736082],[135.220808,-31.735663],[135.220876,-31.735294],[135.220823,-31.734963],[135.220725,-31.734615],[135.220574,-31.734271],[135.220306,-31.733703],[135.220161,-31.733354],[135.22013,-31.733043],[135.22017,-31.732705],[135.220179,-31.732283],[135.22017,-31.731911],[135.220019,-31.731124],[135.219924,-31.730448],[135.219924,-31.729893],[135.219979,-31.729437],[135.220062,-31.729125],[135.220213,-31.72886],[135.221006,-31.727898],[135.221449,-31.727323],[135.22187,-31.726659],[135.222125,-31.726112],[135.222248,-31.725721],[135.222648,-31.72382],[135.222811,-31.722404],[135.222854,-31.721635],[135.222863,-31.720984],[135.222957,-31.719208],[135.223144,-31.718692],[135.223417,-31.71811],[135.223678,-31.717412],[135.223791,-31.716908],[135.223878,-31.716456],[135.22395,-31.716167],[135.224041,-31.715925],[135.224352,-31.715232],[135.224724,-31.714575],[135.225001,-31.714174]]}},{"type":"Feature","properties":{"tier":"arterial"},"geometry":{"type":"LineString","coordinates":[[135.225001,-31.714174],[135.225651,-31.713619],[135.226543,-31.712923],[135.227463,-31.71226],[135.228119,-31.711809],[135.228751,-31.711463],[135.229293,-31.711188],[135.229765,-31.710871],[135.230131,-31.710543],[135.230439,-31.710237],[135.230643,-31.710071],[135.231123,-31.709828],[135.231632,-31.709542],[135.232209,-31.709099],[135.232642,-31.708742],[135.233025,-31.708349],[135.235082,-31.705788],[135.235469,-31.705301],[135.235783,-31.704983],[135.236313,-31.704493],[135.237249,-31.703672],[135.238077,-31.702913],[135.238868,-31.702242],[135.239438,-31.701743],[135.239815,-31.70139],[135.240047,-31.70114],[135.240224,-31.7009],[135.240818,-31.699974],[135.241107,-31.699609],[135.241388,-31.699273],[135.241613,-31.698942],[135.241793,-31.698576],[135.241931,-31.698193],[135.242032,-31.697685],[135.242084,-31.697235],[135.242093,-31.696882],[135.242054,-31.696638],[135.241894,-31.696048],[135.241774,-31.695733],[135.241487,-31.695071],[135.241344,-31.694644],[135.241279,-31.694355],[135.241258,-31.693932],[135.241265,-31.69357],[135.241333,-31.693171],[135.24148,-31.692559],[135.241697,-31.691868],[135.242305,-31.689933],[135.243392,-31.686817],[135.243673,-31.686139],[135.244009,-31.685503],[135.244595,-31.68431],[135.245159,-31.683052],[135.246257,-31.680412],[135.247256,-31.678028],[135.247542,-31.67754],[135.248725,-31.67598],[135.249673,-31.674642],[135.250532,-31.67315],[135.250942,-31.672615],[135.251338,-31.672182],[135.252067,-31.671398],[135.25379,-31.669448],[135.255047,-31.668051],[135.255726,-31.66727],[135.255983,-31.667039],[135.256399,-31.666753],[135.257139,-31.666322],[135.257757,-31.665976],[135.258091,-31.665831],[135.258605,-31.665648],[135.259958,-31.665286],[135.264308,-31.664203],[135.265868,-31.663859],[135.266711,-31.663616],[135.267569,-31.663333],[135.268256,-31.663064],[135.26887,-31.662872],[135.269248,-31.662801],[135.270018,-31.662733],[135.270672,-31.662712],[135.271638,-31.662763],[135.272561,-31.662909],[135.273403,-31.663059],[135.274087,-31.663119],[135.274808,-31.663155],[135.275677,-31.66319],[135.277719,-31.663352],[135.279092,-31.663562],[135.280345,-31.663514],[135.281761,-31.663274],[135.283284,-31.663206],[135.284668,-31.663002],[135.285717,-31.662975],[135.286948,-31.662845],[135.288646,-31.662655],[135.291298,-31.662281],[135.295384,-31.661858],[135.295926,-31.661826],[135.296533,-31.661828],[135.297649,-31.6619],[135.298272,-31.661909],[135.29909,-31.661779],[135.299509,-31.661744],[135.300654,-31.661792],[135.301464,-31.66179],[135.302537,-31.661953],[135.303535,-31.661957],[135.30405,-31.662011],[135.306839,-31.662379],[135.30759,-31.662413],[135.309668,-31.662452],[135.310755,-31.662527],[135.3127,-31.662801],[135.313617,-31.6629],[135.314612,-31.662895],[135.316573,-31.662957],[135.321983,-31.662911],[135.324247,-31.662884],[135.325457,-31.662945],[135.327044,-31.663089],[135.328976,-31.663235],[135.332307,-31.663553],[135.334123,-31.663527],[135.33718,-31.663546],[135.340008,-31.663491],[135.341314,-31.663637],[135.342447,-31.66387],[135.344387,-31.664452],[135.344797,-31.664622],[135.345199,-31.664904],[135.34857,-31.667975],[135.349298,-31.668648],[135.349867,-31.66916],[135.351016,-31.670407],[135.353502,-31.673087],[135.354041,-31.673687],[135.354414,-31.674231],[135.355232,-31.675793],[135.355571,-31.676388],[135.355975,-31.676891],[135.356506,-31.677398],[135.356922,-31.677724],[135.357729,-31.678213],[135.358482,-31.678608],[135.359286,-31.678941],[135.359748,-31.679087],[135.360235,-31.679179],[135.36074,-31.679198],[135.361461,-31.679156],[135.3633,-31.678941],[135.363958,-31.678861],[135.364549,-31.678839],[135.365257,-31.67888],[135.366049,-31.679101],[135.366908,-31.679407],[135.367685,-31.679732],[135.368523,-31.680128],[135.36921,-31.680485],[135.371153,-31.68169],[135.371427,-31.681836],[135.371602,-31.681913],[135.37183,-31.681951],[135.372227,-31.681936],[135.372758,-31.681829],[135.376219,-31.680628],[135.379888,-31.679358],[135.380476,-31.679166],[135.380879,-31.679091],[135.381268,-31.679091],[135.381936,-31.679133],[135.383108,-31.679224],[135.383454,-31.679185],[135.3838,-31.679071],[135.38409,-31.678856],[135.384294,-31.678587],[135.384438,-31.678283],[135.384602,-31.677795],[135.384897,-31.676987],[135.384935,-31.676708],[135.384943,-31.676236],[135.384889,-31.675836],[135.384796,-31.675566],[135.384635,-31.675266],[135.384442,-31.674987],[135.384283,-31.674781],[135.383956,-31.674511],[135.382348,-31.673461],[135.382092,-31.673272],[135.381892,-31.673025],[135.381743,-31.672778],[135.381579,-31.672356],[135.38148,-31.671967],[135.381407,-31.671467],[135.381333,-31.671181],[135.381198,-31.67092],[135.380949,-31.670463],[135.380782,-31.670101],[135.380452,-31.669173],[135.380252,-31.668591],[135.380188,-31.668216],[135.380171,-31.667909],[135.380228,-31.667558],[135.380382,-31.66719],[135.380637,-31.666783],[135.381109,-31.666183],[135.381202,-31.665958],[135.381646,-31.664486],[135.38195,-31.663795],[135.382289,-31.663053],[135.383875,-31.660674],[135.384523,-31.659593],[135.385089,-31.65851],[135.386281,-31.656308],[135.388545,-31.653051],[135.388953,-31.652514],[135.389387,-31.65187],[135.389706,-31.651566],[135.389983,-31.651365],[135.390452,-31.651119],[135.392018,-31.650396],[135.403359,-31.645033],[135.410395,-31.641683],[135.411568,-31.641107],[135.412181,-31.640618],[135.418338,-31.635109],[135.420705,-31.633015],[135.421834,-31.632074],[135.422648,-31.631573],[135.423633,-31.630964],[135.424108,-31.630676],[135.424521,-31.630521],[135.424866,-31.630358],[135.425257,-31.630129],[135.425591,-31.629823],[135.426152,-31.629188],[135.426399,-31.628884],[135.426528,-31.628626],[135.426772,-31.628101],[135.427051,-31.627559],[135.42744,-31.627039],[135.428121,-31.625916],[135.428296,-31.625586],[135.428457,-31.625175],[135.428532,-31.62486],[135.428571,-31.624473],[135.428585,-31.623792],[135.428622,-31.622705],[135.429142,-31.620134],[135.429475,-31.618552],[135.429733,-31.61746],[135.429764,-31.617313]]}}]}
