{"type":"FeatureCollection","features":[{"type":"Feature","properties":{"tier":"arterial"},"geometry":{"type":"LineString","coordinates":[[135.50002,-33.532961],[135.499758,-33.532931],[135.499137,-33.532895],[135.496021,-33.53283],[135.493182,-33.53272],[135.490503,-33.532662],[135.489827,-33.532663],[135.489128,-33.532706],[135.488293,-33.532779],[135.485013,-33.533095],[135.479966,-33.53355],[135.479353,-33.533573],[135.478724,-33.533561],[135.477786,-33.533459],[135.475725,-33.533111],[135.467162,-33.53149],[135.464424,-33.530984],[135.463553,-33.530822],[135.456504,-33.529304],[135.4552,-33.529006],[135.454392,-33.528836],[135.45382,-33.528757],[135.453299,-33.528723],[135.452004,-33.528718],[135.451311,-33.528714],[135.450531,-33.528669],[135.449685,-33.528554],[135.448998,-33.528383],[135.448336,-33.528149],[135.445099,-33.526919],[135.439721,-33.52491],[135.438626,-33.524463],[135.438286,-33.524312],[135.438062,-33.524196],[135.434706,-33.522414],[135.433432,-33.521743],[135.432801,-33.521414],[135.432345,-33.521202],[135.431812,-33.520992],[135.431325,-33.520843],[135.430786,-33.52071],[135.430194,-33.52058],[135.427787,-33.520076],[135.426856,-33.51988],[135.426491,-33.519784],[135.426223,-33.519696],[135.425737,-33.519518],[135.41438,-33.514562],[135.414046,-33.514409],[135.413581,-33.514229],[135.413117,-33.514065],[135.412801,-33.513965],[135.412248,-33.513868],[135.407954,-33.513081],[135.407357,-33.51297],[135.406964,-33.512912],[135.406545,-33.512876],[135.403222,-33.51279],[135.399432,-33.512666],[135.398291,-33.512597],[135.396958,-33.512506],[135.395771,-33.512416],[135.395245,-33.512393],[135.394607,-33.512427],[135.391381,-33.512658],[135.386179,-33.512995],[135.385974,-33.513008],[135.385002,-33.513069],[135.38395,-33.513057],[135.383135,-33.512957],[135.382434,-33.512821],[135.376903,-33.511249],[135.374833,-33.510635],[135.374216,-33.510455],[135.373671,-33.510319],[135.3729,-33.510157],[135.372327,-33.510081],[135.371816,-33.510041],[135.371279,-33.510024],[135.370746,-33.510047],[135.367778,-33.510321],[135.365551,-33.510496],[135.363299,-33.510687],[135.362583,-33.510743],[135.362095,-33.510751],[135.36152,-33.510706],[135.361026,-33.510629],[135.359104,-33.510196],[135.358564,-33.510088],[135.357919,-33.510016],[135.357386,-33.510008],[135.34914,-33.510261],[135.348403,-33.51027],[135.347793,-33.510244],[135.347222,-33.510187],[135.346694,-33.510108],[135.345825,-33.509898],[135.344998,-33.509645],[135.343791,-33.509127],[135.339775,-33.506977],[135.339552,-33.506857],[135.338989,-33.50658],[135.338853,-33.506533],[135.338249,-33.506327],[135.33741,-33.506184],[135.336589,-33.506162],[135.331967,-33.506647],[135.331346,-33.506749],[135.330774,-33.506917],[135.329021,-33.507664],[135.328487,-33.507857],[135.328185,-33.50793],[135.327648,-33.50804],[135.327057,-33.508102],[135.326728,-33.508116],[135.324073,-33.508179],[135.317501,-33.508409],[135.31662,-33.50844],[135.314307,-33.508542],[135.297761,-33.50912],[135.29719,-33.50914],[135.296737,-33.509167],[135.296279,-33.509221],[135.295771,-33.509317],[135.292976,-33.50986],[135.287326,-33.510957],[135.278995,-33.512606],[135.278165,-33.512736],[135.277381,-33.512786],[135.276724,-33.512773],[135.273862,-33.512559],[135.27287,-33.512465],[135.272224,-33.512387],[135.267474,-33.511732],[135.266772,-33.511671],[135.266106,-33.511665],[135.265534,-33.511705],[135.263439,-33.511894],[135.262627,-33.511976],[135.261798,-33.512005],[135.260987,-33.511958],[135.260221,-33.511817],[135.259609,-33.511655],[135.257102,-33.510949],[135.253862,-33.510028],[135.252956,-33.509795],[135.251283,-33.509433],[135.247298,-33.508603],[135.246118,-33.508371],[135.24533,-33.508263],[135.244692,-33.508201],[135.243813,-33.50816],[135.24214,-33.508076],[135.241693,-33.508044],[135.241254,-33.508004],[135.240825,-33.507937],[135.24042,-33.507854],[135.239988,-33.507746],[135.239576,-33.507617],[135.239199,-33.50747],[135.238797,-33.507285]]}},{"type":"Feature","properties":{"tier":"arterial"},"geometry":{"type":"LineString","coordinates":[[135.141466,-33.500141],[135.141431,-33.49998]]}},{"type":"Feature","properties":{"tier":"arterial"},"geometry":{"type":"LineString","coordinates":[[135.50002,-33.821552],[135.499552,-33.821478],[135.494992,-33.82022],[135.491383,-33.819254],[135.490769,-33.819106],[135.490221,-33.819014],[135.489798,-33.818971],[135.489302,-33.818951],[135.48876,-33.819],[135.488165,-33.819087],[135.487602,-33.819207],[135.485824,-33.819732],[135.484469,-33.820141],[135.483653,-33.820377],[135.482903,-33.820556],[135.481957,-33.820707],[135.478782,-33.821153],[135.476599,-33.821467],[135.475158,-33.821699],[135.474589,-33.821809],[135.473988,-33.82199],[135.473337,-33.822244],[135.472668,-33.822603],[135.471983,-33.823021],[135.471426,-33.823484],[135.468663,-33.825909],[135.46774,-33.826816],[135.465631,-33.829397],[135.465321,-33.829679],[135.464991,-33.829929],[135.462477,-33.831439],[135.461517,-33.831947],[135.458683,-33.833363],[135.457807,-33.833981],[135.454314,-33.836319],[135.45309,-33.837336],[135.449179,-33.840901],[135.444706,-33.844469],[135.444236,-33.845056],[135.442853,-33.846938],[135.441905,-33.84811],[135.441675,-33.848344],[135.441264,-33.848677],[135.440491,-33.84926],[135.43401,-33.8543],[135.432553,-33.855451],[135.429146,-33.857453],[135.427572,-33.858449],[135.421564,-33.861438],[135.417798,-33.863357],[135.4159,-33.864517],[135.411868,-33.866868],[135.411022,-33.867301],[135.409272,-33.867987],[135.407964,-33.868575],[135.407207,-33.868999],[135.405751,-33.870346],[135.401591,-33.87469],[135.400883,-33.875409],[135.400293,-33.875751],[135.399772,-33.875907],[135.398867,-33.876005],[135.398081,-33.875874],[135.393095,-33.874445],[135.388994,-33.8734],[135.388227,-33.873131],[135.383379,-33.871122],[135.381973,-33.870314],[135.379692,-33.86895],[135.379101,-33.868656],[135.377361,-33.868183],[135.373329,-33.867162],[135.372405,-33.866999],[135.362266,-33.867121],[135.361273,-33.867154],[135.360417,-33.866999],[135.358873,-33.866411],[135.350663,-33.862879],[135.35044,-33.862715],[135.34748,-33.860653],[135.341918,-33.856884],[135.340322,-33.855935],[135.338652,-33.855361],[135.335411,-33.854329],[135.332358,-33.853536],[135.327635,-33.851908],[135.32678,-33.851533],[135.326479,-33.85122],[135.323037,-33.84714],[135.322447,-33.846692],[135.320462,-33.845388],[135.319859,-33.844856],[135.318942,-33.843979],[135.317397,-33.84304],[135.31663,-33.842258],[135.315575,-33.841131],[135.313176,-33.839096],[135.312749,-33.838908],[135.31104,-33.838543],[135.304809,-33.839242],[135.303151,-33.839357],[135.300802,-33.83942],[135.299973,-33.839472],[135.299357,-33.839589],[135.298189,-33.83993],[135.291988,-33.841498],[135.291411,-33.841509],[135.286468,-33.841498],[135.285916,-33.841626],[135.28399,-33.842724],[135.283233,-33.84314],[135.282681,-33.843417],[135.282129,-33.843972],[135.281063,-33.845337],[135.280524,-33.84571],[135.278932,-33.846691],[135.277263,-33.847544],[135.271339,-33.847952],[135.270703,-33.847935],[135.261827,-33.846454],[135.260023,-33.84625],[135.248482,-33.845381],[135.247703,-33.845109],[135.245858,-33.84419],[135.244906,-33.84374],[135.243247,-33.843391],[135.242544,-33.843426],[135.236152,-33.843827],[135.234735,-33.843958],[135.232207,-33.844549]]}},{"type":"Feature","properties":{"tier":"arterial"},"geometry":{"type":"LineString","coordinates":[[134.99998,-33.709712],[135.000663,-33.709967],[135.007985,-33.712719],[135.015164,-33.715389],[135.01875,-33.716734],[135.019418,-33.716994],[135.020024,-33.71724],[135.020715,-33.717553],[135.021342,-33.717837],[135.022401,-33.718321],[135.024603,-33.719343],[135.028947,-33.721317],[135.030226,-33.721905],[135.030549,-33.722055],[135.030929,-33.722227],[135.031269,-33.722371],[135.031631,-33.722508],[135.031982,-33.722616],[135.032232,-33.722682],[135.032434,-33.722732],[135.032745,-33.722791],[135.033196,-33.722854],[135.033478,-33.722884],[135.033778,-33.722901],[135.034065,-33.722908],[135.034459,-33.722911],[135.034738,-33.722901],[135.035093,-33.722864],[135.040411,-33.722209],[135.040937,-33.722153],[135.04135,-33.72212],[135.041752,-33.722096],[135.042154,-33.722092],[135.042518,-33.722117],[135.042977,-33.72217],[135.043365,-33.722231],[135.043751,-33.722313],[135.044139,-33.722425],[135.044525,-33.72256],[135.04495,-33.722739],[135.045308,-33.722916],[135.045919,-33.723228],[135.05693,-33.729016],[135.057163,-33.729142],[135.057418,-33.729278],[135.057632,-33.729396],[135.057836,-33.729515],[135.058039,-33.729647],[135.058222,-33.729775],[135.058402,-33.729908],[135.058593,-33.730072],[135.058783,-33.730232],[135.058946,-33.730385],[135.059091,-33.730536],[135.05924,-33.730708],[135.05938,-33.730876],[135.059537,-33.731079],[135.060658,-33.732492],[135.062014,-33.734216],[135.062241,-33.734497],[135.062441,-33.734735],[135.062649,-33.73495],[135.062863,-33.735156],[135.063095,-33.735342],[135.063333,-33.735522],[135.063593,-33.73569],[135.063878,-33.735864],[135.064231,-33.736064],[135.064617,-33.736264],[135.065464,-33.736698],[135.06687,-33.737431],[135.078228,-33.743261],[135.080059,-33.744192],[135.08301,-33.745693],[135.084484,-33.746419],[135.085269,-33.746824],[135.085819,-33.747109],[135.08639,-33.747441],[135.086987,-33.747816],[135.087574,-33.74825],[135.088234,-33.748737],[135.088933,-33.749287],[135.089901,-33.750065],[135.098457,-33.756765],[135.099169,-33.757344],[135.099518,-33.75761],[135.099779,-33.757826],[135.10002,-33.758019],[135.100258,-33.758243],[135.100493,-33.758482],[135.100703,-33.758727],[135.100941,-33.75904],[135.101106,-33.759296],[135.101376,-33.75975],[135.101634,-33.760188],[135.102336,-33.761419],[135.103585,-33.76359],[135.106843,-33.769216],[135.107112,-33.769591],[135.107368,-33.76989],[135.107674,-33.770211],[135.107996,-33.770479],[135.108411,-33.770779],[135.108966,-33.771138],[135.109438,-33.771396],[135.110436,-33.771937],[135.118924,-33.776619],[135.119324,-33.776815],[135.119658,-33.776959],[135.119967,-33.777072],[135.120314,-33.777179],[135.120572,-33.777248],[135.120861,-33.777314],[135.121154,-33.777369],[135.121473,-33.777422],[135.121994,-33.777492],[135.127383,-33.77818],[135.131941,-33.778793],[135.135788,-33.779306],[135.136444,-33.77938],[135.137034,-33.77945],[135.137712,-33.77951],[135.138459,-33.779556],[135.139399,-33.779606],[135.140347,-33.779663],[135.145149,-33.779953],[135.145445,-33.779966],[135.145781,-33.779988],[135.146089,-33.780008],[135.146373,-33.780037],[135.146695,-33.780079],[135.147015,-33.780135],[135.147347,-33.780208],[135.147658,-33.780286],[135.148088,-33.780421],[135.15241,-33.781992],[135.158636,-33.784286],[135.164706,-33.786522],[135.165775,-33.786892],[135.173204,-33.789241],[135.173475,-33.789329],[135.17377,-33.789433],[135.174118,-33.789567],[135.174399,-33.789682],[135.174746,-33.789825],[135.175223,-33.790048],[135.176683,-33.79074],[135.179182,-33.791959],[135.180912,-33.792789],[135.181384,-33.793014],[135.181711,-33.793186],[135.182015,-33.793367],[135.182396,-33.793614],[135.182774,-33.793903],[135.183203,-33.794284],[135.183944,-33.795005],[135.185806,-33.796841],[135.1891,-33.800048],[135.190871,-33.801732],[135.191075,-33.801909],[135.191276,-33.802055],[135.191551,-33.80225],[135.191782,-33.802397],[135.194165,-33.803841],[135.202664,-33.808862],[135.203011,-33.809043],[135.203333,-33.809203],[135.203641,-33.809341],[135.204063,-33.809514],[135.204486,-33.809681],[135.207631,-33.810866],[135.210958,-33.812115],[135.215405,-33.813783],[135.215899,-33.813968],[135.216377,-33.814164],[135.216793,-33.814358],[135.217141,-33.814549],[135.217479,-33.814757],[135.217835,-33.815019],[135.218125,-33.815276],[135.218391,-33.81552],[135.218661,-33.815821],[135.21891,-33.816148],[135.219144,-33.816498],[135.219364,-33.81689],[135.219659,-33.817512],[135.219912,-33.818063],[135.220768,-33.81998],[135.220995,-33.820526],[135.222868,-33.824655],[135.226879,-33.833504],[135.232207,-33.844549],[135.23264,-33.845423]]}},{"type":"Feature","properties":{"tier":"arterial"},"geometry":{"type":"LineString","coordinates":[[135.23264,-33.845423],[135.233039,-33.846274],[135.233821,-33.847897],[135.234015,-33.8483],[135.234691,-33.849707]]}},{"type":"Feature","properties":{"tier":"arterial"},"geometry":{"type":"LineString","coordinates":[[135.234691,-33.849707],[135.23835,-33.857315],[135.23926,-33.859231],[135.239616,-33.859915],[135.239767,-33.860185],[135.239859,-33.860339],[135.239965,-33.860507],[135.240087,-33.860673],[135.240187,-33.860796],[135.240329,-33.860959],[135.240485,-33.861131],[135.240645,-33.861311],[135.250473,-33.87159],[135.25093,-33.872054],[135.251255,-33.872416],[135.251537,-33.872745],[135.251787,-33.873049],[135.252023,-33.873389],[135.252247,-33.873756],[135.252448,-33.87416],[135.252639,-33.87464],[135.252872,-33.875251],[135.253232,-33.87616],[135.253635,-33.877151],[135.25396,-33.877954],[135.254222,-33.878779],[135.254292,-33.879043],[135.254336,-33.879227],[135.254385,-33.879483],[135.254427,-33.879714],[135.254458,-33.879926],[135.254787,-33.882174],[135.257743,-33.902552],[135.258054,-33.903605],[135.258489,-33.904474],[135.259145,-33.90542],[135.263403,-33.911023],[135.263494,-33.911144],[135.264091,-33.911933],[135.267151,-33.915982],[135.267512,-33.916565],[135.267789,-33.917202],[135.26844,-33.918886],[135.268778,-33.919916],[135.268935,-33.920802],[135.268944,-33.921712],[135.268805,-33.922653],[135.268418,-33.92391],[135.266793,-33.928798],[135.266631,-33.929543],[135.266579,-33.930519],[135.266702,-33.931637],[135.269921,-33.945862],[135.270181,-33.946923],[135.270247,-33.947297],[135.2703,-33.947664],[135.27033,-33.947988],[135.270348,-33.948386],[135.270332,-33.948809],[135.270304,-33.949388],[135.270259,-33.950327],[135.270201,-33.951265],[135.27016,-33.952275],[135.270076,-33.953825],[135.270078,-33.954616],[135.270176,-33.955291],[135.270342,-33.955948],[135.275624,-33.969129],[135.275793,-33.969601],[135.275972,-33.97054],[135.276098,-33.971695],[135.276412,-33.975175],[135.276386,-33.975876],[135.276322,-33.976619],[135.275171,-33.985695],[135.274742,-33.988888],[135.274576,-33.98965],[135.274324,-33.990418],[135.273641,-33.992351],[135.272454,-33.995862],[135.272256,-33.996524],[135.272075,-33.997229],[135.271672,-33.999751],[135.271629,-34.00002]]}},{"type":"Feature","properties":{"tier":"arterial"},"geometry":{"type":"LineString","coordinates":[[135.186191,-33.502245],[135.178367,-33.501452],[135.177669,-33.501392],[135.176939,-33.501352],[135.176256,-33.501348],[135.167849,-33.50141],[135.166863,-33.501403],[135.163717,-33.501276],[135.16003,-33.501162],[135.15901,-33.501111],[135.14932,-33.500305],[135.145639,-33.49998]]}},{"type":"Feature","properties":{"tier":"arterial"},"geometry":{"type":"LineString","coordinates":[[135.142516,-33.49998],[135.14224,-33.500011],[135.141466,-33.500141],[135.139524,-33.500598],[135.135606,-33.501533],[135.134015,-33.501936],[135.133366,-33.502137],[135.132293,-33.502557],[135.131546,-33.50293],[135.130747,-33.503407],[135.129966,-33.503961],[135.129103,-33.504768],[135.128633,-33.505275],[135.128244,-33.505755],[135.127973,-33.506128],[135.127633,-33.506707],[135.127383,-33.507209],[135.126957,-33.508155],[135.125752,-33.510857],[135.125508,-33.511352],[135.125257,-33.511781],[135.124807,-33.512461],[135.123789,-33.513965],[135.123518,-33.514334],[135.123302,-33.514611],[135.122645,-33.515437],[135.120306,-33.518312],[135.111827,-33.525322],[135.110397,-33.526488],[135.109971,-33.526846],[135.109659,-33.527132],[135.109462,-33.527358],[135.104089,-33.53402],[135.101108,-33.537717],[135.097503,-33.54222],[135.097288,-33.542525],[135.097061,-33.542887],[135.096651,-33.54362],[135.095998,-33.545075],[135.094951,-33.547553],[135.094727,-33.548023],[135.092602,-33.55298],[135.092411,-33.553324],[135.092233,-33.553613],[135.091963,-33.553978],[135.091575,-33.554409],[135.089736,-33.556092],[135.088434,-33.557251],[135.087143,-33.558428],[135.082501,-33.562609],[135.08205,-33.562966],[135.081662,-33.56322],[135.081312,-33.56342],[135.080942,-33.563611],[135.080487,-33.563804],[135.080036,-33.563959],[135.079282,-33.564168],[135.078276,-33.564408],[135.075777,-33.565039],[135.071442,-33.566115],[135.068886,-33.566727],[135.06774,-33.567019],[135.066924,-33.567212],[135.06598,-33.567459],[135.064899,-33.567719],[135.064344,-33.567879],[135.062087,-33.568685],[135.060257,-33.569366],[135.058382,-33.570046],[135.049422,-33.573389],[135.048272,-33.573814],[135.045613,-33.574798],[135.044655,-33.575136],[135.044019,-33.575318],[135.035683,-33.577059],[135.031459,-33.577917],[135.031084,-33.578007],[135.03069,-33.578117],[135.030165,-33.578319],[135.029798,-33.578501],[135.029326,-33.578789],[135.028817,-33.579175],[135.022214,-33.585396],[135.016068,-33.591224],[135.014566,-33.592651]]}},{"type":"Feature","properties":{"tier":"arterial"},"geometry":{"type":"LineString","coordinates":[[135.232829,-33.505414],[135.229273,-33.505498],[135.228342,-33.505505],[135.227445,-33.50548],[135.226585,-33.505433],[135.225784,-33.50537],[135.216327,-33.504474],[135.215456,-33.504397],[135.214731,-33.504365],[135.214055,-33.504365],[135.208488,-33.504481],[135.207895,-33.504446],[135.207079,-33.504356],[135.206367,-33.504238],[135.199949,-33.50308],[135.199484,-33.503019],[135.199008,-33.50298],[135.197906,-33.502952],[135.19451,-33.502941],[135.193327,-33.502933],[135.192538,-33.502889],[135.186191,-33.502245]]}},{"type":"Feature","properties":{"tier":"arterial"},"geometry":{"type":"LineString","coordinates":[[135.238797,-33.507285],[135.236712,-33.506145],[135.23626,-33.505954],[135.235663,-33.505732],[135.235286,-33.50562],[135.235023,-33.505563],[135.234515,-33.505474],[135.234008,-33.505421],[135.233634,-33.505404],[135.233265,-33.505402],[135.232829,-33.505414]]}},{"type":"Feature","properties":{"tier":"arterial"},"geometry":{"type":"LineString","coordinates":[[135.005914,-33.605943],[135.005554,-33.606603],[135.005209,-33.607176],[135.004774,-33.607814],[135.004117,-33.608755],[135.003478,-33.6097],[135.001405,-33.612677],[135.000763,-33.613577],[135.000448,-33.613939],[135.00007,-33.614309],[134.99998,-33.61439]]}},{"type":"Feature","properties":{"tier":"arterial"},"geometry":{"type":"LineString","coordinates":[[135.014566,-33.592651],[135.013696,-33.593477]]}},{"type":"Feature","properties":{"tier":"arterial"},"geometry":{"type":"LineString","coordinates":[[135.013696,-33.593477],[135.011811,-33.595268],[135.011563,-33.595536],[135.011355,-33.595798],[135.011215,-33.596016],[135.011069,-33.596277],[135.01084,-33.596727]]}},{"type":"Feature","properties":{"tier":"arterial"},"geometry":{"type":"LineString","coordinates":[[135.01084,-33.596727],[135.010611,-33.597177],[135.010411,-33.59756]]}},{"type":"Feature","properties":{"tier":"arterial"},"geometry":{"type":"LineString","coordinates":[[135.010411,-33.59756],[135.008716,-33.600804],[135.007253,-33.603486]]}},{"type":"Feature","properties":{"tier":"arterial"},"geometry":{"type":"LineString","coordinates":[[135.007253,-33.603486],[135.005914,-33.605943]]}}]}
