{"type":"FeatureCollection","features":[{"type":"Feature","properties":{"tier":"arterial"},"geometry":{"type":"LineString","coordinates":[[135.082214,-28.120162],[135.082046,-28.120753],[135.081865,-28.121138],[135.081391,-28.121767],[135.081128,-28.122117],[135.080804,-28.122487],[135.077516,-28.126282],[135.076515,-28.127394],[135.073879,-28.130411],[135.070537,-28.134234],[135.068827,-28.137305],[135.068173,-28.138482],[135.067167,-28.140284],[135.066936,-28.140582],[135.06646,-28.141095],[135.065513,-28.142045],[135.065159,-28.142402],[135.062663,-28.144921],[135.061287,-28.146082],[135.058866,-28.147995],[135.057636,-28.148986],[135.056482,-28.149898],[135.054699,-28.151447],[135.053595,-28.152683],[135.052695,-28.153832],[135.051941,-28.154888],[135.051425,-28.155477],[135.050928,-28.155958],[135.043985,-28.161641],[135.043151,-28.162299],[135.042454,-28.163016],[135.042086,-28.16348],[135.041722,-28.163938],[135.041592,-28.16413],[135.039817,-28.166759],[135.03922,-28.167642],[135.034008,-28.173937],[135.031532,-28.176942],[135.028877,-28.180167],[135.025107,-28.184781],[135.021652,-28.189035],[135.018358,-28.193039],[135.017851,-28.193673],[135.016416,-28.195649],[135.012889,-28.200661],[135.009049,-28.205745],[135.007926,-28.207233],[135.007045,-28.2084],[135.005397,-28.210583],[135.00166,-28.215566],[134.99998,-28.217832]]}},{"type":"Feature","properties":{"tier":"arterial"},"geometry":{"type":"LineString","coordinates":[[135.105708,-27.99998],[135.105572,-28.000594],[135.105038,-28.003013],[135.103961,-28.007895],[135.103365,-28.010596],[135.102545,-28.014537],[135.102265,-28.015888],[135.10199,-28.017094],[135.101704,-28.01835],[135.10163,-28.01863],[135.101532,-28.019094],[135.101492,-28.019553],[135.101594,-28.021109],[135.101606,-28.021414],[135.101667,-28.022972],[135.10168,-28.023479],[135.101645,-28.024467],[135.10161,-28.025077],[135.101543,-28.025484],[135.101325,-28.026781],[135.101242,-28.027293],[135.100102,-28.03414],[135.099401,-28.038882],[135.098126,-28.049234],[135.096175,-28.06465],[135.095554,-28.070728],[135.095552,-28.070741],[135.094979,-28.076638],[135.094322,-28.082954],[135.094258,-28.083567],[135.093902,-28.087118],[135.093741,-28.088372],[135.093497,-28.089169],[135.092659,-28.091139],[135.092646,-28.09117],[135.091151,-28.094686],[135.090642,-28.095885],[135.089724,-28.098033],[135.089361,-28.098886],[135.089074,-28.099559],[135.087148,-28.104081],[135.08676,-28.105227],[135.086392,-28.106085],[135.085865,-28.107581],[135.085624,-28.108268],[135.085174,-28.109399],[135.084935,-28.110001],[135.084752,-28.110487],[135.084071,-28.112299],[135.08396,-28.112718],[135.083879,-28.113023],[135.083644,-28.114072]]}},{"type":"Feature","properties":{"tier":"arterial"},"geometry":{"type":"LineString","coordinates":[[135.082287,-28.11977],[135.082254,-28.119946],[135.082214,-28.120162]]}},{"type":"Feature","properties":{"tier":"arterial"},"geometry":{"type":"LineString","coordinates":[[135.083114,-28.115884],[135.082931,-28.116439],[135.082888,-28.11665],[135.082555,-28.118376],[135.082287,-28.11977]]}},{"type":"Feature","properties":{"tier":"arterial"},"geometry":{"type":"LineString","coordinates":[[135.083237,-28.115512],[135.083176,-28.115698],[135.083114,-28.115884]]}},{"type":"Feature","properties":{"tier":"arterial"},"geometry":{"type":"LineString","coordinates":[[135.083537,-28.114477],[135.083237,-28.115512]]}},{"type":"Feature","properties":{"tier":"arterial"},"geometry":{"type":"LineString","coordinates":[[135.083644,-28.114072],[135.083608,-28.114232],[135.083537,-28.114477]]}}]}
