{"type":"FeatureCollection","features":[{"type":"Feature","properties":{"tier":"high"},"geometry":{"type":"LineString","coordinates":[[135.226165,-30.205975],[135.236163,-30.212673]]}},{"type":"Feature","properties":{"tier":"high"},"geometry":{"type":"LineString","coordinates":[[135.195235,-30.160744],[135.195213,-30.160124],[135.195198,-30.159504],[135.195189,-30.158263],[135.195192,-30.155804],[135.195198,-30.137693],[135.195202,-30.123965],[135.195204,-30.118844],[135.195206,-30.113722],[135.195207,-30.103117],[135.195212,-30.089402],[135.195216,-30.080343],[135.195216,-30.079044],[135.195222,-30.065799],[135.195225,-30.058321],[135.195226,-30.053472],[135.195228,-30.047384],[135.19523,-30.039984],[135.195231,-30.035855],[135.195226,-30.03357],[135.19519,-30.032477],[135.195129,-30.031385],[135.195034,-30.030251],[135.194883,-30.028804],[135.194633,-30.027039]]}},{"type":"Feature","properties":{"tier":"high"},"geometry":{"type":"LineString","coordinates":[[135.337799,-30.392599],[135.337085,-30.391642],[135.336436,-30.390705],[135.335853,-30.389796],[135.3353,-30.388877],[135.33478,-30.38795],[135.334284,-30.387018],[135.333877,-30.38616],[135.333515,-30.385364],[135.333154,-30.384502],[135.33282,-30.383623],[135.332436,-30.382524],[135.33211,-30.381456],[135.331923,-30.380784],[135.331764,-30.380163],[135.331578,-30.37937],[135.331408,-30.378527],[135.331277,-30.377778],[135.331158,-30.377041],[135.331003,-30.375727],[135.330901,-30.374409],[135.330855,-30.373202],[135.330856,-30.372044],[135.330879,-30.371303],[135.330922,-30.370515],[135.331051,-30.369006],[135.33109,-30.368381],[135.331113,-30.367747],[135.331114,-30.367106],[135.331094,-30.366426],[135.331046,-30.365622],[135.330972,-30.364836],[135.330829,-30.363817],[135.33064,-30.362811],[135.330404,-30.361799],[135.330114,-30.360802],[135.329862,-30.360028],[135.329579,-30.359251],[135.32938,-30.358762],[135.329145,-30.358224],[135.328475,-30.35685],[135.327989,-30.355972],[135.327466,-30.355117],[135.327026,-30.354457],[135.326574,-30.353824],[135.3261,-30.353191],[135.325605,-30.352573],[135.324436,-30.351246],[135.323295,-30.349979],[135.319364,-30.345559],[135.315137,-30.340835],[135.298822,-30.322533],[135.296224,-30.319614],[135.295604,-30.31887],[135.295005,-30.318111],[135.294424,-30.317336],[135.293871,-30.316556],[135.293466,-30.315948],[135.293071,-30.315339],[135.29269,-30.314712],[135.292295,-30.314035],[135.291813,-30.313155],[135.291333,-30.312216],[135.290816,-30.311107],[135.290344,-30.309996],[135.289875,-30.308758],[135.289477,-30.307561],[135.288449,-30.304269],[135.287907,-30.302593],[135.287371,-30.300992],[135.286337,-30.297979],[135.285253,-30.294967],[135.284386,-30.292658],[135.283495,-30.290349],[135.282579,-30.288045],[135.281632,-30.285748],[135.279738,-30.281342],[135.277744,-30.276954],[135.27595,-30.273024],[135.274208,-30.26904],[135.271711,-30.262911],[135.269773,-30.257809],[135.269185,-30.256402],[135.268472,-30.254871],[135.267715,-30.253396],[135.266673,-30.251572],[135.265971,-30.25045],[135.265255,-30.24937],[135.2641,-30.247771],[135.262836,-30.246162],[135.261411,-30.244313],[135.260089,-30.242469],[135.259114,-30.241025],[135.258147,-30.239514],[135.257129,-30.237825],[135.256141,-30.236072],[135.255411,-30.234699],[135.254691,-30.233259],[135.254117,-30.232058],[135.253511,-30.230862],[135.252726,-30.229457],[135.252217,-30.228575],[135.251687,-30.227722],[135.251067,-30.226789],[135.250434,-30.225872],[135.249684,-30.224853],[135.248919,-30.223871],[135.248155,-30.22294],[135.247327,-30.221986],[135.246478,-30.221058],[135.24563,-30.220183],[135.244599,-30.219177],[135.243529,-30.218191],[135.24229,-30.217118],[135.240964,-30.216047],[135.239642,-30.21505],[135.237892,-30.213837],[135.236163,-30.212673]]}},{"type":"Feature","properties":{"tier":"high"},"geometry":{"type":"LineString","coordinates":[[135.346136,-30.50002],[135.346591,-30.495974],[135.347162,-30.490682],[135.347709,-30.485568],[135.34818,-30.480668],[135.348543,-30.475348],[135.348695,-30.471877],[135.349278,-30.462125],[135.349943,-30.455111],[135.35047,-30.45034],[135.350562,-30.449497],[135.350621,-30.448968],[135.351345,-30.442414],[135.352125,-30.435373],[135.352309,-30.433707],[135.352393,-30.432847],[135.35246,-30.432033],[135.352528,-30.43084],[135.352559,-30.42993],[135.352579,-30.429047],[135.352568,-30.427613],[135.352518,-30.426175],[135.352465,-30.425259],[135.352393,-30.424335],[135.35225,-30.422903],[135.352127,-30.421936],[135.351982,-30.420969],[135.351794,-30.419827],[135.351462,-30.418175],[135.351109,-30.41666],[135.350738,-30.415252],[135.350374,-30.414023],[135.350056,-30.413025],[135.349732,-30.412078],[135.34925,-30.410772],[135.348813,-30.40968],[135.348382,-30.408657],[135.347973,-30.407735],[135.347569,-30.406878],[135.347055,-30.405842],[135.346276,-30.404365],[135.345212,-30.402515],[135.343968,-30.400543],[135.342917,-30.399001],[135.341957,-30.397693],[135.341105,-30.396602],[135.340265,-30.395567],[135.339634,-30.394831],[135.338603,-30.393614],[135.337799,-30.392599]]}},{"type":"Feature","properties":{"tier":"regional"},"geometry":{"type":"LineString","coordinates":[[135.50002,-30.413182],[135.4997,-30.413758],[135.499604,-30.414108],[135.499572,-30.414423],[135.499551,-30.415376],[135.499366,-30.417108],[135.498637,-30.418342],[135.497947,-30.419141],[135.495519,-30.420836],[135.488597,-30.422595],[135.486331,-30.423583],[135.48405,-30.424695],[135.482623,-30.425382],[135.481469,-30.426143],[135.480774,-30.426782],[135.480018,-30.427553],[135.479318,-30.428332],[135.479091,-30.429047],[135.478952,-30.429881],[135.478899,-30.43101],[135.479654,-30.432994],[135.482526,-30.439162],[135.484491,-30.444086],[135.484542,-30.445331],[135.484256,-30.446127],[135.483551,-30.447474],[135.479587,-30.452816],[135.474465,-30.459751],[135.470111,-30.465697],[135.467799,-30.468728],[135.46489,-30.472613],[135.463631,-30.474267],[135.462905,-30.475713],[135.462442,-30.476956],[135.462074,-30.479032],[135.461205,-30.484385],[135.460336,-30.489977],[135.459649,-30.494308],[135.458888,-30.499651],[135.458833,-30.50002]]}},{"type":"Feature","properties":{"tier":"high"},"geometry":{"type":"LineString","coordinates":[[135.194633,-30.027039],[135.194317,-30.025285],[135.194005,-30.023847],[135.193651,-30.022417],[135.193294,-30.021146],[135.192904,-30.019885],[135.192554,-30.018835],[135.192176,-30.017799],[135.191779,-30.016769],[135.191376,-30.015798],[135.191166,-30.015302],[135.191129,-30.015223],[135.191088,-30.015135],[135.191042,-30.015033],[135.190657,-30.01418],[135.190273,-30.013373],[135.189868,-30.012566],[135.189741,-30.01232],[135.189166,-30.011236],[135.188631,-30.010239],[135.188289,-30.009593],[135.186138,-30.005558],[135.18316,-29.99998]]}},{"type":"Feature","properties":{"tier":"high"},"geometry":{"type":"LineString","coordinates":[[135.226165,-30.205975],[135.222379,-30.203446],[135.218955,-30.20115],[135.218036,-30.20051],[135.217131,-30.199853],[135.216187,-30.199143],[135.215314,-30.198453],[135.214455,-30.197758],[135.213608,-30.197048],[135.212643,-30.196193],[135.211699,-30.195328],[135.210651,-30.19431],[135.209666,-30.19331],[135.208797,-30.192385],[135.207948,-30.191447],[135.207321,-30.190717],[135.206671,-30.18994],[135.206106,-30.189237],[135.20556,-30.188534],[135.205021,-30.18781],[135.204531,-30.187133],[135.204088,-30.186506],[135.203656,-30.185867],[135.203235,-30.18523],[135.20282,-30.184584],[135.201904,-30.18307],[135.201241,-30.181891],[135.200611,-30.180709],[135.200089,-30.179667],[135.199595,-30.178621],[135.198966,-30.177189],[135.198383,-30.17574],[135.197676,-30.173806],[135.196772,-30.170849],[135.1963,-30.16881],[135.19608,-30.167757],[135.195882,-30.166687],[135.195653,-30.165232],[135.195593,-30.164775],[135.19547,-30.163757],[135.195372,-30.162792],[135.195292,-30.161777],[135.195235,-30.160744]]}}]}
