{"type":"FeatureCollection","features":[{"type":"Feature","properties":{"tier":"regional"},"geometry":{"type":"LineString","coordinates":[[135.460996,-34.481651],[135.45902,-34.485099],[135.456137,-34.490372],[135.454552,-34.493251],[135.453101,-34.495612],[135.449889,-34.50002]]}},{"type":"Feature","properties":{"tier":"arterial"},"geometry":{"type":"LineString","coordinates":[[135.50002,-34.150478],[135.497665,-34.149116],[135.497135,-34.148821],[135.496835,-34.148677],[135.49647,-34.148519],[135.495996,-34.148351],[135.495747,-34.148271],[135.495117,-34.148115],[135.49471,-34.148035],[135.494201,-34.14797],[135.470217,-34.145685],[135.469596,-34.145622],[135.469364,-34.145593],[135.468975,-34.145517],[135.468645,-34.145436],[135.468501,-34.145397]]}},{"type":"Feature","properties":{"tier":"arterial"},"geometry":{"type":"LineString","coordinates":[[135.458368,-34.462187],[135.459296,-34.469052],[135.460641,-34.478919],[135.460996,-34.481651],[135.461272,-34.483771],[135.463493,-34.50002]]}},{"type":"Feature","properties":{"tier":"arterial"},"geometry":{"type":"LineString","coordinates":[[135.458337,-34.461955],[135.458368,-34.462187]]}},{"type":"Feature","properties":{"tier":"arterial"},"geometry":{"type":"LineString","coordinates":[[135.288959,-34.033766],[135.29011,-34.034596],[135.290767,-34.035069],[135.291179,-34.035366],[135.292295,-34.036159],[135.292875,-34.036594],[135.293458,-34.037028],[135.29409,-34.037569],[135.294503,-34.038029],[135.294862,-34.038584],[135.295075,-34.038998],[135.295249,-34.039399],[135.295388,-34.039775],[135.295489,-34.04023],[135.295528,-34.040684],[135.295548,-34.041106],[135.295526,-34.041439],[135.295448,-34.042169],[135.295067,-34.045644],[135.294964,-34.04674],[135.294965,-34.047039],[135.294973,-34.047275],[135.295004,-34.047525],[135.295058,-34.047794],[135.295116,-34.048026],[135.295198,-34.048315],[135.295317,-34.048636],[135.295481,-34.049004],[135.295641,-34.049281],[135.295874,-34.049658],[135.296689,-34.050861],[135.298296,-34.053177],[135.299474,-34.054931],[135.299926,-34.0556],[135.300208,-34.056004],[135.300529,-34.056447],[135.300774,-34.056777],[135.301022,-34.057069],[135.301247,-34.057315],[135.301533,-34.057594],[135.301967,-34.057967],[135.304652,-34.060046],[135.306337,-34.061349],[135.307889,-34.062559],[135.308062,-34.062695],[135.308248,-34.062847],[135.308531,-34.063102],[135.308796,-34.063352],[135.309018,-34.063582],[135.309211,-34.063804],[135.309399,-34.064049],[135.309586,-34.064308],[135.309798,-34.064607],[135.310009,-34.064917],[135.310232,-34.065244],[135.310782,-34.066064],[135.31146,-34.067063],[135.312187,-34.068125],[135.313115,-34.06949],[135.313575,-34.07016],[135.313738,-34.070388],[135.313924,-34.070649],[135.314128,-34.070903],[135.314398,-34.07122],[135.31463,-34.071459],[135.314853,-34.071662],[135.315167,-34.071929],[135.315443,-34.072138],[135.315771,-34.07239],[135.316734,-34.073114],[135.318493,-34.074466],[135.320324,-34.075859],[135.320711,-34.076179],[135.321145,-34.076559],[135.321645,-34.077017],[135.322095,-34.077473],[135.322672,-34.078046],[135.324241,-34.079579],[135.324656,-34.079953],[135.32514,-34.080343],[135.325585,-34.080675],[135.32617,-34.081092],[135.326544,-34.081344],[135.326865,-34.081573],[135.327132,-34.081785],[135.32744,-34.082035],[135.32778,-34.082321],[135.329721,-34.084158],[135.333218,-34.087405],[135.338978,-34.092872],[135.339978,-34.093717],[135.340897,-34.094669],[135.341066,-34.094847],[135.343032,-34.09692],[135.344727,-34.098526],[135.346855,-34.100538],[135.350044,-34.103543],[135.350502,-34.103964],[135.351959,-34.105344],[135.352444,-34.105839],[135.352663,-34.106095]]}},{"type":"Feature","properties":{"tier":"arterial"},"geometry":{"type":"LineString","coordinates":[[135.280978,-34.028007],[135.288959,-34.033766]]}},{"type":"Feature","properties":{"tier":"arterial"},"geometry":{"type":"LineString","coordinates":[[135.271636,-33.99998],[135.271312,-34.002017],[135.271236,-34.002508],[135.271198,-34.002854],[135.271186,-34.00316],[135.271208,-34.003515],[135.271239,-34.003838],[135.271297,-34.004162],[135.271369,-34.004507],[135.271458,-34.004834],[135.27157,-34.00517],[135.27177,-34.005718],[135.272092,-34.006739],[135.272609,-34.008215],[135.272686,-34.008437],[135.272826,-34.008858],[135.273955,-34.012253],[135.276952,-34.023025],[135.277008,-34.023205],[135.277066,-34.023375],[135.277116,-34.023523],[135.277172,-34.023678],[135.277233,-34.02383],[135.277339,-34.024071],[135.277455,-34.024304],[135.277599,-34.024567],[135.277834,-34.024957],[135.278046,-34.025274],[135.278293,-34.025616],[135.278647,-34.02605],[135.279079,-34.026504],[135.279539,-34.026902],[135.280109,-34.027339],[135.280978,-34.028007]]}},{"type":"Feature","properties":{"tier":"arterial"},"geometry":{"type":"LineString","coordinates":[[135.355446,-34.111417],[135.355566,-34.11157],[135.35575,-34.11177],[135.355999,-34.112023],[135.356296,-34.112274],[135.356535,-34.112445],[135.358904,-34.114013],[135.360194,-34.11488],[135.361336,-34.115651],[135.361727,-34.115925],[135.36204,-34.116171],[135.362326,-34.116412],[135.362606,-34.116662],[135.362999,-34.11707],[135.363601,-34.117773],[135.364168,-34.118433],[135.364413,-34.118735],[135.36466,-34.119068],[135.364845,-34.119389],[135.365053,-34.119792],[135.365248,-34.120223],[135.365949,-34.121823],[135.375668,-34.143382],[135.375866,-34.143795],[135.375883,-34.143845],[135.376133,-34.144371],[135.377923,-34.148435],[135.385636,-34.165507],[135.388747,-34.17235],[135.395766,-34.187932],[135.399039,-34.195123],[135.399744,-34.196641],[135.400468,-34.198275],[135.409498,-34.21821],[135.417344,-34.235394],[135.418305,-34.237479],[135.418453,-34.237797],[135.418593,-34.238174],[135.41868,-34.238426],[135.418778,-34.238725],[135.418853,-34.23899],[135.418909,-34.239262],[135.418948,-34.239592],[135.418975,-34.240055],[135.419523,-34.255093],[135.419561,-34.256317],[135.419583,-34.256693],[135.419615,-34.256956],[135.41967,-34.257254],[135.419754,-34.257622],[135.419872,-34.258013],[135.420057,-34.258538],[135.420324,-34.259354],[135.420883,-34.260901],[135.422528,-34.265786],[135.422614,-34.266018],[135.422666,-34.266158],[135.423053,-34.267162],[135.434282,-34.295606],[135.434634,-34.296516],[135.438879,-34.307174],[135.444206,-34.315576],[135.445996,-34.318568],[135.447898,-34.324163],[135.452189,-34.33466],[135.454147,-34.339295],[135.454855,-34.340999]]}},{"type":"Feature","properties":{"tier":"arterial"},"geometry":{"type":"LineString","coordinates":[[135.352663,-34.106095],[135.352877,-34.106395],[135.353082,-34.106717],[135.353196,-34.106926],[135.353338,-34.10725]]}},{"type":"Feature","properties":{"tier":"arterial"},"geometry":{"type":"LineString","coordinates":[[135.457916,-34.345031],[135.46257,-34.349404],[135.463394,-34.350169],[135.463708,-34.350507],[135.464085,-34.350994],[135.464352,-34.351415],[135.464642,-34.351898],[135.465936,-34.354073],[135.466532,-34.355042],[135.468105,-34.3577],[135.469571,-34.362463],[135.469681,-34.363103],[135.469709,-34.363809],[135.469318,-34.366281],[135.468789,-34.369653],[135.468483,-34.371647],[135.468427,-34.371953],[135.468323,-34.372521],[135.468231,-34.37312],[135.468188,-34.37346],[135.468167,-34.373938],[135.468119,-34.374706],[135.467897,-34.378448],[135.467827,-34.379698],[135.467776,-34.380041],[135.467706,-34.380334],[135.467609,-34.380671],[135.467484,-34.38106],[135.466211,-34.383989],[135.465798,-34.384973],[135.465656,-34.385473],[135.465587,-34.385859],[135.465555,-34.386208],[135.465549,-34.386503],[135.465564,-34.386856],[135.465595,-34.387187],[135.465736,-34.388445],[135.466187,-34.39261],[135.466219,-34.39301],[135.466222,-34.393269],[135.466202,-34.393507],[135.466178,-34.393755],[135.466145,-34.393962],[135.466088,-34.394212],[135.465932,-34.394754],[135.465844,-34.394976],[135.465705,-34.39533],[135.463746,-34.400041],[135.463483,-34.400674],[135.462291,-34.403206],[135.462131,-34.4036],[135.461993,-34.404069],[135.461927,-34.404594],[135.461915,-34.405117],[135.462071,-34.406971],[135.46215,-34.407787],[135.462235,-34.408664],[135.462368,-34.41021],[135.462375,-34.410677],[135.462373,-34.411038],[135.462349,-34.411368],[135.462272,-34.411857],[135.462119,-34.412529],[135.461998,-34.412937],[135.460616,-34.416349],[135.458115,-34.422402],[135.456638,-34.426009],[135.456449,-34.426455],[135.456394,-34.426606],[135.456349,-34.426785],[135.456276,-34.42709],[135.455447,-34.430904],[135.454882,-34.433],[135.454784,-34.433392],[135.454713,-34.433736],[135.454686,-34.433924],[135.45466,-34.434142],[135.454649,-34.434412],[135.454649,-34.434658],[135.454674,-34.434951],[135.45494,-34.437024],[135.455013,-34.437511],[135.457928,-34.458948]]}},{"type":"Feature","properties":{"tier":"arterial"},"geometry":{"type":"LineString","coordinates":[[135.454855,-34.340999],[135.455211,-34.341864],[135.455342,-34.342157],[135.455462,-34.342388],[135.455758,-34.342876],[135.455823,-34.34297],[135.455949,-34.343143],[135.456105,-34.343331],[135.45626,-34.34349],[135.456559,-34.343786],[135.456851,-34.344056],[135.457916,-34.345031]]}},{"type":"Feature","properties":{"tier":"arterial"},"geometry":{"type":"LineString","coordinates":[[135.353338,-34.10725],[135.3549,-34.110602],[135.355152,-34.111008],[135.355293,-34.111215]]}},{"type":"Feature","properties":{"tier":"arterial"},"geometry":{"type":"LineString","coordinates":[[135.355293,-34.111215],[135.355446,-34.111417]]}},{"type":"Feature","properties":{"tier":"regional"},"geometry":{"type":"LineString","coordinates":[[135.468501,-34.145397],[135.468213,-34.14529],[135.467931,-34.145165],[135.466355,-34.14438],[135.46597,-34.144216],[135.465382,-34.144035],[135.464972,-34.143949],[135.463931,-34.143833],[135.459246,-34.143384],[135.458691,-34.143378],[135.458162,-34.14341],[135.457721,-34.143464],[135.451742,-34.144411],[135.451395,-34.144451],[135.450864,-34.14449],[135.45013,-34.14449],[135.449735,-34.144459],[135.448973,-34.144346],[135.448466,-34.144227],[135.448081,-34.144109],[135.447534,-34.143919],[135.446825,-34.143648],[135.446302,-34.143464],[135.446003,-34.143375],[135.445598,-34.143282],[135.445453,-34.143251],[135.444985,-34.143175],[135.444656,-34.143135],[135.44434,-34.143113],[135.443822,-34.143105],[135.432768,-34.143119],[135.430185,-34.143147],[135.427414,-34.143158],[135.419656,-34.143164],[135.418641,-34.143201],[135.417806,-34.143266],[135.416369,-34.143443],[135.415746,-34.143495],[135.415101,-34.143534],[135.414322,-34.143549],[135.398667,-34.143593],[135.395983,-34.143616],[135.38101,-34.143814],[135.378838,-34.143831],[135.378266,-34.143885],[135.377952,-34.143925],[135.377532,-34.14401],[135.37678,-34.144219],[135.376133,-34.144371]]}},{"type":"Feature","properties":{"tier":"arterial"},"geometry":{"type":"LineString","coordinates":[[135.457952,-34.459123],[135.458337,-34.461955]]}},{"type":"Feature","properties":{"tier":"arterial"},"geometry":{"type":"LineString","coordinates":[[135.457928,-34.458948],[135.457952,-34.459123]]}}]}
