{"type":"FeatureCollection","features":[{"type":"Feature","properties":{"tier":"arterial"},"geometry":{"type":"LineString","coordinates":[[135.114888,-32.038779],[135.114283,-32.039144],[135.113534,-32.039594],[135.112336,-32.040315],[135.110962,-32.041171],[135.110209,-32.041808],[135.109071,-32.042804],[135.107811,-32.044175],[135.105921,-32.046172],[135.105076,-32.047088],[135.103745,-32.048484],[135.102377,-32.049976],[135.100752,-32.051669],[135.098819,-32.053739],[135.097695,-32.054958],[135.096621,-32.056615],[135.094473,-32.06],[135.092805,-32.062628],[135.091509,-32.065934],[135.090142,-32.069319],[135.089254,-32.071686],[135.089183,-32.072341],[135.089297,-32.074749],[135.089333,-32.075714],[135.089491,-32.07626],[135.089397,-32.076806],[135.08919,-32.07754],[135.088803,-32.078304],[135.088116,-32.079299],[135.087078,-32.080652],[135.086713,-32.081113],[135.086605,-32.081398],[135.086579,-32.081626],[135.086527,-32.082089],[135.086343,-32.085371],[135.08628,-32.087378],[135.08623,-32.088659]]}},{"type":"Feature","properties":{"tier":"arterial"},"geometry":{"type":"LineString","coordinates":[[135.076848,-32.158025],[135.076967,-32.158634],[135.077173,-32.159098],[135.077549,-32.159518],[135.081537,-32.16314],[135.08299,-32.164472],[135.08377,-32.165203],[135.084014,-32.165631],[135.084195,-32.165974],[135.084562,-32.16709],[135.084664,-32.168371],[135.084603,-32.169513]]}},{"type":"Feature","properties":{"tier":"arterial"},"geometry":{"type":"LineString","coordinates":[[135.08623,-32.088659],[135.086168,-32.089258],[135.086232,-32.089699],[135.086445,-32.090502],[135.08652,-32.090787],[135.086904,-32.091864],[135.08808,-32.093958],[135.090407,-32.097861],[135.090803,-32.098867],[135.090887,-32.099355],[135.091019,-32.101367],[135.091151,-32.101926],[135.091535,-32.102699],[135.091751,-32.103481],[135.091751,-32.104152],[135.091667,-32.104701],[135.091439,-32.105554],[135.090203,-32.108948],[135.089244,-32.111926],[135.088128,-32.116367],[135.088018,-32.116753],[135.087966,-32.116937],[135.086712,-32.121356],[135.085464,-32.125542],[135.084601,-32.128275],[135.084097,-32.129768],[135.083461,-32.131445],[135.083132,-32.131969],[135.082317,-32.134536],[135.080101,-32.141384],[135.078974,-32.14504],[135.076948,-32.151475],[135.076301,-32.153442],[135.076209,-32.154112],[135.076514,-32.155749],[135.076602,-32.156243],[135.076625,-32.156407],[135.076848,-32.158025]]}},{"type":"Feature","properties":{"tier":"arterial"},"geometry":{"type":"LineString","coordinates":[[135.114888,-32.038779],[135.116001,-32.038138],[135.116148,-32.038053],[135.116446,-32.037881],[135.116548,-32.037812],[135.117611,-32.037085],[135.118921,-32.036128],[135.120844,-32.034919],[135.121539,-32.03446],[135.121964,-32.034031],[135.122704,-32.033273],[135.123155,-32.032727],[135.124275,-32.031367],[135.127319,-32.027608],[135.128034,-32.026715],[135.128619,-32.025985],[135.129097,-32.025396],[135.129576,-32.024952],[135.130569,-32.024224],[135.130813,-32.024039],[135.131852,-32.023252],[135.133892,-32.022333],[135.136899,-32.021024],[135.137188,-32.020772],[135.140981,-32.017234],[135.141248,-32.016964],[135.141763,-32.016441],[135.142046,-32.016155],[135.142137,-32.015879],[135.142145,-32.014508],[135.142146,-32.014447],[135.142272,-32.014202],[135.144033,-32.012441],[135.144782,-32.012048],[135.146877,-32.010948],[135.147239,-32.010634],[135.149482,-32.008178]]}},{"type":"Feature","properties":{"tier":"arterial"},"geometry":{"type":"LineString","coordinates":[[135.149482,-32.008178],[135.150324,-32.00728],[135.153361,-32.00403],[135.153739,-32.003625],[135.156563,-32.000591],[135.157142,-31.99998]]}},{"type":"Feature","properties":{"tier":"arterial"},"geometry":{"type":"LineString","coordinates":[[135.294939,-32.297061],[135.295253,-32.297475],[135.296648,-32.29931],[135.297651,-32.300593],[135.299013,-32.302283],[135.299545,-32.302919],[135.300664,-32.304196],[135.302604,-32.306325],[135.304323,-32.308252],[135.305837,-32.309972],[135.307523,-32.311921],[135.311024,-32.31578],[135.311572,-32.316412],[135.312437,-32.317367],[135.31565,-32.320674],[135.316115,-32.321083],[135.316425,-32.321306],[135.31654,-32.321382],[135.316947,-32.321648],[135.317135,-32.321758],[135.318495,-32.32256],[135.3187,-32.322681],[135.319097,-32.322915],[135.319945,-32.323422],[135.320188,-32.323568],[135.323973,-32.325834],[135.328757,-32.328599],[135.328915,-32.32871],[135.329054,-32.328832],[135.329175,-32.328968],[135.32937,-32.329274],[135.329517,-32.32956],[135.329622,-32.329766],[135.32984,-32.330078],[135.33011,-32.330369],[135.330439,-32.330624],[135.330821,-32.330841],[135.331881,-32.331348],[135.333741,-32.33231],[135.334137,-32.332554],[135.334904,-32.333096],[135.336106,-32.333785],[135.336181,-32.333828],[135.336994,-32.334342],[135.337198,-32.334485],[135.337386,-32.334616],[135.337939,-32.335041],[135.339113,-32.336035],[135.340264,-32.33684],[135.340612,-32.33714],[135.341263,-32.337776],[135.341636,-32.338059],[135.341845,-32.338189],[135.34298,-32.338807],[135.345192,-32.340048],[135.347582,-32.341332],[135.348231,-32.34172],[135.349425,-32.342495],[135.353104,-32.344679],[135.353284,-32.344786],[135.354788,-32.345748],[135.355538,-32.346238],[135.357492,-32.347516],[135.357922,-32.347762],[135.358384,-32.347974],[135.359149,-32.348238],[135.361115,-32.348878],[135.361366,-32.34896],[135.363581,-32.349681],[135.364752,-32.350021],[135.366969,-32.350623],[135.367604,-32.350795],[135.368137,-32.35099],[135.368655,-32.351211],[135.369393,-32.351552],[135.371711,-32.352623],[135.371952,-32.352725],[135.372451,-32.352892],[135.373485,-32.353159],[135.373695,-32.353201],[135.374003,-32.353263],[135.374267,-32.353294],[135.374793,-32.353312],[135.375316,-32.353291],[135.376697,-32.353289],[135.376876,-32.353315],[135.377046,-32.353368],[135.377208,-32.353442],[135.377357,-32.353538],[135.377922,-32.354027],[135.378267,-32.35427],[135.37949,-32.355013],[135.379921,-32.355251],[135.380741,-32.355668],[135.381347,-32.355941],[135.381782,-32.356096],[135.382485,-32.35629],[135.386209,-32.357085],[135.386402,-32.357137],[135.386749,-32.357278],[135.386908,-32.357369],[135.387365,-32.357682],[135.387527,-32.357773],[135.387701,-32.35785],[135.388078,-32.357959],[135.388688,-32.358069],[135.389566,-32.3582],[135.390024,-32.358242],[135.391215,-32.358294],[135.391687,-32.358338],[135.392082,-32.358401],[135.393788,-32.358751],[135.396699,-32.359468],[135.399153,-32.360049],[135.399698,-32.360097],[135.400535,-32.360103],[135.402381,-32.360147],[135.403146,-32.360188],[135.404632,-32.360438],[135.404856,-32.36049],[135.405072,-32.360561],[135.405281,-32.360655],[135.405481,-32.360771],[135.405867,-32.361044],[135.408816,-32.363334],[135.408983,-32.363445],[135.409331,-32.363641],[135.410338,-32.364089],[135.410437,-32.364132],[135.410813,-32.364317],[135.410995,-32.364424],[135.41135,-32.364675],[135.412176,-32.365355],[135.412455,-32.365614],[135.41257,-32.365761],[135.413355,-32.367185],[135.413676,-32.367702],[135.413911,-32.367998],[135.414199,-32.368243],[135.414359,-32.368347],[135.414717,-32.368512],[135.41491,-32.368575],[135.415521,-32.368713],[135.415727,-32.368777],[135.41593,-32.368856],[135.416336,-32.369049],[135.416966,-32.36937],[135.41907,-32.370491],[135.419469,-32.370738],[135.419992,-32.371064],[135.420196,-32.371176],[135.422491,-32.372391],[135.424134,-32.373281],[135.424585,-32.373502],[135.424818,-32.373599],[135.425306,-32.373766],[135.428904,-32.374883],[135.429534,-32.375148],[135.429734,-32.375255],[135.430122,-32.375498],[135.431196,-32.376267],[135.431555,-32.376496],[135.43219,-32.376797],[135.433116,-32.377183],[135.433866,-32.377437],[135.434122,-32.377506],[135.43464,-32.377608],[135.434906,-32.377643],[135.435975,-32.377715],[135.436495,-32.37777],[135.436991,-32.377852],[135.43747,-32.377954],[135.438386,-32.378187],[135.439962,-32.378692],[135.441223,-32.379131],[135.441556,-32.379192],[135.441927,-32.379184],[135.442653,-32.379114],[135.443063,-32.379126],[135.445983,-32.379475],[135.446457,-32.379552],[135.446688,-32.379603],[135.447144,-32.379723],[135.447924,-32.379957],[135.450122,-32.380617],[135.450515,-32.380788],[135.4513,-32.381168],[135.451682,-32.381328],[135.45205,-32.381457],[135.45698,-32.38269],[135.461486,-32.383817],[135.461989,-32.383894],[135.462517,-32.383923],[135.464748,-32.383949],[135.46587,-32.384002],[135.466698,-32.384087],[135.470394,-32.384531],[135.471526,-32.384644],[135.472101,-32.384675],[135.475167,-32.38478],[135.476015,-32.38483],[135.476577,-32.384898],[135.477138,-32.385004],[135.478255,-32.385245],[135.481155,-32.385923],[135.481814,-32.386035],[135.482568,-32.386086],[135.485713,-32.386214],[135.491661,-32.386432],[135.495391,-32.386591],[135.496216,-32.386598],[135.496768,-32.386565],[135.497319,-32.386513],[135.498925,-32.386317],[135.499458,-32.386215],[135.499678,-32.386158],[135.50002,-32.38607]]}},{"type":"Feature","properties":{"tier":"arterial"},"geometry":{"type":"LineString","coordinates":[[135.133993,-32.189189],[135.134181,-32.189284],[135.134274,-32.189377],[135.134391,-32.1895],[135.134588,-32.189785],[135.134773,-32.190104],[135.135051,-32.190635],[135.135743,-32.192057],[135.136564,-32.1938],[135.137113,-32.195024],[135.137308,-32.195366],[135.137431,-32.195523],[135.137577,-32.195667],[135.137743,-32.195799],[135.138128,-32.196033],[135.145278,-32.19955],[135.147033,-32.200437],[135.148625,-32.201218],[135.148762,-32.201285],[135.149112,-32.201414],[135.149483,-32.201499],[135.149882,-32.201532],[135.150302,-32.201522],[135.152185,-32.201349],[135.153208,-32.2013],[135.153721,-32.20132],[135.154994,-32.201422],[135.155474,-32.201507],[135.155919,-32.201637],[135.156121,-32.201723],[135.156307,-32.201827],[135.15648,-32.201945],[135.156799,-32.202221],[135.157618,-32.202984],[135.157965,-32.203277],[135.158326,-32.203539],[135.158882,-32.203887],[135.159054,-32.204021],[135.159408,-32.204243],[135.159587,-32.204332],[135.160696,-32.204713],[135.16087,-32.204755],[135.161046,-32.20478],[135.161223,-32.204782],[135.161398,-32.204779],[135.161561,-32.20474],[135.161725,-32.204755],[135.161951,-32.204672],[135.162225,-32.204699],[135.162371,-32.204735],[135.162638,-32.204872],[135.16581,-32.207153],[135.166808,-32.207908],[135.167181,-32.208226],[135.167501,-32.20854],[135.167823,-32.208825],[135.168502,-32.209296],[135.168742,-32.209463],[135.168911,-32.209617],[135.169078,-32.209769],[135.169262,-32.209918],[135.169463,-32.210052],[135.169842,-32.210364],[135.171133,-32.21151],[135.171327,-32.21165],[135.172146,-32.212159],[135.172746,-32.21258],[135.17312,-32.212878],[135.173614,-32.213304],[135.173954,-32.213561],[135.17413,-32.213666],[135.174606,-32.21408],[135.17559,-32.21452],[135.17576,-32.21459],[135.175932,-32.214637],[135.176111,-32.214655],[135.176295,-32.214644],[135.177605,-32.214301],[135.178226,-32.214176],[135.178857,-32.214073],[135.179892,-32.213997],[135.180416,-32.213911],[135.180585,-32.213902],[135.180752,-32.213909],[135.181055,-32.213973],[135.181185,-32.214029],[135.181308,-32.214104],[135.181792,-32.214514],[135.18194,-32.214598],[135.182106,-32.214661],[135.182493,-32.214737],[135.183129,-32.214813],[135.183551,-32.214906],[135.183972,-32.215044],[135.185504,-32.215661],[135.185932,-32.215866],[135.186136,-32.215982],[135.186526,-32.216235],[135.186761,-32.216411],[135.186888,-32.216505],[135.187262,-32.216759],[135.18746,-32.216869],[135.187669,-32.216963],[135.18812,-32.217109],[135.188853,-32.21726],[135.188974,-32.217288],[135.190108,-32.217548],[135.190624,-32.217691],[135.19114,-32.217854],[135.192168,-32.218229],[135.196904,-32.220025],[135.198485,-32.220694],[135.198746,-32.220776],[135.199021,-32.220909],[135.199291,-32.221011],[135.199564,-32.221107],[135.199834,-32.221172],[135.200391,-32.221342],[135.201226,-32.22155],[135.202281,-32.221909],[135.202523,-32.22197],[135.202763,-32.222056],[135.202992,-32.222163],[135.203185,-32.22221],[135.203516,-32.222327],[135.20364,-32.222398],[135.203876,-32.222478],[135.204293,-32.222593],[135.204601,-32.222629],[135.204879,-32.222662],[135.205437,-32.222676],[135.206829,-32.222654],[135.207783,-32.222659],[135.208239,-32.222692],[135.209477,-32.222862],[135.209921,-32.222944],[135.210056,-32.222957],[135.210198,-32.22302],[135.210557,-32.223085],[135.210924,-32.223194],[135.211311,-32.223353],[135.212601,-32.223937],[135.213494,-32.22428],[135.214085,-32.224599],[135.21443,-32.224873],[135.214919,-32.225355],[135.215697,-32.2262],[135.215875,-32.226393],[135.21603,-32.226561],[135.216381,-32.226889],[135.216577,-32.227044],[135.217009,-32.227337],[135.219155,-32.228633],[135.219649,-32.228897],[135.221191,-32.229618],[135.22248,-32.230258],[135.222962,-32.230536],[135.223622,-32.230966],[135.224083,-32.231228],[135.225643,-32.231918],[135.229413,-32.233537],[135.229901,-32.233767],[135.230377,-32.234023],[135.231288,-32.234574],[135.231495,-32.234746],[135.231952,-32.235002],[135.232436,-32.235225],[135.232692,-32.235313],[135.233227,-32.23544],[135.233789,-32.235492],[135.234074,-32.235535],[135.235783,-32.235634],[135.236889,-32.235658],[135.237161,-32.235638],[135.237957,-32.235527],[135.238479,-32.235403],[135.239826,-32.235034],[135.240373,-32.234931],[135.240917,-32.234896],[135.241468,-32.234916],[135.241989,-32.234982],[135.24244,-32.235103],[135.242869,-32.235285],[135.24513,-32.236457],[135.246942,-32.237342]]}},{"type":"Feature","properties":{"tier":"arterial"},"geometry":{"type":"LineString","coordinates":[[135.094164,-32.180026],[135.096702,-32.182821],[135.09687,-32.18299],[135.099321,-32.185733],[135.100465,-32.186964],[135.100529,-32.187032],[135.101243,-32.187832],[135.101698,-32.188342],[135.102004,-32.188649],[135.102164,-32.188775],[135.102332,-32.188879],[135.102512,-32.188968],[135.102706,-32.189038],[135.102913,-32.189088],[135.103352,-32.189147],[135.104789,-32.189241],[135.105422,-32.189282],[135.105619,-32.189295],[135.107794,-32.189417],[135.118238,-32.190116],[135.126405,-32.190721],[135.127409,-32.190796],[135.127973,-32.190825],[135.128381,-32.190819],[135.128784,-32.190772],[135.129187,-32.190679],[135.129386,-32.190611],[135.130194,-32.190234],[135.132133,-32.189413],[135.132811,-32.189164],[135.133434,-32.18904],[135.133993,-32.189189]]}},{"type":"Feature","properties":{"tier":"arterial"},"geometry":{"type":"LineString","coordinates":[[135.084603,-32.169513],[135.083362,-32.171033],[135.08016,-32.176847],[135.077966,-32.180754],[135.077819,-32.181005],[135.077673,-32.181253],[135.077559,-32.181471],[135.077521,-32.181545],[135.077463,-32.181656],[135.076141,-32.184555],[135.074711,-32.188018],[135.073967,-32.189824],[135.07355,-32.190833],[135.073156,-32.191802],[135.071799,-32.195131],[135.069654,-32.200288],[135.068982,-32.201689],[135.068805,-32.201995],[135.068184,-32.203065],[135.067522,-32.204245],[135.067026,-32.205148],[135.066841,-32.205632],[135.066768,-32.205906],[135.066763,-32.206222],[135.066854,-32.208091],[135.066859,-32.209093],[135.066961,-32.210645],[135.067144,-32.215617],[135.067187,-32.216586],[135.067166,-32.2171],[135.067101,-32.217812],[135.0668,-32.220253],[135.066717,-32.220821],[135.066677,-32.221352],[135.066685,-32.221971],[135.06679,-32.222983],[135.066776,-32.223861],[135.066645,-32.225049],[135.066507,-32.226124],[135.066387,-32.22669],[135.06615,-32.22746],[135.065731,-32.22842],[135.064475,-32.230896],[135.063509,-32.232973],[135.063166,-32.233754],[135.062908,-32.234711],[135.061918,-32.237832],[135.061316,-32.238995],[135.060767,-32.240325],[135.06043,-32.240716],[135.059903,-32.241159],[135.059418,-32.241644],[135.058955,-32.242398],[135.0579,-32.24459],[135.057793,-32.244922],[135.057765,-32.245579],[135.057747,-32.246069],[135.057442,-32.247747],[135.056914,-32.250444],[135.056868,-32.25068],[135.056733,-32.251143],[135.056534,-32.251514],[135.05571,-32.252545],[135.055011,-32.253281],[135.054169,-32.254105],[135.053991,-32.254321],[135.05379,-32.254839],[135.053482,-32.255418],[135.053086,-32.256131],[135.052394,-32.257145],[135.052121,-32.257435],[135.051729,-32.257698],[135.049511,-32.259075],[135.047352,-32.260749],[135.047016,-32.26115],[135.046641,-32.261803],[135.046394,-32.262178],[135.04629,-32.262473],[135.045981,-32.263618],[135.045665,-32.264394],[135.04497,-32.265866],[135.044483,-32.26673],[135.042534,-32.269635],[135.042122,-32.270209],[135.041191,-32.271197],[135.040112,-32.272726],[135.037873,-32.276026],[135.037334,-32.276654],[135.036821,-32.277117],[135.035483,-32.278069],[135.034885,-32.278401],[135.03418,-32.278776],[135.032938,-32.279776],[135.030091,-32.281772],[135.029463,-32.282267],[135.025498,-32.285692],[135.025063,-32.285966],[135.023474,-32.286756],[135.021195,-32.287791],[135.018751,-32.288767],[135.018449,-32.289027],[135.018398,-32.289106],[135.018187,-32.289437],[135.017981,-32.289952],[135.017574,-32.291468],[135.017014,-32.293667],[135.016912,-32.294379],[135.016917,-32.295023],[135.01701,-32.296019],[135.017026,-32.296724],[135.017008,-32.297393],[135.016941,-32.297815],[135.016597,-32.29898],[135.016423,-32.29934],[135.016069,-32.29973],[135.015487,-32.300179],[135.014759,-32.300556],[135.014468,-32.300655],[135.014133,-32.300733],[135.013399,-32.30081],[135.012821,-32.300781],[135.012184,-32.300663],[135.011516,-32.300478],[135.010908,-32.300274],[135.009469,-32.299697],[135.008953,-32.299492],[135.008441,-32.299337],[135.007963,-32.299286],[135.007369,-32.299258],[135.006778,-32.299258],[135.006099,-32.299277],[135.005466,-32.299351],[135.004669,-32.299527],[135.003945,-32.299793],[135.003129,-32.300165],[135.002169,-32.300891],[134.99998,-32.302611]]}},{"type":"Feature","properties":{"tier":"arterial"},"geometry":{"type":"LineString","coordinates":[[135.246942,-32.237342],[135.247225,-32.23748],[135.247629,-32.237729],[135.247999,-32.238018],[135.24834,-32.238354],[135.248834,-32.238909],[135.250652,-32.241182],[135.251543,-32.242235],[135.254561,-32.245802],[135.254777,-32.24611],[135.254947,-32.246457],[135.255069,-32.246845],[135.255155,-32.247236],[135.255284,-32.247962],[135.255392,-32.248574],[135.255487,-32.248931],[135.255552,-32.249109],[135.255714,-32.249457],[135.255999,-32.249963],[135.256175,-32.250258],[135.25632,-32.250501],[135.256719,-32.251117],[135.257122,-32.251804],[135.257306,-32.252152],[135.258382,-32.254241],[135.258484,-32.254488],[135.258688,-32.255062],[135.258797,-32.255333],[135.258858,-32.255468],[135.259816,-32.257424],[135.260951,-32.259993],[135.261584,-32.261369],[135.261795,-32.261793],[135.262015,-32.26218],[135.262402,-32.262718],[135.263109,-32.263355],[135.264944,-32.265097],[135.265563,-32.265543],[135.266456,-32.266104],[135.266891,-32.266402],[135.267293,-32.266739],[135.267667,-32.267111],[135.268173,-32.267726],[135.26899,-32.268781],[135.269689,-32.269621],[135.27061,-32.270659],[135.271573,-32.271682],[135.271931,-32.27212],[135.273731,-32.27461],[135.274718,-32.276018],[135.27545,-32.277062],[135.275868,-32.277623],[135.27618,-32.277953],[135.276353,-32.278107],[135.278192,-32.27969],[135.280762,-32.281865],[135.280886,-32.282007],[135.281691,-32.283163],[135.281938,-32.283489],[135.282214,-32.283811],[135.282532,-32.284113],[135.282717,-32.284253],[135.28352,-32.284738],[135.283905,-32.285014],[135.28428,-32.285329],[135.284648,-32.285668],[135.285373,-32.286382],[135.285618,-32.286636],[135.285918,-32.286948],[135.286455,-32.287532],[135.287838,-32.28911],[135.288161,-32.289438],[135.288947,-32.290233],[135.28928,-32.290639],[135.289596,-32.291062],[135.290199,-32.291926],[135.291031,-32.29316],[135.291293,-32.293497],[135.291608,-32.293802],[135.293121,-32.295048],[135.293594,-32.295494],[135.293678,-32.295573],[135.294025,-32.295944],[135.294851,-32.296945],[135.294939,-32.297061]]}},{"type":"Feature","properties":{"tier":"arterial"},"geometry":{"type":"LineString","coordinates":[[135.084603,-32.169513],[135.084733,-32.169576],[135.085442,-32.170396],[135.085571,-32.170511],[135.086223,-32.171252],[135.086377,-32.171396],[135.086516,-32.171569],[135.087785,-32.172981],[135.088301,-32.173522],[135.08846,-32.173724],[135.088802,-32.174102],[135.088986,-32.174279],[135.089326,-32.174687],[135.092466,-32.178144],[135.092653,-32.178328],[135.092818,-32.178535],[135.093322,-32.179099],[135.094164,-32.180026]]}}]}
