{"type":"FeatureCollection","features":[{"type":"Feature","properties":{"tier":"high"},"geometry":{"type":"LineString","coordinates":[[135.036105,-29.509788],[135.03563,-29.508975],[135.032209,-29.502961],[135.030522,-29.49998]]}},{"type":"Feature","properties":{"tier":"high"},"geometry":{"type":"LineString","coordinates":[[135.15405,-29.915485],[135.153838,-29.91507],[135.153345,-29.914106],[135.152453,-29.912371],[135.151674,-29.91089],[135.150859,-29.909382],[135.150031,-29.907863],[135.149186,-29.906361],[135.148238,-29.904715],[135.14745,-29.903369],[135.146356,-29.901543],[135.145182,-29.899734],[135.143828,-29.897583],[135.142911,-29.896154],[135.141988,-29.894769],[135.138556,-29.889591],[135.13511,-29.88436],[135.133978,-29.88266],[135.132902,-29.881028],[135.132253,-29.880047],[135.130245,-29.877019],[135.129019,-29.875165],[135.127819,-29.873322],[135.127471,-29.872743],[135.127133,-29.872153],[135.126525,-29.871018],[135.126063,-29.870056],[135.125625,-29.869097],[135.125175,-29.868025],[135.124845,-29.867137],[135.124571,-29.86636],[135.124304,-29.865517],[135.124013,-29.86451],[135.123833,-29.86382],[135.12369,-29.863179],[135.123511,-29.862323],[135.123369,-29.861505],[135.123179,-29.860266],[135.123054,-29.859047],[135.122986,-29.858132]]}},{"type":"Feature","properties":{"tier":"high"},"geometry":{"type":"LineString","coordinates":[[135.134863,-29.671792],[135.134997,-29.670057],[135.135069,-29.668696],[135.135116,-29.667284],[135.135125,-29.665724],[135.135102,-29.664193],[135.135072,-29.663334],[135.135029,-29.662475],[135.134956,-29.661341],[135.134863,-29.660246],[135.134695,-29.658649],[135.134474,-29.656957],[135.13417,-29.655067],[135.133854,-29.653399],[135.133606,-29.652193],[135.133396,-29.651014],[135.133209,-29.649636],[135.133076,-29.648044],[135.133034,-29.647182],[135.133018,-29.646264],[135.13303,-29.645162],[135.133112,-29.643653],[135.133245,-29.642328],[135.133474,-29.640771],[135.13371,-29.639537],[135.133865,-29.638778],[135.133991,-29.63798],[135.134085,-29.637138],[135.134149,-29.63615],[135.134162,-29.635228],[135.134143,-29.634538],[135.134098,-29.633846],[135.134023,-29.633114],[135.133889,-29.632205],[135.133807,-29.631746],[135.133672,-29.631113],[135.133489,-29.630389],[135.133276,-29.629679],[135.133031,-29.628949],[135.132762,-29.628236],[135.132222,-29.627019],[135.131929,-29.626422],[135.131633,-29.625882],[135.131042,-29.62489],[135.130526,-29.624122],[135.129764,-29.623096],[135.128812,-29.621968],[135.127792,-29.620909],[135.126793,-29.620004],[135.125736,-29.619139],[135.124933,-29.618547],[135.124045,-29.617951],[135.120313,-29.615493],[135.093565,-29.59786],[135.092273,-29.596995],[135.091237,-29.596298],[135.090216,-29.595575],[135.088652,-29.594428],[135.087162,-29.593218],[135.085833,-29.592094],[135.084823,-29.591195],[135.083832,-29.590257],[135.082364,-29.588801],[135.081356,-29.587736],[135.080348,-29.586597],[135.079523,-29.585629],[135.078728,-29.584644],[135.077842,-29.583498],[135.077001,-29.582336],[135.075716,-29.580479],[135.074398,-29.578284],[135.073846,-29.577296],[135.073284,-29.57626],[135.072676,-29.575053],[135.072076,-29.573787],[135.071119,-29.571525],[135.070642,-29.570269],[135.070218,-29.569057],[135.069716,-29.567451],[135.069402,-29.566346],[135.069096,-29.565165],[135.068807,-29.563923],[135.068539,-29.562615],[135.0682,-29.560566],[135.067991,-29.558848],[135.067822,-29.557012],[135.067442,-29.552792]]}},{"type":"Feature","properties":{"tier":"high"},"geometry":{"type":"LineString","coordinates":[[135.067442,-29.552792],[135.067372,-29.551963]]}},{"type":"Feature","properties":{"tier":"high"},"geometry":{"type":"LineString","coordinates":[[135.123365,-29.833377],[135.123163,-29.832864]]}},{"type":"Feature","properties":{"tier":"high"},"geometry":{"type":"LineString","coordinates":[[135.122986,-29.858132],[135.122964,-29.857726]]}},{"type":"Feature","properties":{"tier":"high"},"geometry":{"type":"LineString","coordinates":[[135.122964,-29.857726],[135.122937,-29.856944],[135.12294,-29.855909],[135.122969,-29.85485],[135.123009,-29.85409],[135.123078,-29.853287],[135.123169,-29.852425],[135.123359,-29.851128],[135.123576,-29.849948],[135.123865,-29.848664],[135.124277,-29.847175],[135.12462,-29.846076],[135.124917,-29.844969],[135.125135,-29.843856],[135.125258,-29.842996],[135.125304,-29.842507],[135.125332,-29.842018],[135.125339,-29.841103],[135.125298,-29.840184],[135.125234,-29.839538],[135.125148,-29.838892],[135.125056,-29.838362],[135.124942,-29.837828],[135.124781,-29.837195],[135.124581,-29.836519],[135.124231,-29.835534],[135.123365,-29.833377]]}},{"type":"Feature","properties":{"tier":"high"},"geometry":{"type":"LineString","coordinates":[[135.067372,-29.551963],[135.067131,-29.549604],[135.06698,-29.548608],[135.066785,-29.54764],[135.066617,-29.546912],[135.066423,-29.546185],[135.066135,-29.545235],[135.065808,-29.544295],[135.065454,-29.543425],[135.064784,-29.541935],[135.064049,-29.540568],[135.063219,-29.539222],[135.062481,-29.538159],[135.06181,-29.537282],[135.061085,-29.53641],[135.060196,-29.535416],[135.058921,-29.534155],[135.058284,-29.533577],[135.057625,-29.53302],[135.05695,-29.532483],[135.056255,-29.531957],[135.054482,-29.53063],[135.052992,-29.529433],[135.051516,-29.528192],[135.049682,-29.526549],[135.048481,-29.525419],[135.047297,-29.524259],[135.04611,-29.523035],[135.044947,-29.521791],[135.043712,-29.52039],[135.042271,-29.518668],[135.041111,-29.51721],[135.039991,-29.515717],[135.038917,-29.514212],[135.038523,-29.513638]]}},{"type":"Feature","properties":{"tier":"high"},"geometry":{"type":"LineString","coordinates":[[135.123163,-29.832864],[135.122654,-29.831601],[135.122215,-29.830362],[135.121985,-29.829635],[135.121759,-29.828842],[135.121554,-29.828056],[135.121377,-29.827312],[135.121218,-29.826573],[135.121089,-29.825882],[135.12097,-29.82513],[135.120872,-29.824434],[135.120801,-29.823786],[135.120744,-29.82319],[135.120695,-29.822595],[135.12066,-29.821952],[135.120631,-29.82119],[135.12063,-29.820367],[135.120638,-29.819573],[135.120663,-29.818819],[135.12072,-29.817958],[135.120798,-29.817117],[135.12113,-29.814124],[135.121259,-29.812721],[135.121364,-29.811323],[135.121466,-29.809905],[135.121576,-29.807651],[135.121651,-29.805434],[135.121685,-29.803113],[135.121672,-29.801001],[135.121624,-29.798946],[135.121587,-29.797805],[135.121535,-29.796671],[135.121403,-29.794456],[135.121231,-29.792298],[135.120937,-29.789389],[135.120513,-29.785727],[135.120246,-29.783313],[135.120013,-29.780873],[135.119795,-29.778561],[135.119416,-29.773808],[135.119233,-29.771111],[135.119059,-29.768192],[135.118917,-29.76532],[135.118827,-29.763333],[135.118752,-29.761381],[135.118679,-29.759007],[135.118631,-29.756622],[135.118594,-29.753466],[135.118583,-29.752561],[135.118585,-29.749415],[135.11859,-29.748763],[135.118614,-29.748112],[135.118655,-29.747087],[135.11873,-29.746059],[135.118804,-29.74515],[135.118951,-29.743801],[135.119174,-29.742289],[135.119479,-29.740534],[135.119733,-29.73931],[135.120132,-29.737711],[135.120604,-29.736031],[135.121059,-29.734578],[135.12189,-29.732263],[135.122814,-29.729834],[135.123702,-29.727361],[135.125326,-29.722437],[135.126046,-29.720077],[135.127066,-29.716515],[135.127926,-29.713532],[135.128389,-29.711886],[135.129116,-29.70934],[135.130177,-29.705696],[135.131216,-29.702021],[135.131728,-29.699995],[135.132123,-29.698161],[135.132401,-29.696726],[135.132643,-29.695274],[135.132859,-29.693777],[135.133022,-29.692426],[135.133151,-29.69113],[135.133367,-29.688636]]}},{"type":"Feature","properties":{"tier":"high"},"geometry":{"type":"LineString","coordinates":[[135.038523,-29.513638],[135.038398,-29.513449]]}},{"type":"Feature","properties":{"tier":"high"},"geometry":{"type":"LineString","coordinates":[[135.183181,-30.00002],[135.183114,-29.999894],[135.181057,-29.996043],[135.177771,-29.989877],[135.176531,-29.987552],[135.173599,-29.982058],[135.171807,-29.978491],[135.170729,-29.976154],[135.169777,-29.973952],[135.1689,-29.971788],[135.167908,-29.969061],[135.167287,-29.967249],[135.167135,-29.966806],[135.166266,-29.964027],[135.165588,-29.961644],[135.164832,-29.958653],[135.164419,-29.956773],[135.164029,-29.954876],[135.163759,-29.953401],[135.163512,-29.951925],[135.163181,-29.94969],[135.162891,-29.947348],[135.162635,-29.94475],[135.162456,-29.943084],[135.162245,-29.941391],[135.161899,-29.939156],[135.16142,-29.936549],[135.16093,-29.93431],[135.160642,-29.933083],[135.160171,-29.931293],[135.159609,-29.929334],[135.15917,-29.927921],[135.158702,-29.926506],[135.158305,-29.925367],[135.157888,-29.924231],[135.157369,-29.922873],[135.156808,-29.92152],[135.156288,-29.920267],[135.155751,-29.919048],[135.155018,-29.917483],[135.15405,-29.915485]]}},{"type":"Feature","properties":{"tier":"regional"},"geometry":{"type":"LineString","coordinates":[[134.99998,-29.514533],[135.002666,-29.514461],[135.006507,-29.514685],[135.010498,-29.514573],[135.026484,-29.514162],[135.027385,-29.51407],[135.028689,-29.513776],[135.029697,-29.513392],[135.030687,-29.512904],[135.031749,-29.512273],[135.032366,-29.511806],[135.032817,-29.511479],[135.033648,-29.511034],[135.035475,-29.510203],[135.037755,-29.509155],[135.038379,-29.508888],[135.038829,-29.508679],[135.039423,-29.50846],[135.039824,-29.508341],[135.040377,-29.508194],[135.040953,-29.50807],[135.041094,-29.50805],[135.041453,-29.507998],[135.041954,-29.507956],[135.042548,-29.507909],[135.043702,-29.507951],[135.044777,-29.508109],[135.045694,-29.508337],[135.04666,-29.508669],[135.047443,-29.509005],[135.047931,-29.509262],[135.050734,-29.511247],[135.055123,-29.514481],[135.059454,-29.517569],[135.068289,-29.523631],[135.086453,-29.536078],[135.094725,-29.541729],[135.09878,-29.544484],[135.100923,-29.545861],[135.102807,-29.54684],[135.10437,-29.547579],[135.106382,-29.548335],[135.108286,-29.548932],[135.113955,-29.550554],[135.119777,-29.55217],[135.121091,-29.552609],[135.122985,-29.55344],[135.124935,-29.55449],[135.126992,-29.555901],[135.127952,-29.556765],[135.128816,-29.557605],[135.13065,-29.55966],[135.134164,-29.563491],[135.135975,-29.565241],[135.137941,-29.566962],[135.142197,-29.570149],[135.161488,-29.583861],[135.164752,-29.586189],[135.167735,-29.58833],[135.168689,-29.58916],[135.169612,-29.59013],[135.170293,-29.590905],[135.171077,-29.591964],[135.171758,-29.593041],[135.172257,-29.593997],[135.172756,-29.595084],[135.172976,-29.595817],[135.173265,-29.596852],[135.174043,-29.5996],[135.174445,-29.600752],[135.174966,-29.601848],[135.175543,-29.602822],[135.176149,-29.603643],[135.187478,-29.612349],[135.194181,-29.616287],[135.197242,-29.618062],[135.198875,-29.618983],[135.20032,-29.619761],[135.20164,-29.620361],[135.202968,-29.620895],[135.203918,-29.621254],[135.204985,-29.621599],[135.207008,-29.622172],[135.209003,-29.622699],[135.211004,-29.623366],[135.212232,-29.623846],[135.213622,-29.624457],[135.216476,-29.625744],[135.222264,-29.628379],[135.227666,-29.630776],[135.229136,-29.631359],[135.230718,-29.631942],[135.23299,-29.632762],[135.239768,-29.635145],[135.243754,-29.636553],[135.246248,-29.63757],[135.249129,-29.638936],[135.25165,-29.640311],[135.257121,-29.643504],[135.261961,-29.646332],[135.26302,-29.647118],[135.263471,-29.647514],[135.263868,-29.64792],[135.266816,-29.651479],[135.274111,-29.660677],[135.27491,-29.661616],[135.275897,-29.662559],[135.277201,-29.663609],[135.278238,-29.664346],[135.279221,-29.66496],[135.280271,-29.665531],[135.281249,-29.666024],[135.282423,-29.666502],[135.283388,-29.666856],[135.287041,-29.667919],[135.288441,-29.668373],[135.289485,-29.668732],[135.291535,-29.669526],[135.294196,-29.670665],[135.297463,-29.672168],[135.305628,-29.675992],[135.30709,-29.676488],[135.30872,-29.676915],[135.31026,-29.677151],[135.311838,-29.677244],[135.3209,-29.677225],[135.340957,-29.677249],[135.343135,-29.677238],[135.344482,-29.677179],[135.345474,-29.677107],[135.351027,-29.676557],[135.352685,-29.676346],[135.353607,-29.676107],[135.354363,-29.675868],[135.355225,-29.675473],[135.355982,-29.675069],[135.356627,-29.6746],[135.357206,-29.674133],[135.357664,-29.673714],[135.35819,-29.673101],[135.358688,-29.672411],[135.359066,-29.671758],[135.359385,-29.671093],[135.362426,-29.663824],[135.370561,-29.644398],[135.372772,-29.638978],[135.373014,-29.638206],[135.373082,-29.637819],[135.373113,-29.637647],[135.373154,-29.636729],[135.37301,-29.635601],[135.372867,-29.634926],[135.372639,-29.634508],[135.372391,-29.634043],[135.372376,-29.633679],[135.372535,-29.633292],[135.373402,-29.632301],[135.373578,-29.632039],[135.373633,-29.631751],[135.373636,-29.6309],[135.373561,-29.629621],[135.37285,-29.621589],[135.372764,-29.62014],[135.372818,-29.618517],[135.373674,-29.59996],[135.373682,-29.599786],[135.373742,-29.598562],[135.373815,-29.597945],[135.373897,-29.597483],[135.374164,-29.596867],[135.374246,-29.596758],[135.374479,-29.596446],[135.374563,-29.596369],[135.374897,-29.596065],[135.375917,-29.595503]]}},{"type":"Feature","properties":{"tier":"high"},"geometry":{"type":"LineString","coordinates":[[135.133367,-29.688636],[135.134863,-29.671792]]}},{"type":"Feature","properties":{"tier":"high"},"geometry":{"type":"LineString","coordinates":[[135.036223,-29.509989],[135.036105,-29.509788]]}},{"type":"Feature","properties":{"tier":"high"},"geometry":{"type":"LineString","coordinates":[[135.038398,-29.513449],[135.037556,-29.512181],[135.036585,-29.510609],[135.036223,-29.509989]]}}]}
