{"type":"FeatureCollection","features":[{"type":"Feature","properties":{"tier":"high"},"geometry":{"type":"LineString","coordinates":[[135.030545,-29.50002],[135.027086,-29.49391],[135.022718,-29.486201],[135.021505,-29.484058],[135.020939,-29.483063],[135.020091,-29.481574],[135.019272,-29.480089],[135.018519,-29.478548],[135.017833,-29.47693],[135.017225,-29.47523],[135.016731,-29.473616],[135.016416,-29.472388],[135.016131,-29.471098],[135.01592,-29.469849],[135.015766,-29.468642],[135.015651,-29.467449],[135.015596,-29.466304],[135.01557,-29.464797],[135.015628,-29.463248],[135.015747,-29.461817],[135.015936,-29.460338],[135.01634,-29.457886],[135.016454,-29.457084],[135.016609,-29.455777],[135.016747,-29.454411],[135.016886,-29.45263],[135.016968,-29.45091],[135.017019,-29.448716],[135.016988,-29.446602],[135.016882,-29.444415],[135.016686,-29.442196],[135.016368,-29.439693],[135.015975,-29.43723],[135.015581,-29.435273],[135.015495,-29.4349],[135.015128,-29.433301],[135.014572,-29.431237],[135.013972,-29.429235],[135.013069,-29.426593],[135.012117,-29.423962],[135.009732,-29.417395],[135.005684,-29.406241],[135.004293,-29.40241],[135.003462,-29.400296],[135.002575,-29.398206]]}},{"type":"Feature","properties":{"tier":"high"},"geometry":{"type":"LineString","coordinates":[[135.002575,-29.398206],[135.001909,-29.396681],[135.001656,-29.396133],[135.000358,-29.393444],[134.99998,-29.392685]]}},{"type":"Feature","properties":{"tier":"arterial"},"geometry":{"type":"LineString","coordinates":[[135.50002,-29.077351],[135.499904,-29.077364],[135.499342,-29.077475],[135.498659,-29.077664],[135.496423,-29.078394],[135.494045,-29.079169],[135.490844,-29.080213],[135.489997,-29.080438],[135.489304,-29.080571],[135.488655,-29.080682],[135.488162,-29.08072],[135.487497,-29.08072],[135.486413,-29.080691],[135.485598,-29.080654],[135.485072,-29.080635],[135.484428,-29.080644],[135.483881,-29.080682],[135.48328,-29.080776],[135.482572,-29.080898],[135.481864,-29.081048],[135.479858,-29.081713],[135.475588,-29.083185],[135.47503,-29.083392],[135.474697,-29.083542],[135.474369,-29.08374],[135.473957,-29.084039],[135.473206,-29.084582],[135.471886,-29.085501],[135.470685,-29.086336],[135.470052,-29.086758],[135.469462,-29.087039],[135.467477,-29.087808],[135.462831,-29.089636],[135.462252,-29.089861],[135.46172,-29.090012],[135.461275,-29.090049],[135.460686,-29.090011],[135.460052,-29.089899],[135.458819,-29.089645],[135.456211,-29.089092],[135.454119,-29.08867],[135.452295,-29.088314],[135.450482,-29.087995],[135.448916,-29.087723],[135.44794,-29.087564],[135.446877,-29.087395],[135.445794,-29.087152],[135.444367,-29.086758],[135.435215,-29.083861],[135.429934,-29.082124],[135.429283,-29.081906],[135.427949,-29.081458],[135.425151,-29.080485],[135.421876,-29.079283],[135.421162,-29.078986],[135.418218,-29.077764],[135.417791,-29.077569],[135.41736,-29.077407],[135.416987,-29.077307],[135.416512,-29.077276],[135.415932,-29.077304],[135.415066,-29.07741],[135.409957,-29.07797],[135.407264,-29.078251],[135.403358,-29.078645],[135.399206,-29.078983],[135.396452,-29.079154],[135.384186,-29.079386],[135.37022,-29.07967],[135.369187,-29.079686],[135.368694,-29.079677],[135.368382,-29.079667],[135.367999,-29.079576],[135.367567,-29.079433],[135.366786,-29.079116],[135.36507,-29.078347],[135.364563,-29.078148],[135.364102,-29.077998],[135.36363,-29.077933],[135.358673,-29.077942],[135.352749,-29.077904],[135.348577,-29.077876],[135.347528,-29.077879],[135.346155,-29.077897],[135.345262,-29.077951],[135.340756,-29.078298],[135.337143,-29.078582],[135.328485,-29.078882],[135.324831,-29.078988],[135.317208,-29.07921],[135.312627,-29.079341],[135.30519,-29.078964],[135.301487,-29.078784],[135.290738,-29.078261],[135.27719,-29.077063],[135.26324,-29.075842],[135.26173,-29.075722],[135.260528,-29.075647],[135.259549,-29.075626],[135.25482,-29.075853],[135.248319,-29.076153],[135.247632,-29.076172],[135.247031,-29.076144],[135.246484,-29.07605],[135.246031,-29.075935],[135.245526,-29.07572],[135.244979,-29.07542],[135.244078,-29.074895],[135.243402,-29.074529],[135.242898,-29.074304],[135.242404,-29.074144],[135.241935,-29.074044],[135.241256,-29.073947],[135.233576,-29.073524],[135.231568,-29.073413],[135.230745,-29.073369],[135.229862,-29.073319],[135.229339,-29.073265],[135.222712,-29.072338],[135.22096,-29.072093],[135.205851,-29.069897],[135.202496,-29.069402],[135.201863,-29.069318],[135.201326,-29.069252],[135.200811,-29.069214],[135.200135,-29.069233],[135.198826,-29.069327],[135.195326,-29.069578],[135.193516,-29.06973],[135.192279,-29.069747],[135.191786,-29.069737],[135.191424,-29.069711],[135.191002,-29.069653],[135.190608,-29.06958],[135.190251,-29.069493],[135.18195,-29.067161],[135.177431,-29.065905],[135.177058,-29.065801],[135.175592,-29.065361],[135.175177,-29.065264],[135.174555,-29.065086],[135.174236,-29.064966],[135.173944,-29.064814],[135.173635,-29.064647],[135.170245,-29.062125],[135.161705,-29.055729],[135.161144,-29.055314],[135.16075,-29.055054],[135.160307,-29.054807],[135.15942,-29.054416],[135.148058,-29.049811],[135.138925,-29.04616],[135.137629,-29.045637],[135.136961,-29.045372],[135.136436,-29.045194],[135.135859,-29.044999],[135.132394,-29.043883],[135.13117,-29.043536],[135.128719,-29.04291],[135.127426,-29.042579],[135.124516,-29.041817],[135.121855,-29.041151],[135.118465,-29.040298],[135.117059,-29.039941],[135.115206,-29.039456],[135.112746,-29.038834],[135.111073,-29.038328],[135.109616,-29.037871],[135.107275,-29.037249],[135.104281,-29.036545],[135.104079,-29.036508],[135.102962,-29.036302],[135.102074,-29.036154],[135.10157,-29.036088],[135.100902,-29.036039],[135.098008,-29.036088],[135.097235,-29.036135],[135.096556,-29.036236],[135.095765,-29.036473],[135.094926,-29.036855],[135.094156,-29.037233],[135.093512,-29.037533],[135.09293,-29.037774],[135.092394,-29.037934],[135.091506,-29.038086],[135.090154,-29.038311],[135.089156,-29.038508],[135.087855,-29.038787],[135.085584,-29.03924],[135.084779,-29.039352],[135.083886,-29.039425],[135.083019,-29.039465],[135.082043,-29.039484],[135.080978,-29.039519],[135.079812,-29.039578],[135.078631,-29.039681],[135.077709,-29.039793],[135.076697,-29.039941],[135.075595,-29.040131],[135.074426,-29.040347],[135.073589,-29.040469],[135.072653,-29.04056],[135.069984,-29.040731],[135.06879,-29.040832],[135.067838,-29.04091],[135.066948,-29.041013],[135.065682,-29.041144],[135.064823,-29.04121],[135.063876,-29.041217],[135.062911,-29.041189],[135.061454,-29.041088],[135.058716,-29.040926],[135.054457,-29.040673],[135.053107,-29.040609],[135.052,-29.040523],[135.051227,-29.040448],[135.050401,-29.040344],[135.049535,-29.040225],[135.048859,-29.040103],[135.047901,-29.039941],[135.047217,-29.03985],[135.046413,-29.039756],[135.045222,-29.039662],[135.043395,-29.039482],[135.042615,-29.039362],[135.041853,-29.039259],[135.041142,-29.039209],[135.04048,-29.039165],[135.0392,-29.039022],[135.037741,-29.038806],[135.032881,-29.037971],[135.032015,-29.037833],[135.031317,-29.037692],[135.030617,-29.03753],[135.025886,-29.036011],[135.021637,-29.034669],[135.020983,-29.034472],[135.020457,-29.034379],[135.020009,-29.034343],[135.01958,-29.034343],[135.019169,-29.034388],[135.018539,-29.034559],[135.018121,-29.034728],[135.017734,-29.034981],[135.017284,-29.035328],[135.016929,-29.035623],[135.015642,-29.03652],[135.0152,-29.036733],[135.014642,-29.036977],[135.014095,-29.037127],[135.01355,-29.037242],[135.012839,-29.037333],[135.007936,-29.037634],[135.007729,-29.037648],[135.004635,-29.037861],[135.003226,-29.037924],[135.002864,-29.037908],[135.002572,-29.037887],[135.00147,-29.03772],[135.000322,-29.03758],[134.99998,-29.037555]]}},{"type":"Feature","properties":{"tier":"regional"},"geometry":{"type":"LineString","coordinates":[[135.113537,-29.2944],[135.113214,-29.293923],[135.112855,-29.293514],[135.11245,-29.293223],[135.112065,-29.293033],[135.11147,-29.292831],[135.102914,-29.291359],[135.10218,-29.291285],[135.101426,-29.29121],[135.093644,-29.290942],[135.092655,-29.290908],[135.091124,-29.290855],[135.090553,-29.290836],[135.081508,-29.290524],[135.080691,-29.290496],[135.079296,-29.290448],[135.076426,-29.290498],[135.06716,-29.290564],[135.065098,-29.290592],[135.063335,-29.290657],[135.061467,-29.290854],[135.05862,-29.29106],[135.057151,-29.290977],[135.052349,-29.290289],[135.050701,-29.290207],[135.045279,-29.290381],[135.043506,-29.290303],[135.041318,-29.290025],[135.040615,-29.289878],[135.039998,-29.289532],[135.038638,-29.288609],[135.036153,-29.287091],[135.035378,-29.286653],[135.034394,-29.286307],[135.032106,-29.285848],[135.028323,-29.285205],[135.022209,-29.284296],[135.012484,-29.282871],[135.008881,-29.282267],[135.007199,-29.282075],[135.00177,-29.281818],[134.99998,-29.281743]]}}]}
