{"type":"FeatureCollection","features":[{"type":"Feature","properties":{"tier":"regional"},"geometry":{"type":"LineString","coordinates":[[135.198325,-26.00002],[135.19836,-25.999744],[135.198451,-25.998452],[135.1985,-25.997482],[135.198454,-25.997056],[135.1984,-25.996614],[135.198376,-25.99614],[135.198414,-25.99579],[135.198484,-25.995385],[135.198551,-25.995062],[135.198548,-25.99464],[135.198521,-25.993615],[135.19852,-25.993574],[135.198516,-25.993393]]}},{"type":"Feature","properties":{"tier":"regional"},"geometry":{"type":"LineString","coordinates":[[135.312781,-25.938091],[135.31314,-25.93967],[135.31327,-25.939964],[135.31351,-25.94056],[135.31361,-25.94089],[135.31355,-25.94157],[135.31355,-25.94191],[135.31358,-25.94224],[135.31368,-25.94256],[135.31366,-25.9429],[135.3136,-25.94324],[135.31362,-25.94359],[135.31394,-25.94461],[135.31422,-25.94522],[135.31468,-25.94592],[135.31492,-25.94626],[135.31511,-25.94662],[135.31523,-25.947],[135.31535,-25.94754],[135.31552,-25.94807],[135.31561,-25.94874],[135.31575,-25.95015],[135.31565,-25.95079],[135.31585,-25.95099],[135.31616,-25.95087],[135.31637,-25.9507],[135.31664,-25.95046],[135.31686,-25.95022],[135.31713,-25.95008],[135.31742,-25.95017],[135.31742,-25.95077],[135.31749,-25.95145],[135.31759,-25.95172],[135.31751,-25.95199],[135.31749,-25.95231],[135.3175,-25.95267],[135.31757,-25.95396],[135.31761,-25.95427],[135.31774,-25.95457],[135.31781,-25.95489],[135.31807,-25.95549],[135.31814,-25.95581],[135.31815,-25.95612],[135.31818,-25.95642],[135.31789,-25.95697],[135.31781,-25.9573],[135.31779,-25.95764],[135.31789,-25.95833],[135.31785,-25.95903],[135.31788,-25.95938],[135.31807,-25.96005],[135.31819,-25.96037],[135.31834,-25.961],[135.31846,-25.96131],[135.31894,-25.96215],[135.31913,-25.96239],[135.31936,-25.96291],[135.31958,-25.96346],[135.31959,-25.96406],[135.31968,-25.96435],[135.31981,-25.96461],[135.32015,-25.96516],[135.32042,-25.96542],[135.3206,-25.96572],[135.32067,-25.96597],[135.32086,-25.96688],[135.32081,-25.96718],[135.32078,-25.96751],[135.32091,-25.96787],[135.32101,-25.96861],[135.32109,-25.96897],[135.32155,-25.97027],[135.32156,-25.97061],[135.32162,-25.97096],[135.32173,-25.97133],[135.32231,-25.97266],[135.32243,-25.97301],[135.32249,-25.97336],[135.32254,-25.97405],[135.32264,-25.97438],[135.32284,-25.97541],[135.32306,-25.97609],[135.32314,-25.97642],[135.32324,-25.97743],[135.3232,-25.97842],[135.32343,-25.97905],[135.3235,-25.97938],[135.3236,-25.98003],[135.32379,-25.98065],[135.32384,-25.98095],[135.32394,-25.98123],[135.32398,-25.98151],[135.32405,-25.98178],[135.32409,-25.98312],[135.32421,-25.98381],[135.32431,-25.98414],[135.32468,-25.98503],[135.32476,-25.9853],[135.3249,-25.98563],[135.3252,-25.98618],[135.32533,-25.98648],[135.32547,-25.98674],[135.3256,-25.98696],[135.32571,-25.98721],[135.32577,-25.9875],[135.32587,-25.9878],[135.32605,-25.98809],[135.32625,-25.98837],[135.32642,-25.98867],[135.32711,-25.99006],[135.32734,-25.99036],[135.32753,-25.99064],[135.32771,-25.99088],[135.32792,-25.99109],[135.32811,-25.99136],[135.32834,-25.99158],[135.32845,-25.99186],[135.3286,-25.99215],[135.32877,-25.99235],[135.32908,-25.99292],[135.32927,-25.99318],[135.32951,-25.99341],[135.32988,-25.99394],[135.33018,-25.99409],[135.33038,-25.99432],[135.33053,-25.99464],[135.33075,-25.99483],[135.33105,-25.99541],[135.331113,-25.995457],[135.33124,-25.99555],[135.33134,-25.99612],[135.33133,-25.99644],[135.33166,-25.99739],[135.33149,-25.99763],[135.33109,-25.99809],[135.33107,-25.99869],[135.33113,-25.99925],[135.33122,-25.99955],[135.33126,-25.99988],[135.331236,-26.00002]]}}]}
