{"type":"FeatureCollection","features":[{"type":"Feature","properties":{"tier":"arterial"},"geometry":{"type":"LineString","coordinates":[[135.399856,-31.50002],[135.399874,-31.499975],[135.40003,-31.499687],[135.400404,-31.499107],[135.400904,-31.498577],[135.401747,-31.497685],[135.401913,-31.497461],[135.402009,-31.497301],[135.402464,-31.496363],[135.402954,-31.495218],[135.403093,-31.494715],[135.40319,-31.494081],[135.403249,-31.493473],[135.403294,-31.492807],[135.403249,-31.491815],[135.403279,-31.491203],[135.403284,-31.49075],[135.403214,-31.490427],[135.403053,-31.490116],[135.402717,-31.489802],[135.40182,-31.48919],[135.39988,-31.487901],[135.397643,-31.486371],[135.395344,-31.484809],[135.394,-31.483894],[135.390036,-31.481229],[135.386843,-31.479057],[135.385812,-31.478239],[135.385017,-31.477482],[135.384702,-31.477187],[135.38448,-31.476876],[135.38353,-31.475283],[135.382369,-31.473254],[135.381234,-31.471479],[135.380646,-31.471069],[135.380092,-31.47083],[135.378854,-31.470436],[135.377487,-31.470049],[135.37547,-31.46917],[135.374355,-31.468658],[135.373539,-31.468255],[135.372938,-31.467889],[135.372552,-31.467486],[135.37238,-31.467121],[135.371565,-31.464595],[135.371222,-31.462838],[135.371174,-31.462228],[135.371163,-31.461638],[135.371239,-31.460802],[135.372132,-31.45712],[135.372363,-31.456],[135.372732,-31.453883],[135.373059,-31.451804],[135.373282,-31.450186],[135.373453,-31.449124],[135.374003,-31.444906],[135.374406,-31.442175],[135.374715,-31.43992],[135.374835,-31.439209],[135.375041,-31.43754],[135.376088,-31.430524],[135.377273,-31.422387],[135.377659,-31.420153],[135.377902,-31.418714],[135.378001,-31.417983],[135.378009,-31.417478],[135.377947,-31.417129],[135.37779,-31.4166],[135.377575,-31.41614],[135.377256,-31.415465],[135.375708,-31.411689],[135.374951,-31.409896],[135.374565,-31.409061],[135.374316,-31.408704],[135.373779,-31.408117],[135.372878,-31.407253],[135.372707,-31.407107],[135.371222,-31.406155],[135.365145,-31.403385],[135.360329,-31.401116],[135.359767,-31.400872],[135.35955,-31.400741],[135.359432,-31.400645],[135.359305,-31.400478],[135.35924,-31.400374],[135.359078,-31.400108],[135.358871,-31.399701],[135.358662,-31.399253],[135.358429,-31.398837],[135.35822,-31.398564],[135.357911,-31.398214],[135.357297,-31.397543],[135.357029,-31.397206],[135.356777,-31.396794],[135.356592,-31.396433],[135.355972,-31.395125],[135.355505,-31.394228],[135.355264,-31.393587],[135.354915,-31.392756],[135.354727,-31.392158],[135.354274,-31.390564],[135.353984,-31.389475],[135.353585,-31.387579],[135.353311,-31.386645],[135.35318,-31.38622],[135.353089,-31.385532],[135.353062,-31.384868],[135.353026,-31.384314],[135.35294,-31.38282],[135.35303,-31.382136],[135.353086,-31.381318],[135.353086,-31.380138],[135.353105,-31.379322],[135.353137,-31.379045],[135.353215,-31.378833],[135.353531,-31.37814],[135.353588,-31.377845],[135.353601,-31.377295],[135.353558,-31.3758],[135.353755,-31.373821],[135.354039,-31.372443],[135.354056,-31.37215],[135.353953,-31.370875],[135.354013,-31.369263],[135.354124,-31.36864],[135.35433,-31.367944],[135.354296,-31.367555],[135.353841,-31.365599],[135.353798,-31.365108],[135.353884,-31.364697],[135.354065,-31.364401],[135.354349,-31.364022],[135.354521,-31.363668],[135.354561,-31.363503],[135.354576,-31.363215],[135.354631,-31.36292],[135.354742,-31.362667],[135.354917,-31.362216],[135.354943,-31.36192],[135.354874,-31.361541],[135.354793,-31.361045],[135.354667,-31.359685],[135.354529,-31.358816],[135.354251,-31.357758],[135.354148,-31.357404],[135.353909,-31.356942],[135.353651,-31.356564],[135.353409,-31.356293],[135.352811,-31.355676],[135.35267,-31.355472],[135.352626,-31.355331],[135.352574,-31.355109],[135.352448,-31.354603],[135.351567,-31.352333],[135.350949,-31.350735],[135.350236,-31.349635],[135.349232,-31.348499],[135.348923,-31.348257],[135.347618,-31.347451],[135.347232,-31.347231],[135.347035,-31.347033],[135.346803,-31.34663],[135.346331,-31.345589],[135.346005,-31.343756],[135.34573,-31.342745],[135.345344,-31.342085],[135.345112,-31.341631],[135.345026,-31.341396],[135.344013,-31.339688],[135.343627,-31.338991],[135.34264,-31.337621],[135.342297,-31.337159],[135.342057,-31.336865],[135.341868,-31.336477],[135.341739,-31.336096],[135.341636,-31.335157],[135.34155,-31.333742],[135.341439,-31.333273],[135.341052,-31.332027],[135.340254,-31.328302],[135.339997,-31.327584],[135.339739,-31.326799],[135.339276,-31.326118],[135.338735,-31.325751],[135.337233,-31.325282],[135.336332,-31.324966],[135.333473,-31.324138],[135.331997,-31.323552],[135.328452,-31.322202],[135.325414,-31.321191],[135.325156,-31.321081],[135.324041,-31.320384],[135.319037,-31.3174],[135.317681,-31.316747],[135.317389,-31.31663],[135.314385,-31.315735],[135.3109,-31.314943],[135.305493,-31.313623],[135.304373,-31.313367],[135.303757,-31.313209],[135.302919,-31.312952],[135.302231,-31.31267],[135.301939,-31.312538],[135.301544,-31.312318],[135.300514,-31.311497],[135.298877,-31.309943],[135.297085,-31.308302],[135.295515,-31.30688],[135.295159,-31.306606],[135.294419,-31.306058],[135.293129,-31.305251],[135.291887,-31.304387],[135.29142,-31.303986],[135.29094,-31.303521],[135.28964,-31.302183],[135.288426,-31.300916],[135.287629,-31.29989],[135.287051,-31.299049],[135.286851,-31.298759],[135.286681,-31.298453],[135.286292,-31.297636],[135.285966,-31.296866],[135.285773,-31.296477],[135.285568,-31.296227],[135.285212,-31.295859],[135.284619,-31.295363],[135.283525,-31.294349],[135.282801,-31.293744],[135.282213,-31.293318],[135.281528,-31.292861],[135.280648,-31.292347],[135.279984,-31.291993],[135.27936,-31.29164],[135.277771,-31.290677],[135.276499,-31.289898],[135.275234,-31.28906],[135.274372,-31.288474],[135.273636,-31.287929],[135.27277,-31.287196],[135.271616,-31.286091],[135.270433,-31.28501],[135.26951,-31.284245],[135.268104,-31.283103],[135.264197,-31.279939],[135.259187,-31.275837],[135.258617,-31.275323],[135.258155,-31.274956],[135.257727,-31.274679],[135.256564,-31.27395],[135.255693,-31.273433],[135.254884,-31.272983],[135.25226,-31.271607],[135.249489,-31.27017],[135.248038,-31.269249],[135.247153,-31.268618],[135.246439,-31.268022],[135.246293,-31.267906],[135.246179,-31.267805],[135.246073,-31.267676],[135.245977,-31.26752],[135.24591,-31.267365],[135.245857,-31.267198],[135.245826,-31.267037],[135.245827,-31.266873],[135.245861,-31.266592],[135.245925,-31.266309],[135.2461,-31.2654],[135.24623,-31.264748],[135.246342,-31.264411],[135.246524,-31.263989],[135.24676,-31.263558],[135.24701,-31.263202],[135.247291,-31.262893],[135.247978,-31.262173],[135.248628,-31.261498],[135.249015,-31.26102],[135.249488,-31.260182],[135.249759,-31.259661],[135.249954,-31.259178],[135.250102,-31.258655],[135.250243,-31.257929],[135.250612,-31.256249],[135.250673,-31.255882],[135.251042,-31.254855],[135.251703,-31.253255],[135.252261,-31.252374],[135.252415,-31.252176],[135.25269,-31.250885],[135.252908,-31.250318],[135.253117,-31.250103],[135.253393,-31.249784],[135.253676,-31.249328],[135.253688,-31.249088],[135.253641,-31.248847],[135.253419,-31.248214],[135.253379,-31.247585],[135.253292,-31.24706],[135.253164,-31.246672],[135.253059,-31.246196],[135.253059,-31.245961],[135.253093,-31.245682],[135.253426,-31.244522],[135.253568,-31.244278],[135.253768,-31.244016],[135.254839,-31.243056],[135.255307,-31.242542],[135.255951,-31.241764],[135.256466,-31.241103],[135.256999,-31.240578],[135.257668,-31.240032],[135.25807,-31.239541],[135.258397,-31.238975],[135.258912,-31.238153],[135.259427,-31.237184],[135.260114,-31.235746],[135.261144,-31.23375],[135.262689,-31.231049],[135.263221,-31.230139],[135.263393,-31.229897],[135.264423,-31.228774],[135.266594,-31.226484],[135.267221,-31.22564],[135.26771,-31.225023],[135.26874,-31.223871],[135.269658,-31.223042],[135.271083,-31.22172],[135.275289,-31.217903],[135.277752,-31.215591],[135.279683,-31.213734],[135.284636,-31.209146],[135.284945,-31.208904],[135.285753,-31.208275],[135.286721,-31.207663],[135.287151,-31.207443],[135.291125,-31.205593],[135.291571,-31.205424],[135.295837,-31.203956],[135.297836,-31.203222],[135.299864,-31.202524],[135.302258,-31.201661],[135.305987,-31.200321],[135.307795,-31.19963],[135.309406,-31.199044],[135.310083,-31.198765],[135.311209,-31.198221],[135.312582,-31.197378],[135.313511,-31.196796],[135.315174,-31.19552],[135.31582,-31.195002],[135.316354,-31.194464],[135.316694,-31.194074],[135.317177,-31.193601],[135.318109,-31.192901],[135.318633,-31.192584],[135.321028,-31.191525],[135.322241,-31.191074],[135.324873,-31.190036],[135.326189,-31.189444],[135.326565,-31.189248],[135.326933,-31.189008],[135.328128,-31.187867],[135.329839,-31.186192],[135.331053,-31.184845],[135.332255,-31.183427],[135.334572,-31.1806],[135.33569,-31.179115],[135.337104,-31.17712],[135.339353,-31.173727],[135.339865,-31.172871],[135.340778,-31.171024],[135.341808,-31.169262],[135.342666,-31.167866],[135.344614,-31.164628],[135.345086,-31.163423],[135.345224,-31.162778],[135.345297,-31.162064],[135.345361,-31.1605],[135.34543,-31.155123],[135.34543,-31.152222],[135.345404,-31.150459],[135.345344,-31.148696],[135.345301,-31.146052],[135.345198,-31.143642],[135.344927,-31.135454],[135.344884,-31.134533],[135.344919,-31.133906],[135.344975,-31.133439],[135.345086,-31.13299],[135.34549,-31.131153],[135.345962,-31.128876],[135.346374,-31.126745],[135.346863,-31.124004],[135.347015,-31.123298],[135.347088,-31.123072],[135.347277,-31.122772],[135.348331,-31.121528],[135.349481,-31.120206],[135.3533,-31.115562],[135.354296,-31.114313],[135.354989,-31.11338],[135.355088,-31.11318],[135.355139,-31.112973],[135.3553,-31.111799],[135.355815,-31.107346],[135.356605,-31.101151],[135.357,-31.097902],[135.357575,-31.093529],[135.358708,-31.084209],[135.359489,-31.078152],[135.360218,-31.072271],[135.360269,-31.071855],[135.360434,-31.071019],[135.361208,-31.067451],[135.361635,-31.065485],[135.362682,-31.0605],[135.364634,-31.051262],[135.364715,-31.051011],[135.364841,-31.050743],[135.365133,-31.050288],[135.366029,-31.048978],[135.373838,-31.037199],[135.380835,-31.024989],[135.382543,-31.022],[135.382958,-31.021177],[135.383111,-31.020788],[135.383164,-31.020643],[135.383187,-31.020418],[135.383129,-31.019309],[135.383066,-31.018406],[135.382697,-31.012477],[135.382488,-31.009955],[135.382432,-31.00962],[135.382358,-31.009348],[135.382214,-31.009028],[135.38203,-31.008786],[135.381657,-31.008385],[135.381155,-31.007891],[135.380809,-31.007424],[135.380406,-31.006775],[135.378131,-31.002715],[135.376569,-30.99998]]}}]}
