{"type":"FeatureCollection","features":[{"type":"Feature","properties":{"tier":"high"},"geometry":{"type":"LineString","coordinates":[[135.158379,-32.860344],[135.158971,-32.860854],[135.159849,-32.861615],[135.161407,-32.862966],[135.164952,-32.865641],[135.166813,-32.867072],[135.167508,-32.867535],[135.173034,-32.870714],[135.175891,-32.872342],[135.183016,-32.876353],[135.183643,-32.876719],[135.184225,-32.877076],[135.184792,-32.877467],[135.185202,-32.877779],[135.185822,-32.878322],[135.186828,-32.879326],[135.187286,-32.879852],[135.187602,-32.880281],[135.187989,-32.880865],[135.18824,-32.881303],[135.188583,-32.881986],[135.188766,-32.88242],[135.189027,-32.883175],[135.189142,-32.883577],[135.189324,-32.884267],[135.189525,-32.885587],[135.189573,-32.886412],[135.189816,-32.890702],[135.189864,-32.8916],[135.189973,-32.892207],[135.190069,-32.89257],[135.190203,-32.892932],[135.190259,-32.89305],[135.190563,-32.893697],[135.196577,-32.905936],[135.199231,-32.911248],[135.19959,-32.911675],[135.200465,-32.912716],[135.201485,-32.913664],[135.201774,-32.913932],[135.203405,-32.91477],[135.204869,-32.915423],[135.204939,-32.915454],[135.206965,-32.916236],[135.207716,-32.916526],[135.210819,-32.917724],[135.214609,-32.919106],[135.215171,-32.919323],[135.216545,-32.919906],[135.218371,-32.920741],[135.225249,-32.924217],[135.237168,-32.930296],[135.237715,-32.930574],[135.238445,-32.930945],[135.248599,-32.936114],[135.252886,-32.938294],[135.257077,-32.940415],[135.259642,-32.941721],[135.261471,-32.942653],[135.265641,-32.944769],[135.267348,-32.945635],[135.267673,-32.945817],[135.267952,-32.946005],[135.268468,-32.946352],[135.26883,-32.94657],[135.269743,-32.947042],[135.273646,-32.949006],[135.273973,-32.949174],[135.274135,-32.949258],[135.275484,-32.949952],[135.276771,-32.950601],[135.277643,-32.951044],[135.27845,-32.95149],[135.279913,-32.952438],[135.280012,-32.952502],[135.283002,-32.954444],[135.288583,-32.958061],[135.291531,-32.95997],[135.293139,-32.961012],[135.293881,-32.961493],[135.299374,-32.965129],[135.304585,-32.968637],[135.305127,-32.96899],[135.308068,-32.970849],[135.310157,-32.972168],[135.316015,-32.97585],[135.316975,-32.976469],[135.326883,-32.982861],[135.329726,-32.98472],[135.33214,-32.986298],[135.338341,-32.990312],[135.343394,-32.99312],[135.349446,-32.996404],[135.355357,-32.999653],[135.356017,-33.00002]]}},{"type":"Feature","properties":{"tier":"high"},"geometry":{"type":"LineString","coordinates":[[134.99998,-32.776647],[135.000566,-32.776891],[135.010907,-32.78122],[135.014311,-32.782653],[135.042868,-32.794645],[135.043748,-32.795018],[135.046197,-32.796055],[135.046602,-32.79624],[135.048167,-32.796999],[135.049007,-32.797372],[135.057353,-32.80087],[135.060651,-32.802257],[135.063149,-32.803115],[135.066734,-32.804666],[135.072335,-32.807004],[135.076854,-32.808852],[135.083113,-32.811463],[135.096053,-32.816908],[135.100795,-32.818884],[135.104906,-32.820629],[135.108216,-32.821994],[135.109408,-32.822486],[135.110986,-32.823151],[135.111656,-32.823476],[135.112307,-32.823851],[135.114627,-32.825272],[135.116165,-32.826225],[135.122807,-32.83034],[135.1241,-32.831187],[135.124764,-32.831644],[135.128939,-32.834631],[135.134587,-32.838698],[135.135131,-32.839118],[135.13531,-32.839267],[135.135561,-32.839478],[135.13625,-32.840097],[135.140569,-32.844226],[135.145532,-32.848918],[135.147631,-32.85089]]}},{"type":"Feature","properties":{"tier":"high"},"geometry":{"type":"LineString","coordinates":[[135.147631,-32.85089],[135.150629,-32.853665]]}},{"type":"Feature","properties":{"tier":"high"},"geometry":{"type":"LineString","coordinates":[[135.150629,-32.853665],[135.151367,-32.854299],[135.153209,-32.855885],[135.153921,-32.856498],[135.155456,-32.857818],[135.155522,-32.857875],[135.158379,-32.860344]]}}]}
