{"type":"FeatureCollection","features":[{"type":"Feature","properties":{"tier":"regional"},"geometry":{"type":"LineString","coordinates":[[135.479996,-26.443827],[135.480469,-26.443588],[135.480637,-26.443409],[135.481216,-26.442394],[135.4814,-26.441776],[135.481567,-26.441492],[135.482178,-26.441023],[135.482727,-26.440269],[135.483566,-26.439346],[135.484268,-26.438662],[135.484985,-26.437847],[135.486053,-26.436172],[135.486237,-26.435785],[135.486389,-26.435635],[135.486862,-26.435314],[135.488083,-26.433958],[135.488663,-26.43358],[135.489044,-26.432762],[135.490311,-26.431673],[135.491653,-26.430235],[135.491959,-26.429806],[135.492325,-26.428968],[135.492615,-26.428528],[135.492798,-26.428347],[135.493256,-26.42807],[135.49379,-26.427671],[135.495285,-26.42687],[135.495911,-26.426613],[135.496124,-26.426447],[135.49675,-26.425777],[135.496964,-26.425636],[135.497604,-26.425415],[135.498337,-26.425026],[135.499451,-26.424517],[135.50002,-26.424319]]}},{"type":"Feature","properties":{"tier":"regional"},"geometry":{"type":"LineString","coordinates":[[135.223895,-26.041147],[135.222548,-26.039828],[135.222268,-26.039421],[135.221975,-26.038809],[135.221459,-26.038102],[135.220965,-26.037545],[135.220563,-26.03717],[135.220178,-26.036752],[135.219268,-26.03559],[135.218892,-26.034924],[135.218472,-26.034365],[135.217709,-26.033406],[135.217123,-26.032787],[135.216606,-26.032322],[135.216098,-26.031698],[135.215326,-26.030655],[135.214884,-26.030204],[135.214474,-26.02972],[135.214185,-26.029282],[135.213822,-26.028761],[135.213352,-26.028179],[135.212579,-26.027234],[135.211955,-26.02647],[135.21143,-26.025889],[135.211183,-26.025521],[135.210601,-26.024539],[135.210098,-26.02391],[135.20974,-26.02357],[135.209274,-26.023207],[135.208534,-26.022602],[135.207617,-26.021876],[135.206821,-26.021285],[135.206379,-26.020973],[135.206044,-26.020819],[135.205336,-26.020526],[135.204768,-26.020233],[135.204265,-26.019958],[135.203046,-26.01925],[135.202436,-26.018855],[135.202022,-26.018599],[135.201556,-26.018348],[135.200923,-26.018013],[135.200426,-26.017678],[135.19988,-26.01723],[135.199488,-26.016845],[135.199205,-26.016473],[135.198918,-26.016019],[135.198721,-26.015643],[135.198425,-26.014982],[135.198148,-26.014396],[135.19797,-26.013833],[135.19775,-26.01304],[135.197622,-26.012253],[135.197496,-26.011289],[135.197394,-26.01043],[135.197417,-26.009899],[135.197543,-26.00894],[135.197833,-26.007369],[135.197882,-26.006711],[135.197955,-26.00598],[135.198021,-26.005398],[135.198004,-26.004858],[135.197938,-26.004364],[135.197965,-26.003627],[135.198001,-26.002693],[135.198231,-26.000771],[135.19833,-25.99998]]}},{"type":"Feature","properties":{"tier":"regional"},"geometry":{"type":"LineString","coordinates":[[135.24722,-26.069154],[135.247385,-26.068939],[135.247484,-26.068634],[135.247546,-26.068217],[135.247585,-26.067686],[135.247553,-26.0671],[135.247506,-26.066923],[135.247385,-26.066774],[135.247152,-26.066632],[135.246675,-26.066397],[135.246421,-26.066255],[135.246065,-26.065947],[135.244867,-26.064841],[135.243989,-26.063945],[135.24362,-26.063531],[135.243235,-26.062997],[135.24282,-26.062326],[135.242593,-26.061872],[135.242056,-26.060983],[135.241467,-26.060173],[135.240924,-26.059554],[135.239861,-26.058327],[135.239222,-26.057698],[135.238304,-26.05674],[135.236516,-26.054709],[135.235008,-26.053033],[135.234164,-26.052088],[135.233519,-26.051366],[135.231992,-26.04963],[135.228713,-26.045841],[135.227243,-26.043849]]}},{"type":"Feature","properties":{"tier":"regional"},"geometry":{"type":"LineString","coordinates":[[135.227243,-26.043849],[135.226068,-26.042826],[135.22537,-26.042273],[135.224297,-26.041522],[135.223895,-26.041147]]}},{"type":"Feature","properties":{"tier":"regional"},"geometry":{"type":"LineString","coordinates":[[135.27021,-26.05424],[135.269942,-26.054224],[135.269827,-26.054213],[135.269221,-26.054122],[135.268537,-26.054027],[135.268388,-26.054011],[135.267793,-26.053892],[135.267505,-26.0538],[135.266952,-26.053563],[135.266815,-26.053499],[135.26626,-26.053237],[135.265693,-26.052972],[135.265402,-26.052842],[135.264967,-26.052647],[135.264395,-26.0524],[135.263961,-26.052219],[135.263379,-26.051979],[135.262784,-26.051746],[135.262189,-26.051513],[135.2616,-26.051288],[135.261142,-26.051117],[135.260507,-26.050902],[135.260017,-26.050762],[135.259364,-26.050611],[135.259037,-26.050543],[135.258386,-26.050406],[135.257728,-26.050279],[135.257563,-26.050247],[135.2569,-26.050105],[135.25623,-26.049943],[135.255729,-26.049829],[135.255068,-26.049678],[135.254416,-26.049525],[135.254254,-26.049489],[135.254093,-26.049455],[135.253456,-26.04932],[135.252829,-26.049178],[135.252525,-26.049106],[135.251941,-26.048973],[135.251294,-26.048836],[135.250653,-26.048747],[135.250213,-26.048659],[135.249579,-26.048465],[135.24903,-26.048279],[135.248589,-26.048108],[135.248063,-26.047906],[135.247824,-26.047842],[135.247219,-26.04771],[135.247099,-26.047684],[135.246433,-26.047593],[135.246297,-26.047584],[135.245598,-26.047583],[135.245035,-26.04762],[135.244327,-26.047677],[135.243786,-26.047748],[135.24313,-26.047871],[135.242611,-26.047987],[135.241985,-26.048139],[135.24174,-26.048197],[135.241159,-26.04834],[135.240563,-26.048491],[135.239964,-26.04865],[135.239288,-26.048835],[135.238741,-26.04907],[135.238631,-26.049132],[135.238085,-26.049496],[135.237767,-26.049737],[135.237215,-26.050128],[135.236987,-26.050291],[135.236418,-26.05069],[135.235826,-26.051047],[135.235714,-26.051117],[135.2355,-26.051254],[135.234964,-26.051586],[135.234597,-26.051807],[135.23438,-26.051918],[135.234268,-26.052007],[135.234164,-26.052088]]}},{"type":"Feature","properties":{"tier":"regional"},"geometry":{"type":"LineString","coordinates":[[135.331243,-25.99998],[135.33122,-26.00011],[135.33116,-26.0007],[135.33134,-26.00129],[135.33145,-26.0019],[135.33144,-26.00253],[135.33151,-26.00282],[135.33159,-26.00342],[135.33169,-26.00403],[135.33167,-26.0047],[135.33155,-26.00496],[135.33119,-26.00555],[135.331,-26.00579],[135.33052,-26.00616],[135.33031,-26.0064],[135.33007,-26.0066],[135.32979,-26.00676],[135.32953,-26.00694],[135.32928,-26.00715],[135.32839,-26.00803],[135.32818,-26.00826],[135.32803,-26.00852],[135.32743,-26.00998],[135.32726,-26.01029],[135.32708,-26.01057],[135.32615,-26.01195],[135.3259,-26.01213],[135.32514,-26.01209],[135.32485,-26.01214],[135.32383,-26.01252],[135.32355,-26.01265],[135.32304,-26.01298],[135.32253,-26.01339],[135.32231,-26.01368],[135.32227,-26.01395],[135.32229,-26.01423],[135.32229,-26.01453],[135.32233,-26.01483],[135.32258,-26.01581],[135.32293,-26.01674],[135.32326,-26.01768],[135.32343,-26.01799],[135.32362,-26.01829],[135.32381,-26.01858],[135.32402,-26.01886],[135.32425,-26.0191],[135.3245,-26.01931],[135.32479,-26.01946],[135.32506,-26.01962],[135.32551,-26.02009],[135.32576,-26.02039],[135.32593,-26.02069],[135.32606,-26.0213],[135.32621,-26.02161],[135.32654,-26.02207],[135.32682,-26.02265],[135.32685,-26.023],[135.32673,-26.02334],[135.32655,-26.02364],[135.32647,-26.02395],[135.3266,-26.02458],[135.32675,-26.02542],[135.32679,-26.026],[135.32686,-26.02657],[135.32697,-26.02725],[135.32691,-26.02755],[135.32682,-26.02784],[135.32646,-26.02874],[135.32623,-26.02903],[135.32594,-26.02926],[135.32562,-26.02945],[135.32525,-26.02957],[135.32432,-26.02972],[135.32364,-26.02985],[135.32331,-26.02989],[135.32298,-26.0299],[135.32196,-26.02972],[135.32157,-26.02974],[135.32085,-26.02984],[135.32052,-26.02991],[135.31957,-26.03019],[135.31927,-26.0303],[135.31899,-26.03047],[135.31868,-26.03062],[135.31808,-26.031],[135.31776,-26.03117],[135.31712,-26.03142],[135.31614,-26.03195],[135.31589,-26.03218],[135.31575,-26.03249],[135.31545,-26.03366],[135.31517,-26.03429],[135.31499,-26.0346],[135.31471,-26.03486],[135.31439,-26.03509],[135.31406,-26.03528],[135.31308,-26.03572],[135.31274,-26.03584],[135.31238,-26.03603],[135.31202,-26.03618],[135.31014,-26.03682],[135.30777,-26.03742],[135.30698,-26.03759],[135.3067,-26.03763],[135.30585,-26.0377],[135.3047,-26.03784],[135.30427,-26.03791],[135.30386,-26.03801],[135.30345,-26.03808],[135.30304,-26.03811],[135.30262,-26.03818],[135.30218,-26.03822],[135.30053,-26.03826],[135.29966,-26.03832],[135.29894,-26.0384],[135.29806,-26.03853],[135.29642,-26.03888],[135.29481,-26.03931],[135.29438,-26.03945],[135.29371,-26.03972],[135.29333,-26.0399],[135.29228,-26.04047],[135.29096,-26.04126],[135.2906,-26.04145],[135.28957,-26.04195],[135.28891,-26.04228],[135.28863,-26.04247],[135.28838,-26.04269],[135.28799,-26.04311],[135.28774,-26.04336],[135.28746,-26.0436],[135.28718,-26.04381],[135.2869,-26.04398],[135.28663,-26.04412],[135.28635,-26.04429],[135.28609,-26.04448],[135.28571,-26.04485],[135.2855,-26.0451],[135.28503,-26.04565],[135.28459,-26.04622],[135.28436,-26.04648],[135.28409,-26.0467],[135.2838,-26.04692],[135.28328,-26.04744],[135.28273,-26.0479],[135.28246,-26.04814],[135.28196,-26.04867],[135.28117,-26.04946],[135.28088,-26.04969],[135.28038,-26.0502],[135.27987,-26.0507],[135.27909,-26.0514],[135.27858,-26.05188],[135.27808,-26.05229],[135.2778,-26.05246],[135.27653,-26.05304],[135.27586,-26.05333],[135.27482,-26.05367],[135.27394,-26.0539],[135.27295,-26.0541],[135.27259,-26.05415],[135.27188,-26.05419],[135.27153,-26.05419],[135.27086,-26.05425],[135.27053,-26.05426],[135.27021,-26.05424]]}},{"type":"Feature","properties":{"tier":"regional"},"geometry":{"type":"LineString","coordinates":[[135.093679,-26.274357],[135.093621,-26.274419],[135.093521,-26.274546],[135.093293,-26.274763],[135.092984,-26.274866],[135.09248,-26.27488],[135.09188,-26.27511],[135.09165,-26.27528],[135.09104,-26.27546],[135.08877,-26.27601],[135.08677,-26.27638],[135.08403,-26.27627],[135.08175,-26.27589],[135.07815,-26.27507],[135.07673,-26.2749],[135.06639,-26.2743],[135.06094,-26.27367],[135.05839,-26.27305],[135.05291,-26.27123],[135.05073,-26.27095],[135.04809,-26.27071],[135.03944,-26.2696],[135.03813,-26.26973],[135.03635,-26.26983],[135.03495,-26.26971],[135.03322,-26.26981],[135.03073,-26.26979],[135.02798,-26.26966],[135.02538,-26.26968],[135.02107,-26.26979],[135.01633,-26.26996],[135.0121,-26.2705],[135.00893,-26.27084],[135.00255,-26.27106],[134.99998,-26.27116]]}},{"type":"Feature","properties":{"tier":"regional"},"geometry":{"type":"LineString","coordinates":[[135.479996,-26.443827],[135.47943,-26.44392],[135.47879,-26.44418],[135.47829,-26.44454],[135.4781,-26.44478],[135.47782,-26.44499],[135.47752,-26.44514],[135.47715,-26.44525],[135.4764,-26.44534],[135.47497,-26.44527],[135.47464,-26.44529],[135.47432,-26.44523],[135.47306,-26.4448],[135.47239,-26.44474],[135.47207,-26.44467],[135.47117,-26.44426],[135.47085,-26.44426],[135.46964,-26.44493],[135.46771,-26.44624],[135.46711,-26.4466],[135.46645,-26.44695],[135.46494,-26.44765],[135.46228,-26.44909],[135.46123,-26.44976],[135.4572,-26.45252],[135.45286,-26.45559],[135.45183,-26.45628],[135.4508,-26.45688],[135.44763,-26.45838],[135.44505,-26.45946],[135.44364,-26.45993],[135.44151,-26.46038],[135.43947,-26.46089],[135.43709,-26.46171],[135.43669,-26.46192],[135.43623,-26.46229],[135.4345,-26.464],[135.43291,-26.46544],[135.43145,-26.46647],[135.43106,-26.46667],[135.43068,-26.46679],[135.42868,-26.46712],[135.42628,-26.46716],[135.42274,-26.4669],[135.42207,-26.46675],[135.42143,-26.46645],[135.42109,-26.46643],[135.42038,-26.46669],[135.41995,-26.46671],[135.41952,-26.46664],[135.41926,-26.46654],[135.4187,-26.46628],[135.41787,-26.46581],[135.41707,-26.46529],[135.41499,-26.4633],[135.41473,-26.463],[135.41433,-26.46231],[135.41319,-26.45997],[135.413,-26.45973],[135.41276,-26.45954],[135.412239,-26.459375],[135.41216,-26.45935],[135.411605,-26.459269],[135.40909,-26.4589],[135.4087,-26.45879],[135.40834,-26.45862],[135.40765,-26.45817],[135.40652,-26.45757],[135.40514,-26.45701],[135.40334,-26.45649],[135.40265,-26.45615],[135.40195,-26.45587],[135.40031,-26.45493],[135.39727,-26.45349],[135.3957,-26.45252],[135.39506,-26.45225],[135.3936,-26.45152],[135.39287,-26.45128],[135.39184,-26.45083],[135.38843,-26.44916],[135.38718,-26.44868],[135.3869,-26.44843],[135.38665,-26.44832],[135.38596,-26.44825],[135.38564,-26.44815],[135.3851,-26.44772],[135.38476,-26.44757],[135.38304,-26.44714],[135.38044,-26.4457],[135.37997,-26.44531],[135.37952,-26.44486],[135.37894,-26.44452],[135.37461,-26.44265],[135.37392,-26.44231],[135.37278,-26.44186],[135.37195,-26.44158],[135.3703,-26.44132],[135.36987,-26.44135],[135.36905,-26.4415],[135.36826,-26.4415],[135.36755,-26.44158],[135.3669,-26.44137],[135.36648,-26.4413],[135.36607,-26.44128],[135.36568,-26.44132],[135.36504,-26.4415],[135.36472,-26.44147],[135.36437,-26.44137],[135.36405,-26.4412],[135.36379,-26.44096],[135.36317,-26.44023],[135.36175,-26.4389],[135.36053,-26.43815],[135.36032,-26.43789],[135.35967,-26.43656],[135.35946,-26.43624],[135.35914,-26.43598],[135.35558,-26.43437],[135.35304,-26.4333],[135.35197,-26.43278],[135.35038,-26.43214],[135.34708,-26.43066],[135.34673,-26.43053],[135.34637,-26.43051],[135.346,-26.43057],[135.34536,-26.43077],[135.34497,-26.43083],[135.34465,-26.43081],[135.34405,-26.43055],[135.34354,-26.43021],[135.34296,-26.42993],[135.34141,-26.42941],[135.33942,-26.42853],[135.33824,-26.42806],[135.337949,-26.427849],[135.33762,-26.42761],[135.33721,-26.42748],[135.33607,-26.42723],[135.33571,-26.42708],[135.3354,-26.42688],[135.33517,-26.42663],[135.334978,-26.426349],[135.33474,-26.426],[135.33425,-26.42549],[135.33268,-26.42407],[135.33242,-26.42377],[135.33163,-26.42263],[135.33139,-26.42246],[135.33103,-26.42231],[135.33071,-26.42225],[135.33038,-26.42233],[135.32989,-26.42304],[135.32959,-26.42328],[135.32916,-26.42339],[135.32884,-26.42341],[135.32824,-26.42328],[135.32796,-26.42311],[135.327912,-26.423063],[135.32607,-26.42122],[135.32328,-26.41791],[135.32259,-26.41688],[135.32232,-26.4163],[135.32193,-26.41575],[135.32135,-26.41525],[135.32051,-26.41442],[135.31858,-26.41229],[135.31558,-26.40879],[135.31511,-26.40802],[135.31446,-26.40611],[135.3139,-26.40495],[135.3135,-26.40444],[135.31146,-26.40249],[135.30775,-26.39982],[135.30693,-26.39912],[135.30594,-26.39807],[135.30539,-26.39757],[135.30395,-26.39646],[135.3024,-26.39555],[135.3,-26.39427],[135.29884,-26.39371],[135.298677,-26.393607],[135.2971,-26.39261],[135.29515,-26.39146],[135.29416,-26.39081],[135.2932,-26.3901],[135.292,-26.38912],[135.29092,-26.38804],[135.28886,-26.38521],[135.28863,-26.38493],[135.28811,-26.38446],[135.28755,-26.38405],[135.28616,-26.38315],[135.28127,-26.38015],[135.28073,-26.37978],[135.27783,-26.37721],[135.27633,-26.37498],[135.27586,-26.37416],[135.27532,-26.37337],[135.2738,-26.3715],[135.27367,-26.3712],[135.27247,-26.36983],[135.27159,-26.36863],[135.27125,-26.36809],[135.2709,-26.36723],[135.2708,-26.36659],[135.27058,-26.36633],[135.27039,-26.36596],[135.26994,-26.3647],[135.26962,-26.36408],[135.26775,-26.36184],[135.26721,-26.36114],[135.2668,-26.36051],[135.26616,-26.35901],[135.26513,-26.35498],[135.26356,-26.34994],[135.26271,-26.34646],[135.26251,-26.34582],[135.26228,-26.34521],[135.26161,-26.34373],[135.26108,-26.34262],[135.26086,-26.34228],[135.26011,-26.34191],[135.25975,-26.34178],[135.25936,-26.3417],[135.25897,-26.34172],[135.25859,-26.3418],[135.25728,-26.34238],[135.25657,-26.3424],[135.25537,-26.34195],[135.25236,-26.34094],[135.25142,-26.34043],[135.25114,-26.34024],[135.25088,-26.33998],[135.2503,-26.33966],[135.24936,-26.33925],[135.24812,-26.33882],[135.2473,-26.33833],[135.24539,-26.33747],[135.24483,-26.33704],[135.2435,-26.33571],[135.24297,-26.33526],[135.24095,-26.33386],[135.24039,-26.3335],[135.23977,-26.33318],[135.23927,-26.33273],[135.23908,-26.33243],[135.238988,-26.332131],[135.238843,-26.331954],[135.238719,-26.331928],[135.23831,-26.33195],[135.23717,-26.33187],[135.23571,-26.33161],[135.23344,-26.33135],[135.23157,-26.3309],[135.23078,-26.33047],[135.22998,-26.32957],[135.22932,-26.32923],[135.22857,-26.32895],[135.2281,-26.32856],[135.22668,-26.32721],[135.22473,-26.32562],[135.22421,-26.32539],[135.22376,-26.32498],[135.22243,-26.32419],[135.22097,-26.32365],[135.21936,-26.32348],[135.21919,-26.32346],[135.21715,-26.3229],[135.21642,-26.32283],[135.21477,-26.32245],[135.21271,-26.32206],[135.21074,-26.32153],[135.20906,-26.32135],[135.20799,-26.32129],[135.20754,-26.32138],[135.20657,-26.3214],[135.20629,-26.32148],[135.20514,-26.3214],[135.20404,-26.32125],[135.20284,-26.3214],[135.20198,-26.32142],[135.20151,-26.32105],[135.20147,-26.32095],[135.20106,-26.32028],[135.19992,-26.31962],[135.19941,-26.31908],[135.198652,-26.317657],[135.19816,-26.31597],[135.19808,-26.31487],[135.19808,-26.31397],[135.19823,-26.31296],[135.19814,-26.31211],[135.19842,-26.31114],[135.19838,-26.3105],[135.1982,-26.30998],[135.19747,-26.30917],[135.19711,-26.30889],[135.19655,-26.30867],[135.19623,-26.30869],[135.19524,-26.30889],[135.19469,-26.30921],[135.19338,-26.30938],[135.1929,-26.30917],[135.19198,-26.30814],[135.19104,-26.30747],[135.19035,-26.30711],[135.19003,-26.30683],[135.18943,-26.30655],[135.18913,-26.30648],[135.18775,-26.30586],[135.1873,-26.30571],[135.18647,-26.30582],[135.18554,-26.3058],[135.18514,-26.30565],[135.184,-26.30571],[135.18263,-26.30608],[135.18205,-26.30603],[135.18173,-26.30582],[135.18072,-26.305],[135.17896,-26.30425],[135.17801,-26.30391],[135.17692,-26.30324],[135.17653,-26.30281],[135.17514,-26.30211],[135.17445,-26.30211],[135.17409,-26.30219],[135.17321,-26.30249],[135.17278,-26.30249],[135.17256,-26.30241],[135.1722,-26.30202],[135.17138,-26.30151],[135.17085,-26.30125],[135.17033,-26.30075],[135.1696,-26.30058],[135.169,-26.30078],[135.16765,-26.30078],[135.16707,-26.30082],[135.16628,-26.30058],[135.16445,-26.3002],[135.16256,-26.29975],[135.16136,-26.29932],[135.16057,-26.29919],[135.15934,-26.29859],[135.15842,-26.29848],[135.15675,-26.29775],[135.15589,-26.29747],[135.15518,-26.29747],[135.15439,-26.29728],[135.15381,-26.29689],[135.15205,-26.29627],[135.15003,-26.29543],[135.14394,-26.2932],[135.14211,-26.29249],[135.14029,-26.29172],[135.13677,-26.29035],[135.13469,-26.28942],[135.13252,-26.28878],[135.12986,-26.28786],[135.12774,-26.28719],[135.12512,-26.28612],[135.12194,-26.28496],[135.11716,-26.28355],[135.11428,-26.28256],[135.11141,-26.28172],[135.10898,-26.28112],[135.10725,-26.28069],[135.10302,-26.27928],[135.10089,-26.27846],[135.09669,-26.27674],[135.0963,-26.27649],[135.09559,-26.27593],[135.09516,-26.27539],[135.09493,-26.27522],[135.09439,-26.27498],[135.094043,-26.274684],[135.09381,-26.27447],[135.093679,-26.274357]]}}]}
