{"type":"FeatureCollection","features":[{"type":"Feature","properties":{"tier":"regional"},"geometry":{"type":"LineString","coordinates":[[135.228621,-26.99998],[135.22827,-27.00302],[135.22805,-27.00418],[135.22807,-27.00485],[135.22816,-27.00512],[135.22848,-27.00566],[135.22988,-27.00751],[135.23046,-27.00839],[135.23176,-27.01062],[135.23226,-27.01167],[135.23301,-27.01306],[135.23363,-27.01457],[135.23558,-27.01815],[135.23816,-27.02323],[135.23904,-27.02551],[135.23938,-27.02667],[135.23953,-27.02703],[135.2397,-27.02742],[135.24037,-27.02843],[135.24071,-27.02909],[135.24123,-27.03087],[135.24179,-27.03317],[135.24221,-27.03463],[135.24542,-27.044762]]}},{"type":"Feature","properties":{"tier":"arterial"},"geometry":{"type":"LineString","coordinates":[[135.401734,-27.484762],[135.401402,-27.484598],[135.392651,-27.48026],[135.388067,-27.477868],[135.384082,-27.475033],[135.378715,-27.471716],[135.377625,-27.470741],[135.3767,-27.469653],[135.375926,-27.468445],[135.375649,-27.46772],[135.37539,-27.466979],[135.374573,-27.464286],[135.373411,-27.460842],[135.37238,-27.457423],[135.371613,-27.454652],[135.371332,-27.453805],[135.37092,-27.452804],[135.369955,-27.450854],[135.36902,-27.449009],[135.368608,-27.448064],[135.368253,-27.447126],[135.366836,-27.4433],[135.366449,-27.442362],[135.366005,-27.441496],[135.36499,-27.439669],[135.355265,-27.421622],[135.354917,-27.42111],[135.354638,-27.420809],[135.354012,-27.420303],[135.353323,-27.419884],[135.352413,-27.419621],[135.349456,-27.418868],[135.344025,-27.41746],[135.338985,-27.416166],[135.33821,-27.415989],[135.336952,-27.415854],[135.334933,-27.415733],[135.328891,-27.41542],[135.31992,-27.414958],[135.316878,-27.414777],[135.313139,-27.414596],[135.311309,-27.414425],[135.310253,-27.414123],[135.309298,-27.413631],[135.308223,-27.412786],[135.306282,-27.411128],[135.303783,-27.409093],[135.302738,-27.408147],[135.301544,-27.406719],[135.299432,-27.404287],[135.298402,-27.403136],[135.297826,-27.402589],[135.296454,-27.401359],[135.294726,-27.399653],[135.293824,-27.398736],[135.290348,-27.39511],[135.289536,-27.394263],[135.288978,-27.393744],[135.288327,-27.393261],[135.28756,-27.392823],[135.286657,-27.392315],[135.283757,-27.390794],[135.282936,-27.390414],[135.282488,-27.390264],[135.28178,-27.390087],[135.281169,-27.390008],[135.275347,-27.389299],[135.270703,-27.388766],[135.266199,-27.388304],[135.263681,-27.388072],[135.261635,-27.387891],[135.260594,-27.387781],[135.259584,-27.387625],[135.258262,-27.387313],[135.255573,-27.386695],[135.254296,-27.386409],[135.25311,-27.386047],[135.251778,-27.385559],[135.248968,-27.384524],[135.244861,-27.383001],[135.240297,-27.381382],[135.239212,-27.381116],[135.238156,-27.38098],[135.235452,-27.380553],[135.231828,-27.380055],[135.227163,-27.379382],[135.223202,-27.378834],[135.222463,-27.378678],[135.221604,-27.378452],[135.220734,-27.3781],[135.219141,-27.377371],[135.216839,-27.376325],[135.210113,-27.373244],[135.203147,-27.370012],[135.201206,-27.369112],[135.198417,-27.367836],[135.195551,-27.366524],[135.192752,-27.365217],[135.188082,-27.363081],[135.184076,-27.361196],[135.182568,-27.360492],[135.181901,-27.360088],[135.18104,-27.359247],[135.180179,-27.358612],[135.179114,-27.35812],[135.17481,-27.356849],[135.170731,-27.355599],[135.169481,-27.355169],[135.160445,-27.351335],[135.157928,-27.350242],[135.156174,-27.34969],[135.154796,-27.349299],[135.152446,-27.348565],[135.151416,-27.348155],[135.150601,-27.347717],[135.149528,-27.347069],[135.147758,-27.34604],[135.145193,-27.344505],[135.141717,-27.342428],[135.1397,-27.341227],[135.136342,-27.339226],[135.134432,-27.338072],[135.13234,-27.336824],[135.130098,-27.33547],[135.124514,-27.33213],[135.123714,-27.331677],[135.123087,-27.331282],[135.12211,-27.3306],[135.118489,-27.327798],[135.11438,-27.324624],[135.111398,-27.322355],[135.110936,-27.322031],[135.110357,-27.321731],[135.109579,-27.321412],[135.10864,-27.321202],[135.103179,-27.320344],[135.09966,-27.31981],[135.092686,-27.318743],[135.085541,-27.317637],[135.080627,-27.316855],[135.075032,-27.315964],[135.066835,-27.314696],[135.062823,-27.314062],[135.060409,-27.313667],[135.058483,-27.313366],[135.057351,-27.313171],[135.056718,-27.313004],[135.055795,-27.312647],[135.054867,-27.312261],[135.054105,-27.311951],[135.052636,-27.311288],[135.051482,-27.310597],[135.049599,-27.309406],[135.048012,-27.308424],[135.046601,-27.307513],[135.045957,-27.307032],[135.04556,-27.306641],[135.04519,-27.306183],[135.044981,-27.305892],[135.043275,-27.302675],[135.042899,-27.301974],[135.042518,-27.301445],[135.04202,-27.300906],[135.041569,-27.300511],[135.040968,-27.300106],[135.04041,-27.299791],[135.038752,-27.299162],[135.035759,-27.298027],[135.031124,-27.296283],[135.026929,-27.294719],[135.023153,-27.29327],[135.01884,-27.291735],[135.016866,-27.291372],[135.011346,-27.290538],[135.007607,-27.289923],[135.000188,-27.288769],[134.99998,-27.288734]]}},{"type":"Feature","properties":{"tier":"arterial"},"geometry":{"type":"LineString","coordinates":[[135.416984,-27.50002],[135.416012,-27.497876],[135.414829,-27.49557],[135.414342,-27.494987],[135.414171,-27.494783],[135.413818,-27.49436],[135.412604,-27.493264],[135.408556,-27.490002],[135.405511,-27.48753],[135.403972,-27.4862],[135.403262,-27.485587],[135.401734,-27.484762]]}},{"type":"Feature","properties":{"tier":"regional"},"geometry":{"type":"LineString","coordinates":[[135.354638,-27.420809],[135.354589,-27.420608],[135.35465,-27.420389],[135.354793,-27.42015],[135.355568,-27.41908],[135.355848,-27.418588],[135.355939,-27.418333],[135.355959,-27.417929],[135.355427,-27.41634],[135.355081,-27.415059],[135.35418,-27.412488],[135.352822,-27.409159],[135.352328,-27.407779],[135.35129,-27.405285],[135.35088,-27.404644],[135.349361,-27.402707],[135.348275,-27.40116],[135.344699,-27.395719],[135.343736,-27.393848],[135.341822,-27.390687],[135.339128,-27.385586],[135.337152,-27.381716],[135.33415,-27.376243],[135.333639,-27.375435],[135.333046,-27.374656],[135.330656,-27.371774],[135.329364,-27.370559],[135.327407,-27.368316],[135.326433,-27.366908],[135.324767,-27.364652],[135.320308,-27.358947],[135.31877,-27.356844],[135.318113,-27.355775],[135.316391,-27.352661],[135.315668,-27.351179],[135.312506,-27.343166],[135.311832,-27.341407],[135.311032,-27.339128],[135.310776,-27.338253],[135.310529,-27.337012],[135.310305,-27.334857],[135.310131,-27.334147],[135.309755,-27.333098],[135.309228,-27.331869],[135.30837,-27.330381],[135.307662,-27.328821],[135.306519,-27.32659],[135.305884,-27.325192],[135.304474,-27.321661],[135.303768,-27.320168],[135.302601,-27.317989],[135.302364,-27.317468],[135.302113,-27.316726],[135.301438,-27.313848],[135.301144,-27.311815],[135.300883,-27.310751],[135.300545,-27.309134],[135.299985,-27.306455],[135.299313,-27.304425],[135.298316,-27.301926],[135.297873,-27.300623],[135.296498,-27.295871],[135.295903,-27.293531],[135.294621,-27.286256],[135.293355,-27.277146],[135.293102,-27.276041],[135.292607,-27.274394],[135.292188,-27.272779],[135.292058,-27.272463],[135.291862,-27.272169],[135.291219,-27.271278],[135.290968,-27.271011],[135.289106,-27.269529],[135.287341,-27.268237],[135.286757,-27.267684],[135.286422,-27.267232],[135.285885,-27.265866],[135.285774,-27.265361],[135.285689,-27.263354],[135.285788,-27.260606],[135.285799,-27.255173],[135.28586,-27.253475],[135.285746,-27.251791],[135.285834,-27.243274],[135.285837,-27.242946],[135.2857,-27.23959],[135.285724,-27.237707],[135.285748,-27.23586],[135.285652,-27.231549],[135.285655,-27.229411],[135.285732,-27.228571],[135.286598,-27.223617],[135.286215,-27.219235],[135.286137,-27.217044],[135.286157,-27.213076],[135.286309,-27.211257],[135.286448,-27.206373],[135.286564,-27.204963],[135.286668,-27.202382],[135.28682,-27.20062],[135.287021,-27.196221],[135.287063,-27.194997],[135.287004,-27.194382],[135.286869,-27.193915],[135.286051,-27.19193],[135.285712,-27.190913],[135.285644,-27.190555],[135.285604,-27.189162],[135.285523,-27.188448],[135.285324,-27.187717],[135.284968,-27.186813],[135.284685,-27.186291],[135.284289,-27.185845],[135.283761,-27.185547],[135.282719,-27.18512],[135.282448,-27.184928],[135.282128,-27.184525],[135.281955,-27.18404],[135.281628,-27.181717],[135.281459,-27.181041],[135.281275,-27.180747],[135.280804,-27.18029],[135.280509,-27.179885],[135.280203,-27.179275],[135.280005,-27.178632],[135.27976,-27.175113],[135.279749,-27.174031],[135.279804,-27.173119],[135.279924,-27.172393],[135.28052,-27.169856],[135.280718,-27.168065],[135.281185,-27.166328],[135.281266,-27.164882],[135.281387,-27.164001],[135.281374,-27.163471],[135.281219,-27.162544],[135.281058,-27.1618],[135.280933,-27.161463],[135.280734,-27.161161],[135.280453,-27.16093],[135.28012,-27.160758],[135.27956,-27.160589],[135.279021,-27.160366],[135.27877,-27.160204],[135.278687,-27.1601],[135.278551,-27.159737],[135.278441,-27.158592],[135.278131,-27.156893],[135.278063,-27.156707],[135.277964,-27.156527],[135.277932,-27.156468],[135.277695,-27.156286],[135.277078,-27.156105],[135.275154,-27.156052],[135.272159,-27.15575],[135.269944,-27.155812],[135.268772,-27.155648],[135.268297,-27.155432],[135.26805,-27.155216],[135.267851,-27.154954],[135.267584,-27.154356],[135.267388,-27.153539],[135.267331,-27.153012],[135.267397,-27.152251],[135.267822,-27.149868],[135.26831,-27.146493],[135.268584,-27.145121],[135.268987,-27.141402],[135.269051,-27.140808],[135.26905,-27.140254],[135.269049,-27.13851],[135.268965,-27.137282],[135.268269,-27.132674],[135.267955,-27.130193],[135.26792,-27.129355],[135.268143,-27.125671],[135.268564,-27.123554],[135.26884,-27.121621],[135.269452,-27.114265],[135.269589,-27.110802],[135.269532,-27.109195],[135.26911,-27.107004],[135.268611,-27.103734],[135.268436,-27.101572],[135.26836,-27.097653],[135.268138,-27.09479],[135.267942,-27.093836],[135.267649,-27.093078],[135.26719,-27.092141],[135.264862,-27.08794],[135.263789,-27.086322],[135.262277,-27.084412],[135.261817,-27.083966],[135.259949,-27.082454],[135.254702,-27.07852],[135.25408,-27.077939],[135.253567,-27.077273],[135.252232,-27.075195],[135.251927,-27.074501],[135.251538,-27.073359],[135.250991,-27.071536],[135.250469,-27.067858],[135.250119,-27.063702],[135.25004,-27.061338],[135.249852,-27.058391],[135.249701,-27.057506],[135.248757,-27.054519],[135.24805,-27.052569],[135.24542,-27.044762]]}}]}
