{"type":"FeatureCollection","features":[{"type":"Feature","properties":{"tier":"regional"},"geometry":{"type":"LineString","coordinates":[[135.553026,-26.410611],[135.553055,-26.4104],[135.553031,-26.409934],[135.553022,-26.409571],[135.553077,-26.409194],[135.553173,-26.408838],[135.553334,-26.408471],[135.553648,-26.407937],[135.554107,-26.407322],[135.555483,-26.405581],[135.556041,-26.404776],[135.556419,-26.404272],[135.556802,-26.403865],[135.557186,-26.403495],[135.557637,-26.403183],[135.557894,-26.402969],[135.558087,-26.402732],[135.558774,-26.401756],[135.559082,-26.401307],[135.559281,-26.401026],[135.55964,-26.400711],[135.55993,-26.400452],[135.560327,-26.399856],[135.56056,-26.399481],[135.56074,-26.399197],[135.560855,-26.39908],[135.561048,-26.398953],[135.561252,-26.398842],[135.561448,-26.398659],[135.561641,-26.398395],[135.561874,-26.398076],[135.56214,-26.397823],[135.562679,-26.397398],[135.563004,-26.397067],[135.563258,-26.396776],[135.563425,-26.396507],[135.563771,-26.395858],[135.564189,-26.395135],[135.56435,-26.394846],[135.564565,-26.394436],[135.564999,-26.39335],[135.565155,-26.392965],[135.565475,-26.392231],[135.565616,-26.391781],[135.565858,-26.391211],[135.56648,-26.389847],[135.566552,-26.389554],[135.566815,-26.388556],[135.566987,-26.387807],[135.567027,-26.387477],[135.567016,-26.387194],[135.566912,-26.386704],[135.566807,-26.38623],[135.56667,-26.385966],[135.565911,-26.384561],[135.56571,-26.384092],[135.565544,-26.383566],[135.56549,-26.383244],[135.565471,-26.38291],[135.565469,-26.382218],[135.56549,-26.381795],[135.565466,-26.381329],[135.565509,-26.380865],[135.56563,-26.380156],[135.56571,-26.379512],[135.565796,-26.378453],[135.565847,-26.37789],[135.565882,-26.377583],[135.565866,-26.377388],[135.565799,-26.377155],[135.565726,-26.376871],[135.565667,-26.37647],[135.565654,-26.376162],[135.565664,-26.375737],[135.565616,-26.375425],[135.565453,-26.374745],[135.565209,-26.374089],[135.565053,-26.373812],[135.564766,-26.373558],[135.564627,-26.373368],[135.564573,-26.373123],[135.564592,-26.372813],[135.564624,-26.372471],[135.564592,-26.37226],[135.564163,-26.370386],[135.564069,-26.369754],[135.563995,-26.368967],[135.563812,-26.367878],[135.563818,-26.367772],[135.563858,-26.367659],[135.563912,-26.367528],[135.563981,-26.367436],[135.564034,-26.367383],[135.564118,-26.367314],[135.56424,-26.367237],[135.564609,-26.367064],[135.564834,-26.366912],[135.564989,-26.366775],[135.565323,-26.36643],[135.565599,-26.366074],[135.565899,-26.365731],[135.566181,-26.365484],[135.566399,-26.365228],[135.566556,-26.365031],[135.566653,-26.364869],[135.566769,-26.364605],[135.567014,-26.364016],[135.567128,-26.363803],[135.567287,-26.363582],[135.567427,-26.363433],[135.567775,-26.363138],[135.568416,-26.362578],[135.56877,-26.362311],[135.568938,-26.362192],[135.569118,-26.362106],[135.569308,-26.362043],[135.569529,-26.361992],[135.569796,-26.361971],[135.570063,-26.361977],[135.570317,-26.361984],[135.57051,-26.362006],[135.570694,-26.36204],[135.57106,-26.362117],[135.571596,-26.362269],[135.572922,-26.362642],[135.573384,-26.362751],[135.573666,-26.362811],[135.574025,-26.362852],[135.574317,-26.362864],[135.574658,-26.362854],[135.575157,-26.362825],[135.575739,-26.362755],[135.580708,-26.362134],[135.580941,-26.362115],[135.581197,-26.362105],[135.581393,-26.362114],[135.581582,-26.362138],[135.581801,-26.362176],[135.582069,-26.362262],[135.582479,-26.36243],[135.584413,-26.363253],[135.585486,-26.363726],[135.586816,-26.364342],[135.587621,-26.364671],[135.588731,-26.365106],[135.590738,-26.365901],[135.59188,-26.366346],[135.592851,-26.366675],[135.593535,-26.366901],[135.594018,-26.36706],[135.594305,-26.367139],[135.594659,-26.367197],[135.595011,-26.367221],[135.596258,-26.367218],[135.597071,-26.367213],[135.597583,-26.367206],[135.59784,-26.367235],[135.598146,-26.367283],[135.598374,-26.367321],[135.598556,-26.367314],[135.598817,-26.367273],[135.599112,-26.367209],[135.599329,-26.36717],[135.599659,-26.367153],[135.600225,-26.36717],[135.60096,-26.367197],[135.60167,-26.367144],[135.602392,-26.367088],[135.60481,-26.366751],[135.604958,-26.366721],[135.605124,-26.366702],[135.605239,-26.366706],[135.605313,-26.366724],[135.605432,-26.366774],[135.605539,-26.366825],[135.605665,-26.366911],[135.605849,-26.367036],[135.606062,-26.367144],[135.606406,-26.367284],[135.606808,-26.367467],[135.60727,-26.367641],[135.608228,-26.367932],[135.609028,-26.368206],[135.609649,-26.368408],[135.610111,-26.36858],[135.610621,-26.368792],[135.611628,-26.369262],[135.611797,-26.369331],[135.612027,-26.369393],[135.612201,-26.369432],[135.612497,-26.369461],[135.612878,-26.369457],[135.61374,-26.369439],[135.614207,-26.369415],[135.614572,-26.369386],[135.614832,-26.369393],[135.615092,-26.369427],[135.615401,-26.369467],[135.615878,-26.369494],[135.616331,-26.369516],[135.616546,-26.369523],[135.616747,-26.369487],[135.617171,-26.369338],[135.617576,-26.369177],[135.618027,-26.369037],[135.618641,-26.368843],[135.618971,-26.368701],[135.619209,-26.368614],[135.61951,-26.368537],[135.619762,-26.368458],[135.620068,-26.368408],[135.62043,-26.368353],[135.620832,-26.368276],[135.622093,-26.367944],[135.623547,-26.367547],[135.624163,-26.367374],[135.624381,-26.367281],[135.624587,-26.36717],[135.624745,-26.367062],[135.625041,-26.366829],[135.625282,-26.366622],[135.625641,-26.366288],[135.625942,-26.365945],[135.626277,-26.365512],[135.626494,-26.365269],[135.626671,-26.365094],[135.626991,-26.364844],[135.627261,-26.364707],[135.62912,-26.363726],[135.629606,-26.363472],[135.629957,-26.363284],[135.630172,-26.3632],[135.630359,-26.363159],[135.630475,-26.363109],[135.630577,-26.363015],[135.630681,-26.362926],[135.630772,-26.362876],[135.630949,-26.362828],[135.631062,-26.362803],[135.631236,-26.362787],[135.631467,-26.362815],[135.631912,-26.362907],[135.632454,-26.363029],[135.633047,-26.363154],[135.633672,-26.363311],[135.634544,-26.36364],[135.663223,-26.374533],[135.664276,-26.374912],[135.66478,-26.375007],[135.665298,-26.375069],[135.665775,-26.375016],[135.669388,-26.374542],[135.67041,-26.374474],[135.671143,-26.37455],[135.672409,-26.374777],[135.674026,-26.375126],[135.675186,-26.375286],[135.676346,-26.375347],[135.678558,-26.375275],[135.679138,-26.375122],[135.680801,-26.374989],[135.68158,-26.374855],[135.682388,-26.37491],[135.68306,-26.37487],[135.684952,-26.374567],[135.686371,-26.374205],[135.688354,-26.373796],[135.691605,-26.373039],[135.694611,-26.372509],[135.697388,-26.37195],[135.701508,-26.371296],[135.702805,-26.371035],[135.705391,-26.370313],[135.705673,-26.370241],[135.706043,-26.370181],[135.706408,-26.370116],[135.70662,-26.37009],[135.706802,-26.370095],[135.707006,-26.370157],[135.707317,-26.370263],[135.707993,-26.370443],[135.708267,-26.37052],[135.708422,-26.370575],[135.708581,-26.370672],[135.708782,-26.370864],[135.71059,-26.372676],[135.711172,-26.373171],[135.711777,-26.373789],[135.711915,-26.374019],[135.712341,-26.374573],[135.712647,-26.374891],[135.71299,-26.375276],[135.713079,-26.375368],[135.713213,-26.375473],[135.713379,-26.375567],[135.71357,-26.375636],[135.713849,-26.375707],[135.714282,-26.375789],[135.714601,-26.375857],[135.715006,-26.375971],[135.715886,-26.376192],[135.716721,-26.376359],[135.7173,-26.376472],[135.71807,-26.376621],[135.720581,-26.377197],[135.720798,-26.377263],[135.721034,-26.377354],[135.721155,-26.377407],[135.721237,-26.37746],[135.721316,-26.377573],[135.721405,-26.377829],[135.721471,-26.378082],[135.721702,-26.378486],[135.721855,-26.378779],[135.721949,-26.37907],[135.721994,-26.37932],[135.721976,-26.379587],[135.721954,-26.379913],[135.721962,-26.380065],[135.722035,-26.380223],[135.72215,-26.380408],[135.722303,-26.380603],[135.722582,-26.380865],[135.723343,-26.381485],[135.72377,-26.381848],[135.724298,-26.382218],[135.724779,-26.382494],[135.725272,-26.382718],[135.72557,-26.38285],[135.725953,-26.382953],[135.726305,-26.382994],[135.726929,-26.382998]]}},{"type":"Feature","properties":{"tier":"regional"},"geometry":{"type":"LineString","coordinates":[[135.49998,-26.424333],[135.500412,-26.424183],[135.501068,-26.423864],[135.501663,-26.423409]]}},{"type":"Feature","properties":{"tier":"regional"},"geometry":{"type":"LineString","coordinates":[[135.501663,-26.423409],[135.501801,-26.423431],[135.502487,-26.423828],[135.503067,-26.424248],[135.503567,-26.424564],[135.504089,-26.424894]]}},{"type":"Feature","properties":{"tier":"regional"},"geometry":{"type":"LineString","coordinates":[[135.726929,-26.382998],[135.727068,-26.382982],[135.727288,-26.382925],[135.728149,-26.382627],[135.730972,-26.381868],[135.737457,-26.379892],[135.746155,-26.377705],[135.751343,-26.375961],[135.754562,-26.374983],[135.755173,-26.374954],[135.755875,-26.375042],[135.757187,-26.375338],[135.758087,-26.375603],[135.760223,-26.376667],[135.763824,-26.378109],[135.764481,-26.378263],[135.764816,-26.378284],[135.765366,-26.378212],[135.766006,-26.37804],[135.769165,-26.376593],[135.775772,-26.373886],[135.778915,-26.372437],[135.779907,-26.371923],[135.780746,-26.37138],[135.78157,-26.370779],[135.78244,-26.370235],[135.78717,-26.36754],[135.790771,-26.365589],[135.792526,-26.364775],[135.792984,-26.364517],[135.794571,-26.364323],[135.795227,-26.364136],[135.797363,-26.363306],[135.798203,-26.3629],[135.80069,-26.361338],[135.802826,-26.359865],[135.803406,-26.359385],[135.8069,-26.356297],[135.808624,-26.355282],[135.809418,-26.354898],[135.810379,-26.354534],[135.812393,-26.35396],[135.817169,-26.352894],[135.823807,-26.352118],[135.825363,-26.352079],[135.828033,-26.352795],[135.829666,-26.353302],[135.831207,-26.35388],[135.833008,-26.354416],[135.834091,-26.35466],[135.835876,-26.355],[135.837479,-26.354918],[135.838364,-26.354475],[135.839172,-26.35383],[135.840851,-26.353056],[135.841675,-26.35277],[135.844772,-26.351917],[135.848434,-26.350986],[135.848801,-26.350836],[135.852112,-26.348312],[135.852921,-26.347811],[135.853958,-26.347307],[135.855499,-26.346865],[135.856323,-26.346684],[135.857147,-26.34638],[135.860931,-26.343792],[135.862259,-26.343063],[135.863159,-26.342636],[135.864212,-26.342175],[135.867233,-26.341311],[135.86763,-26.34107],[135.86972,-26.339304],[135.870163,-26.339022],[135.870514,-26.338865],[135.872086,-26.33857],[135.874847,-26.338129],[135.877121,-26.337612],[135.879105,-26.33724],[135.881317,-26.336674],[135.884201,-26.335739],[135.892395,-26.332319],[135.894211,-26.331717],[135.895554,-26.331367],[135.896362,-26.331331],[135.898376,-26.331419],[135.903915,-26.331879],[135.907761,-26.332058],[135.909134,-26.332064],[135.91304,-26.332298],[135.91478,-26.332438],[135.920059,-26.332975],[135.924423,-26.333508],[135.928909,-26.333752],[135.930069,-26.33391],[135.931076,-26.333994],[135.934952,-26.33411],[135.936096,-26.334211],[135.939804,-26.334654],[135.94281,-26.334858],[135.944672,-26.335062],[135.946594,-26.335428],[135.94717,-26.335494],[135.948456,-26.33564],[135.949722,-26.335836],[135.950798,-26.336009],[135.954483,-26.336725],[135.954987,-26.336765],[135.957047,-26.336752],[135.958405,-26.336924],[135.960312,-26.337231],[135.962784,-26.337814],[135.964447,-26.338072],[135.967133,-26.338057],[135.969116,-26.337765],[135.970474,-26.337454],[135.971268,-26.337215],[135.971909,-26.336922],[135.972916,-26.33637],[135.977356,-26.333824],[135.982056,-26.330904],[135.98317,-26.330324],[135.983841,-26.32979],[135.984467,-26.328995],[135.985321,-26.327587],[135.986252,-26.326324],[135.986298,-26.326096],[135.986237,-26.325729],[135.985809,-26.324303],[135.985229,-26.322535],[135.985107,-26.321615],[135.985153,-26.321083],[135.985321,-26.320713],[135.985626,-26.320404],[135.986008,-26.32019],[135.986435,-26.320042],[135.987015,-26.319921],[135.987259,-26.31978],[135.987808,-26.319338],[135.988068,-26.318756],[135.98819,-26.318264],[135.988235,-26.31781],[135.988266,-26.31673],[135.988373,-26.315741],[135.988174,-26.314877],[135.988235,-26.314566],[135.988953,-26.313351],[135.989441,-26.312725],[135.990005,-26.312122],[135.99118,-26.311169],[135.994308,-26.309065],[135.995605,-26.308334],[135.997894,-26.307238],[136.00002,-26.305971]]}},{"type":"Feature","properties":{"tier":"regional"},"geometry":{"type":"LineString","coordinates":[[135.504089,-26.424894],[135.504242,-26.425188],[135.504333,-26.425652],[135.504333,-26.426556],[135.504395,-26.427513],[135.504532,-26.428482],[135.504715,-26.428877],[135.504791,-26.428951],[135.50499,-26.429049],[135.505219,-26.429071],[135.508667,-26.429012],[135.509018,-26.428957],[135.509323,-26.428801],[135.509537,-26.42852],[135.510162,-26.427181],[135.511368,-26.424177],[135.511627,-26.423866],[135.512375,-26.423508],[135.512665,-26.423264],[135.512787,-26.42305],[135.512939,-26.422304],[135.513168,-26.421989],[135.513397,-26.421854],[135.513672,-26.421806],[135.515564,-26.42194],[135.516159,-26.421934],[135.517258,-26.422176],[135.521194,-26.422478],[135.521744,-26.422432],[135.522354,-26.422203],[135.52327,-26.422091],[135.523987,-26.421824],[135.524414,-26.421738],[135.524734,-26.421606],[135.525406,-26.421497],[135.525955,-26.421247],[135.526123,-26.421326],[135.526276,-26.421553],[135.526428,-26.42168],[135.526733,-26.42177],[135.527069,-26.421745],[135.527557,-26.421499],[135.527802,-26.421301],[135.528152,-26.421108],[135.528687,-26.420649],[135.529938,-26.420424],[135.530975,-26.420101],[135.531357,-26.419853],[135.532196,-26.419189],[135.533218,-26.418083],[135.53334,-26.417885],[135.53363,-26.417126],[135.535095,-26.414759],[135.536728,-26.412689],[135.536911,-26.41254],[135.537247,-26.412365],[135.538269,-26.411978],[135.540436,-26.411865],[135.543472,-26.411961],[135.545547,-26.412094],[135.546234,-26.412029],[135.548386,-26.41157],[135.549332,-26.41131],[135.55043,-26.411116],[135.551038,-26.411008],[135.55161,-26.410875],[135.55217,-26.410775],[135.552709,-26.410671],[135.553026,-26.410611]]}}]}
