{"type":"FeatureCollection","features":[{"type":"Feature","properties":{"tier":"arterial"},"geometry":{"type":"LineString","coordinates":[[135.596244,-28.99998],[135.594699,-29.000953],[135.594593,-29.001023],[135.594496,-29.001086],[135.594074,-29.001365],[135.593659,-29.001638],[135.592612,-29.002333],[135.592389,-29.002481],[135.592017,-29.002726],[135.591528,-29.003103],[135.591099,-29.003478],[135.590605,-29.004013],[135.589154,-29.005735],[135.589088,-29.005813],[135.588305,-29.006743],[135.587983,-29.00708],[135.587655,-29.007428],[135.587307,-29.007718],[135.586921,-29.00799],[135.581868,-29.011162],[135.580183,-29.012213],[135.579368,-29.012682],[135.57866,-29.013066],[135.577898,-29.013442],[135.576872,-29.013987],[135.57596,-29.014494],[135.570742,-29.018011],[135.565811,-29.021324],[135.563511,-29.022842],[135.562813,-29.02333],[135.56232,-29.023687],[135.561837,-29.024081],[135.561133,-29.02472],[135.556324,-29.029222],[135.556054,-29.029475],[135.553565,-29.031828],[135.549703,-29.035479],[135.548194,-29.036859],[135.547729,-29.037317],[135.547347,-29.037721],[135.547057,-29.038106],[135.546774,-29.038574],[135.544928,-29.042739],[135.541671,-29.05015],[135.538871,-29.056537],[135.538244,-29.057905],[135.537847,-29.058843],[135.537558,-29.059621],[135.537283,-29.060682],[135.535963,-29.066515],[135.535798,-29.067264],[135.535481,-29.068071],[135.535047,-29.068736],[135.534446,-29.069449],[135.533899,-29.069955],[135.533245,-29.070358],[135.532655,-29.070649],[135.532,-29.070893],[135.531024,-29.071174],[135.526372,-29.072469],[135.512753,-29.076191],[135.511036,-29.07666],[135.51006,-29.076931],[135.509362,-29.07711],[135.508957,-29.077148],[135.508568,-29.077185],[135.507592,-29.077194],[135.503343,-29.077213],[135.503141,-29.077217],[135.501159,-29.077261],[135.500414,-29.077306],[135.49998,-29.077355]]}}]}
