{"type":"FeatureCollection","features":[{"type":"Feature","properties":{"tier":"arterial"},"geometry":{"type":"LineString","coordinates":[[135.756903,-33.572544],[135.756885,-33.572803],[135.756889,-33.573068],[135.756918,-33.573355],[135.757043,-33.574097],[135.75708,-33.574382],[135.757091,-33.574667],[135.757075,-33.574958],[135.757044,-33.57537]]}},{"type":"Feature","properties":{"tier":"arterial"},"geometry":{"type":"LineString","coordinates":[[135.757059,-33.570984],[135.75717,-33.571007],[135.757431,-33.57103],[135.757859,-33.571064],[135.758672,-33.571117]]}},{"type":"Feature","properties":{"tier":"arterial"},"geometry":{"type":"LineString","coordinates":[[135.746818,-33.575525],[135.74291,-33.577029],[135.741181,-33.577717],[135.739162,-33.578502],[135.73848,-33.578768],[135.732233,-33.581213],[135.731192,-33.581615],[135.730658,-33.581802],[135.730229,-33.581952],[135.729669,-33.582089],[135.728711,-33.582222],[135.728569,-33.582227],[135.728204,-33.58224],[135.72698,-33.582258],[135.721431,-33.582293],[135.714823,-33.582326],[135.713741,-33.582339],[135.712661,-33.582344],[135.702467,-33.582405],[135.701721,-33.582409],[135.701381,-33.582406],[135.700997,-33.582404],[135.689855,-33.582478],[135.68396,-33.582503],[135.683889,-33.582503],[135.678993,-33.582527],[135.678401,-33.582545],[135.677328,-33.582556],[135.675355,-33.582561],[135.674918,-33.582562],[135.673284,-33.582564],[135.672927,-33.582577],[135.672583,-33.582595],[135.672292,-33.582622],[135.671965,-33.582661],[135.671644,-33.582717],[135.669519,-33.58313],[135.66775,-33.583468],[135.666671,-33.583669],[135.666297,-33.583718],[135.665998,-33.583743],[135.665409,-33.583714],[135.664958,-33.58368],[135.664579,-33.583633],[135.66418,-33.583571],[135.663478,-33.583449],[135.662193,-33.583219],[135.660791,-33.582976],[135.659773,-33.582795],[135.659324,-33.582716],[135.658952,-33.582659],[135.658693,-33.582634],[135.658408,-33.582618],[135.65793,-33.582607],[135.65749,-33.582608],[135.656971,-33.582612],[135.656573,-33.582618],[135.656227,-33.582622],[135.654657,-33.582631],[135.652909,-33.58265],[135.651629,-33.582668],[135.649784,-33.582666],[135.648156,-33.58267],[135.646058,-33.582693],[135.644482,-33.582696],[135.642468,-33.582703],[135.640951,-33.582713],[135.639588,-33.582721],[135.638744,-33.582721],[135.638602,-33.582721],[135.63777,-33.582732],[135.636944,-33.582669],[135.636392,-33.582603],[135.635846,-33.582519],[135.635013,-33.58236],[135.634284,-33.582175],[135.633743,-33.58202],[135.633074,-33.581795],[135.629795,-33.580563],[135.625631,-33.578977],[135.620648,-33.577073],[135.619003,-33.576483],[135.617398,-33.575935],[135.615735,-33.575329],[135.614846,-33.574993],[135.602496,-33.570324],[135.597119,-33.568292],[135.596083,-33.5679],[135.595405,-33.567624],[135.594961,-33.567421],[135.594576,-33.567215],[135.594133,-33.566971],[135.5936,-33.566639],[135.592491,-33.565935],[135.589268,-33.563897],[135.587376,-33.562703],[135.586824,-33.562364],[135.58676,-33.562323],[135.586464,-33.562167],[135.585932,-33.561918],[135.585434,-33.561729],[135.584976,-33.561585],[135.58411,-33.561354],[135.576935,-33.55948],[135.576056,-33.55923],[135.57531,-33.559001],[135.571066,-33.55758],[135.5659,-33.555833],[135.564453,-33.55534],[135.563446,-33.554983],[135.561231,-33.554189],[135.559003,-33.553366],[135.556837,-33.552555],[135.555604,-33.552082],[135.555033,-33.551816],[135.554795,-33.551688],[135.554642,-33.551604],[135.55428,-33.551378],[135.553945,-33.551133],[135.553568,-33.550828],[135.55231,-33.549599],[135.551945,-33.549293],[135.551643,-33.549069],[135.549025,-33.547239],[135.545806,-33.544952],[135.545582,-33.544802],[135.545224,-33.544593],[135.545029,-33.544487],[135.544617,-33.544289],[135.537871,-33.541586],[135.537089,-33.541298],[135.536701,-33.541179],[135.536054,-33.541006],[135.531967,-33.5401],[135.531389,-33.539944],[135.529712,-33.539449],[135.529337,-33.539361],[135.528915,-33.53928],[135.509417,-33.536074],[135.506362,-33.535561],[135.50586,-33.535445],[135.50543,-33.535322],[135.504986,-33.535156],[135.504496,-33.53495],[135.503942,-33.534661],[135.502599,-33.533817],[135.502314,-33.533658],[135.502051,-33.533529],[135.501806,-33.533425],[135.50157,-33.533334],[135.500971,-33.533149],[135.50043,-33.533022],[135.500121,-33.532972],[135.49998,-33.532956]]}},{"type":"Feature","properties":{"tier":"arterial"},"geometry":{"type":"LineString","coordinates":[[135.703121,-33.860647],[135.702362,-33.860882],[135.67897,-33.866593],[135.671889,-33.868305],[135.671641,-33.868336],[135.670819,-33.868355],[135.670635,-33.868346],[135.67039,-33.868318],[135.669865,-33.868209],[135.666661,-33.867463],[135.661519,-33.866231],[135.660301,-33.865954],[135.659776,-33.865851],[135.659474,-33.865813],[135.659158,-33.865809],[135.658565,-33.865857],[135.656977,-33.866058],[135.655736,-33.866244],[135.653022,-33.86673],[135.651751,-33.866999],[135.648481,-33.867764],[135.64653,-33.868202],[135.643847,-33.86882],[135.643614,-33.868886],[135.642735,-33.869165],[135.641155,-33.869691],[135.640055,-33.870029],[135.639849,-33.870086],[135.639332,-33.870189],[135.639152,-33.870212],[135.638855,-33.870229],[135.638599,-33.870222],[135.638284,-33.870202],[135.638043,-33.870159],[135.63732,-33.869944],[135.636307,-33.869606],[135.634095,-33.8688],[135.632613,-33.86823],[135.63206,-33.868051],[135.631469,-33.867893],[135.631172,-33.867834],[135.629936,-33.867627],[135.626884,-33.867206],[135.624476,-33.86684],[135.6236,-33.866666],[135.623023,-33.866524],[135.621938,-33.866249],[135.619317,-33.865532],[135.618368,-33.865332],[135.616444,-33.864991],[135.612844,-33.86433],[135.609884,-33.863768],[135.608152,-33.863469],[135.606781,-33.863205],[135.604842,-33.862857],[135.603445,-33.862626],[135.602295,-33.862472],[135.60158,-33.862403],[135.599673,-33.862272],[135.598956,-33.862182],[135.598237,-33.862057],[135.597368,-33.861884],[135.596191,-33.861624],[135.591778,-33.860713],[135.589889,-33.860306],[135.587036,-33.859725],[135.586607,-33.85963],[135.586345,-33.859549],[135.585732,-33.859278],[135.585365,-33.859085],[135.584926,-33.858829],[135.584223,-33.858381],[135.583605,-33.857954],[135.583249,-33.85768],[135.583021,-33.857479],[135.582824,-33.857278],[135.582594,-33.857014],[135.582115,-33.856373],[135.577672,-33.849973],[135.576989,-33.84902],[135.574308,-33.845202],[135.572423,-33.842472],[135.572043,-33.841958],[135.571763,-33.84161],[135.571555,-33.841397],[135.571266,-33.841166],[135.570974,-33.840958],[135.570002,-33.840368],[135.564733,-33.837098],[135.562602,-33.835799],[135.562337,-33.835668],[135.562063,-33.835549],[135.559629,-33.834584],[135.559224,-33.834403],[135.558181,-33.833844],[135.557642,-33.833536],[135.557295,-33.833307],[135.557032,-33.833099],[135.55684,-33.832917],[135.5553,-33.831098],[135.554993,-33.83079],[135.554654,-33.830494],[135.554358,-33.830267],[135.553962,-33.830002],[135.553723,-33.82987],[135.553319,-33.829678],[135.552385,-33.829255],[135.54883,-33.827681],[135.548453,-33.827531],[135.547962,-33.827371],[135.543647,-33.826453],[135.537954,-33.825189],[135.537393,-33.825073],[135.537207,-33.825041],[135.536901,-33.825006],[135.536261,-33.824983],[135.535809,-33.824979],[135.532821,-33.824983],[135.530708,-33.82497],[135.521838,-33.824957],[135.521525,-33.824951],[135.520957,-33.824892],[135.510295,-33.823201],[135.50933,-33.823033],[135.505956,-33.822503],[135.49998,-33.821546]]}},{"type":"Feature","properties":{"tier":"arterial"},"geometry":{"type":"LineString","coordinates":[[135.757059,-33.570984],[135.756974,-33.571869]]}},{"type":"Feature","properties":{"tier":"arterial"},"geometry":{"type":"LineString","coordinates":[[135.757118,-33.570144],[135.757059,-33.570984]]}},{"type":"Feature","properties":{"tier":"arterial"},"geometry":{"type":"LineString","coordinates":[[135.881767,-33.618634],[135.883924,-33.620256],[135.884646,-33.620786],[135.884875,-33.620936],[135.885138,-33.621092],[135.885456,-33.62126],[135.885718,-33.621384],[135.886051,-33.621524],[135.886341,-33.621628],[135.886681,-33.621728],[135.887338,-33.62189],[135.887656,-33.621946],[135.888135,-33.622004],[135.888673,-33.622039],[135.889788,-33.622039],[135.892812,-33.622104],[135.893378,-33.622123],[135.893797,-33.622165],[135.894237,-33.62223],[135.894645,-33.622313],[135.895014,-33.622414],[135.895368,-33.622524],[135.8957,-33.622646],[135.896095,-33.622817],[135.896452,-33.623006],[135.897117,-33.623398],[135.904857,-33.628094],[135.905562,-33.628479],[135.907271,-33.629385],[135.909716,-33.630649],[135.910081,-33.63086],[135.910319,-33.631022],[135.910789,-33.63139],[135.91585,-33.635797],[135.918174,-33.63782],[135.919383,-33.638885],[135.920041,-33.63944],[135.920296,-33.639623],[135.920643,-33.639857],[135.921127,-33.64014],[135.927416,-33.643728],[135.927764,-33.643927],[135.928347,-33.644272],[135.928919,-33.644558],[135.929173,-33.64466],[135.929692,-33.644842],[135.930144,-33.644966],[135.930588,-33.645064],[135.931073,-33.645142],[135.931354,-33.645175],[135.933152,-33.645329],[135.933908,-33.645408],[135.938572,-33.645827],[135.93911,-33.645854],[135.939336,-33.645856],[135.93981,-33.645835],[135.940375,-33.645777],[135.940866,-33.645693],[135.941117,-33.645635],[135.944502,-33.644749],[135.945358,-33.644512],[135.949341,-33.643456],[135.949621,-33.643398],[135.950188,-33.643307],[135.950673,-33.64327],[135.95124,-33.643258],[135.951506,-33.643265],[135.951928,-33.643297],[135.952382,-33.643359],[135.952645,-33.643408],[135.952848,-33.643453],[135.953388,-33.643603],[135.953838,-33.643757],[135.954312,-33.643956],[135.954497,-33.644048],[135.95494,-33.644293],[135.960991,-33.648258],[135.961386,-33.648487],[135.96215,-33.6489],[135.963161,-33.649318],[135.963565,-33.649461],[135.963998,-33.649596],[135.96486,-33.649826],[135.965364,-33.649933],[135.965796,-33.650002],[135.966132,-33.650045],[135.966707,-33.650106],[135.967052,-33.650129],[135.967642,-33.650148],[135.968968,-33.650119],[135.97072,-33.65005],[135.972118,-33.649982],[135.97241,-33.649967],[135.972615,-33.649957],[135.975068,-33.649862],[135.97888,-33.649688],[135.985047,-33.649429],[135.98617,-33.649349],[135.987594,-33.64929],[135.988031,-33.649261],[135.9883,-33.649243],[135.990219,-33.649173],[135.992847,-33.649059],[135.994055,-33.649007],[135.994254,-33.648995],[135.994538,-33.648977],[136.00002,-33.648748]]}},{"type":"Feature","properties":{"tier":"arterial"},"geometry":{"type":"LineString","coordinates":[[135.761038,-33.571368],[135.761312,-33.571451],[135.761604,-33.571562],[135.761986,-33.571728],[135.762362,-33.571952],[135.762967,-33.572369],[135.765926,-33.574182]]}},{"type":"Feature","properties":{"tier":"arterial"},"geometry":{"type":"LineString","coordinates":[[135.756855,-33.576857],[135.75668,-33.578155],[135.756656,-33.578396],[135.756527,-33.579563],[135.75638,-33.580927],[135.756253,-33.582112],[135.756162,-33.582918],[135.755778,-33.586937],[135.755727,-33.587244],[135.755628,-33.587641],[135.755565,-33.58786],[135.755415,-33.588214],[135.755126,-33.588714],[135.744743,-33.604556],[135.743744,-33.606079],[135.740715,-33.610701],[135.731096,-33.625387],[135.730819,-33.625811],[135.730521,-33.626191],[135.730265,-33.626489],[135.729899,-33.626856],[135.729288,-33.627393],[135.72236,-33.633269],[135.721825,-33.633728],[135.720966,-33.634455],[135.720502,-33.634865],[135.720209,-33.635165],[135.720012,-33.635395],[135.719813,-33.635662],[135.7195,-33.636147],[135.717328,-33.640046],[135.716818,-33.640936],[135.716486,-33.641592],[135.716329,-33.641974],[135.71621,-33.642339],[135.716123,-33.642705],[135.71607,-33.643077],[135.716033,-33.643705],[135.715968,-33.64572],[135.715923,-33.646254],[135.715876,-33.646517],[135.715752,-33.647004],[135.715687,-33.647215],[135.715507,-33.64766],[135.713549,-33.651286],[135.712726,-33.652809],[135.71259,-33.653101],[135.712549,-33.653195],[135.71251,-33.653287],[135.712385,-33.653672],[135.712279,-33.654161],[135.712214,-33.654674],[135.712203,-33.654929],[135.712211,-33.655267],[135.713051,-33.661674],[135.713071,-33.66181],[135.713444,-33.664402],[135.713613,-33.665753],[135.713799,-33.667112],[135.713838,-33.667484],[135.713835,-33.668016],[135.713813,-33.668245],[135.713765,-33.668562],[135.713641,-33.669154],[135.712997,-33.672042],[135.710875,-33.681757],[135.710759,-33.68227],[135.710647,-33.682634],[135.710391,-33.683228],[135.710172,-33.683628],[135.710055,-33.683819],[135.709858,-33.684093],[135.709622,-33.684377],[135.709355,-33.684658],[135.709062,-33.684932],[135.708723,-33.685201],[135.708366,-33.685448],[135.70806,-33.685635],[135.707826,-33.685766],[135.695909,-33.691338],[135.695467,-33.69157],[135.695146,-33.691781],[135.694907,-33.691952],[135.694555,-33.692264],[135.694243,-33.692598],[135.693927,-33.693031],[135.693781,-33.693298],[135.693612,-33.693659],[135.693429,-33.694258],[135.693373,-33.69471],[135.69337,-33.695008],[135.693393,-33.695345],[135.693452,-33.695708],[135.693536,-33.69601],[135.693635,-33.696274],[135.693733,-33.696494],[135.693874,-33.696759],[135.6942,-33.697251],[135.697358,-33.700629],[135.697642,-33.700947],[135.697867,-33.701268],[135.698022,-33.70153],[135.698183,-33.701856],[135.698309,-33.7022],[135.698408,-33.702551],[135.69845,-33.702774],[135.698495,-33.703122],[135.698591,-33.704103],[135.6993,-33.7103],[135.699345,-33.710612],[135.699435,-33.710968],[135.699587,-33.711429],[135.69968,-33.711644],[135.699846,-33.711965],[135.700119,-33.712426],[135.70346,-33.717601],[135.7051,-33.720134],[135.705182,-33.720262],[135.708716,-33.725726],[135.709037,-33.726283],[135.709169,-33.726583],[135.70931,-33.726955],[135.709397,-33.727266],[135.709467,-33.727596],[135.709535,-33.728123],[135.709538,-33.728502],[135.709518,-33.72882],[135.709465,-33.729261],[135.7094,-33.729532],[135.709123,-33.730523],[135.706957,-33.73811],[135.706527,-33.739682],[135.706437,-33.740139],[135.706394,-33.740667],[135.706406,-33.740993],[135.706428,-33.741248],[135.706482,-33.741606],[135.706608,-33.74213],[135.707523,-33.745605],[135.707695,-33.74615],[135.707897,-33.746607],[135.708148,-33.747053],[135.70835,-33.747351],[135.708612,-33.747669],[135.708998,-33.748076],[135.709434,-33.748464],[135.712162,-33.750601],[135.713269,-33.751471],[135.713582,-33.751757],[135.71367,-33.751859],[135.713861,-33.752082],[135.714111,-33.752447],[135.714283,-33.752734],[135.714485,-33.753171],[135.71457,-33.753417],[135.714682,-33.753873],[135.714725,-33.754292],[135.71473,-33.754491],[135.714725,-33.754772],[135.714688,-33.755062],[135.713917,-33.759568],[135.713745,-33.760598],[135.713686,-33.761068],[135.713526,-33.765425],[135.713174,-33.773568],[135.712916,-33.779894],[135.712896,-33.780359],[135.712796,-33.782806],[135.712535,-33.789162]]}},{"type":"Feature","properties":{"tier":"arterial"},"geometry":{"type":"LineString","coordinates":[[135.757822,-33.563293],[135.757739,-33.564098],[135.757728,-33.564367],[135.757724,-33.564411],[135.757609,-33.565401]]}},{"type":"Feature","properties":{"tier":"arterial"},"geometry":{"type":"LineString","coordinates":[[135.757177,-33.55998],[135.757468,-33.56046],[135.757587,-33.560712],[135.757737,-33.561128],[135.757846,-33.561574],[135.757869,-33.561769],[135.757905,-33.562066]]}},{"type":"Feature","properties":{"tier":"arterial"},"geometry":{"type":"LineString","coordinates":[[135.676861,-33.49998],[135.676893,-33.499997],[135.679122,-33.501174],[135.682617,-33.503046],[135.683453,-33.503478],[135.690679,-33.507319],[135.69314,-33.508617],[135.697716,-33.511061],[135.700575,-33.512562],[135.701716,-33.513182],[135.703564,-33.514165],[135.7041,-33.514436],[135.704604,-33.514707],[135.710987,-33.518092],[135.713321,-33.519294],[135.722682,-33.52431],[135.725763,-33.525934],[135.726076,-33.526122],[135.726315,-33.526286],[135.726542,-33.526472],[135.72684,-33.526717],[135.72762,-33.527482],[135.728569,-33.528438],[135.729634,-33.529442],[135.732435,-33.532266],[135.737191,-33.537067],[135.737884,-33.537858],[135.73811,-33.538086],[135.748485,-33.548546],[135.749104,-33.549121],[135.750466,-33.550493],[135.750783,-33.550863],[135.751197,-33.55142],[135.75385,-33.555214],[135.754082,-33.555554]]}},{"type":"Feature","properties":{"tier":"arterial"},"geometry":{"type":"LineString","coordinates":[[135.757609,-33.565401],[135.757573,-33.565779],[135.757461,-33.566714],[135.757457,-33.566757],[135.757364,-33.567719],[135.757337,-33.568003],[135.757328,-33.568092],[135.757201,-33.56933],[135.757118,-33.570144]]}},{"type":"Feature","properties":{"tier":"arterial"},"geometry":{"type":"LineString","coordinates":[[135.756974,-33.571869],[135.756574,-33.571874],[135.756314,-33.571879],[135.756097,-33.57192],[135.755811,-33.571991],[135.755544,-33.572087],[135.755022,-33.572293],[135.753941,-33.572731]]}},{"type":"Feature","properties":{"tier":"arterial"},"geometry":{"type":"LineString","coordinates":[[135.752299,-33.57336],[135.750392,-33.574102]]}},{"type":"Feature","properties":{"tier":"arterial"},"geometry":{"type":"LineString","coordinates":[[135.757905,-33.562066],[135.757917,-33.562305],[135.757909,-33.562592],[135.7579,-33.562669],[135.75788,-33.562867]]}},{"type":"Feature","properties":{"tier":"arterial"},"geometry":{"type":"LineString","coordinates":[[135.756158,-33.558571],[135.757177,-33.55998]]}},{"type":"Feature","properties":{"tier":"arterial"},"geometry":{"type":"LineString","coordinates":[[135.753941,-33.572731],[135.752299,-33.57336]]}},{"type":"Feature","properties":{"tier":"arterial"},"geometry":{"type":"LineString","coordinates":[[135.750392,-33.574102],[135.749373,-33.5745],[135.746818,-33.575525]]}},{"type":"Feature","properties":{"tier":"arterial"},"geometry":{"type":"LineString","coordinates":[[135.766431,-33.574492],[135.767935,-33.575418],[135.769533,-33.576423],[135.773881,-33.579398],[135.774213,-33.579636],[135.777324,-33.581777],[135.777372,-33.581809],[135.778743,-33.582737],[135.780782,-33.584158],[135.781772,-33.584818],[135.782453,-33.585197],[135.783039,-33.585457],[135.783353,-33.585576],[135.783665,-33.585684],[135.784,-33.585781],[135.785,-33.586039],[135.785492,-33.58616],[135.786939,-33.586546],[135.789731,-33.587263],[135.791907,-33.587852],[135.793222,-33.58822],[135.795101,-33.588734],[135.796208,-33.589025],[135.796842,-33.5892],[135.797423,-33.58936],[135.797751,-33.589454],[135.79807,-33.589551],[135.798691,-33.589769],[135.798976,-33.58988],[135.799237,-33.589994],[135.799788,-33.590271],[135.800195,-33.590499],[135.800717,-33.590815],[135.802591,-33.591954],[135.803207,-33.592271],[135.803514,-33.592407],[135.80378,-33.592522],[135.804077,-33.592635],[135.804715,-33.592853],[135.805418,-33.593066],[135.809899,-33.594394],[135.810666,-33.594635],[135.815275,-33.596016],[135.819961,-33.597403],[135.821195,-33.597796],[135.821795,-33.598026],[135.822515,-33.598338],[135.825375,-33.599776],[135.827065,-33.600623],[135.833104,-33.603654],[135.835054,-33.604632],[135.848728,-33.611507],[135.849417,-33.611819],[135.849837,-33.611989],[135.849972,-33.612043],[135.850613,-33.612244],[135.854487,-33.613228],[135.855124,-33.613374],[135.855379,-33.613423],[135.856055,-33.613537],[135.856555,-33.613596],[135.857112,-33.613644],[135.857771,-33.613645],[135.858065,-33.613635],[135.859111,-33.613536],[135.867384,-33.612678],[135.868142,-33.612615],[135.868772,-33.612605],[135.869051,-33.612608],[135.869368,-33.61263],[135.870106,-33.612702],[135.870498,-33.612755],[135.870985,-33.612842],[135.871463,-33.612945],[135.871811,-33.613036],[135.872266,-33.613182],[135.872797,-33.613375],[135.873878,-33.613856],[135.877463,-33.615612],[135.878188,-33.616008],[135.878545,-33.616238],[135.879008,-33.61656],[135.881101,-33.618133],[135.881767,-33.618634]]}},{"type":"Feature","properties":{"tier":"arterial"},"geometry":{"type":"LineString","coordinates":[[135.765926,-33.574182],[135.766431,-33.574492]]}},{"type":"Feature","properties":{"tier":"arterial"},"geometry":{"type":"LineString","coordinates":[[135.703302,-33.86193],[135.703448,-33.862853],[135.704012,-33.866572],[135.704116,-33.867093],[135.704277,-33.867623],[135.705773,-33.87203],[135.705897,-33.872666],[135.705921,-33.872904],[135.705931,-33.873219],[135.706014,-33.886211],[135.706048,-33.889907],[135.706046,-33.891529],[135.706078,-33.892204],[135.706226,-33.893302],[135.706251,-33.893485],[135.70639,-33.894507],[135.706482,-33.895285],[135.70683,-33.89783],[135.70996,-33.921333],[135.710022,-33.921754],[135.710088,-33.922109],[135.710147,-33.922348],[135.710303,-33.922812],[135.710555,-33.923344],[135.710681,-33.923565],[135.710794,-33.923738],[135.710993,-33.924014],[135.71118,-33.924247],[135.711504,-33.924599],[135.7151,-33.928042],[135.715409,-33.928347],[135.715705,-33.928667],[135.715846,-33.928836],[135.716155,-33.929272],[135.716336,-33.929567],[135.718404,-33.933654],[135.718531,-33.933972],[135.718646,-33.934321],[135.718784,-33.934961],[135.718808,-33.935166],[135.718828,-33.935534],[135.718828,-33.935887],[135.718722,-33.938872],[135.718687,-33.939972],[135.718472,-33.946618],[135.71845,-33.947302],[135.718324,-33.951202],[135.718336,-33.951806],[135.71837,-33.952069],[135.718415,-33.952343],[135.718547,-33.952846],[135.718652,-33.953145],[135.718804,-33.953477],[135.719084,-33.953989],[135.719304,-33.954311],[135.719691,-33.954912],[135.719967,-33.955359],[135.720354,-33.956015],[135.720631,-33.956489],[135.720713,-33.956655],[135.72086,-33.957005],[135.720977,-33.957335],[135.721068,-33.957663],[135.721126,-33.957936],[135.721242,-33.958544],[135.72144,-33.959654],[135.721684,-33.961028],[135.721988,-33.962739],[135.722237,-33.964098],[135.722406,-33.965055],[135.722494,-33.965533],[135.722514,-33.965674],[135.722557,-33.965967],[135.722628,-33.966728],[135.722734,-33.967781],[135.722799,-33.9684],[135.722862,-33.968947],[135.722926,-33.969432],[135.723014,-33.969959],[135.723188,-33.970953],[135.723306,-33.971616],[135.723389,-33.972151],[135.723469,-33.972655],[135.723712,-33.97405],[135.723721,-33.974105],[135.723797,-33.974574],[135.723922,-33.975301],[135.724033,-33.975876],[135.724135,-33.976474],[135.724277,-33.977283],[135.724417,-33.978125],[135.724464,-33.978389],[135.724677,-33.979671],[135.724985,-33.981533],[135.725569,-33.984946],[135.725687,-33.985714],[135.725738,-33.986127],[135.725752,-33.986532],[135.725752,-33.986978],[135.72575,-33.987665],[135.725746,-33.988411],[135.725744,-33.989324],[135.725757,-33.989618],[135.725777,-33.989868],[135.72582,-33.990192],[135.725905,-33.990755],[135.726079,-33.991892],[135.726222,-33.992902],[135.72634,-33.993735],[135.726583,-33.995415],[135.726769,-33.996685],[135.727013,-33.99833],[135.72723,-33.999824],[135.727256,-34.00002]]}},{"type":"Feature","properties":{"tier":"arterial"},"geometry":{"type":"LineString","coordinates":[[135.758672,-33.571117],[135.759226,-33.571152],[135.759888,-33.571196],[135.760357,-33.571245],[135.760727,-33.571303],[135.761038,-33.571368]]}},{"type":"Feature","properties":{"tier":"arterial"},"geometry":{"type":"LineString","coordinates":[[135.757044,-33.57537],[135.756855,-33.576857]]}},{"type":"Feature","properties":{"tier":"arterial"},"geometry":{"type":"LineString","coordinates":[[135.756974,-33.571869],[135.756962,-33.571981],[135.75692,-33.572353],[135.756903,-33.572544]]}},{"type":"Feature","properties":{"tier":"arterial"},"geometry":{"type":"LineString","coordinates":[[135.75788,-33.562867],[135.757822,-33.563293]]}},{"type":"Feature","properties":{"tier":"arterial"},"geometry":{"type":"LineString","coordinates":[[135.754082,-33.555554],[135.756158,-33.558571]]}},{"type":"Feature","properties":{"tier":"arterial"},"geometry":{"type":"LineString","coordinates":[[135.702717,-33.856341],[135.702675,-33.856838],[135.702676,-33.857275],[135.702665,-33.857562],[135.702687,-33.857818],[135.702833,-33.858769],[135.702865,-33.858974],[135.702897,-33.859187],[135.702908,-33.85926],[135.703063,-33.86027],[135.703121,-33.860647],[135.703238,-33.861494],[135.703302,-33.86193]]}},{"type":"Feature","properties":{"tier":"arterial"},"geometry":{"type":"LineString","coordinates":[[135.712535,-33.789162],[135.712506,-33.789898],[135.712487,-33.790384],[135.712405,-33.792268],[135.712357,-33.792675],[135.711451,-33.798875],[135.711345,-33.799551],[135.711248,-33.799934],[135.711117,-33.800254],[135.709331,-33.804739],[135.707033,-33.810181],[135.706679,-33.811022],[135.706426,-33.811705],[135.706374,-33.811937],[135.706269,-33.812555],[135.705218,-33.820886],[135.705196,-33.821169],[135.705204,-33.821514],[135.705425,-33.824027],[135.705451,-33.824434],[135.705445,-33.824743],[135.705423,-33.825001],[135.705394,-33.825333],[135.703839,-33.843344],[135.703738,-33.84441],[135.703725,-33.844572],[135.703653,-33.845498],[135.70365,-33.84553],[135.702717,-33.856341]]}}]}
