{"type":"FeatureCollection","features":[{"type":"Feature","properties":{"tier":"arterial"},"geometry":{"type":"LineString","coordinates":[[135.648115,-30.177637],[135.653095,-30.178161]]}},{"type":"Feature","properties":{"tier":"regional"},"geometry":{"type":"LineString","coordinates":[[135.507917,-30.396393],[135.507458,-30.397582],[135.507286,-30.398225],[135.50725,-30.398861],[135.507155,-30.401014],[135.505908,-30.403768],[135.504309,-30.406424],[135.500951,-30.411503],[135.49998,-30.413254]]}},{"type":"Feature","properties":{"tier":"regional"},"geometry":{"type":"LineString","coordinates":[[135.656886,-30.188195],[135.658537,-30.184946],[135.658833,-30.184562],[135.659203,-30.184179],[135.659713,-30.183696],[135.660349,-30.183096],[135.661298,-30.182314],[135.661865,-30.181878],[135.662247,-30.181462],[135.662555,-30.181057],[135.662802,-30.18061],[135.663024,-30.180098],[135.663232,-30.179703]]}},{"type":"Feature","properties":{"tier":"regional"},"geometry":{"type":"LineString","coordinates":[[135.656886,-30.188195],[135.655904,-30.189814],[135.655194,-30.191146],[135.65483,-30.192204],[135.654129,-30.197814],[135.653442,-30.203879],[135.652195,-30.216505],[135.651943,-30.217699],[135.651597,-30.219047],[135.651532,-30.219741],[135.651354,-30.220185],[135.65056,-30.221073],[135.646208,-30.226077],[135.642117,-30.231104],[135.638876,-30.235034],[135.637337,-30.237229],[135.616042,-30.267144],[135.60689,-30.279978],[135.604491,-30.283051],[135.601671,-30.286198],[135.591789,-30.297354],[135.589044,-30.300291],[135.560608,-30.329661],[135.513519,-30.382532],[135.507917,-30.396393]]}},{"type":"Feature","properties":{"tier":"regional"},"geometry":{"type":"LineString","coordinates":[[135.648115,-30.177637],[135.649124,-30.178097],[135.649656,-30.178525],[135.650815,-30.179468],[135.651304,-30.179927],[135.652457,-30.181008],[135.655799,-30.183967],[135.655926,-30.184116],[135.656662,-30.184978],[135.656985,-30.185809],[135.657132,-30.186437],[135.657095,-30.187321],[135.656886,-30.188195]]}},{"type":"Feature","properties":{"tier":"arterial"},"geometry":{"type":"LineString","coordinates":[[135.653095,-30.178161],[135.661773,-30.179178],[135.661938,-30.179198],[135.662947,-30.17959],[135.663232,-30.179703]]}},{"type":"Feature","properties":{"tier":"arterial"},"geometry":{"type":"LineString","coordinates":[[135.663232,-30.179703],[135.664606,-30.180223],[135.66515,-30.180342],[135.665747,-30.180411],[135.666469,-30.180466],[135.666727,-30.18048],[135.667207,-30.180503],[135.667614,-30.180518],[135.667835,-30.180576],[135.668311,-30.180921],[135.668498,-30.181259],[135.668718,-30.181737],[135.668888,-30.182091]]}},{"type":"Feature","properties":{"tier":"arterial"},"geometry":{"type":"LineString","coordinates":[[135.668888,-30.182091],[135.670614,-30.182747],[135.681463,-30.184242],[135.682167,-30.184262],[135.682437,-30.18411],[135.682531,-30.183815],[135.682566,-30.18282],[135.68282,-30.182506],[135.686541,-30.179547],[135.688347,-30.178075],[135.692489,-30.174402],[135.693029,-30.174131],[135.694437,-30.173934],[135.695944,-30.173553],[135.696584,-30.173246],[135.697346,-30.173276],[135.701222,-30.172158],[135.709728,-30.170082],[135.711891,-30.169548],[135.715347,-30.168454],[135.720119,-30.166872],[135.722848,-30.165968],[135.724205,-30.165528],[135.724827,-30.165364],[135.730455,-30.16388],[135.730618,-30.163837],[135.731102,-30.163753],[135.731891,-30.163395],[135.736911,-30.159467],[135.747785,-30.150991],[135.757305,-30.143608],[135.763121,-30.139113],[135.764784,-30.138228],[135.76514,-30.137853],[135.765666,-30.137078],[135.767053,-30.136002],[135.776935,-30.128199],[135.789378,-30.118362],[135.789629,-30.11816],[135.789825,-30.117993],[135.789909,-30.117917],[135.78999,-30.11784],[135.790117,-30.117729],[135.790245,-30.117604],[135.790375,-30.117468],[135.790511,-30.117305],[135.790616,-30.117175],[135.790878,-30.116847],[135.791178,-30.116508],[135.791582,-30.116008],[135.796658,-30.11015],[135.799495,-30.106887],[135.799828,-30.10665],[135.800473,-30.106316],[135.815044,-30.099931],[135.815269,-30.099847],[135.815506,-30.099781],[135.815951,-30.099711],[135.816447,-30.099657],[135.826391,-30.098702],[135.82679,-30.09867],[135.827277,-30.098566],[135.827579,-30.098412],[135.827819,-30.098192],[135.827989,-30.097955],[135.828214,-30.097625],[135.830462,-30.093506],[135.83073,-30.09322],[135.831007,-30.093014],[135.831344,-30.092852],[135.832893,-30.092156],[135.845674,-30.086694],[135.866107,-30.077895],[135.866645,-30.077657],[135.866839,-30.077571],[135.866888,-30.077552],[135.866944,-30.077534],[135.866996,-30.077522],[135.867047,-30.077514],[135.867083,-30.07751],[135.867131,-30.077508],[135.867189,-30.07751],[135.86723,-30.077511],[135.867279,-30.077506],[135.867329,-30.077498],[135.867377,-30.077481],[135.867432,-30.077452],[135.867512,-30.077404],[135.86765,-30.077306],[135.867734,-30.077251],[135.867819,-30.077203],[135.867886,-30.077172],[135.868031,-30.077105],[135.868193,-30.077039],[135.868438,-30.076954],[135.872942,-30.075333],[135.890347,-30.068918],[135.891056,-30.068737],[135.891765,-30.068631],[135.893246,-30.068569],[135.893772,-30.068493],[135.894248,-30.068347],[135.894505,-30.068232],[135.895767,-30.067447],[135.897638,-30.066451],[135.898409,-30.066043],[135.89914,-30.065732],[135.911492,-30.061217],[135.922834,-30.057039],[135.928123,-30.055168],[135.930235,-30.054316],[135.931652,-30.053558],[135.933649,-30.051857],[135.933908,-30.051666],[135.93427,-30.051511],[135.934744,-30.051322],[135.939328,-30.049238],[135.945286,-30.046207],[135.945732,-30.046035],[135.946296,-30.045887],[135.952011,-30.044756],[135.952651,-30.044677],[135.953267,-30.044622],[135.95852,-30.044336],[135.959051,-30.044246],[135.959619,-30.044051],[135.9622,-30.042811],[135.964383,-30.041969],[135.97211,-30.038619],[135.972816,-30.038333],[135.973443,-30.038125],[135.974375,-30.037826],[135.977355,-30.036812],[135.978482,-30.036424],[135.979144,-30.036133],[135.983708,-30.033932],[136.00002,-30.026132]]}},{"type":"Feature","properties":{"tier":"arterial"},"geometry":{"type":"LineString","coordinates":[[135.668888,-30.182091],[135.669157,-30.182482],[135.669548,-30.182763],[135.670572,-30.183256],[135.671349,-30.183469],[135.676814,-30.184959],[135.677771,-30.18548],[135.678315,-30.186199],[135.678562,-30.186838],[135.682012,-30.202858],[135.683758,-30.210845],[135.684261,-30.212194],[135.685421,-30.214102],[135.686155,-30.215117],[135.687466,-30.216575],[135.688432,-30.217528],[135.688956,-30.218138],[135.690569,-30.220094],[135.691564,-30.221412],[135.692127,-30.222336],[135.692621,-30.223336],[135.692999,-30.223877],[135.693729,-30.224634],[135.694394,-30.225331],[135.694974,-30.226029],[135.696077,-30.227473],[135.69854,-30.23143],[135.700464,-30.234507],[135.701153,-30.235673],[135.703331,-30.239575],[135.70354,-30.239904],[135.704037,-30.240402],[135.704951,-30.241224],[135.707405,-30.24321],[135.712907,-30.248422],[135.715763,-30.251146],[135.717622,-30.252893],[135.723136,-30.258163],[135.724941,-30.259867],[135.725609,-30.260482],[135.726604,-30.261446],[135.726856,-30.261898],[135.72703,-30.262319],[135.727022,-30.263646],[135.726357,-30.272596],[135.726112,-30.275556],[135.725908,-30.277052],[135.725883,-30.277379],[135.725901,-30.277782],[135.725982,-30.278188],[135.726063,-30.278438],[135.72624,-30.278846],[135.728351,-30.282273],[135.733203,-30.290131],[135.734257,-30.291796],[135.744597,-30.308723],[135.750856,-30.319003],[135.755315,-30.326337],[135.755557,-30.326772],[135.755711,-30.327175],[135.755799,-30.327966],[135.755897,-30.3298],[135.755899,-30.330035],[135.755971,-30.330362],[135.75613,-30.330821],[135.757643,-30.333893],[135.759215,-30.337315],[135.760032,-30.338641],[135.760483,-30.339358],[135.763443,-30.343943],[135.763893,-30.344756],[135.7643,-30.345581],[135.765596,-30.348123],[135.766797,-30.350655],[135.767537,-30.352276],[135.767887,-30.352954],[135.768341,-30.353728],[135.769118,-30.3549],[135.769567,-30.355546],[135.771584,-30.358127],[135.772436,-30.359027],[135.777272,-30.363797],[135.784713,-30.371241],[135.800101,-30.386662],[135.801379,-30.387689],[135.805561,-30.390778],[135.809614,-30.39362],[135.810058,-30.393953],[135.810421,-30.394276],[135.810731,-30.394554],[135.812244,-30.396036],[135.812711,-30.3965],[135.813154,-30.397013],[135.813354,-30.397388],[135.813636,-30.39809],[135.814485,-30.400486],[135.814561,-30.400831],[135.814602,-30.401146],[135.81459,-30.401493],[135.814572,-30.401812],[135.814573,-30.402166],[135.814623,-30.402558],[135.814739,-30.403177],[135.8152,-30.405151],[135.816997,-30.412911],[135.817116,-30.413425],[135.817181,-30.413817],[135.817153,-30.414184],[135.817047,-30.414588],[135.812804,-30.424961],[135.812561,-30.425677],[135.812358,-30.426666],[135.811229,-30.429212],[135.810007,-30.431997],[135.80847,-30.435551],[135.806803,-30.439444],[135.806023,-30.441247],[135.80507,-30.443343],[135.79856,-30.458444],[135.795726,-30.464822],[135.795484,-30.465423],[135.795389,-30.46567],[135.795334,-30.465812],[135.795256,-30.46612],[135.795217,-30.466647],[135.795243,-30.467039],[135.795317,-30.467498],[135.795544,-30.468015],[135.795755,-30.468364],[135.796113,-30.468772],[135.796502,-30.469125],[135.796958,-30.469414],[135.797441,-30.469659],[135.797945,-30.469809],[135.798636,-30.469939],[135.801609,-30.469884],[135.802231,-30.470003],[135.802634,-30.470138],[135.803036,-30.470336],[135.810457,-30.47499],[135.815444,-30.478209],[135.821188,-30.481586],[135.823267,-30.48281],[135.828198,-30.485713],[135.83391,-30.489211],[135.835935,-30.49051],[135.841065,-30.493579],[135.842471,-30.49442],[135.842685,-30.494548],[135.848061,-30.497763],[135.851794,-30.50002]]}}]}
