{"type":"FeatureCollection","features":[{"type":"Feature","properties":{"tier":"arterial"},"geometry":{"type":"LineString","coordinates":[[135.857926,-34.727427],[135.858057,-34.727421],[135.85818,-34.727395]]}},{"type":"Feature","properties":{"tier":"arterial"},"geometry":{"type":"LineString","coordinates":[[135.854998,-34.717779],[135.854879,-34.717837],[135.854859,-34.717847],[135.854772,-34.717899],[135.854708,-34.717938]]}},{"type":"Feature","properties":{"tier":"arterial"},"geometry":{"type":"LineString","coordinates":[[135.854998,-34.717779],[135.855043,-34.71776],[135.855079,-34.71775],[135.855112,-34.71775],[135.855145,-34.717753],[135.855179,-34.717765],[135.855205,-34.717784],[135.855468,-34.718002],[135.855841,-34.718299],[135.855961,-34.71839]]}},{"type":"Feature","properties":{"tier":"arterial"},"geometry":{"type":"LineString","coordinates":[[135.864605,-34.722596],[135.865145,-34.722798],[135.865565,-34.722955],[135.865784,-34.723036],[135.866204,-34.723193],[135.866725,-34.723388],[135.866761,-34.723401],[135.867058,-34.723515],[135.867116,-34.723538],[135.867878,-34.723779]]}},{"type":"Feature","properties":{"tier":"arterial"},"geometry":{"type":"LineString","coordinates":[[135.855972,-34.718503],[135.855945,-34.718531],[135.855397,-34.719085],[135.854907,-34.719545],[135.854872,-34.719576]]}},{"type":"Feature","properties":{"tier":"arterial"},"geometry":{"type":"LineString","coordinates":[[135.772923,-34.683232],[135.773115,-34.683183],[135.773278,-34.68316],[135.773499,-34.68315],[135.773731,-34.683158],[135.774042,-34.683199],[135.774258,-34.683253],[135.774511,-34.683355],[135.774893,-34.683556],[135.775548,-34.683868],[135.778574,-34.685412],[135.779245,-34.685728],[135.779543,-34.68582],[135.779799,-34.685871],[135.779864,-34.685884],[135.780507,-34.685979],[135.781022,-34.686031],[135.781343,-34.686045],[135.783607,-34.686042],[135.784916,-34.686102],[135.788402,-34.686295],[135.78933,-34.686323],[135.791166,-34.686358],[135.796875,-34.686507],[135.797825,-34.686509],[135.798077,-34.686482],[135.799435,-34.686253],[135.800755,-34.686045],[135.800931,-34.686033],[135.801149,-34.68604],[135.801357,-34.68607],[135.802006,-34.686222],[135.803572,-34.686617],[135.803732,-34.686673],[135.804007,-34.686795],[135.804389,-34.687045],[135.804989,-34.687508],[135.806946,-34.689059],[135.807659,-34.689651],[135.807788,-34.689778],[135.808056,-34.690098],[135.808872,-34.691311],[135.809616,-34.692372],[135.811246,-34.694746],[135.811415,-34.695019],[135.811486,-34.695173],[135.811541,-34.695333],[135.811576,-34.695445],[135.811583,-34.695518],[135.811621,-34.695818],[135.81181,-34.696971],[135.811848,-34.697119],[135.81195,-34.697374],[135.812135,-34.697665],[135.812427,-34.698063],[135.813822,-34.699711],[135.814426,-34.700397],[135.814598,-34.700636],[135.814779,-34.701031],[135.815101,-34.701922],[135.815197,-34.702145],[135.815324,-34.702396],[135.815828,-34.703155],[135.816032,-34.703385],[135.816134,-34.703473],[135.817052,-34.704206],[135.818756,-34.705599],[135.818839,-34.705668],[135.821501,-34.707861],[135.821757,-34.708037],[135.822096,-34.708328],[135.822893,-34.708917],[135.825222,-34.710153],[135.827104,-34.711158]]}},{"type":"Feature","properties":{"tier":"arterial"},"geometry":{"type":"LineString","coordinates":[[135.852458,-34.739095],[135.852751,-34.73856],[135.8529,-34.73823],[135.85348,-34.736947],[135.853805,-34.736153],[135.853967,-34.735758],[135.854308,-34.735002],[135.854569,-34.734424],[135.854646,-34.73424],[135.855034,-34.733364],[135.855157,-34.733093],[135.855273,-34.732839],[135.855326,-34.732716],[135.855569,-34.732189],[135.855716,-34.731861],[135.855912,-34.731418],[135.856017,-34.731189],[135.856169,-34.730849],[135.856261,-34.730645],[135.856539,-34.73005],[135.856608,-34.729895],[135.856718,-34.72965],[135.856768,-34.72954],[135.857272,-34.728414],[135.857336,-34.728274],[135.857416,-34.7281],[135.857508,-34.727908]]}},{"type":"Feature","properties":{"tier":"regional"},"geometry":{"type":"LineString","coordinates":[[135.86365,-34.739596],[135.863001,-34.74002],[135.862863,-34.740105],[135.861287,-34.741013],[135.86053,-34.741464],[135.859443,-34.742081],[135.858867,-34.742407],[135.857441,-34.743229],[135.856763,-34.743572]]}},{"type":"Feature","properties":{"tier":"arterial"},"geometry":{"type":"LineString","coordinates":[[135.772817,-34.685437],[135.773743,-34.686081],[135.774721,-34.686776],[135.775697,-34.687456],[135.775997,-34.687668],[135.776334,-34.687929],[135.776511,-34.688075],[135.776707,-34.688246],[135.776913,-34.688447],[135.777072,-34.688618],[135.777322,-34.688917],[135.777661,-34.689341],[135.780037,-34.69237],[135.780431,-34.692879],[135.782075,-34.694942],[135.782754,-34.695798],[135.783058,-34.696192],[135.783576,-34.696861],[135.784153,-34.697577],[135.784651,-34.69824],[135.785124,-34.698821],[135.792183,-34.707891],[135.79337,-34.709364],[135.794403,-34.710713],[135.795519,-34.712109],[135.796253,-34.71305],[135.796407,-34.713295],[135.796689,-34.713608],[135.796971,-34.713896],[135.806366,-34.722746],[135.8107,-34.726781],[135.811901,-34.727945]]}},{"type":"Feature","properties":{"tier":"regional"},"geometry":{"type":"LineString","coordinates":[[135.860262,-34.729698],[135.859698,-34.730114],[135.858413,-34.731059],[135.857323,-34.731834],[135.857047,-34.732038],[135.85671,-34.732284],[135.856471,-34.732469],[135.856298,-34.732619],[135.856127,-34.732776],[135.855963,-34.732945],[135.855792,-34.733149],[135.85561,-34.733375],[135.855423,-34.733647],[135.8553,-34.733849],[135.8552,-34.734069],[135.855165,-34.734144],[135.854953,-34.73461],[135.854608,-34.735359],[135.853829,-34.737083],[135.853484,-34.737875],[135.853093,-34.738742],[135.852955,-34.739019],[135.852821,-34.739229],[135.852733,-34.739358],[135.852605,-34.739524],[135.852384,-34.739819]]}},{"type":"Feature","properties":{"tier":"regional"},"geometry":{"type":"LineString","coordinates":[[135.912252,-34.542006],[135.917938,-34.544438],[135.918234,-34.544547],[135.918515,-34.544613],[135.918802,-34.544658],[135.919053,-34.544687],[135.919314,-34.544697],[135.919614,-34.544693],[135.919942,-34.544662],[135.920391,-34.544606],[135.921648,-34.544433],[135.922708,-34.544283],[135.923881,-34.544111],[135.924806,-34.543979],[135.925152,-34.543934],[135.925698,-34.543883],[135.925997,-34.543865]]}},{"type":"Feature","properties":{"tier":"regional"},"geometry":{"type":"LineString","coordinates":[[135.509567,-34.56587],[135.509471,-34.566069],[135.509346,-34.566481],[135.509313,-34.56671],[135.509343,-34.566946],[135.509494,-34.567791],[135.510183,-34.571997],[135.510309,-34.573028],[135.510439,-34.577795],[135.510485,-34.578351],[135.510539,-34.578589],[135.510922,-34.579534],[135.51163,-34.581205],[135.512064,-34.582189],[135.512519,-34.583342],[135.512633,-34.583702],[135.512718,-34.58412],[135.512785,-34.584583],[135.512835,-34.585338],[135.512906,-34.585718],[135.513077,-34.586248],[135.513326,-34.587185],[135.513461,-34.587568],[135.513585,-34.588013],[135.51366,-34.588317],[135.513713,-34.588755],[135.513859,-34.592599],[135.513891,-34.592953],[135.513955,-34.593272],[135.514019,-34.593436],[135.514463,-34.594366],[135.514755,-34.595039],[135.515537,-34.597302],[135.515676,-34.597793],[135.515764,-34.598217],[135.515924,-34.599128],[135.516102,-34.599938],[135.51618,-34.600424],[135.516184,-34.600634],[135.51617,-34.60086],[135.516131,-34.60117],[135.516045,-34.60155],[135.515917,-34.602507],[135.515907,-34.60275],[135.516003,-34.604035],[135.516013,-34.604412],[135.515988,-34.604716],[135.515882,-34.605688],[135.515775,-34.6062],[135.515533,-34.607757],[135.515491,-34.608125],[135.515477,-34.6084],[135.515491,-34.608649],[135.515569,-34.608956],[135.515693,-34.609278],[135.515811,-34.609509],[135.515981,-34.609781],[135.516159,-34.610004],[135.516294,-34.610124],[135.516984,-34.610814],[135.517307,-34.611247],[135.517563,-34.611613],[135.51794,-34.612213],[135.518292,-34.612707]]}},{"type":"Feature","properties":{"tier":"regional"},"geometry":{"type":"LineString","coordinates":[[135.860262,-34.729698],[135.86037,-34.729775],[135.860768,-34.730099],[135.861048,-34.730327],[135.861075,-34.730349],[135.861176,-34.730435],[135.861253,-34.730481],[135.861335,-34.730531],[135.861412,-34.730558],[135.861528,-34.730598],[135.861896,-34.730719],[135.861927,-34.73073],[135.862631,-34.730967],[135.863061,-34.731116],[135.863128,-34.731139],[135.864192,-34.731509],[135.865296,-34.731879],[135.865382,-34.731908],[135.866411,-34.732254]]}},{"type":"Feature","properties":{"tier":"arterial"},"geometry":{"type":"LineString","coordinates":[[135.824291,-34.736147],[135.824504,-34.736001],[135.827481,-34.734741],[135.829142,-34.734043],[135.829175,-34.734029],[135.830942,-34.733296],[135.831473,-34.733076],[135.831782,-34.732948],[135.832023,-34.732848],[135.832818,-34.732518],[135.8337,-34.732141],[135.834949,-34.731607],[135.836161,-34.731089],[135.837815,-34.730382],[135.840379,-34.729299]]}},{"type":"Feature","properties":{"tier":"arterial"},"geometry":{"type":"LineString","coordinates":[[135.857628,-34.727348],[135.857685,-34.727272],[135.857746,-34.727172]]}},{"type":"Feature","properties":{"tier":"arterial"},"geometry":{"type":"LineString","coordinates":[[135.857523,-34.727694],[135.857474,-34.727631],[135.857463,-34.727602],[135.857454,-34.727548],[135.857463,-34.727493],[135.857473,-34.727475],[135.857494,-34.727435],[135.857531,-34.72739],[135.857586,-34.727364],[135.857628,-34.727348],[135.857706,-34.727336],[135.857781,-34.727343]]}},{"type":"Feature","properties":{"tier":"regional"},"geometry":{"type":"LineString","coordinates":[[135.860262,-34.729698],[135.860116,-34.729582],[135.859583,-34.729151]]}},{"type":"Feature","properties":{"tier":"regional"},"geometry":{"type":"LineString","coordinates":[[135.715228,-34.863949],[135.715228,-34.86387],[135.715276,-34.863762],[135.715863,-34.863546],[135.7173,-34.863033],[135.718383,-34.862672],[135.719729,-34.862203],[135.720212,-34.862038],[135.720367,-34.861982],[135.720425,-34.861856],[135.720461,-34.861689]]}},{"type":"Feature","properties":{"tier":"arterial"},"geometry":{"type":"LineString","coordinates":[[135.848548,-34.743061],[135.849881,-34.7418],[135.850298,-34.741366],[135.850954,-34.740714],[135.851556,-34.740116],[135.852047,-34.739629],[135.852458,-34.739095]]}},{"type":"Feature","properties":{"tier":"regional"},"geometry":{"type":"LineString","coordinates":[[135.859583,-34.729151],[135.858324,-34.728088],[135.858023,-34.727834]]}},{"type":"Feature","properties":{"tier":"arterial"},"geometry":{"type":"LineString","coordinates":[[135.844332,-34.745835],[135.844659,-34.745746],[135.844999,-34.745638],[135.845261,-34.745536],[135.8455,-34.745432],[135.845725,-34.745325],[135.845952,-34.74521],[135.846264,-34.745032],[135.846454,-34.744915],[135.846657,-34.744776],[135.846965,-34.744541],[135.847363,-34.744199],[135.847676,-34.743908],[135.848193,-34.743411],[135.848548,-34.743061]]}},{"type":"Feature","properties":{"tier":"arterial"},"geometry":{"type":"LineString","coordinates":[[135.49998,-34.621759],[135.500518,-34.621614],[135.501938,-34.621224],[135.502676,-34.621027],[135.503604,-34.620777],[135.504116,-34.62067],[135.504614,-34.620593],[135.50511,-34.620538],[135.505618,-34.620515],[135.506153,-34.620514],[135.506546,-34.62053],[135.506988,-34.62056],[135.507315,-34.620606],[135.507694,-34.620673],[135.508542,-34.620838],[135.509242,-34.620984],[135.509914,-34.621109],[135.510296,-34.621169],[135.510495,-34.621191],[135.510691,-34.621194],[135.510854,-34.621192],[135.511084,-34.621172],[135.511309,-34.621134],[135.511576,-34.621068],[135.511766,-34.620999],[135.511979,-34.6209],[135.51226,-34.62074],[135.512443,-34.620604],[135.512591,-34.620477],[135.512756,-34.620307],[135.512898,-34.620125],[135.513037,-34.619929],[135.513231,-34.619649],[135.513586,-34.619137],[135.514168,-34.618299],[135.515658,-34.616157],[135.516489,-34.615009],[135.517549,-34.613649],[135.518292,-34.612707],[135.519039,-34.611753],[135.519375,-34.611407],[135.519799,-34.61099],[135.520759,-34.610279],[135.521261,-34.609957],[135.521954,-34.609407],[135.523141,-34.608544],[135.523706,-34.608049],[135.524638,-34.607066],[135.525844,-34.605792],[135.526633,-34.604987],[135.527287,-34.604526],[135.527914,-34.604262],[135.528888,-34.604002],[135.52928,-34.603955],[135.537378,-34.603004],[135.541648,-34.602528],[135.544012,-34.602246],[135.544982,-34.602049],[135.545707,-34.601787],[135.550338,-34.59943],[135.550891,-34.599248],[135.551591,-34.599146],[135.552322,-34.59912],[135.555592,-34.59951],[135.556459,-34.599479],[135.557315,-34.5993],[135.559266,-34.598647],[135.564671,-34.597693],[135.569881,-34.596867],[135.578443,-34.596376],[135.579516,-34.596182],[135.583915,-34.595241],[135.584003,-34.595222],[135.584883,-34.595118],[135.585025,-34.595118],[135.59132,-34.595141],[135.592395,-34.594971],[135.594448,-34.594447],[135.596482,-34.593866],[135.597119,-34.593492],[135.597642,-34.59307],[135.598188,-34.592239],[135.59835,-34.591584],[135.598771,-34.590061]]}},{"type":"Feature","properties":{"tier":"arterial"},"geometry":{"type":"LineString","coordinates":[[135.852047,-34.739629],[135.852217,-34.739725],[135.852384,-34.739819]]}},{"type":"Feature","properties":{"tier":"high"},"geometry":{"type":"LineString","coordinates":[[135.859915,-34.722614],[135.859962,-34.722648],[135.860289,-34.722828]]}},{"type":"Feature","properties":{"tier":"arterial"},"geometry":{"type":"LineString","coordinates":[[135.867878,-34.723779],[135.868223,-34.723904]]}},{"type":"Feature","properties":{"tier":"arterial"},"geometry":{"type":"LineString","coordinates":[[135.868223,-34.723904],[135.868428,-34.723995],[135.868527,-34.724041],[135.869098,-34.724268],[135.869124,-34.724278],[135.869638,-34.724468],[135.870268,-34.724701],[135.872939,-34.725686],[135.874421,-34.726234],[135.878281,-34.727658],[135.882125,-34.729077]]}},{"type":"Feature","properties":{"tier":"high"},"geometry":{"type":"LineString","coordinates":[[135.854168,-34.718485],[135.854101,-34.718435],[135.853931,-34.718174],[135.853908,-34.718142],[135.85388,-34.718103],[135.853853,-34.718065]]}},{"type":"Feature","properties":{"tier":"high"},"geometry":{"type":"LineString","coordinates":[[135.857472,-34.721636],[135.857568,-34.721725],[135.857679,-34.721799],[135.857734,-34.721826],[135.857837,-34.721869],[135.8581,-34.721965]]}},{"type":"Feature","properties":{"tier":"high"},"geometry":{"type":"LineString","coordinates":[[135.854851,-34.7197],[135.854892,-34.71973],[135.854918,-34.719749],[135.855035,-34.719834],[135.855092,-34.719875],[135.855288,-34.720017],[135.855957,-34.720501],[135.856279,-34.720735],[135.856667,-34.721016],[135.856761,-34.721083]]}},{"type":"Feature","properties":{"tier":"regional"},"geometry":{"type":"LineString","coordinates":[[135.865434,-34.734426],[135.865053,-34.735254],[135.86495,-34.735478],[135.864818,-34.735794],[135.864341,-34.736936],[135.863759,-34.738207],[135.863743,-34.738245],[135.863482,-34.738867],[135.863467,-34.738902],[135.863447,-34.739011],[135.863443,-34.739134],[135.86346,-34.739218],[135.863489,-34.739313],[135.863574,-34.739471],[135.86365,-34.739596]]}},{"type":"Feature","properties":{"tier":"arterial"},"geometry":{"type":"LineString","coordinates":[[135.856102,-34.718381],[135.856122,-34.718401],[135.856134,-34.718424],[135.856136,-34.71845],[135.856128,-34.718475],[135.856111,-34.718497],[135.856087,-34.718513],[135.856058,-34.718522],[135.856028,-34.718523],[135.855998,-34.718517],[135.855972,-34.718503],[135.855952,-34.718484],[135.855941,-34.718461],[135.855939,-34.718436],[135.855946,-34.718412],[135.855961,-34.71839],[135.855985,-34.718373],[135.856014,-34.718363],[135.856045,-34.718361],[135.856075,-34.718367],[135.856102,-34.718381]]}},{"type":"Feature","properties":{"tier":"high"},"geometry":{"type":"LineString","coordinates":[[135.853971,-34.718047],[135.853935,-34.718064],[135.853894,-34.718071],[135.853853,-34.718065],[135.85383,-34.718056],[135.853809,-34.718043],[135.853788,-34.71802],[135.853775,-34.717993],[135.853772,-34.717964],[135.85378,-34.717935],[135.853795,-34.717912],[135.85382,-34.717892],[135.853851,-34.717878],[135.853885,-34.717872],[135.85392,-34.717874],[135.853952,-34.717884],[135.85398,-34.717901],[135.854,-34.717924],[135.854012,-34.717951],[135.854014,-34.71798],[135.854005,-34.718008],[135.853998,-34.718021],[135.853971,-34.718047]]}},{"type":"Feature","properties":{"tier":"high"},"geometry":{"type":"LineString","coordinates":[[135.857476,-34.721588],[135.857477,-34.721612],[135.857472,-34.721636],[135.85746,-34.721657],[135.857444,-34.721674],[135.857423,-34.721689],[135.857399,-34.721699],[135.857373,-34.721705],[135.85735,-34.721707],[135.857327,-34.721705],[135.857305,-34.721699],[135.857284,-34.72169],[135.857266,-34.721678],[135.857251,-34.721664],[135.85724,-34.721647],[135.857232,-34.721631],[135.857229,-34.721613],[135.857229,-34.721596],[135.857234,-34.721573],[135.857246,-34.721551],[135.857264,-34.721532],[135.857287,-34.721517],[135.857313,-34.721507],[135.857341,-34.721502],[135.857364,-34.721502],[135.857386,-34.721505],[135.857407,-34.721512],[135.857432,-34.721525],[135.857453,-34.721543],[135.857468,-34.721564],[135.857476,-34.721588]]}},{"type":"Feature","properties":{"tier":"arterial"},"geometry":{"type":"LineString","coordinates":[[135.858922,-34.724043],[135.858938,-34.724014],[135.859316,-34.723304],[135.859447,-34.723061],[135.859618,-34.722752],[135.859629,-34.722729],[135.859635,-34.722705],[135.859651,-34.722665]]}},{"type":"Feature","properties":{"tier":"arterial"},"geometry":{"type":"LineString","coordinates":[[135.856111,-34.718497],[135.856458,-34.718773],[135.856819,-34.719048],[135.857161,-34.719315],[135.857205,-34.719349],[135.857519,-34.719597],[135.857649,-34.719696],[135.857771,-34.719794],[135.857866,-34.719885],[135.857941,-34.719963],[135.858043,-34.720048],[135.858083,-34.72008]]}},{"type":"Feature","properties":{"tier":"arterial"},"geometry":{"type":"LineString","coordinates":[[135.85822,-34.720176],[135.858317,-34.720213],[135.858945,-34.720451],[135.859553,-34.720681],[135.859779,-34.720767],[135.859883,-34.720806],[135.860365,-34.720987],[135.860449,-34.721017],[135.860545,-34.721052],[135.860669,-34.7211],[135.860753,-34.721132],[135.861072,-34.721257],[135.861332,-34.721356],[135.861341,-34.721359],[135.861389,-34.721377],[135.86167,-34.721483],[135.86209,-34.721643],[135.862556,-34.721819],[135.862618,-34.721843],[135.862874,-34.721936],[135.863026,-34.721994],[135.863192,-34.722056],[135.863542,-34.722193],[135.864269,-34.722469],[135.864465,-34.72254],[135.864605,-34.722596]]}},{"type":"Feature","properties":{"tier":"high"},"geometry":{"type":"LineString","coordinates":[[135.866548,-34.623216],[135.866353,-34.623598],[135.865629,-34.624977],[135.865343,-34.625504],[135.86505,-34.626046],[135.864877,-34.626374],[135.86385,-34.628334],[135.863408,-34.629176],[135.863015,-34.629915],[135.862495,-34.630881],[135.862092,-34.631641],[135.8614,-34.632859],[135.861227,-34.633204],[135.860421,-34.63472],[135.860016,-34.635498],[135.859795,-34.635972],[135.859602,-34.636421],[135.859418,-34.636968],[135.859333,-34.637295],[135.859231,-34.637938],[135.859105,-34.639234],[135.858983,-34.640503],[135.858931,-34.640862],[135.858837,-34.641376],[135.85878,-34.641602],[135.858351,-34.643048],[135.858266,-34.64337],[135.858197,-34.643694],[135.858118,-34.644282],[135.857947,-34.646033],[135.857917,-34.646238],[135.857909,-34.646297],[135.857823,-34.646738],[135.857773,-34.646947],[135.857623,-34.647408],[135.857397,-34.648052],[135.857071,-34.648981],[135.856883,-34.64967],[135.856806,-34.650077],[135.856666,-34.651322],[135.856407,-34.653393],[135.856299,-34.654204],[135.856183,-34.655066],[135.856159,-34.655249],[135.856084,-34.655856],[135.856015,-34.656419],[135.855914,-34.657163],[135.855821,-34.657712],[135.855701,-34.658383],[135.855434,-34.659396],[135.854966,-34.660774],[135.854378,-34.662389],[135.854075,-34.663324],[135.853915,-34.663963],[135.853844,-34.664313],[135.853752,-34.664928],[135.853683,-34.665461],[135.85364,-34.666622],[135.853605,-34.667176],[135.853595,-34.667334],[135.853585,-34.667803],[135.853578,-34.66812],[135.853588,-34.668587],[135.85362,-34.669241],[135.853679,-34.669662],[135.853758,-34.670111],[135.854176,-34.671964],[135.854204,-34.672084],[135.854303,-34.672589],[135.854311,-34.672631],[135.854405,-34.673155],[135.854449,-34.673607]]}},{"type":"Feature","properties":{"tier":"high"},"geometry":{"type":"LineString","coordinates":[[135.877045,-34.586824],[135.876809,-34.587208]]}},{"type":"Feature","properties":{"tier":"arterial"},"geometry":{"type":"LineString","coordinates":[[135.827697,-34.766391],[135.827455,-34.76654],[135.827113,-34.766744],[135.826415,-34.767156],[135.825832,-34.767501],[135.825563,-34.767666],[135.825409,-34.76776],[135.824963,-34.768057],[135.824092,-34.768698],[135.821895,-34.77039],[135.820672,-34.771307],[135.8167,-34.774286],[135.816292,-34.774578],[135.815941,-34.774772],[135.815533,-34.774908],[135.81512,-34.774981],[135.814714,-34.77503],[135.814258,-34.775123],[135.813871,-34.775258],[135.813566,-34.775441],[135.813259,-34.775743],[135.813076,-34.776017],[135.812959,-34.776301],[135.812886,-34.776604],[135.812871,-34.776976],[135.812868,-34.777072],[135.81285,-34.777425],[135.812778,-34.777751],[135.812635,-34.778062],[135.812428,-34.778338],[135.810548,-34.780436],[135.808076,-34.783017],[135.803536,-34.787852],[135.80025,-34.791251],[135.799288,-34.792305]]}},{"type":"Feature","properties":{"tier":"regional"},"geometry":{"type":"LineString","coordinates":[[135.866411,-34.732254],[135.866006,-34.733165],[135.865769,-34.733698],[135.865478,-34.734335],[135.865462,-34.734368],[135.865434,-34.734426]]}},{"type":"Feature","properties":{"tier":"arterial"},"geometry":{"type":"LineString","coordinates":[[135.852384,-34.739819],[135.852332,-34.739885],[135.852,-34.740282],[135.851893,-34.740438],[135.851781,-34.74065],[135.851602,-34.741005],[135.851429,-34.741364],[135.851354,-34.741554],[135.85124,-34.741799],[135.851121,-34.742074]]}},{"type":"Feature","properties":{"tier":"regional"},"geometry":{"type":"LineString","coordinates":[[135.856763,-34.743572],[135.854497,-34.742998],[135.851121,-34.742074]]}},{"type":"Feature","properties":{"tier":"high"},"geometry":{"type":"LineString","coordinates":[[135.859915,-34.722623],[135.859914,-34.722632],[135.859909,-34.722649],[135.859902,-34.722666],[135.85989,-34.722682],[135.859875,-34.722696],[135.859858,-34.722706],[135.85984,-34.722717],[135.859819,-34.722723],[135.859798,-34.722728],[135.859776,-34.722729],[135.859754,-34.722728],[135.859732,-34.722723],[135.859729,-34.722722],[135.859712,-34.722716],[135.859693,-34.722707],[135.859678,-34.722694],[135.859663,-34.722681],[135.859656,-34.722673],[135.859651,-34.722665],[135.859647,-34.722657],[135.859645,-34.722649],[135.859639,-34.722631],[135.859638,-34.722614],[135.85964,-34.722596],[135.859645,-34.722579],[135.85965,-34.722567],[135.859653,-34.722562],[135.859665,-34.722547],[135.859679,-34.722534],[135.859695,-34.722522],[135.859714,-34.722514],[135.859729,-34.722508],[135.859733,-34.722506],[135.859754,-34.722502],[135.859776,-34.722502],[135.859797,-34.722502],[135.859818,-34.722506],[135.859839,-34.722513],[135.859857,-34.722522],[135.859874,-34.722533],[135.859887,-34.722547],[135.8599,-34.722562],[135.859908,-34.722578],[135.859914,-34.722595],[135.859915,-34.722614],[135.859915,-34.722623]]}},{"type":"Feature","properties":{"tier":"arterial"},"geometry":{"type":"LineString","coordinates":[[135.858236,-34.720144],[135.858233,-34.720155],[135.858227,-34.720166],[135.85822,-34.720176],[135.858211,-34.720185],[135.8582,-34.720192],[135.858188,-34.720198],[135.858175,-34.720203],[135.858161,-34.720205],[135.858147,-34.720206],[135.858133,-34.720205],[135.858119,-34.720203],[135.85811,-34.7202],[135.858106,-34.720198],[135.858103,-34.720197],[135.858094,-34.720192],[135.858083,-34.720185],[135.858074,-34.720176],[135.858067,-34.720166],[135.858061,-34.720155],[135.858058,-34.720144],[135.858057,-34.720132],[135.858058,-34.720121],[135.858061,-34.720109],[135.858067,-34.720099],[135.858083,-34.72008],[135.858086,-34.720078],[135.858094,-34.720072],[135.858106,-34.720066],[135.858119,-34.720062],[135.858133,-34.720059],[135.858147,-34.720058],[135.858161,-34.720059],[135.858175,-34.720062],[135.858188,-34.720066],[135.8582,-34.720072],[135.858211,-34.72008],[135.858215,-34.720084],[135.85822,-34.720089],[135.858227,-34.720099],[135.858233,-34.720109],[135.858236,-34.720121],[135.858237,-34.720132],[135.858236,-34.720144]]}},{"type":"Feature","properties":{"tier":"high"},"geometry":{"type":"LineString","coordinates":[[135.854898,-34.719644],[135.854897,-34.719649],[135.854895,-34.719656],[135.854889,-34.719667],[135.854881,-34.719678],[135.854872,-34.719687],[135.85486,-34.719695],[135.854851,-34.7197],[135.854847,-34.719702],[135.854833,-34.719707],[135.854819,-34.719709],[135.854804,-34.71971],[135.854789,-34.719709],[135.854774,-34.719707],[135.85476,-34.719702],[135.854747,-34.719695],[135.854741,-34.719691],[135.854736,-34.719687],[135.854726,-34.719678],[135.854718,-34.719667],[135.854714,-34.719659],[135.854712,-34.719656],[135.854709,-34.719644],[135.854708,-34.719631],[135.854709,-34.719619],[135.854712,-34.719607],[135.854718,-34.719596],[135.854726,-34.719585],[135.854736,-34.719576],[135.854747,-34.719568],[135.854754,-34.719564],[135.85476,-34.719561],[135.854769,-34.719558],[135.854774,-34.719556],[135.854789,-34.719554],[135.854804,-34.719552],[135.854819,-34.719554],[135.854833,-34.719556],[135.854847,-34.719561],[135.85486,-34.719568],[135.854872,-34.719576],[135.854881,-34.719585],[135.854889,-34.719596],[135.854895,-34.719607],[135.854898,-34.719619],[135.8549,-34.719631],[135.854898,-34.719644]]}},{"type":"Feature","properties":{"tier":"arterial"},"geometry":{"type":"LineString","coordinates":[[135.49998,-34.562129],[135.501463,-34.562498],[135.502198,-34.562718],[135.502632,-34.562886],[135.503575,-34.563284],[135.509567,-34.56587],[135.509856,-34.56599],[135.517109,-34.568558],[135.51763,-34.568746],[135.518265,-34.568938],[135.525425,-34.570907],[135.532628,-34.572889],[135.533191,-34.573048],[135.533591,-34.573169],[135.534119,-34.573335],[135.534523,-34.573493],[135.534818,-34.573623],[135.535165,-34.573803],[135.535471,-34.573989],[135.535753,-34.574183],[135.538743,-34.576306],[135.539356,-34.576739],[135.539641,-34.576904],[135.539862,-34.577021],[135.540254,-34.577198],[135.540627,-34.577337],[135.540924,-34.577439],[135.541224,-34.577515],[135.541653,-34.577613],[135.542051,-34.577686],[135.542386,-34.577725],[135.542739,-34.577742],[135.545793,-34.577749],[135.550455,-34.577739],[135.551101,-34.57774],[135.551561,-34.57775],[135.551931,-34.57777],[135.552378,-34.577803],[135.554177,-34.578008],[135.56057,-34.578628],[135.561233,-34.578706],[135.561933,-34.578797],[135.562588,-34.578951],[135.563071,-34.579093],[135.563596,-34.579285],[135.564021,-34.57948],[135.564419,-34.579731],[135.564852,-34.580046],[135.565328,-34.580394],[135.56571,-34.580639],[135.566132,-34.580863],[135.566584,-34.581061],[135.567047,-34.581232],[135.567597,-34.58137],[135.568161,-34.581473],[135.568724,-34.581531],[135.569344,-34.581551],[135.57062,-34.58157],[135.571169,-34.581592],[135.571598,-34.581628],[135.572072,-34.581687],[135.572886,-34.581816],[135.573481,-34.581925],[135.579882,-34.58306],[135.581245,-34.583301],[135.581752,-34.583393],[135.582137,-34.583477],[135.582538,-34.58358],[135.583027,-34.583756],[135.583456,-34.583944],[135.584583,-34.584454],[135.588937,-34.586373],[135.589163,-34.586476],[135.592088,-34.587861],[135.594794,-34.589064],[135.595212,-34.589244],[135.595546,-34.589373],[135.596001,-34.589523],[135.596548,-34.589665],[135.597078,-34.589783],[135.597766,-34.589894],[135.598771,-34.590061],[135.601265,-34.590506],[135.608169,-34.591693],[135.614835,-34.59288],[135.616352,-34.59314],[135.618217,-34.593457],[135.618563,-34.59355],[135.619074,-34.593717],[135.619705,-34.593972],[135.621016,-34.594535],[135.62715,-34.597102],[135.627681,-34.597328],[135.630888,-34.598678],[135.631578,-34.599003],[135.632116,-34.599326],[135.63271,-34.599773],[135.633143,-34.600161],[135.633408,-34.60038],[135.633786,-34.60064],[135.634277,-34.600937],[135.634733,-34.601152],[135.635546,-34.601461],[135.635897,-34.601555],[135.651115,-34.605186],[135.652533,-34.605548],[135.653145,-34.60577],[135.653659,-34.606013],[135.654188,-34.60633],[135.654794,-34.606775],[135.657573,-34.609256],[135.661849,-34.613126],[135.664114,-34.615166],[135.664931,-34.615918],[135.668738,-34.619331]]}},{"type":"Feature","properties":{"tier":"regional"},"geometry":{"type":"LineString","coordinates":[[135.925997,-34.543865],[135.926805,-34.543826],[135.929214,-34.543747]]}},{"type":"Feature","properties":{"tier":"regional"},"geometry":{"type":"LineString","coordinates":[[135.929214,-34.543747],[135.92972,-34.543732],[135.930329,-34.543676],[135.930739,-34.543626]]}},{"type":"Feature","properties":{"tier":"regional"},"geometry":{"type":"LineString","coordinates":[[135.930739,-34.543626],[135.93172,-34.542687],[135.932863,-34.541521]]}},{"type":"Feature","properties":{"tier":"high"},"geometry":{"type":"LineString","coordinates":[[135.853368,-34.705654],[135.853368,-34.705883],[135.853425,-34.706587],[135.853424,-34.706779],[135.853411,-34.708845],[135.853451,-34.7103],[135.853419,-34.710714],[135.853376,-34.710899],[135.853309,-34.711108],[135.853163,-34.711348],[135.852689,-34.712028],[135.852657,-34.712101],[135.852621,-34.712182],[135.852564,-34.712426],[135.852576,-34.712698],[135.852763,-34.714591],[135.852886,-34.715622],[135.852962,-34.71603],[135.8531,-34.716452],[135.853177,-34.716629],[135.853228,-34.716743],[135.853393,-34.717039],[135.85355,-34.717321],[135.853623,-34.717452]]}},{"type":"Feature","properties":{"tier":"high"},"geometry":{"type":"LineString","coordinates":[[135.854417,-34.69704],[135.854447,-34.69734],[135.854456,-34.697676],[135.854456,-34.69799],[135.854422,-34.698353],[135.854328,-34.699091],[135.854159,-34.70029],[135.853997,-34.70144],[135.85397,-34.701809]]}},{"type":"Feature","properties":{"tier":"arterial"},"geometry":{"type":"LineString","coordinates":[[135.681988,-34.49998],[135.683254,-34.505618],[135.683682,-34.507547],[135.684052,-34.509183],[135.684158,-34.509828],[135.684235,-34.510727],[135.68442,-34.513435],[135.6845,-34.514686],[135.684505,-34.515317],[135.684421,-34.515963],[135.684214,-34.516729],[135.683573,-34.518522],[135.683307,-34.519228],[135.683049,-34.519748],[135.682825,-34.520095],[135.682477,-34.520532],[135.681919,-34.521086],[135.679601,-34.522955],[135.677783,-34.524409],[135.677035,-34.525049],[135.676585,-34.525526],[135.676234,-34.525997],[135.675871,-34.526574],[135.674651,-34.528705],[135.674276,-34.529347],[135.674021,-34.529782],[135.67215,-34.53298],[135.671822,-34.533553],[135.671433,-34.534069],[135.671079,-34.534498],[135.670667,-34.534914],[135.665434,-34.539121],[135.664758,-34.539781],[135.66345,-34.541524],[135.660925,-34.544995],[135.660138,-34.546128],[135.660006,-34.546365],[135.659756,-34.54697],[135.65963,-34.547391],[135.659544,-34.547851],[135.659517,-34.548156],[135.659508,-34.548552],[135.659604,-34.549554],[135.659877,-34.552332],[135.659942,-34.553013],[135.660021,-34.553484],[135.660202,-34.554142],[135.660389,-34.554576],[135.660722,-34.555126],[135.661003,-34.555528],[135.661423,-34.556086],[135.663121,-34.558349],[135.663436,-34.558699],[135.663831,-34.559063],[135.664162,-34.559334],[135.664597,-34.559616],[135.664988,-34.559857],[135.665458,-34.560076],[135.666194,-34.560414],[135.666777,-34.560719],[135.667251,-34.561011],[135.667743,-34.561387],[135.668226,-34.561843],[135.668648,-34.562311],[135.669393,-34.563572],[135.670545,-34.565807],[135.671374,-34.567755],[135.671685,-34.568535],[135.671831,-34.568945],[135.67196,-34.569363],[135.672044,-34.569732],[135.672118,-34.570162],[135.672289,-34.571472],[135.672365,-34.573567],[135.672338,-34.57791],[135.672339,-34.579028],[135.672269,-34.59265],[135.672203,-34.599259],[135.672213,-34.59977],[135.672215,-34.600805],[135.672187,-34.603412],[135.672167,-34.610552],[135.672166,-34.61069],[135.672081,-34.614162],[135.672039,-34.614548],[135.671964,-34.614924],[135.67193,-34.615086],[135.671807,-34.615465],[135.671613,-34.61593],[135.671301,-34.616474],[135.671037,-34.616836],[135.670663,-34.617293],[135.670258,-34.617708],[135.668738,-34.619331]]}},{"type":"Feature","properties":{"tier":"high"},"geometry":{"type":"LineString","coordinates":[[135.856989,-34.721236],[135.857202,-34.721338],[135.857241,-34.721347],[135.857276,-34.721354],[135.85731,-34.721355],[135.857352,-34.721351],[135.857388,-34.721337],[135.857532,-34.721198]]}},{"type":"Feature","properties":{"tier":"high"},"geometry":{"type":"LineString","coordinates":[[135.857749,-34.721896],[135.857683,-34.721884],[135.857634,-34.721869],[135.857584,-34.721858],[135.857533,-34.721852],[135.857481,-34.72185],[135.857429,-34.721853],[135.857378,-34.721861],[135.857328,-34.721873],[135.857281,-34.72189],[135.857225,-34.72191]]}},{"type":"Feature","properties":{"tier":"arterial"},"geometry":{"type":"LineString","coordinates":[[135.854,-34.717924],[135.854045,-34.71794],[135.854083,-34.717952],[135.85413,-34.717961],[135.854244,-34.717969],[135.854384,-34.717972],[135.854469,-34.717967],[135.854543,-34.717956],[135.854631,-34.717935],[135.854708,-34.717938]]}},{"type":"Feature","properties":{"tier":"high"},"geometry":{"type":"LineString","coordinates":[[135.854168,-34.718485],[135.854178,-34.718506],[135.854252,-34.718632],[135.854343,-34.71879],[135.854735,-34.719528],[135.854754,-34.719564]]}},{"type":"Feature","properties":{"tier":"arterial"},"geometry":{"type":"LineString","coordinates":[[135.854708,-34.717938],[135.854677,-34.71798],[135.854612,-34.718005],[135.85452,-34.71802],[135.854426,-34.718027],[135.85429,-34.718026],[135.854177,-34.718032],[135.854005,-34.718008]]}},{"type":"Feature","properties":{"tier":"arterial"},"geometry":{"type":"LineString","coordinates":[[135.853809,-34.718043],[135.853758,-34.718024],[135.853719,-34.718016],[135.85366,-34.718011],[135.853196,-34.717962]]}},{"type":"Feature","properties":{"tier":"high"},"geometry":{"type":"LineString","coordinates":[[135.853998,-34.718021],[135.853994,-34.71806],[135.854,-34.718092],[135.85401,-34.718129],[135.854067,-34.718227],[135.854164,-34.718408],[135.854168,-34.718485]]}},{"type":"Feature","properties":{"tier":"arterial"},"geometry":{"type":"LineString","coordinates":[[135.853196,-34.717962],[135.85349,-34.717946],[135.853625,-34.717946],[135.853699,-34.717942],[135.853744,-34.717939],[135.85378,-34.717935]]}},{"type":"Feature","properties":{"tier":"high"},"geometry":{"type":"LineString","coordinates":[[135.854177,-34.718032],[135.854122,-34.718057],[135.854101,-34.718072],[135.854086,-34.718096],[135.854067,-34.718227]]}},{"type":"Feature","properties":{"tier":"high"},"geometry":{"type":"LineString","coordinates":[[135.853623,-34.717452],[135.853772,-34.717669],[135.853841,-34.717781],[135.853861,-34.71781],[135.85389,-34.717838],[135.853915,-34.71786],[135.853952,-34.717884]]}},{"type":"Feature","properties":{"tier":"high"},"geometry":{"type":"LineString","coordinates":[[135.853795,-34.717912],[135.853698,-34.717717],[135.853623,-34.717452]]}},{"type":"Feature","properties":{"tier":"regional"},"geometry":{"type":"LineString","coordinates":[[135.798627,-34.793008],[135.799116,-34.793318],[135.799212,-34.793421],[135.79925,-34.793515],[135.799227,-34.794335]]}},{"type":"Feature","properties":{"tier":"arterial"},"geometry":{"type":"LineString","coordinates":[[135.859819,-34.722723],[135.859766,-34.722758],[135.859748,-34.722774],[135.859732,-34.722795],[135.859561,-34.723102],[135.859425,-34.723345],[135.859399,-34.723396],[135.859079,-34.724013],[135.859056,-34.724059],[135.859043,-34.724084],[135.859014,-34.72414],[135.858995,-34.724176],[135.858882,-34.724392],[135.858663,-34.724783],[135.858556,-34.724975],[135.858359,-34.725343],[135.858351,-34.725358],[135.858258,-34.725423]]}},{"type":"Feature","properties":{"tier":"arterial"},"geometry":{"type":"LineString","coordinates":[[135.85818,-34.727395],[135.858475,-34.727296],[135.858737,-34.727213],[135.85904,-34.727118],[135.859311,-34.727046],[135.859623,-34.726983],[135.859884,-34.726945],[135.860182,-34.726923],[135.860536,-34.72691],[135.860589,-34.72691],[135.861106,-34.726904],[135.861491,-34.726903],[135.862052,-34.726903],[135.862193,-34.726903],[135.862432,-34.726885],[135.862574,-34.726865],[135.862781,-34.726817],[135.862905,-34.726784],[135.863088,-34.726706],[135.863187,-34.726658],[135.863392,-34.726542],[135.863468,-34.726475],[135.863647,-34.726325],[135.86376,-34.726184],[135.86395,-34.725876],[135.864003,-34.725779],[135.864039,-34.725714],[135.864088,-34.725625],[135.864316,-34.72518],[135.864476,-34.724905],[135.864704,-34.724489]]}},{"type":"Feature","properties":{"tier":"arterial"},"geometry":{"type":"LineString","coordinates":[[135.857746,-34.727172],[135.857884,-34.726682],[135.858213,-34.725548],[135.858258,-34.725423]]}},{"type":"Feature","properties":{"tier":"arterial"},"geometry":{"type":"LineString","coordinates":[[135.857675,-34.727757],[135.857594,-34.727821],[135.857508,-34.727908]]}},{"type":"Feature","properties":{"tier":"arterial"},"geometry":{"type":"LineString","coordinates":[[135.85818,-34.727395],[135.858041,-34.72749],[135.857972,-34.727564]]}},{"type":"Feature","properties":{"tier":"high"},"geometry":{"type":"LineString","coordinates":[[135.860289,-34.722828],[135.860687,-34.722978]]}},{"type":"Feature","properties":{"tier":"regional"},"geometry":{"type":"LineString","coordinates":[[135.858023,-34.727834],[135.857916,-34.727786],[135.857806,-34.727748]]}},{"type":"Feature","properties":{"tier":"high"},"geometry":{"type":"LineString","coordinates":[[135.860289,-34.722828],[135.859918,-34.722715],[135.859858,-34.722706]]}},{"type":"Feature","properties":{"tier":"arterial"},"geometry":{"type":"LineString","coordinates":[[135.857508,-34.727908],[135.85752,-34.727805],[135.857523,-34.727694]]}},{"type":"Feature","properties":{"tier":"arterial"},"geometry":{"type":"LineString","coordinates":[[135.857746,-34.727172],[135.857749,-34.727272],[135.857781,-34.727343]]}},{"type":"Feature","properties":{"tier":"regional"},"geometry":{"type":"LineString","coordinates":[[135.857933,-34.727661],[135.857948,-34.727716],[135.857966,-34.727768],[135.858023,-34.727834]]}},{"type":"Feature","properties":{"tier":"high"},"geometry":{"type":"LineString","coordinates":[[135.8581,-34.721965],[135.858681,-34.722178],[135.859534,-34.72249],[135.859714,-34.722514]]}},{"type":"Feature","properties":{"tier":"high"},"geometry":{"type":"LineString","coordinates":[[135.853368,-34.705654],[135.853302,-34.705564],[135.85327,-34.70541],[135.853194,-34.705319],[135.853082,-34.70528],[135.852926,-34.705243]]}},{"type":"Feature","properties":{"tier":"high"},"geometry":{"type":"LineString","coordinates":[[135.853188,-34.705192],[135.853211,-34.705166],[135.853258,-34.705141],[135.853293,-34.705114],[135.853329,-34.705075],[135.853362,-34.705034],[135.853417,-34.705007]]}},{"type":"Feature","properties":{"tier":"regional"},"geometry":{"type":"LineString","coordinates":[[135.720461,-34.861689],[135.720404,-34.860808],[135.72038,-34.860284],[135.720373,-34.860113],[135.720451,-34.8596],[135.720678,-34.858967],[135.721056,-34.858248],[135.721215,-34.857822],[135.72143,-34.85688],[135.721526,-34.856242],[135.721769,-34.854333],[135.721789,-34.854184],[135.721925,-34.853576],[135.72227,-34.852751],[135.722301,-34.852678],[135.723679,-34.851024],[135.723979,-34.850665],[135.724095,-34.850525],[135.724191,-34.85041],[135.724693,-34.849808],[135.725044,-34.849095],[135.725122,-34.848936],[135.726077,-34.845819],[135.72619,-34.845365],[135.727134,-34.841632]]}},{"type":"Feature","properties":{"tier":"high"},"geometry":{"type":"LineString","coordinates":[[135.853386,-34.705181],[135.853368,-34.705508],[135.853368,-34.705654]]}},{"type":"Feature","properties":{"tier":"high"},"geometry":{"type":"LineString","coordinates":[[135.85397,-34.701809],[135.853992,-34.70219],[135.854067,-34.702935],[135.854065,-34.703226],[135.85405,-34.703398],[135.853999,-34.703641],[135.853829,-34.704018],[135.853777,-34.70416],[135.853671,-34.704357],[135.853486,-34.704773],[135.853474,-34.704811],[135.853449,-34.70489],[135.853424,-34.704971],[135.853417,-34.705007],[135.853386,-34.705181]]}},{"type":"Feature","properties":{"tier":"high"},"geometry":{"type":"LineString","coordinates":[[135.854408,-34.696431],[135.854402,-34.696669],[135.854413,-34.696954],[135.854417,-34.69704]]}},{"type":"Feature","properties":{"tier":"high"},"geometry":{"type":"LineString","coordinates":[[135.854692,-34.694015],[135.854622,-34.694744],[135.854422,-34.696216],[135.854408,-34.696431]]}},{"type":"Feature","properties":{"tier":"arterial"},"geometry":{"type":"LineString","coordinates":[[135.85317,-34.717965],[135.853196,-34.717962]]}},{"type":"Feature","properties":{"tier":"regional"},"geometry":{"type":"LineString","coordinates":[[135.863558,-34.727443],[135.863458,-34.727561],[135.86342,-34.727606],[135.863334,-34.727693],[135.863195,-34.727835],[135.863025,-34.727975],[135.862903,-34.728067],[135.862682,-34.728188],[135.862229,-34.7284],[135.861931,-34.72855],[135.861804,-34.728611],[135.861644,-34.728706],[135.86142,-34.728858],[135.860262,-34.729698]]}},{"type":"Feature","properties":{"tier":"arterial"},"geometry":{"type":"LineString","coordinates":[[135.771995,-34.684852],[135.772817,-34.685437]]}},{"type":"Feature","properties":{"tier":"arterial"},"geometry":{"type":"LineString","coordinates":[[135.769195,-34.682888],[135.770954,-34.684112]]}},{"type":"Feature","properties":{"tier":"arterial"},"geometry":{"type":"LineString","coordinates":[[135.770954,-34.684112],[135.771678,-34.683773]]}},{"type":"Feature","properties":{"tier":"arterial"},"geometry":{"type":"LineString","coordinates":[[135.771678,-34.683773],[135.771678,-34.683781],[135.771671,-34.683799],[135.771647,-34.683822],[135.771399,-34.683931],[135.771253,-34.684003],[135.771197,-34.684042],[135.771171,-34.684073],[135.771159,-34.684106],[135.771158,-34.684148],[135.771171,-34.684186],[135.771206,-34.684224],[135.771356,-34.684336],[135.771633,-34.684535],[135.771798,-34.684658],[135.771949,-34.684777],[135.771979,-34.684812],[135.771995,-34.684852]]}},{"type":"Feature","properties":{"tier":"arterial"},"geometry":{"type":"LineString","coordinates":[[135.769195,-34.682888],[135.76922,-34.682889],[135.769237,-34.682893],[135.769257,-34.682902],[135.769271,-34.682911],[135.769526,-34.683082],[135.770023,-34.683422],[135.770384,-34.683663],[135.770532,-34.683765],[135.770656,-34.683828],[135.77073,-34.683856],[135.770839,-34.683886],[135.77092,-34.683907],[135.771008,-34.683921],[135.7711,-34.683929],[135.771181,-34.683921],[135.771271,-34.683908],[135.771355,-34.683883],[135.77148,-34.683825],[135.771587,-34.683781],[135.771654,-34.683769],[135.771678,-34.683773]]}},{"type":"Feature","properties":{"tier":"arterial"},"geometry":{"type":"LineString","coordinates":[[135.770954,-34.684112],[135.771995,-34.684852]]}},{"type":"Feature","properties":{"tier":"arterial"},"geometry":{"type":"LineString","coordinates":[[135.771678,-34.683773],[135.772602,-34.683339],[135.772923,-34.683232]]}},{"type":"Feature","properties":{"tier":"arterial"},"geometry":{"type":"LineString","coordinates":[[135.668738,-34.619331],[135.675459,-34.625246],[135.678127,-34.627534],[135.679817,-34.628983],[135.681367,-34.630312],[135.682117,-34.630955],[135.682782,-34.631524],[135.684686,-34.633156],[135.68592,-34.634213],[135.6883,-34.636215],[135.689098,-34.636915],[135.689527,-34.637238],[135.69008,-34.637618],[135.690572,-34.637904],[135.691024,-34.638115],[135.69146,-34.638312],[135.691949,-34.638485],[135.692407,-34.638629],[135.692779,-34.638721],[135.693192,-34.638799],[135.693595,-34.638867],[135.694173,-34.638924],[135.69481,-34.638952],[135.695408,-34.638929],[135.696039,-34.638874],[135.697102,-34.638717],[135.698103,-34.638582],[135.698742,-34.638504],[135.699228,-34.638463],[135.699677,-34.638453],[135.700142,-34.638483],[135.700557,-34.638549],[135.700928,-34.638634],[135.701348,-34.638753],[135.701745,-34.638913],[135.702169,-34.639112],[135.702554,-34.639332],[135.702947,-34.63961],[135.703575,-34.640192],[135.704804,-34.641402],[135.705069,-34.641653],[135.705336,-34.641889],[135.705617,-34.64212],[135.705879,-34.642324],[135.706479,-34.642692],[135.706776,-34.64287],[135.707972,-34.643539],[135.709168,-34.644207],[135.709728,-34.644565],[135.710322,-34.644956],[135.710914,-34.645366],[135.711982,-34.64611],[135.717417,-34.649825],[135.718638,-34.650672],[135.720267,-34.651802],[135.721265,-34.652495],[135.727253,-34.656541],[135.727742,-34.656887],[135.729926,-34.658434],[135.732489,-34.660399],[135.733149,-34.660787],[135.733902,-34.661132],[135.73507,-34.661704],[135.736343,-34.662494],[135.737941,-34.663504],[135.743515,-34.667027],[135.745478,-34.668224],[135.746226,-34.668686],[135.746957,-34.669176],[135.747845,-34.669823],[135.749092,-34.670716],[135.750047,-34.6714],[135.750425,-34.671628],[135.750792,-34.671838],[135.751561,-34.672212],[135.754184,-34.673386],[135.756603,-34.67438],[135.757181,-34.674631],[135.757596,-34.674828],[135.757891,-34.674968],[135.758265,-34.67518],[135.758592,-34.675393],[135.759081,-34.675723],[135.760283,-34.676572],[135.76239,-34.678048],[135.764879,-34.679838],[135.769195,-34.682888]]}},{"type":"Feature","properties":{"tier":"high"},"geometry":{"type":"LineString","coordinates":[[135.859645,-34.722649],[135.859541,-34.72258],[135.85864,-34.722244],[135.858399,-34.722151],[135.858055,-34.722019]]}},{"type":"Feature","properties":{"tier":"high"},"geometry":{"type":"LineString","coordinates":[[135.858055,-34.722019],[135.857749,-34.721896],[135.857682,-34.721868],[135.857519,-34.721797],[135.857461,-34.721772],[135.85742,-34.721748],[135.857396,-34.721731],[135.857373,-34.721705]]}},{"type":"Feature","properties":{"tier":"high"},"geometry":{"type":"LineString","coordinates":[[135.857229,-34.721596],[135.857134,-34.721489],[135.85696,-34.721294],[135.856769,-34.721124],[135.856761,-34.721083]]}},{"type":"Feature","properties":{"tier":"high"},"geometry":{"type":"LineString","coordinates":[[135.856761,-34.721083],[135.856854,-34.721123],[135.856989,-34.721236],[135.857125,-34.721357],[135.857202,-34.721421],[135.857341,-34.721502]]}},{"type":"Feature","properties":{"tier":"arterial"},"geometry":{"type":"LineString","coordinates":[[135.857781,-34.727343],[135.857836,-34.727361],[135.857889,-34.727392],[135.857926,-34.727427]]}},{"type":"Feature","properties":{"tier":"high"},"geometry":{"type":"LineString","coordinates":[[135.85349,-34.717946],[135.85354,-34.717928],[135.853574,-34.71791],[135.853601,-34.717886],[135.853623,-34.717858],[135.853636,-34.717821],[135.853641,-34.717793],[135.85364,-34.717757],[135.853629,-34.717722],[135.853393,-34.717039]]}},{"type":"Feature","properties":{"tier":"arterial"},"geometry":{"type":"LineString","coordinates":[[135.855092,-34.719875],[135.855031,-34.719866],[135.854995,-34.719853],[135.854956,-34.719836],[135.854927,-34.719824],[135.854896,-34.719814],[135.854868,-34.719808],[135.85484,-34.719804],[135.854811,-34.719803],[135.854778,-34.719807],[135.854746,-34.719814],[135.854713,-34.719823],[135.854673,-34.71984],[135.854623,-34.719863],[135.854575,-34.719882],[135.854514,-34.719908]]}},{"type":"Feature","properties":{"tier":"high"},"geometry":{"type":"LineString","coordinates":[[135.860687,-34.722978],[135.861507,-34.723286],[135.862201,-34.723547],[135.863288,-34.723956],[135.863371,-34.723987],[135.863814,-34.724154],[135.863848,-34.724166],[135.864594,-34.724447],[135.864704,-34.724489]]}},{"type":"Feature","properties":{"tier":"arterial"},"geometry":{"type":"LineString","coordinates":[[135.82912,-34.741361],[135.829196,-34.741444],[135.829524,-34.741704],[135.830139,-34.742141],[135.83035,-34.742255],[135.830631,-34.742409],[135.831039,-34.74259],[135.83163,-34.742806],[135.835185,-34.744068],[135.836833,-34.744633],[135.838624,-34.745246],[135.839301,-34.745488],[135.839658,-34.745612],[135.839923,-34.745691],[135.840114,-34.745749],[135.840439,-34.745824],[135.840725,-34.745895],[135.84108,-34.745955],[135.841288,-34.745989],[135.841648,-34.746025]]}},{"type":"Feature","properties":{"tier":"arterial"},"geometry":{"type":"LineString","coordinates":[[135.857675,-34.727757],[135.857655,-34.727755],[135.857581,-34.727732],[135.857523,-34.727694]]}},{"type":"Feature","properties":{"tier":"arterial"},"geometry":{"type":"LineString","coordinates":[[135.857972,-34.727564],[135.85796,-34.727615],[135.857933,-34.727661],[135.857901,-34.727696],[135.857864,-34.727722],[135.857806,-34.727748],[135.857729,-34.727761],[135.857675,-34.727757]]}},{"type":"Feature","properties":{"tier":"arterial"},"geometry":{"type":"LineString","coordinates":[[135.857926,-34.727427],[135.857955,-34.727472],[135.857968,-34.727509],[135.857972,-34.727564]]}},{"type":"Feature","properties":{"tier":"arterial"},"geometry":{"type":"LineString","coordinates":[[135.727134,-34.841632],[135.727172,-34.841501],[135.727251,-34.841223],[135.727628,-34.839906]]}},{"type":"Feature","properties":{"tier":"arterial"},"geometry":{"type":"LineString","coordinates":[[135.840379,-34.729299],[135.840458,-34.729266]]}},{"type":"Feature","properties":{"tier":"arterial"},"geometry":{"type":"LineString","coordinates":[[135.840458,-34.729266],[135.84222,-34.728542],[135.842568,-34.728401],[135.842769,-34.728289],[135.842901,-34.728143],[135.842946,-34.728082],[135.842986,-34.72799],[135.843146,-34.727646],[135.843337,-34.72724],[135.843484,-34.726963],[135.843686,-34.726695],[135.844219,-34.726219],[135.844855,-34.725664],[135.844875,-34.725647],[135.845099,-34.725451],[135.846044,-34.724613],[135.846277,-34.724417],[135.84656,-34.724217],[135.846986,-34.724002],[135.847283,-34.723866],[135.847305,-34.723856],[135.847727,-34.723663],[135.84805,-34.723496],[135.848415,-34.72328],[135.849137,-34.722837],[135.849317,-34.722739],[135.84951,-34.722656],[135.850093,-34.722516],[135.850281,-34.722483],[135.850499,-34.722428],[135.85084,-34.722319],[135.851546,-34.722066],[135.85178,-34.721988],[135.85203,-34.721887],[135.852174,-34.7218],[135.852727,-34.721394],[135.852938,-34.721209],[135.853195,-34.721015],[135.853395,-34.720864],[135.853649,-34.720672],[135.853747,-34.720598],[135.854103,-34.72028],[135.8542,-34.720193],[135.854514,-34.719908],[135.854741,-34.719691]]}},{"type":"Feature","properties":{"tier":"arterial"},"geometry":{"type":"LineString","coordinates":[[135.841648,-34.746025],[135.841834,-34.746038],[135.842046,-34.746051],[135.842213,-34.746056],[135.842421,-34.746061],[135.842718,-34.746061],[135.842947,-34.746051],[135.843182,-34.746035],[135.843364,-34.746012],[135.843671,-34.745973],[135.843974,-34.745915],[135.844332,-34.745835]]}},{"type":"Feature","properties":{"tier":"arterial"},"geometry":{"type":"LineString","coordinates":[[135.785431,-34.804904],[135.785028,-34.805037],[135.784328,-34.805273],[135.78393,-34.805417],[135.783621,-34.805545],[135.783329,-34.805679],[135.782871,-34.805906],[135.782307,-34.806222],[135.780403,-34.80728],[135.780121,-34.807444],[135.779908,-34.807576],[135.779697,-34.807702],[135.779463,-34.807856],[135.779251,-34.808009],[135.779067,-34.808156],[135.778916,-34.808298],[135.778769,-34.808459],[135.778622,-34.808644],[135.77848,-34.808851],[135.778166,-34.809323],[135.7777,-34.810058],[135.777003,-34.81071],[135.776711,-34.810878],[135.776336,-34.811052],[135.775472,-34.811307],[135.773281,-34.81137],[135.772293,-34.811382],[135.771275,-34.811326],[135.770053,-34.811163],[135.768479,-34.810747],[135.767379,-34.81034],[135.766324,-34.809787],[135.765351,-34.809176],[135.764199,-34.80842],[135.763755,-34.808191],[135.763273,-34.807987],[135.762728,-34.807771],[135.762233,-34.807637],[135.761759,-34.807544],[135.760316,-34.807391],[135.759197,-34.807492],[135.758084,-34.807696],[135.754255,-34.808527],[135.753344,-34.808664],[135.752397,-34.808735],[135.751275,-34.808812],[135.75043,-34.808973],[135.748778,-34.809485],[135.748214,-34.809716],[135.747012,-34.810491],[135.746389,-34.811027],[135.745803,-34.811638],[135.745213,-34.812382],[135.744695,-34.81324],[135.744008,-34.814649],[135.743393,-34.816144],[135.742892,-34.817327],[135.742136,-34.818836],[135.741224,-34.820105],[135.740231,-34.821202],[135.739459,-34.822189],[135.739057,-34.8231],[135.738793,-34.823896],[135.73859,-34.824923],[135.738307,-34.826644],[135.738,-34.827755],[135.737227,-34.828953],[135.736112,-34.83001],[135.733966,-34.832123],[135.732078,-34.833743],[135.730482,-34.835338],[135.72934,-34.836492],[135.728884,-34.836998],[135.72853,-34.837486],[135.728231,-34.838032],[135.728167,-34.838185],[135.727986,-34.838617],[135.727628,-34.839906]]}},{"type":"Feature","properties":{"tier":"arterial"},"geometry":{"type":"LineString","coordinates":[[135.811901,-34.727945],[135.812941,-34.728926],[135.813738,-34.729678],[135.813772,-34.729711],[135.814139,-34.730057],[135.814506,-34.7304],[135.814862,-34.730717],[135.815123,-34.730936],[135.81546,-34.731185],[135.815873,-34.731435],[135.81844,-34.732883]]}},{"type":"Feature","properties":{"tier":"arterial"},"geometry":{"type":"LineString","coordinates":[[135.81844,-34.732883],[135.821772,-34.734754],[135.824291,-34.736147],[135.825427,-34.73681],[135.825766,-34.737038],[135.826101,-34.737292],[135.826299,-34.737475],[135.826353,-34.737524],[135.826998,-34.738207],[135.827341,-34.738694],[135.828169,-34.740179],[135.828426,-34.740593],[135.828719,-34.740951],[135.828932,-34.741183],[135.82912,-34.741361]]}},{"type":"Feature","properties":{"tier":"arterial"},"geometry":{"type":"LineString","coordinates":[[135.851121,-34.742074],[135.851004,-34.742316],[135.85089,-34.742551],[135.850503,-34.743417],[135.850138,-34.744152],[135.849796,-34.744935],[135.849093,-34.746421],[135.848034,-34.748793],[135.847799,-34.749319],[135.847034,-34.75056],[135.846672,-34.750922],[135.846469,-34.751125],[135.846002,-34.751478],[135.845735,-34.751674],[135.845378,-34.751951],[135.844058,-34.75293],[135.843523,-34.753384]]}},{"type":"Feature","properties":{"tier":"arterial"},"geometry":{"type":"LineString","coordinates":[[135.827104,-34.711158],[135.828742,-34.712022],[135.829359,-34.71235],[135.830796,-34.713115],[135.831257,-34.713345],[135.831463,-34.713437],[135.831629,-34.713501],[135.832015,-34.713612],[135.83395,-34.714038],[135.836748,-34.714646],[135.840053,-34.715378],[135.840541,-34.715488],[135.841073,-34.715608],[135.841803,-34.715778],[135.842261,-34.715891],[135.842341,-34.715909],[135.842432,-34.715931],[135.842514,-34.715955],[135.842611,-34.715989],[135.842701,-34.716029],[135.842857,-34.716112],[135.843194,-34.716319],[135.843526,-34.716536],[135.843836,-34.716738],[135.844354,-34.717077],[135.845007,-34.717522],[135.845128,-34.717589],[135.845328,-34.717671],[135.845518,-34.717736],[135.846106,-34.717834],[135.84657,-34.717909],[135.847412,-34.718045],[135.847816,-34.718109],[135.848165,-34.718165],[135.848325,-34.718191],[135.848819,-34.718258],[135.849716,-34.718397],[135.849914,-34.718413],[135.849999,-34.71841],[135.850231,-34.718381],[135.851361,-34.718156],[135.851818,-34.718064],[135.852314,-34.717973],[135.852418,-34.717967],[135.852471,-34.717964],[135.85317,-34.717965]]}},{"type":"Feature","properties":{"tier":"arterial"},"geometry":{"type":"LineString","coordinates":[[135.799288,-34.792305],[135.798627,-34.793008],[135.798549,-34.79309],[135.796761,-34.794889],[135.794815,-34.796932],[135.793487,-34.79831],[135.792093,-34.799757],[135.79191,-34.799947],[135.791393,-34.800503],[135.790873,-34.801063],[135.790101,-34.801857],[135.789316,-34.802678],[135.788587,-34.803396],[135.788382,-34.803574],[135.788178,-34.803736],[135.787961,-34.803881],[135.787809,-34.803978],[135.787597,-34.804102],[135.787393,-34.804206],[135.787138,-34.804312],[135.786901,-34.804406],[135.786583,-34.804519],[135.786389,-34.80458],[135.785904,-34.804749],[135.785431,-34.804904]]}},{"type":"Feature","properties":{"tier":"arterial"},"geometry":{"type":"LineString","coordinates":[[135.843523,-34.753384],[135.843294,-34.753589],[135.842848,-34.754009],[135.841948,-34.754989],[135.841662,-34.755301],[135.840346,-34.75668],[135.839822,-34.757229],[135.839576,-34.757487],[135.83827,-34.758457],[135.836927,-34.759455],[135.834687,-34.761074],[135.833765,-34.761739],[135.833123,-34.762199],[135.832652,-34.762555],[135.83237,-34.762781],[135.832105,-34.763006],[135.831624,-34.763435],[135.831361,-34.763676],[135.8312,-34.763819],[135.830399,-34.764483],[135.829603,-34.765123],[135.829443,-34.765236],[135.829201,-34.765407],[135.828623,-34.765811],[135.828303,-34.76601],[135.827697,-34.766391]]}},{"type":"Feature","properties":{"tier":"high"},"geometry":{"type":"LineString","coordinates":[[135.854449,-34.673607],[135.854491,-34.674081],[135.854471,-34.675264],[135.854426,-34.676365],[135.854455,-34.677206],[135.854575,-34.678078],[135.854777,-34.679115],[135.854834,-34.679667],[135.854872,-34.680064],[135.855036,-34.682214],[135.855047,-34.68237],[135.855067,-34.682599],[135.855068,-34.682608],[135.855139,-34.683421],[135.855121,-34.684518],[135.855086,-34.684902],[135.855034,-34.68535],[135.855016,-34.68551],[135.854988,-34.685843],[135.854915,-34.686508],[135.854838,-34.687327],[135.854815,-34.68762],[135.85479,-34.687822],[135.854762,-34.688057],[135.854712,-34.688417],[135.854681,-34.689123],[135.854732,-34.689645],[135.854751,-34.689777],[135.854834,-34.690367],[135.854939,-34.691278],[135.854968,-34.691654],[135.854943,-34.692313],[135.854918,-34.692524],[135.854875,-34.692898],[135.854823,-34.693261]]}},{"type":"Feature","properties":{"tier":"high"},"geometry":{"type":"LineString","coordinates":[[135.854823,-34.693261],[135.854774,-34.693591],[135.854729,-34.693824],[135.854692,-34.694015]]}},{"type":"Feature","properties":{"tier":"high"},"geometry":{"type":"LineString","coordinates":[[135.881653,-34.577468],[135.881098,-34.578547],[135.880411,-34.579861],[135.880108,-34.580429],[135.879667,-34.581265],[135.879239,-34.582124],[135.878817,-34.583017],[135.878513,-34.583813],[135.877736,-34.585711]]}},{"type":"Feature","properties":{"tier":"high"},"geometry":{"type":"LineString","coordinates":[[135.877736,-34.585711],[135.877045,-34.586824]]}},{"type":"Feature","properties":{"tier":"high"},"geometry":{"type":"LineString","coordinates":[[135.868281,-34.617331],[135.868125,-34.617893],[135.867807,-34.619069],[135.867526,-34.620131],[135.867097,-34.62174],[135.866948,-34.622266],[135.866876,-34.622515],[135.866757,-34.622795],[135.866548,-34.623216]]}},{"type":"Feature","properties":{"tier":"high"},"geometry":{"type":"LineString","coordinates":[[135.876809,-34.587208],[135.876275,-34.587927],[135.875775,-34.588788],[135.875395,-34.58952],[135.875026,-34.590389],[135.874837,-34.590898],[135.874599,-34.591668],[135.874465,-34.592296],[135.874302,-34.593139],[135.874211,-34.593752],[135.873896,-34.595883],[135.873728,-34.596641],[135.873277,-34.59855],[135.873121,-34.599108],[135.872422,-34.60161],[135.872146,-34.602598],[135.871684,-34.604226],[135.870516,-34.608663],[135.869194,-34.613653],[135.869108,-34.613981],[135.868281,-34.617331]]}},{"type":"Feature","properties":{"tier":"high"},"geometry":{"type":"LineString","coordinates":[[135.920071,-34.517703],[135.919732,-34.527108],[135.919683,-34.527344],[135.919407,-34.529041],[135.919107,-34.530245],[135.918502,-34.531841],[135.918276,-34.532356]]}},{"type":"Feature","properties":{"tier":"high"},"geometry":{"type":"LineString","coordinates":[[135.918276,-34.532356],[135.917924,-34.533091],[135.912252,-34.542006],[135.90649,-34.550902],[135.906421,-34.55101],[135.905718,-34.552105],[135.905103,-34.553069],[135.904646,-34.553755],[135.904356,-34.554146],[135.90399,-34.554571],[135.903692,-34.554881],[135.903278,-34.555284],[135.897711,-34.56038],[135.889027,-34.568564],[135.885084,-34.572531],[135.884137,-34.573481],[135.883404,-34.574328],[135.882996,-34.574921],[135.882529,-34.575745],[135.881653,-34.577468]]}},{"type":"Feature","properties":{"tier":"high"},"geometry":{"type":"LineString","coordinates":[[135.922844,-34.49998],[135.922264,-34.502843],[135.921286,-34.50757],[135.920357,-34.512116],[135.920195,-34.513037],[135.920158,-34.514263],[135.920084,-34.516175],[135.920071,-34.517703]]}},{"type":"Feature","properties":{"tier":"arterial"},"geometry":{"type":"LineString","coordinates":[[135.858258,-34.725423],[135.858238,-34.725332],[135.858246,-34.725312],[135.858321,-34.725136],[135.858405,-34.724984],[135.85854,-34.72474],[135.858824,-34.724224],[135.858922,-34.724043]]}}]}
