{"type":"FeatureCollection","features":[{"type":"Feature","properties":{"tier":"arterial"},"geometry":{"type":"LineString","coordinates":[[136.00002,-32.415789],[135.999712,-32.415573],[135.993796,-32.411503],[135.992264,-32.410455],[135.991092,-32.409851],[135.990137,-32.409472],[135.987958,-32.408844],[135.984297,-32.407812],[135.983773,-32.407622],[135.98346,-32.407495],[135.983195,-32.407286],[135.98272,-32.406796],[135.982363,-32.406371],[135.982114,-32.406003],[135.981436,-32.404902],[135.980887,-32.404047],[135.980626,-32.40374],[135.980365,-32.403512],[135.980085,-32.403362],[135.979853,-32.403276],[135.979432,-32.403214],[135.979094,-32.403237],[135.978586,-32.403344],[135.977446,-32.403587],[135.974082,-32.404225],[135.971241,-32.404769],[135.970418,-32.404944],[135.969785,-32.405143],[135.969112,-32.405413],[135.968631,-32.405651],[135.968146,-32.405951],[135.966878,-32.406919],[135.965531,-32.407922],[135.964752,-32.408551],[135.964271,-32.409011],[135.963409,-32.409942],[135.961702,-32.411719],[135.961446,-32.411953],[135.961008,-32.412231],[135.957995,-32.413784],[135.957111,-32.414202],[135.956381,-32.41448],[135.955741,-32.41463],[135.95517,-32.414675],[135.953753,-32.41461]]}},{"type":"Feature","properties":{"tier":"arterial"},"geometry":{"type":"LineString","coordinates":[[135.845852,-32.324787],[135.845681,-32.324411],[135.845312,-32.323594],[135.841738,-32.315581],[135.841273,-32.314503],[135.840514,-32.312835],[135.839145,-32.309689],[135.838737,-32.308767],[135.838262,-32.30765],[135.837858,-32.306519],[135.83728,-32.304622],[135.836931,-32.303906],[135.836507,-32.303198],[135.836296,-32.302889],[135.835976,-32.302422],[135.835449,-32.301539],[135.835263,-32.300994],[135.834871,-32.30012],[135.834193,-32.298742],[135.833912,-32.298145],[135.833455,-32.297384],[135.833167,-32.296802],[135.828854,-32.285021],[135.827172,-32.277605],[135.826794,-32.274935],[135.826729,-32.273597],[135.826725,-32.272562],[135.826702,-32.272247],[135.826589,-32.271867],[135.826399,-32.271524],[135.825867,-32.270856],[135.825698,-32.270442],[135.82557,-32.269909],[135.825525,-32.269481],[135.825326,-32.268989],[135.825039,-32.26847],[135.824935,-32.268299],[135.824814,-32.268141],[135.824589,-32.267936],[135.82413,-32.267592],[135.823928,-32.267355],[135.823787,-32.267133],[135.823637,-32.266791],[135.823567,-32.266502],[135.823669,-32.265702],[135.823681,-32.265452],[135.823637,-32.265295],[135.823571,-32.265168],[135.823431,-32.265021],[135.823201,-32.26487],[135.822996,-32.264749],[135.822849,-32.264635],[135.822752,-32.264516],[135.822691,-32.26431],[135.822611,-32.263826],[135.822573,-32.263502],[135.82258,-32.263096],[135.822603,-32.262949],[135.822697,-32.262765],[135.822895,-32.262444],[135.823084,-32.262126],[135.823163,-32.261843],[135.823216,-32.261617],[135.823232,-32.261314],[135.823232,-32.260937],[135.82322,-32.260258],[135.823246,-32.260097],[135.823445,-32.259261],[135.823488,-32.258826],[135.823492,-32.258604],[135.823443,-32.258118],[135.823448,-32.257926],[135.823466,-32.257765],[135.823591,-32.257204],[135.82368,-32.25688],[135.823778,-32.256623],[135.824028,-32.25613],[135.824339,-32.25557],[135.824468,-32.255332],[135.824595,-32.255118],[135.824793,-32.254916],[135.825049,-32.254737],[135.825279,-32.254592],[135.825478,-32.254461],[135.825651,-32.254301],[135.825781,-32.254106],[135.825837,-32.253982],[135.825923,-32.253745],[135.826009,-32.253365],[135.826253,-32.252464],[135.826326,-32.252099],[135.826417,-32.25151],[135.826549,-32.250993],[135.82667,-32.250571],[135.826928,-32.250013],[135.826973,-32.249833],[135.827,-32.249617],[135.826967,-32.249404],[135.826882,-32.249194],[135.826081,-32.247856],[135.825762,-32.24714],[135.825591,-32.246639],[135.825502,-32.246249],[135.825427,-32.245683],[135.825388,-32.24521],[135.825371,-32.244809],[135.825408,-32.244523],[135.825435,-32.244118],[135.825393,-32.243833],[135.823781,-32.23963],[135.823678,-32.238904],[135.823833,-32.238396],[135.825137,-32.235855],[135.827405,-32.229341],[135.828141,-32.226721],[135.829798,-32.222982],[135.829965,-32.222229],[135.830004,-32.221348],[135.830459,-32.219279],[135.831017,-32.218407],[135.832201,-32.217724],[135.833283,-32.217275],[135.834191,-32.216884],[135.834843,-32.216642],[135.835303,-32.216467],[135.835605,-32.216328],[135.835817,-32.216211],[135.836058,-32.216017],[135.836167,-32.215902],[135.83633,-32.215677],[135.836407,-32.215527],[135.836627,-32.215111],[135.837165,-32.214092],[135.837471,-32.213527],[135.837654,-32.213163],[135.83782,-32.212811],[135.837883,-32.212598],[135.837982,-32.21223],[135.838063,-32.211732],[135.838141,-32.210783],[135.838146,-32.210341],[135.838083,-32.20986],[135.837992,-32.209172],[135.837525,-32.205039],[135.837546,-32.204548],[135.837665,-32.204206],[135.837938,-32.203672],[135.843333,-32.194447],[135.845866,-32.189829],[135.847325,-32.186306],[135.848226,-32.182747],[135.848521,-32.181848],[135.848898,-32.181256],[135.85291,-32.17494],[135.855007,-32.171377],[135.856264,-32.167687],[135.856482,-32.167321],[135.85718,-32.166708],[135.86025,-32.164287],[135.861015,-32.162949],[135.861536,-32.16171],[135.862302,-32.159462],[135.862841,-32.157911],[135.863111,-32.157135],[135.863601,-32.155723],[135.864473,-32.153454],[135.866335,-32.148981],[135.866989,-32.147207],[135.867409,-32.145691],[135.868997,-32.140095],[135.869898,-32.137079],[135.872602,-32.13032],[135.874318,-32.127121],[135.874973,-32.125844],[135.875563,-32.124396],[135.875827,-32.123444],[135.87625,-32.121052],[135.876518,-32.119137],[135.876428,-32.117683],[135.876424,-32.11749],[135.876426,-32.116958],[135.876443,-32.116654],[135.876569,-32.115477],[135.876971,-32.114073],[135.877041,-32.113616],[135.877666,-32.106985],[135.877783,-32.106043],[135.878983,-32.102279],[135.879475,-32.101394],[135.885906,-32.092917],[135.886897,-32.091259],[135.887466,-32.09],[135.888824,-32.085535],[135.888942,-32.084854],[135.888758,-32.084183],[135.886249,-32.078383],[135.885803,-32.077232],[135.885612,-32.076524],[135.885515,-32.07587],[135.885519,-32.075172],[135.885991,-32.073753],[135.888021,-32.069505],[135.888245,-32.068616],[135.888695,-32.066044],[135.888738,-32.063243],[135.888652,-32.061679],[135.888523,-32.060916],[135.88735,-32.05702],[135.887103,-32.056118],[135.886891,-32.055099],[135.886784,-32.054781],[135.886472,-32.053914],[135.886327,-32.053447],[135.886155,-32.052596],[135.88612,-32.051932],[135.886159,-32.050186],[135.885998,-32.04959],[135.885468,-32.048393],[135.885004,-32.047098],[135.884356,-32.044945],[135.884226,-32.044409],[135.884206,-32.044046],[135.884401,-32.042645],[135.884157,-32.041499],[135.883717,-32.039928],[135.883437,-32.039076],[135.88303,-32.038436],[135.882262,-32.037396],[135.881345,-32.036331],[135.881191,-32.036054],[135.880799,-32.033961],[135.880596,-32.033296],[135.880026,-32.032433],[135.879298,-32.031491],[135.878782,-32.030978],[135.876695,-32.029597],[135.876189,-32.029253],[135.875906,-32.028904],[135.875475,-32.027696],[135.875432,-32.026929],[135.875347,-32.026617],[135.874662,-32.025521],[135.871264,-32.019956],[135.870945,-32.019455],[135.870832,-32.019154],[135.870816,-32.018742],[135.871367,-32.007271],[135.871357,-32.006126],[135.87105,-32.003618],[135.870885,-32.000703],[135.870741,-31.99998]]}},{"type":"Feature","properties":{"tier":"arterial"},"geometry":{"type":"LineString","coordinates":[[135.831476,-32.50002],[135.830303,-32.499018],[135.829921,-32.49864],[135.829701,-32.498237],[135.829647,-32.497771],[135.829482,-32.49707],[135.828853,-32.495612],[135.828068,-32.493925],[135.827717,-32.493287],[135.827591,-32.492773],[135.827671,-32.49156],[135.827648,-32.49035],[135.827514,-32.489337],[135.827418,-32.488751],[135.827207,-32.488273],[135.825986,-32.486409],[135.82527,-32.485277],[135.823971,-32.483545],[135.823653,-32.482901],[135.823596,-32.482607],[135.823689,-32.482201],[135.823936,-32.48161],[135.824313,-32.480593],[135.824696,-32.479593],[135.824809,-32.479194],[135.824812,-32.478752],[135.824721,-32.477259],[135.824627,-32.47676],[135.824341,-32.476065],[135.823955,-32.475229],[135.821937,-32.471958],[135.82141,-32.47106],[135.821037,-32.469579],[135.820553,-32.467681],[135.819825,-32.464958],[135.819449,-32.463052],[135.81898,-32.460749],[135.818816,-32.459992],[135.818172,-32.458366],[135.817538,-32.456966],[135.816934,-32.455831],[135.815373,-32.453453],[135.814722,-32.45238],[135.813329,-32.450794],[135.81036,-32.447877],[135.809552,-32.446992],[135.809255,-32.446707],[135.808887,-32.446501],[135.808394,-32.446309],[135.806114,-32.445675],[135.801646,-32.443939],[135.791376,-32.440489],[135.788996,-32.44037],[135.788688,-32.440391],[135.786338,-32.440559],[135.782551,-32.440829],[135.779414,-32.441357],[135.778876,-32.441447],[135.777664,-32.441183],[135.777285,-32.439952],[135.777216,-32.438319],[135.777208,-32.436351],[135.777506,-32.436026],[135.777937,-32.43575],[135.778833,-32.434368],[135.779422,-32.432545],[135.78073,-32.427803],[135.781026,-32.427078],[135.780883,-32.426426],[135.780655,-32.425564],[135.779887,-32.423962],[135.779707,-32.423394],[135.778576,-32.417632],[135.778429,-32.415946],[135.778008,-32.414945],[135.777417,-32.41334],[135.777162,-32.412455],[135.777068,-32.411149],[135.77698,-32.410404],[135.77651,-32.409882],[135.776417,-32.409681],[135.775426,-32.408814],[135.775198,-32.407802],[135.775193,-32.407196],[135.774823,-32.405706],[135.774259,-32.404204],[135.77411,-32.403664],[135.774334,-32.403143],[135.77466,-32.402721],[135.775288,-32.402181],[135.775559,-32.401759],[135.775693,-32.401292],[135.775285,-32.400458],[135.775005,-32.399514],[135.774064,-32.394382],[135.773425,-32.392613],[135.772487,-32.390647],[135.771721,-32.386716],[135.771463,-32.385388],[135.771316,-32.38427],[135.770759,-32.38348],[135.77023,-32.382644],[135.769732,-32.382256],[135.769001,-32.38143],[135.76618,-32.377115],[135.763066,-32.372648],[135.751575,-32.35762],[135.751134,-32.357135],[135.750685,-32.356643],[135.746877,-32.353974],[135.745273,-32.353634],[135.7355,-32.352975],[135.733161,-32.352893],[135.72724,-32.352359],[135.708709,-32.350994],[135.703894,-32.350639],[135.703134,-32.350365],[135.70255,-32.349845],[135.701811,-32.348678],[135.701634,-32.348308],[135.70154,-32.348068],[135.701461,-32.347799],[135.701427,-32.347751]]}},{"type":"Feature","properties":{"tier":"arterial"},"geometry":{"type":"LineString","coordinates":[[135.49998,-32.38608],[135.500241,-32.386013],[135.500499,-32.385959],[135.500764,-32.38592],[135.501036,-32.3859],[135.502731,-32.385915],[135.503421,-32.385914],[135.506763,-32.38591],[135.507633,-32.385897],[135.508486,-32.38585],[135.50932,-32.385724],[135.509747,-32.385642],[135.512887,-32.385042],[135.519923,-32.383722],[135.526322,-32.382542],[135.528886,-32.381501],[135.529649,-32.381143],[135.530225,-32.38102],[135.53075,-32.380996],[135.531463,-32.381059],[135.533828,-32.38144],[135.536293,-32.381813],[135.537002,-32.381828],[135.538441,-32.381845],[135.539191,-32.381943],[135.539773,-32.382141],[135.5403,-32.382393],[135.54182,-32.382988],[135.542579,-32.383244],[135.543948,-32.383564],[135.545198,-32.383944],[135.54724,-32.384269],[135.552772,-32.384787],[135.555969,-32.384946],[135.55909,-32.385327],[135.560921,-32.385624],[135.562796,-32.386103],[135.563763,-32.386243],[135.565038,-32.386189],[135.569771,-32.386194],[135.570576,-32.386221],[135.572827,-32.386965],[135.574772,-32.387423],[135.576024,-32.38746],[135.579251,-32.38677],[135.58188,-32.386598],[135.584552,-32.386127],[135.588094,-32.385287],[135.589508,-32.385186],[135.591936,-32.384844],[135.593261,-32.384626],[135.596131,-32.384595],[135.59688,-32.38462],[135.599443,-32.384502],[135.600797,-32.384058],[135.603381,-32.382948],[135.60739,-32.381329],[135.609402,-32.380488],[135.610748,-32.379763],[135.612633,-32.379013],[135.619278,-32.376422],[135.629287,-32.372506],[135.644089,-32.366494],[135.647513,-32.365111],[135.64781,-32.364991],[135.649608,-32.364265],[135.669348,-32.356521],[135.673229,-32.354955],[135.673551,-32.354844],[135.673784,-32.354794],[135.674093,-32.354792],[135.674348,-32.354815],[135.674535,-32.354853],[135.675093,-32.355118],[135.676359,-32.355725],[135.676815,-32.355936],[135.677011,-32.356],[135.677263,-32.356036],[135.677542,-32.356002],[135.678137,-32.355848],[135.679532,-32.355381],[135.682263,-32.35433],[135.684089,-32.353675],[135.685763,-32.353081],[135.687152,-32.352571],[135.688574,-32.352034],[135.689357,-32.351751],[135.689862,-32.351604],[135.690446,-32.351486],[135.692455,-32.351169],[135.694566,-32.350854],[135.695376,-32.35075],[135.696004,-32.350584],[135.696798,-32.350256],[135.697313,-32.350004],[135.699386,-32.348876],[135.701427,-32.347751],[135.702182,-32.347353],[135.702926,-32.347022],[135.703552,-32.346731],[135.704765,-32.346118],[135.706609,-32.345158],[135.708186,-32.344262],[135.709525,-32.343523],[135.710602,-32.34295],[135.712007,-32.342299],[135.713866,-32.341425],[135.715038,-32.340893],[135.716238,-32.340337],[135.717408,-32.339787],[135.718561,-32.339247],[135.719391,-32.338878],[135.72132,-32.33811],[135.723168,-32.337373],[135.725147,-32.336598],[135.725613,-32.336404],[135.725977,-32.336272],[135.726281,-32.33619],[135.726695,-32.336127],[135.72714,-32.336089],[135.727854,-32.336037],[135.728367,-32.335985],[135.729037,-32.335865],[135.729488,-32.335747],[135.730089,-32.335559],[135.744989,-32.330532],[135.752702,-32.328077],[135.755406,-32.327237],[135.757202,-32.326721],[135.760558,-32.325804],[135.765427,-32.324741],[135.768489,-32.324096],[135.774352,-32.32308],[135.783119,-32.321652],[135.792067,-32.320296],[135.800031,-32.319147],[135.804529,-32.318434],[135.805045,-32.318408],[135.814607,-32.318611],[135.820019,-32.318667],[135.822281,-32.318799],[135.828416,-32.318872],[135.830571,-32.318847],[135.832085,-32.31894],[135.833014,-32.318959],[135.83381,-32.31908],[135.834738,-32.319323],[135.835877,-32.31966],[135.836662,-32.320017],[135.839448,-32.321452],[135.845462,-32.324508],[135.845604,-32.324593],[135.845706,-32.324662],[135.84578,-32.324721],[135.845852,-32.324787]]}},{"type":"Feature","properties":{"tier":"arterial"},"geometry":{"type":"LineString","coordinates":[[135.845462,-32.324508],[135.845531,-32.324506],[135.845604,-32.324486],[135.845647,-32.324459],[135.845681,-32.324411]]}},{"type":"Feature","properties":{"tier":"arterial"},"geometry":{"type":"LineString","coordinates":[[135.953753,-32.41461],[135.952143,-32.414539],[135.949068,-32.414444],[135.947207,-32.414376],[135.945103,-32.414357],[135.943157,-32.414367],[135.938992,-32.414364],[135.937845,-32.414324],[135.936971,-32.414176],[135.936134,-32.413973],[135.932692,-32.41319],[135.925201,-32.411437],[135.924563,-32.411274],[135.924152,-32.411079],[135.923632,-32.410719],[135.922712,-32.409854],[135.92142,-32.408912],[135.920773,-32.408468],[135.920423,-32.408066],[135.919711,-32.406883],[135.919059,-32.405489],[135.918547,-32.404748],[135.917669,-32.40358],[135.913037,-32.397096],[135.911964,-32.395125],[135.907166,-32.387493],[135.903489,-32.381129],[135.902994,-32.380418],[135.902428,-32.379918],[135.901799,-32.379167],[135.899947,-32.376381],[135.899624,-32.376006],[135.898377,-32.375134],[135.896883,-32.37425],[135.893931,-32.373481],[135.887373,-32.37267],[135.877666,-32.371539],[135.87428,-32.371165],[135.869684,-32.370618],[135.868732,-32.370459],[135.868185,-32.370348],[135.866719,-32.36946],[135.86583,-32.368748],[135.864963,-32.368011],[135.862671,-32.365942],[135.861982,-32.365306],[135.861564,-32.364644],[135.859384,-32.360548],[135.85645,-32.355167],[135.856318,-32.354709],[135.855839,-32.348664],[135.855775,-32.347679],[135.855591,-32.346978],[135.855273,-32.346067],[135.855147,-32.345583],[135.854921,-32.344009],[135.854612,-32.341087],[135.854011,-32.338498],[135.852878,-32.334372],[135.85279,-32.334178],[135.852476,-32.333672],[135.851673,-32.332994],[135.851583,-32.332918],[135.851247,-32.33265],[135.851038,-32.332444],[135.850679,-32.33205],[135.849951,-32.331246],[135.847865,-32.328744],[135.847254,-32.327796],[135.846749,-32.326785],[135.846638,-32.32659],[135.845927,-32.324959],[135.845852,-32.324787]]}}]}
