{"type":"FeatureCollection","features":[{"type":"Feature","properties":{"tier":"arterial"},"geometry":{"type":"LineString","coordinates":[[136.00002,-32.743383],[136.000009,-32.743378],[135.998352,-32.74257],[135.996054,-32.742072],[135.991702,-32.740374],[135.988063,-32.739545],[135.985737,-32.738823],[135.980777,-32.737285],[135.974864,-32.736573],[135.974081,-32.736478],[135.972537,-32.736292],[135.968639,-32.735268],[135.966066,-32.734779],[135.962301,-32.73429],[135.961214,-32.733841],[135.95816,-32.731918],[135.957335,-32.731399],[135.956273,-32.730925],[135.955103,-32.730609],[135.95156,-32.730027],[135.950769,-32.729897],[135.949744,-32.72948],[135.948761,-32.729081],[135.944703,-32.726346],[135.940825,-32.722585],[135.93954,-32.720389],[135.939175,-32.719402],[135.93806,-32.716396],[135.937632,-32.715708],[135.937035,-32.715132],[135.934432,-32.7133],[135.932099,-32.712632],[135.929983,-32.712026],[135.927894,-32.711076],[135.923176,-32.706599],[135.922183,-32.705657],[135.921107,-32.704471],[135.919094,-32.701491],[135.91764,-32.700113],[135.909763,-32.696163],[135.905549,-32.693182],[135.905043,-32.692715],[135.904713,-32.692316],[135.904288,-32.691871],[135.903797,-32.691565],[135.903156,-32.691277],[135.898542,-32.689738],[135.897962,-32.689545],[135.897186,-32.689236],[135.896109,-32.688265],[135.8959,-32.688005],[135.894248,-32.685231],[135.893197,-32.683954],[135.891832,-32.682595],[135.889869,-32.681334],[135.888428,-32.680085],[135.886818,-32.677594],[135.883657,-32.674099],[135.881726,-32.67228],[135.880013,-32.669793],[135.875962,-32.662109],[135.875151,-32.660309],[135.874908,-32.659302],[135.87469,-32.657642],[135.874845,-32.655872],[135.87497,-32.655345],[135.875306,-32.654423],[135.876995,-32.65141],[135.877332,-32.65079],[135.87759,-32.650276],[135.877859,-32.649678],[135.878102,-32.649011],[135.87819,-32.648472],[135.878187,-32.644922],[135.878132,-32.641847],[135.878164,-32.640547],[135.878096,-32.640227],[135.877616,-32.639188],[135.87702,-32.637836],[135.877163,-32.637463],[135.877745,-32.637181],[135.878678,-32.636924],[135.879604,-32.63659],[135.880042,-32.636253],[135.880293,-32.635957],[135.880426,-32.635659],[135.880664,-32.635005],[135.880726,-32.634771],[135.880749,-32.634091],[135.880832,-32.633431],[135.881252,-32.632489],[135.881579,-32.6318],[135.881701,-32.631272],[135.881757,-32.630765],[135.881702,-32.630332],[135.881324,-32.628602],[135.87994,-32.625159],[135.879349,-32.623948],[135.878261,-32.621954],[135.877915,-32.621565],[135.877076,-32.620901],[135.874785,-32.61931],[135.873211,-32.618137],[135.871746,-32.61652],[135.871327,-32.615833],[135.870632,-32.614176],[135.869648,-32.611575],[135.869323,-32.610434],[135.869171,-32.608971],[135.869159,-32.608315],[135.869497,-32.607042],[135.870232,-32.605517],[135.870949,-32.604391],[135.871384,-32.603415],[135.871722,-32.601702],[135.871722,-32.600289],[135.871412,-32.59796],[135.871332,-32.596898],[135.870873,-32.595217],[135.870223,-32.593147],[135.870067,-32.592297],[135.869836,-32.591813],[135.868685,-32.590132],[135.868107,-32.589626],[135.867247,-32.588816],[135.86631,-32.586995],[135.866111,-32.586423],[135.86587,-32.585347],[135.865729,-32.584478],[135.865446,-32.583494],[135.864795,-32.579828],[135.864853,-32.5787],[135.865861,-32.575086],[135.86606,-32.574312],[135.866302,-32.573301],[135.866411,-32.572433],[135.866358,-32.571924],[135.866133,-32.571243],[135.864375,-32.567677],[135.863891,-32.566488],[135.86287,-32.564857],[135.861902,-32.563212],[135.860189,-32.561096],[135.858862,-32.559063],[135.858566,-32.558409],[135.858038,-32.556642],[135.857725,-32.556251],[135.854702,-32.553986],[135.852569,-32.551899],[135.851556,-32.551178],[135.848862,-32.54884],[135.848316,-32.548211],[135.846947,-32.546448],[135.845907,-32.54501],[135.845081,-32.544144],[135.843633,-32.542815],[135.842129,-32.541284],[135.841032,-32.539682],[135.840082,-32.536257],[135.839634,-32.535626],[135.838894,-32.534896],[135.837349,-32.532882],[135.837136,-32.532496],[135.837084,-32.532029],[135.836979,-32.530014],[135.837229,-32.527984],[135.837329,-32.52594],[135.837232,-32.525052],[135.837185,-32.52317],[135.837454,-32.521986],[135.837582,-32.521196],[135.837521,-32.51952],[135.837745,-32.518501],[135.837878,-32.517729],[135.837978,-32.516637],[135.837967,-32.515833],[135.83784,-32.515212],[135.837477,-32.514004],[135.837025,-32.512667],[135.836621,-32.511356],[135.836408,-32.509657],[135.836267,-32.508625],[135.835996,-32.507058],[135.835543,-32.504649],[135.835332,-32.503458],[135.835104,-32.502952],[135.834808,-32.502644],[135.833799,-32.50199],[135.832,-32.500467],[135.83143,-32.49998]]}}]}
