{"type":"FeatureCollection","features":[{"type":"Feature","properties":{"tier":"high"},"geometry":{"type":"LineString","coordinates":[[135.999612,-31.135754],[135.989829,-31.133212],[135.968008,-31.127603],[135.961056,-31.125815],[135.955928,-31.124495],[135.954024,-31.124072],[135.951685,-31.123593],[135.950708,-31.123419],[135.949647,-31.123246],[135.948638,-31.123094],[135.947984,-31.123001],[135.947326,-31.122918],[135.946012,-31.122758],[135.944456,-31.122597],[135.942958,-31.122467],[135.942065,-31.12239],[135.941225,-31.122304],[135.940033,-31.122162],[135.938843,-31.122002],[135.93801,-31.12187],[135.93718,-31.121727],[135.936354,-31.121575],[135.935533,-31.121415],[135.934827,-31.121267],[135.934123,-31.121109],[135.933423,-31.120945],[135.932607,-31.120741],[135.931406,-31.120425],[135.930085,-31.120041],[135.928194,-31.119458],[135.927018,-31.119081],[135.926172,-31.118808],[135.923536,-31.117946],[135.921688,-31.117316],[135.919401,-31.116509],[135.917128,-31.115688],[135.914256,-31.1146],[135.911461,-31.113504],[135.909281,-31.112618],[135.907224,-31.111759],[135.905603,-31.111065],[135.904056,-31.110381],[135.901642,-31.109315],[135.89974,-31.108522],[135.897881,-31.107787],[135.895832,-31.107028],[135.894553,-31.106576],[135.893263,-31.106141],[135.891912,-31.105705],[135.890605,-31.105302],[135.889518,-31.104983],[135.887793,-31.104502],[135.887106,-31.104304],[135.886427,-31.104093],[135.885918,-31.103922],[135.885409,-31.103741],[135.884534,-31.1034],[135.883676,-31.103031],[135.883197,-31.102816],[135.882774,-31.102612],[135.881996,-31.102218],[135.881228,-31.101798],[135.880782,-31.101538],[135.880332,-31.101264],[135.879714,-31.100864],[135.879101,-31.100447],[135.878682,-31.100143],[135.87823,-31.099804],[135.877701,-31.099382],[135.877222,-31.098981],[135.876514,-31.09835],[135.875516,-31.097376],[135.874769,-31.096554],[135.874038,-31.095669],[135.873449,-31.094892],[135.872796,-31.093959],[135.872125,-31.093035],[135.871395,-31.09208],[135.870749,-31.091274],[135.870151,-31.090555],[135.869575,-31.089886],[135.869015,-31.089266],[135.868425,-31.088619],[135.867849,-31.088016],[135.867225,-31.087386],[135.866667,-31.08684],[135.866102,-31.086302],[135.865571,-31.085809],[135.865028,-31.085321],[135.864088,-31.084498],[135.863371,-31.083899],[135.862661,-31.083327],[135.8615,-31.082432],[135.860619,-31.081784],[135.859592,-31.08106],[135.858252,-31.080168],[135.857674,-31.079795],[135.857072,-31.079423],[135.856338,-31.078979],[135.855553,-31.078514],[135.854787,-31.078085],[135.854012,-31.077669],[135.852873,-31.077071],[135.851246,-31.076277],[135.846863,-31.074284],[135.840743,-31.071518],[135.837159,-31.069899],[135.834963,-31.068902],[135.83387,-31.068358],[135.833206,-31.067988],[135.832556,-31.067598],[135.831969,-31.067222],[135.831367,-31.066795],[135.830951,-31.066485],[135.830502,-31.066135],[135.830075,-31.065771],[135.829656,-31.065395],[135.829211,-31.064974],[135.828822,-31.064581],[135.82848,-31.06422],[135.828146,-31.063846],[135.827687,-31.063302],[135.827213,-31.062687],[135.826708,-31.061976],[135.826447,-31.061563],[135.826189,-31.061137],[135.825942,-31.060702],[135.825706,-31.060261],[135.825445,-31.059709],[135.825191,-31.059148],[135.82494,-31.058536],[135.824707,-31.057863],[135.824557,-31.057382],[135.824414,-31.056872],[135.824274,-31.056283],[135.824155,-31.055695]]}},{"type":"Feature","properties":{"tier":"high"},"geometry":{"type":"LineString","coordinates":[[135.824082,-31.055324],[135.823866,-31.054302],[135.82382,-31.054102],[135.823744,-31.053771],[135.823614,-31.053292],[135.823327,-31.052296],[135.823167,-31.051776],[135.822994,-31.051257],[135.822337,-31.049547],[135.822021,-31.048802],[135.821613,-31.047895],[135.820963,-31.046607],[135.820431,-31.04563],[135.819894,-31.044717],[135.819315,-31.043815],[135.818684,-31.042892],[135.817947,-31.041877],[135.816959,-31.040625],[135.816204,-31.039752],[135.81527,-31.038733],[135.81426,-31.037705],[135.813674,-31.037144],[135.813032,-31.036553],[135.812322,-31.035936],[135.811638,-31.03537],[135.810679,-31.034605],[135.809965,-31.034073],[135.809239,-31.033552],[135.807986,-31.032654],[135.806795,-31.031772],[135.806045,-31.031202],[135.805284,-31.030607],[135.80456,-31.030041],[135.803828,-31.029454],[135.802652,-31.028483],[135.801488,-31.027493],[135.800384,-31.026532],[135.799299,-31.025551],[135.798484,-31.024797],[135.797726,-31.024079],[135.795894,-31.022305],[135.795168,-31.021625],[135.794399,-31.020921],[135.792916,-31.019599],[135.791392,-31.018317],[135.789822,-31.017068],[135.788188,-31.015815],[135.786186,-31.014335],[135.784822,-31.013386],[135.783931,-31.012793],[135.782836,-31.012059],[135.780991,-31.01089],[135.779374,-31.009916],[135.778021,-31.009133],[135.776668,-31.00835],[135.775442,-31.007601],[135.774677,-31.007113],[135.77374,-31.006491],[135.772814,-31.005852],[135.771893,-31.005191],[135.770987,-31.004527],[135.770191,-31.003912],[135.769366,-31.003251],[135.76864,-31.002647],[135.767887,-31.002003],[135.767182,-31.001385],[135.766491,-31.000757],[135.765676,-30.99998]]}},{"type":"Feature","properties":{"tier":"high"},"geometry":{"type":"LineString","coordinates":[[135.824155,-31.055695],[135.824082,-31.055324]]}},{"type":"Feature","properties":{"tier":"high"},"geometry":{"type":"LineString","coordinates":[[136.00002,-31.135858],[135.999612,-31.135754]]}}]}
