{"type":"FeatureCollection","features":[{"type":"Feature","properties":{"tier":"arterial"},"geometry":{"type":"LineString","coordinates":[[135.870749,-32.00002],[135.870732,-31.999938],[135.87043,-31.999132],[135.870396,-31.998897],[135.869704,-31.995088],[135.869169,-31.991058],[135.869085,-31.990833],[135.868825,-31.990585],[135.868396,-31.990398],[135.868098,-31.990318],[135.865796,-31.990005],[135.865196,-31.98993],[135.864684,-31.98993],[135.864203,-31.98996],[135.863685,-31.990033],[135.861527,-31.990548],[135.861113,-31.990634],[135.860725,-31.990673],[135.860274,-31.990634],[135.8597,-31.990514],[135.851077,-31.988356],[135.850704,-31.988221],[135.849896,-31.98783],[135.84934,-31.987649],[135.848496,-31.987494],[135.847096,-31.987341],[135.846301,-31.987174],[135.835875,-31.984587],[135.83467,-31.984264],[135.833892,-31.983997],[135.832347,-31.983232],[135.831606,-31.983083],[135.830928,-31.983006],[135.830209,-31.982997],[135.829167,-31.982907],[135.82704,-31.982406],[135.82232,-31.981241],[135.821368,-31.980982],[135.820337,-31.980555],[135.819592,-31.980306],[135.8191,-31.980076],[135.818537,-31.979716],[135.816125,-31.977663],[135.814647,-31.976307],[135.814233,-31.976069],[135.813035,-31.975588],[135.809066,-31.974162],[135.80864,-31.973952],[135.808114,-31.973566],[135.806512,-31.97213],[135.804904,-31.970387],[135.803923,-31.969171],[135.802303,-31.967493],[135.798696,-31.963931],[135.7975,-31.962809],[135.795783,-31.96088],[135.792565,-31.954216],[135.789561,-31.948208],[135.788659,-31.946023],[135.788101,-31.945186],[135.784582,-31.942964],[135.781793,-31.941872],[135.772137,-31.938958],[135.76261,-31.9367],[135.75849,-31.936045],[135.755529,-31.935899],[135.751452,-31.935972],[135.744091,-31.936953],[135.743542,-31.936994],[135.743171,-31.936923],[135.742826,-31.936773],[135.741811,-31.936009],[135.739534,-31.934165],[135.735277,-31.930939],[135.734474,-31.930215],[135.733864,-31.929598],[135.729307,-31.924426],[135.72515,-31.918297],[135.724792,-31.91763],[135.724624,-31.917222],[135.724544,-31.916886],[135.72442,-31.915865],[135.724415,-31.914955],[135.724345,-31.914193],[135.724207,-31.913656],[135.723916,-31.912909],[135.723731,-31.912336],[135.723666,-31.912005],[135.723428,-31.910037],[135.723192,-31.907303],[135.723161,-31.907194],[135.723117,-31.907105],[135.722987,-31.907008],[135.722875,-31.90693],[135.716261,-31.904099],[135.714287,-31.903115],[135.707077,-31.897942],[135.703816,-31.895428],[135.702528,-31.894043],[135.69519,-31.888104],[135.693216,-31.886792],[135.691156,-31.884934],[135.689997,-31.883221],[135.687336,-31.87637],[135.68695,-31.874548],[135.686993,-31.868571],[135.686349,-31.864817],[135.685834,-31.863031],[135.684976,-31.861318],[135.684761,-31.858329],[135.684718,-31.855559],[135.683989,-31.848633],[135.684075,-31.846008],[135.684092,-31.845462],[135.684065,-31.845077],[135.683982,-31.844644],[135.683725,-31.843589],[135.683017,-31.840447],[135.682925,-31.840034],[135.682917,-31.839758],[135.682952,-31.839507],[135.68301,-31.839295],[135.683148,-31.838839],[135.683289,-31.838468],[135.683403,-31.838239],[135.683489,-31.838104],[135.683658,-31.837882],[135.68379,-31.837719],[135.683879,-31.837583],[135.683981,-31.837376],[135.684032,-31.837185],[135.68412,-31.836733],[135.684167,-31.836284],[135.684244,-31.835931],[135.684293,-31.835755],[135.68456,-31.834988],[135.684867,-31.834353],[135.685146,-31.833862],[135.685373,-31.833533],[135.685648,-31.833219],[135.68577,-31.833033],[135.685845,-31.832768],[135.685941,-31.832197],[135.685978,-31.831901],[135.685974,-31.831424],[135.685921,-31.831097],[135.685907,-31.830849],[135.68592,-31.830622],[135.686178,-31.829018],[135.685963,-31.822564],[135.685534,-31.819939],[135.684718,-31.816803],[135.683989,-31.814542],[135.683817,-31.813557],[135.683989,-31.812025],[135.683817,-31.809873],[135.683903,-31.807868],[135.683903,-31.806409],[135.683388,-31.804403],[135.678925,-31.791455],[135.678367,-31.788974],[135.677637,-31.785326],[135.675167,-31.776269],[135.67505,-31.775959],[135.674904,-31.775683],[135.674527,-31.775167],[135.673217,-31.77347],[135.672058,-31.77201],[135.670685,-31.769858],[135.668584,-31.767118],[135.667381,-31.765698],[135.666768,-31.764723],[135.666148,-31.763711],[135.66573,-31.763168],[135.66521,-31.762533],[135.664777,-31.762183],[135.664207,-31.761801],[135.663451,-31.761376],[135.662789,-31.761064],[135.662069,-31.760749],[135.661289,-31.760582],[135.660478,-31.760505],[135.659682,-31.76052],[135.658176,-31.760671],[135.657429,-31.760757],[135.656823,-31.760677],[135.656293,-31.76055],[135.655766,-31.760383],[135.655309,-31.760305],[135.65492,-31.760242],[135.654612,-31.760257],[135.654288,-31.760343],[135.653795,-31.760537],[135.653094,-31.76088],[135.652579,-31.761086],[135.651022,-31.761406],[135.649765,-31.761673],[135.648857,-31.761859],[135.648095,-31.762053],[135.647473,-31.762124],[135.647137,-31.762103],[135.646913,-31.762063],[135.643021,-31.760562],[135.642348,-31.76036],[135.639749,-31.759752],[135.637321,-31.759061],[135.634979,-31.758109],[135.634535,-31.757869],[135.634242,-31.757641],[135.633791,-31.757202],[135.632761,-31.756136],[135.632347,-31.755543],[135.631847,-31.754642],[135.631675,-31.754095],[135.631561,-31.753645],[135.631488,-31.753141],[135.631432,-31.751779],[135.63158,-31.749934],[135.631736,-31.748169],[135.631696,-31.747756],[135.631552,-31.747291],[135.630887,-31.746191],[135.63048,-31.74562],[135.630024,-31.74518],[135.629565,-31.744833],[135.628275,-31.743837],[135.627699,-31.743289],[135.626268,-31.741212],[135.625238,-31.7403],[135.623693,-31.739607],[135.622877,-31.738986],[135.622491,-31.738256],[135.62189,-31.737599],[135.621118,-31.737015],[135.619272,-31.736285],[135.617536,-31.735472],[135.617128,-31.735224],[135.616764,-31.735119],[135.615248,-31.734982],[135.613865,-31.735008],[135.611249,-31.735177],[135.610184,-31.735264],[135.609831,-31.735373],[135.609221,-31.735718],[135.608816,-31.735873],[135.60844,-31.735951],[135.607732,-31.735933],[135.607027,-31.735794],[135.606693,-31.735627],[135.605567,-31.7349],[135.605093,-31.734684],[135.60478,-31.734636],[135.604395,-31.734676],[135.603265,-31.734971],[135.602836,-31.735008],[135.600862,-31.734643],[135.599274,-31.734205],[135.598587,-31.734241],[135.596613,-31.734898],[135.594124,-31.735409],[135.591335,-31.735446],[135.585619,-31.734717],[135.580928,-31.734711],[135.575113,-31.734351],[135.572538,-31.733803],[135.569276,-31.733073],[135.567388,-31.732927],[135.565156,-31.733073],[135.560178,-31.733073],[135.559835,-31.733],[135.559406,-31.732854],[135.555157,-31.729934],[135.55344,-31.728401],[135.548419,-31.722889],[135.544771,-31.720005],[135.54151,-31.716428],[135.538635,-31.71296],[135.536417,-31.709537],[135.535762,-31.708401],[135.535386,-31.707594],[135.534782,-31.705197],[135.534575,-31.704345],[135.534504,-31.70411],[135.534424,-31.703916],[135.534021,-31.703284],[135.533346,-31.702219],[135.53292,-31.701591],[135.532752,-31.701267],[135.532708,-31.701135],[135.532687,-31.701001],[135.532693,-31.700907],[135.532713,-31.700802],[135.53276,-31.700652],[135.532846,-31.700488],[135.532973,-31.7003],[135.533043,-31.700167],[135.533085,-31.700048],[135.53312,-31.699705],[135.533121,-31.699246],[135.53306,-31.697827],[135.533023,-31.697228],[135.532864,-31.696362],[135.532412,-31.694814],[135.531854,-31.693974],[135.530996,-31.693353],[135.528592,-31.691235],[135.527554,-31.690197],[135.527262,-31.689774],[135.526572,-31.688856],[135.524773,-31.686889],[135.523686,-31.685706],[135.522953,-31.685071],[135.519451,-31.682032],[135.518866,-31.681504],[135.518023,-31.68062],[135.516576,-31.678928],[135.515632,-31.67776],[135.513357,-31.675093],[135.511512,-31.673048],[135.509667,-31.671551],[135.507349,-31.669432],[135.506062,-31.668081],[135.504474,-31.666802],[135.503247,-31.665392],[135.502115,-31.66441],[135.501245,-31.663841],[135.49998,-31.663014]]}}]}
