{"type":"FeatureCollection","features":[{"type":"Feature","properties":{"tier":"arterial"},"geometry":{"type":"LineString","coordinates":[[135.828988,-28.193876],[135.828885,-28.193524],[135.828808,-28.193365],[135.828614,-28.193061],[135.827688,-28.192011],[135.826778,-28.190921],[135.826495,-28.190555],[135.826229,-28.19016],[135.825879,-28.189442],[135.825566,-28.188674],[135.825451,-28.188391],[135.825257,-28.187773],[135.825187,-28.187424],[135.825162,-28.187302],[135.825095,-28.186498],[135.825067,-28.185228],[135.825062,-28.184997],[135.824958,-28.182486],[135.824948,-28.181592],[135.824902,-28.180708],[135.824711,-28.179196],[135.824691,-28.17909],[135.824624,-28.178735],[135.82456,-28.1781],[135.824549,-28.177784],[135.82458,-28.176083],[135.824581,-28.176071],[135.824598,-28.175135],[135.824733,-28.171821],[135.82484,-28.168073],[135.824883,-28.167094],[135.82498,-28.162703],[135.824988,-28.161053],[135.82503,-28.1599],[135.825017,-28.158891],[135.824933,-28.156594],[135.824928,-28.156468],[135.824923,-28.155449],[135.824864,-28.154952],[135.824725,-28.154362],[135.824484,-28.153339],[135.823938,-28.151026],[135.823563,-28.149525],[135.822929,-28.146598],[135.822615,-28.14526],[135.822522,-28.144941],[135.822253,-28.144298],[135.82176,-28.143365],[135.82161,-28.143095],[135.82086,-28.141749],[135.819849,-28.139827],[135.81919,-28.138624],[135.818738,-28.137865],[135.818542,-28.137571],[135.818091,-28.137011],[135.817713,-28.136633],[135.815591,-28.134851],[135.815068,-28.134424],[135.814546,-28.133996],[135.813411,-28.133151],[135.812047,-28.13222],[135.810065,-28.130912],[135.805555,-28.127872],[135.803203,-28.126349],[135.802766,-28.126092],[135.802158,-28.125735],[135.800034,-28.124549],[135.795897,-28.122066],[135.795551,-28.12188],[135.795018,-28.121631],[135.794447,-28.121423],[135.793844,-28.121289],[135.793429,-28.121271],[135.793011,-28.121299],[135.792804,-28.12133],[135.792396,-28.121428],[135.792001,-28.121557],[135.791236,-28.121852],[135.790854,-28.121962],[135.790456,-28.122042],[135.78917,-28.12223],[135.786269,-28.122653],[135.784637,-28.122845],[135.78402,-28.122879],[135.78342,-28.122872],[135.782835,-28.122822],[135.78245,-28.122752],[135.782071,-28.12266],[135.781512,-28.122474],[135.780989,-28.122254],[135.780648,-28.122083],[135.780326,-28.121895],[135.779705,-28.121431],[135.779421,-28.121186],[135.779172,-28.120937],[135.778839,-28.120519],[135.778569,-28.12006],[135.778228,-28.119415],[135.777827,-28.118586],[135.777642,-28.118173],[135.777638,-28.118164],[135.77745,-28.117743],[135.777093,-28.116885],[135.776925,-28.116359],[135.776564,-28.114965],[135.776314,-28.11428],[135.77624,-28.114111],[135.776059,-28.113789],[135.775749,-28.113338],[135.77512,-28.112644],[135.77477,-28.11229],[135.773819,-28.111329],[135.773017,-28.110559],[135.77232,-28.109933],[135.771888,-28.10957],[135.770157,-28.108275],[135.770133,-28.108258],[135.769713,-28.107944],[135.769602,-28.107861],[135.769219,-28.107575],[135.768181,-28.106798],[135.768026,-28.106627],[135.7679,-28.106457],[135.767766,-28.106243],[135.766972,-28.104852],[135.766925,-28.104773],[135.766786,-28.104442],[135.76666,-28.104077],[135.766646,-28.103729],[135.766696,-28.103384],[135.766696,-28.103381],[135.766766,-28.102984],[135.766999,-28.101889],[135.767137,-28.101467],[135.767287,-28.101111],[135.767457,-28.100759],[135.76771,-28.100433],[135.767953,-28.100115],[135.768675,-28.099107],[135.768749,-28.099003],[135.769633,-28.097828],[135.770461,-28.096679],[135.770873,-28.096041],[135.77115,-28.095498],[135.771235,-28.095273],[135.771322,-28.09497],[135.771396,-28.094658],[135.771454,-28.09435],[135.771462,-28.093764],[135.771463,-28.092536],[135.771446,-28.091902],[135.771368,-28.091109],[135.771309,-28.090297],[135.771113,-28.087789],[135.770863,-28.084486],[135.770829,-28.083662],[135.770815,-28.08319],[135.770839,-28.082887],[135.770864,-28.082718],[135.770898,-28.082569],[135.770973,-28.082328],[135.771105,-28.081951],[135.771259,-28.081559],[135.771528,-28.081087],[135.771762,-28.080752],[135.771807,-28.080692],[135.772191,-28.080212],[135.773474,-28.078571],[135.773931,-28.07807],[135.774255,-28.077683],[135.774671,-28.077157],[135.775285,-28.076324],[135.77661,-28.074686],[135.778555,-28.072345],[135.778913,-28.071934],[135.779475,-28.071235],[135.781081,-28.069178],[135.782032,-28.06793],[135.784345,-28.064804],[135.784533,-28.064523],[135.784699,-28.064235],[135.784909,-28.063784],[135.785055,-28.063315],[135.78519,-28.06269],[135.78528,-28.062387],[135.78546,-28.061945],[135.785611,-28.061639],[135.786293,-28.060566],[135.786335,-28.060496],[135.786756,-28.059789],[135.78725,-28.059016],[135.787709,-28.058238],[135.78828,-28.057329],[135.790149,-28.054471],[135.790632,-28.053763],[135.791076,-28.05323],[135.791929,-28.052333],[135.793128,-28.051191],[135.796161,-28.04836],[135.796172,-28.04835],[135.796214,-28.048311],[135.797494,-28.047062],[135.797582,-28.04697],[135.797873,-28.046666],[135.798224,-28.046239],[135.798385,-28.045941],[135.798504,-28.045628],[135.798579,-28.045316],[135.798866,-28.043497],[135.798936,-28.042801],[135.798982,-28.041981],[135.79921,-28.037884],[135.79934,-28.036117],[135.799347,-28.035987],[135.799357,-28.035697],[135.799354,-28.035429],[135.799354,-28.035348],[135.79935,-28.034959],[135.799368,-28.034857],[135.799442,-28.034659],[135.799499,-28.03456],[135.799625,-28.034398],[135.800621,-28.033014],[135.800771,-28.032791],[135.800921,-28.032568],[135.801448,-28.031785],[135.801705,-28.031353],[135.802136,-28.030567],[135.802452,-28.029896],[135.802942,-28.028665],[135.80299,-28.028516],[135.803197,-28.027869],[135.803722,-28.026461],[135.803962,-28.025819],[135.804027,-28.025644],[135.804498,-28.024157],[135.80461,-28.023742],[135.804734,-28.023156],[135.804849,-28.022208],[135.804914,-28.021763],[135.804925,-28.021686],[135.805152,-28.02013],[135.805195,-28.019694],[135.805262,-28.019021],[135.805362,-28.018387],[135.805524,-28.016403],[135.805569,-28.015855],[135.805591,-28.015669],[135.805938,-28.012755],[135.806067,-28.011378],[135.806173,-28.010514],[135.806427,-28.009305],[135.806622,-28.008465],[135.807386,-28.005166],[135.807755,-28.003345],[135.80816,-28.001187],[135.808309,-28.000683],[135.808586,-28.000034],[135.808613,-27.99998]]}},{"type":"Feature","properties":{"tier":"arterial"},"geometry":{"type":"LineString","coordinates":[[135.856989,-28.475877],[135.856694,-28.475218],[135.856095,-28.473937],[135.855865,-28.473371],[135.855508,-28.472386],[135.855236,-28.471587],[135.854486,-28.469437],[135.854207,-28.468495],[135.853982,-28.467363],[135.853716,-28.465932],[135.853131,-28.462777],[135.853017,-28.462057],[135.852863,-28.460611],[135.852723,-28.459001],[135.85259,-28.45706],[135.852481,-28.45585],[135.852294,-28.454597],[135.852155,-28.453856],[135.851434,-28.450559],[135.851109,-28.449143],[135.85011,-28.4448],[135.849674,-28.44281],[135.849323,-28.441339],[135.848839,-28.439124],[135.847828,-28.434698],[135.847142,-28.431538],[135.846014,-28.426666],[135.845052,-28.422277],[135.844593,-28.420272],[135.844169,-28.418257],[135.842435,-28.410551],[135.84184,-28.407679],[135.841414,-28.405809],[135.840325,-28.400772],[135.839535,-28.397288],[135.839332,-28.396207],[135.839234,-28.395467],[135.839195,-28.39471],[135.839218,-28.393787],[135.839233,-28.391076],[135.83919,-28.385454],[135.839215,-28.382907],[135.839208,-28.37851],[135.839235,-28.376304],[135.839221,-28.374808],[135.839225,-28.370529],[135.839241,-28.36962],[135.839241,-28.367574],[135.839224,-28.366826],[135.839236,-28.353485],[135.83928,-28.347455],[135.839292,-28.346866],[135.839333,-28.346306],[135.839417,-28.345788],[135.839591,-28.345127],[135.839768,-28.344652],[135.840133,-28.343878],[135.840712,-28.342737],[135.841202,-28.341772],[135.842111,-28.339981],[135.842577,-28.33911],[135.842837,-28.338622],[135.843231,-28.337866],[135.843329,-28.337679],[135.84436,-28.335701],[135.844462,-28.335506],[135.845249,-28.333997],[135.845645,-28.333167],[135.845894,-28.332492],[135.84602,-28.331994],[135.846103,-28.331376],[135.846118,-28.331068],[135.84611,-28.330764],[135.846066,-28.330315],[135.846015,-28.330007],[135.845902,-28.329528],[135.845851,-28.329353],[135.844723,-28.325465],[135.84345,-28.320886],[135.841594,-28.314399],[135.841105,-28.312626],[135.840284,-28.309798],[135.839514,-28.307032],[135.838745,-28.304172],[135.838353,-28.302411],[135.838232,-28.301724],[135.837824,-28.298886],[135.837195,-28.29506],[135.836901,-28.293085],[135.836434,-28.290238],[135.836383,-28.289723],[135.836354,-28.289025],[135.836375,-28.288319],[135.836474,-28.287472],[135.836515,-28.28695],[135.836526,-28.286709],[135.836581,-28.285551],[135.836636,-28.284897],[135.836711,-28.284006],[135.83681,-28.282423],[135.837084,-28.278807],[135.837199,-28.277896],[135.837367,-28.277191],[135.837537,-28.276688],[135.837931,-28.275667],[135.837944,-28.275634],[135.837961,-28.275591],[135.838254,-28.274831],[135.838465,-28.274326],[135.838545,-28.274135],[135.838611,-28.273965],[135.84011,-28.270066],[135.840246,-28.269575],[135.840364,-28.268918],[135.840398,-28.26842],[135.840379,-28.267918],[135.840225,-28.267076],[135.839997,-28.265606],[135.839854,-28.2648],[135.839542,-28.263037],[135.83888,-28.259129],[135.838792,-28.258428],[135.838236,-28.255219],[135.837662,-28.251707],[135.836898,-28.247336],[135.836082,-28.242162],[135.835366,-28.237947],[135.835236,-28.236823],[135.834426,-28.232254],[135.834224,-28.231164],[135.83299,-28.223796],[135.832682,-28.222079],[135.832369,-28.220137],[135.83187,-28.217438],[135.831422,-28.214743],[135.830786,-28.211166],[135.830142,-28.207354],[135.829989,-28.206144],[135.82989,-28.20517],[135.829765,-28.203223],[135.829532,-28.20018],[135.829403,-28.198704],[135.8294,-28.198669],[135.829381,-28.198448],[135.829302,-28.197254],[135.829189,-28.195529],[135.829084,-28.194492],[135.829044,-28.194234],[135.829023,-28.194097],[135.829005,-28.193983],[135.828988,-28.193876]]}},{"type":"Feature","properties":{"tier":"arterial"},"geometry":{"type":"LineString","coordinates":[[135.864725,-28.50002],[135.864343,-28.498921],[135.863513,-28.496385],[135.862715,-28.494135],[135.861084,-28.489424],[135.860866,-28.48873],[135.86005,-28.485923],[135.859274,-28.482825],[135.859042,-28.481812],[135.85885,-28.481114],[135.858224,-28.479259],[135.857982,-28.478622],[135.85767,-28.477692],[135.857348,-28.476801],[135.857112,-28.476194],[135.856989,-28.475877]]}}]}
