{"type":"FeatureCollection","features":[{"type":"Feature","properties":{"tier":"arterial"},"geometry":{"type":"LineString","coordinates":[[135.811213,-27.899284],[135.811155,-27.899121],[135.811013,-27.898725],[135.810913,-27.898443],[135.810343,-27.896849],[135.81011,-27.89611],[135.809868,-27.89548],[135.809853,-27.895434],[135.809739,-27.895079],[135.80969,-27.894926],[135.809398,-27.894187],[135.809322,-27.893993],[135.808898,-27.892796],[135.808562,-27.891598],[135.808107,-27.889831],[135.807933,-27.889245],[135.807764,-27.888806],[135.807618,-27.888528],[135.807338,-27.888137],[135.807101,-27.887918],[135.806844,-27.887715],[135.806582,-27.887551],[135.8063,-27.887407],[135.806008,-27.887293],[135.805694,-27.887222],[135.805043,-27.887147],[135.804734,-27.887159],[135.803954,-27.887241],[135.803491,-27.88729],[135.803114,-27.887307],[135.802712,-27.887288],[135.802297,-27.887189],[135.802034,-27.887074],[135.801788,-27.886921],[135.801678,-27.886832],[135.801467,-27.886619],[135.8013,-27.886382],[135.801176,-27.886128],[135.801079,-27.885729],[135.800979,-27.884158],[135.800972,-27.883763],[135.800834,-27.88234],[135.800758,-27.881298],[135.800697,-27.880466],[135.800604,-27.879987],[135.800506,-27.879672],[135.800384,-27.879361],[135.800241,-27.879074],[135.80006,-27.878779],[135.799721,-27.878385],[135.798269,-27.877028],[135.798169,-27.876931],[135.796785,-27.875578],[135.796572,-27.87537],[135.796207,-27.875058],[135.796006,-27.874886],[135.795988,-27.874875],[135.79552,-27.87458],[135.793803,-27.873728],[135.791787,-27.872728],[135.791265,-27.872484],[135.787344,-27.870876],[135.786514,-27.870536],[135.784708,-27.869777],[135.784529,-27.869697],[135.783992,-27.869455],[135.782738,-27.86882],[135.779914,-27.867352],[135.77866,-27.866729],[135.776797,-27.865833],[135.776695,-27.865784],[135.775292,-27.865065],[135.77428,-27.864515],[135.772443,-27.86359],[135.771514,-27.863146],[135.768371,-27.861561],[135.768035,-27.861424],[135.767724,-27.861329],[135.767017,-27.861182],[135.766583,-27.861023],[135.76615,-27.860827],[135.765487,-27.860472],[135.763183,-27.859239],[135.762553,-27.858871],[135.762129,-27.858577],[135.761757,-27.858251],[135.760911,-27.857419],[135.760803,-27.857318],[135.75915,-27.855776],[135.757544,-27.854457],[135.757336,-27.854295],[135.757276,-27.854248],[135.754757,-27.85228],[135.753204,-27.851018],[135.752303,-27.850312],[135.750796,-27.84913],[135.750259,-27.848622],[135.750004,-27.848355],[135.749495,-27.847797],[135.749015,-27.847223],[135.748804,-27.846941],[135.748614,-27.846651],[135.747753,-27.845175],[135.747283,-27.844369],[135.746536,-27.843047],[135.746086,-27.842286],[135.745026,-27.840387],[135.744831,-27.840075],[135.744509,-27.839626],[135.74416,-27.839224],[135.744011,-27.839073],[135.743776,-27.838835],[135.742978,-27.838101],[135.742696,-27.837898],[135.742637,-27.837856],[135.742223,-27.837557],[135.741986,-27.837396],[135.74196,-27.837379],[135.741798,-27.83728],[135.74154,-27.837119],[135.741266,-27.836933],[135.740791,-27.836593],[135.740631,-27.836482],[135.740496,-27.836389],[135.740378,-27.836315],[135.740319,-27.836274],[135.739747,-27.83589],[135.739232,-27.835543],[135.738271,-27.834896],[135.737796,-27.834578],[135.737468,-27.834364],[135.737133,-27.834138],[135.73657,-27.833764],[135.735735,-27.833256],[135.735429,-27.833119],[135.734934,-27.832932],[135.734037,-27.832558],[135.733458,-27.832333],[135.732938,-27.832131],[135.732028,-27.831844],[135.731023,-27.831551],[135.730654,-27.831419],[135.729997,-27.831005],[135.729527,-27.830663],[135.728956,-27.830189],[135.728256,-27.829549],[135.727921,-27.829243],[135.726207,-27.827676],[135.724406,-27.82603],[135.723833,-27.825532],[135.723275,-27.825079],[135.721991,-27.82414],[135.721729,-27.823954],[135.719869,-27.822634],[135.719619,-27.822457],[135.718824,-27.821884],[135.717518,-27.820943],[135.716377,-27.82012],[135.715261,-27.819327],[135.714809,-27.819007],[135.712958,-27.817694],[135.710095,-27.815644],[135.70807,-27.814205],[135.707644,-27.813878],[135.70712,-27.813416],[135.706623,-27.81288],[135.706532,-27.812781],[135.706372,-27.812609],[135.705361,-27.811394],[135.705303,-27.811324],[135.703103,-27.808681],[135.702681,-27.808182],[135.701764,-27.807095],[135.701676,-27.806991],[135.700977,-27.806131],[135.698314,-27.802939],[135.698279,-27.802893],[135.696742,-27.80109],[135.69658,-27.800894],[135.694808,-27.798748],[135.694373,-27.798231],[135.693247,-27.796892],[135.69321,-27.796848],[135.692754,-27.796267],[135.692251,-27.795522],[135.692122,-27.795287],[135.691992,-27.795052],[135.691842,-27.794742],[135.691357,-27.793602],[135.690859,-27.79243],[135.690835,-27.792374],[135.690632,-27.791897],[135.690453,-27.791445],[135.69042,-27.79137],[135.689454,-27.789182],[135.689167,-27.788627],[135.68882,-27.788035],[135.688609,-27.78775],[135.688353,-27.787492],[135.688206,-27.787379],[135.688044,-27.787273],[135.687698,-27.787087],[135.687147,-27.786847],[135.686538,-27.78668],[135.685924,-27.78658],[135.685297,-27.786521],[135.68467,-27.786489],[135.683253,-27.786471],[135.683116,-27.786469],[135.680891,-27.786441],[135.680186,-27.786446],[135.677544,-27.786388],[135.677022,-27.786373],[135.676673,-27.786346],[135.675982,-27.786237],[135.674016,-27.785832],[135.673345,-27.785715],[135.67114,-27.785331],[135.669792,-27.785056],[135.669244,-27.784956],[135.669033,-27.784918],[135.668045,-27.784771],[135.667056,-27.784651],[135.665115,-27.784471],[135.663943,-27.784363],[135.663162,-27.784258],[135.662374,-27.784101],[135.661803,-27.783945],[135.660288,-27.783443],[135.659721,-27.78324],[135.659348,-27.78309],[135.658813,-27.782831],[135.657787,-27.782241],[135.657435,-27.78207],[135.656875,-27.781852],[135.656089,-27.781605],[135.655479,-27.781463],[135.655057,-27.781382],[135.653632,-27.781148],[135.652298,-27.780911],[135.650754,-27.780637],[135.648623,-27.780323],[135.647505,-27.780124],[135.646941,-27.779978],[135.646384,-27.779789],[135.646023,-27.779633],[135.645334,-27.77928],[135.644648,-27.778887],[135.644169,-27.778569],[135.643737,-27.778213],[135.643332,-27.777811],[135.642598,-27.77696],[135.641668,-27.775784],[135.641296,-27.775326],[135.638825,-27.772281],[135.638151,-27.771411],[135.638076,-27.771299],[135.637849,-27.770958],[135.637354,-27.770096],[135.636793,-27.769116],[135.636731,-27.769009],[135.635471,-27.766933],[135.635169,-27.766322],[135.634671,-27.765101],[135.634101,-27.763915],[135.634091,-27.763895],[135.633527,-27.762784],[135.633343,-27.762497],[135.633132,-27.762255],[135.632882,-27.762043],[135.632586,-27.761868],[135.632156,-27.761653],[135.631931,-27.76154],[135.629612,-27.76032],[135.628815,-27.7599],[135.627752,-27.75936],[135.626698,-27.758777],[135.626197,-27.758468],[135.622823,-27.756109],[135.621415,-27.755057],[135.619188,-27.75347],[135.618864,-27.753239],[135.615961,-27.751229],[135.614794,-27.750449],[135.614399,-27.750181],[135.614111,-27.749991],[135.613872,-27.749827],[135.613443,-27.749483],[135.613258,-27.749308],[135.613172,-27.749227],[135.612915,-27.748954],[135.611928,-27.747797],[135.61179,-27.747629],[135.609476,-27.744804],[135.609015,-27.744204],[135.608826,-27.743891],[135.608658,-27.743567],[135.608446,-27.743055],[135.607994,-27.741829],[135.607935,-27.741668],[135.607647,-27.740992],[135.607266,-27.740174],[135.607018,-27.739697],[135.60695,-27.739566],[135.606662,-27.73913],[135.606433,-27.738859],[135.606329,-27.738768],[135.606162,-27.738622],[135.606093,-27.738571],[135.606013,-27.738521],[135.60585,-27.73844],[135.605302,-27.73822],[135.604735,-27.738045],[135.604555,-27.738008],[135.604339,-27.737965],[135.604143,-27.737925],[135.603028,-27.737797],[135.602773,-27.737768],[135.602562,-27.737738],[135.601953,-27.737652],[135.601853,-27.737647],[135.601618,-27.737617],[135.600709,-27.737521],[135.599169,-27.737333],[135.59797,-27.737187],[135.595952,-27.736986],[135.595252,-27.73684],[135.594568,-27.73662],[135.594072,-27.736376],[135.593577,-27.736086],[135.591796,-27.735013],[135.591224,-27.734668],[135.589271,-27.733468],[135.588238,-27.732868],[135.587106,-27.732183],[135.584679,-27.730696],[135.580139,-27.727953],[135.579478,-27.727474],[135.579391,-27.727411],[135.579112,-27.727189],[135.578853,-27.726954],[135.578614,-27.726697],[135.578283,-27.726285],[135.578,-27.72585],[135.5768,-27.723799],[135.576283,-27.722917],[135.575457,-27.721504],[135.575279,-27.72119],[135.57402,-27.718977],[135.572654,-27.716651],[135.572388,-27.716171],[135.572185,-27.715863],[135.57184,-27.715423],[135.571453,-27.715001],[135.570189,-27.713736],[135.569023,-27.71257],[135.568644,-27.712162],[135.567933,-27.71134],[135.563781,-27.706215],[135.563012,-27.705251],[135.563,-27.705235],[135.56158,-27.703455],[135.561404,-27.703234],[135.560447,-27.702071],[135.559781,-27.70122],[135.559163,-27.70039],[135.558065,-27.698808],[135.557219,-27.697487],[135.555696,-27.695292],[135.555258,-27.694584],[135.554559,-27.693261],[135.554192,-27.692694],[135.553781,-27.692146],[135.552919,-27.691127],[135.552275,-27.690365],[135.552065,-27.69016],[135.551345,-27.689228],[135.550182,-27.687874],[135.549392,-27.686809],[135.548398,-27.68527],[135.547792,-27.684248],[135.547729,-27.684148],[135.546964,-27.682937],[135.546394,-27.681993],[135.545304,-27.680313],[135.54431,-27.678746],[135.5439,-27.6781],[135.543436,-27.677342],[135.543268,-27.677068],[135.542571,-27.676019],[135.542419,-27.67579],[135.542309,-27.675616],[135.541703,-27.674615],[135.541406,-27.674154],[135.541179,-27.673801],[135.540297,-27.67243],[135.539106,-27.670529],[135.539039,-27.670437],[135.538458,-27.669634],[135.537978,-27.669091],[135.537572,-27.668729],[135.537037,-27.668357],[135.536961,-27.668305],[135.535918,-27.667686],[135.534786,-27.667014],[135.53257,-27.665672],[135.532532,-27.665649],[135.532179,-27.665435],[135.530762,-27.664608],[135.529259,-27.66373],[135.525671,-27.661578],[135.52394,-27.66057],[135.523786,-27.660474],[135.522841,-27.659889],[135.521584,-27.659138],[135.520996,-27.658723],[135.520585,-27.658403],[135.519121,-27.65712],[135.518326,-27.656369],[135.517618,-27.655731],[135.517038,-27.655208],[135.515473,-27.653749],[135.514812,-27.653156],[135.514742,-27.653097],[135.513633,-27.652096],[135.512963,-27.651484],[135.510186,-27.648947],[135.508836,-27.647683],[135.508268,-27.647151],[135.506923,-27.645921],[135.5068,-27.645811],[135.505603,-27.644745],[135.501906,-27.641312],[135.500117,-27.639684],[135.49998,-27.639557]]}},{"type":"Feature","properties":{"tier":"arterial"},"geometry":{"type":"LineString","coordinates":[[135.808593,-28.00002],[135.808982,-27.99923],[135.809147,-27.998895],[135.809735,-27.997814],[135.809864,-27.99753],[135.810082,-27.997053],[135.810851,-27.995539],[135.811037,-27.995103],[135.811356,-27.994239],[135.811663,-27.993029],[135.811733,-27.99258],[135.811751,-27.992135],[135.811708,-27.991526],[135.811614,-27.990762],[135.811364,-27.989784],[135.810764,-27.988116],[135.810603,-27.987508],[135.810572,-27.987212],[135.810547,-27.986417],[135.810524,-27.986192],[135.81045,-27.98548],[135.810346,-27.985061],[135.810029,-27.984185],[135.809817,-27.98339],[135.809687,-27.982729],[135.809652,-27.982512],[135.809584,-27.982085],[135.809354,-27.980415],[135.80902,-27.978697],[135.808645,-27.977173],[135.807892,-27.974318],[135.807225,-27.971609],[135.806998,-27.970949],[135.806974,-27.970896],[135.806288,-27.969403],[135.806131,-27.968986],[135.806111,-27.968934],[135.806061,-27.968778],[135.806005,-27.968537],[135.8058,-27.967659],[135.805762,-27.967482],[135.805611,-27.966782],[135.805521,-27.966363],[135.805298,-27.96455],[135.805241,-27.964084],[135.805202,-27.963605],[135.805177,-27.962139],[135.805167,-27.961516],[135.805187,-27.960416],[135.805162,-27.959247],[135.805174,-27.957255],[135.805228,-27.95375],[135.805223,-27.95308],[135.805294,-27.951214],[135.805349,-27.950704],[135.805536,-27.949857],[135.806722,-27.945495],[135.807604,-27.942403],[135.808039,-27.94107],[135.808454,-27.939887],[135.809043,-27.938205],[135.809716,-27.936036],[135.810141,-27.93474],[135.810321,-27.934082],[135.810388,-27.933743],[135.810489,-27.933054],[135.810638,-27.931532],[135.81072,-27.930697],[135.810878,-27.929702],[135.811063,-27.928365],[135.811189,-27.927459],[135.811406,-27.925559],[135.811537,-27.924694],[135.811766,-27.923701],[135.812042,-27.922892],[135.812342,-27.922311],[135.812763,-27.921795],[135.814068,-27.920403],[135.814182,-27.92027],[135.814472,-27.919834],[135.814743,-27.919219],[135.815514,-27.917814],[135.815565,-27.917583],[135.815684,-27.917128],[135.815704,-27.916895],[135.815747,-27.916549],[135.815754,-27.916282],[135.815779,-27.916093],[135.815741,-27.915821],[135.815713,-27.915557],[135.815498,-27.914796],[135.815139,-27.914035],[135.814857,-27.913556],[135.81478,-27.913367],[135.814615,-27.913103],[135.814082,-27.912242],[135.814001,-27.912091],[135.813957,-27.911991],[135.813679,-27.911369],[135.813496,-27.910838],[135.813344,-27.910268],[135.813209,-27.909519],[135.813053,-27.90809],[135.81298,-27.907234],[135.812877,-27.906536],[135.81279,-27.905467],[135.812657,-27.904172],[135.812597,-27.903588],[135.812499,-27.903031],[135.812489,-27.902974],[135.812383,-27.902612],[135.812291,-27.902301]]}},{"type":"Feature","properties":{"tier":"arterial"},"geometry":{"type":"LineString","coordinates":[[135.812291,-27.902301],[135.811678,-27.900586]]}},{"type":"Feature","properties":{"tier":"arterial"},"geometry":{"type":"LineString","coordinates":[[135.811678,-27.900586],[135.811504,-27.900099],[135.811213,-27.899284]]}}]}
