{"type":"FeatureCollection","features":[{"type":"Feature","properties":{"tier":"arterial"},"geometry":{"type":"LineString","coordinates":[[136.00002,-28.719469],[135.997867,-28.718741],[135.995831,-28.718068],[135.995524,-28.717966],[135.994982,-28.717802],[135.992388,-28.716903],[135.988412,-28.715444],[135.985366,-28.714306],[135.983888,-28.713775],[135.983376,-28.713552],[135.982971,-28.71331],[135.982552,-28.712919],[135.982285,-28.712589],[135.982178,-28.712435],[135.981976,-28.712144],[135.981817,-28.711941],[135.981589,-28.711649],[135.98109,-28.711037],[135.981056,-28.710988],[135.980818,-28.710645],[135.980248,-28.709917],[135.979296,-28.708679],[135.978311,-28.707378],[135.977893,-28.706771],[135.977504,-28.706346],[135.977241,-28.70601],[135.977,-28.705709],[135.976637,-28.705208],[135.976449,-28.704994],[135.976257,-28.704824],[135.976058,-28.704689],[135.975816,-28.704561],[135.975648,-28.704479],[135.975628,-28.70447],[135.975379,-28.704354],[135.975193,-28.704244],[135.975039,-28.70414],[135.974813,-28.703912],[135.974489,-28.703483],[135.974196,-28.703094],[135.973648,-28.702303],[135.973514,-28.702129],[135.972656,-28.701017],[135.972523,-28.700856],[135.971029,-28.699051],[135.970416,-28.698289],[135.969815,-28.697542],[135.969361,-28.697008],[135.968862,-28.696458],[135.968328,-28.69594],[135.968179,-28.695824],[135.967862,-28.695621],[135.967039,-28.695224],[135.966727,-28.695048],[135.966436,-28.694849],[135.966033,-28.694507],[135.964961,-28.693452],[135.964306,-28.692893],[135.964248,-28.692843],[135.963197,-28.692079],[135.962435,-28.691524],[135.961048,-28.690555],[135.958767,-28.688918],[135.958461,-28.688718],[135.957814,-28.688331],[135.95441,-28.686453],[135.952822,-28.685555],[135.949417,-28.683592],[135.946275,-28.681858],[135.94493,-28.681051],[135.941748,-28.679245],[135.94125,-28.678926],[135.940632,-28.678479],[135.940021,-28.678007],[135.935114,-28.674165],[135.933683,-28.673044],[135.931668,-28.671432],[135.929926,-28.670077],[135.928371,-28.668896],[135.926692,-28.667517],[135.926527,-28.667371],[135.925287,-28.666275],[135.924759,-28.665765],[135.924455,-28.665409],[135.924406,-28.665352],[135.924113,-28.6649],[135.92396,-28.664574],[135.923785,-28.664051],[135.923651,-28.663509],[135.9235,-28.662779],[135.923467,-28.662619],[135.923179,-28.661367],[135.92298,-28.660315],[135.922856,-28.659281],[135.922853,-28.659225],[135.92282,-28.658621],[135.922831,-28.658106],[135.92293,-28.656782],[135.92293,-28.656128],[135.922892,-28.655158],[135.922771,-28.653401],[135.922754,-28.65273],[135.922774,-28.651593],[135.92281,-28.649477],[135.922778,-28.649155],[135.922637,-28.648702],[135.922314,-28.648148],[135.922133,-28.64789],[135.920119,-28.645012],[135.919648,-28.644339],[135.919204,-28.643768],[135.918752,-28.643224],[135.918189,-28.642604],[135.918077,-28.642481],[135.917882,-28.642171],[135.917854,-28.642086],[135.917805,-28.641934],[135.917788,-28.641814],[135.917788,-28.641567],[135.917827,-28.641147],[135.917863,-28.640758],[135.918096,-28.639189],[135.918166,-28.638718],[135.918316,-28.63783],[135.918504,-28.637082],[135.918639,-28.636622],[135.919117,-28.635153],[135.919213,-28.634694],[135.919278,-28.634219],[135.919305,-28.633747],[135.919266,-28.633134],[135.919136,-28.63253],[135.918751,-28.631246],[135.91842,-28.630143],[135.918196,-28.629301],[135.916899,-28.62524],[135.916558,-28.624223],[135.916044,-28.622811],[135.915321,-28.620578],[135.915079,-28.619943],[135.914824,-28.619517],[135.914614,-28.619253],[135.912781,-28.617266],[135.912556,-28.617004],[135.912256,-28.61659],[135.912045,-28.616232],[135.912015,-28.61618],[135.911863,-28.615882],[135.911409,-28.61499],[135.91067,-28.613595],[135.910548,-28.613365],[135.910523,-28.613315],[135.909893,-28.612036],[135.909883,-28.612015],[135.909818,-28.611883],[135.909256,-28.610743],[135.908912,-28.610088],[135.908538,-28.609581],[135.908167,-28.60918],[135.907873,-28.608923],[135.906769,-28.608105],[135.905605,-28.607243],[135.905442,-28.607123],[135.903831,-28.606011],[135.903316,-28.605632],[135.902297,-28.604773],[135.901518,-28.60407],[135.901172,-28.603686],[135.900973,-28.603408],[135.900722,-28.602975],[135.899797,-28.601067],[135.898827,-28.598604],[135.89838,-28.597384],[135.89794,-28.596297],[135.897468,-28.595024],[135.89722,-28.594423],[135.896906,-28.593689],[135.896715,-28.593286],[135.896306,-28.592424],[135.895802,-28.5912],[135.895534,-28.59061],[135.895373,-28.590321],[135.895178,-28.590035],[135.89486,-28.589625],[135.894629,-28.589362],[135.893621,-28.588346],[135.892286,-28.586964],[135.889651,-28.584195],[135.888431,-28.582875],[135.884541,-28.578536],[135.884324,-28.578277],[135.88413,-28.57801],[135.883981,-28.57774],[135.883898,-28.577591],[135.883806,-28.577289],[135.883675,-28.576691],[135.883454,-28.575517],[135.883208,-28.574211],[135.881611,-28.566474],[135.881284,-28.565261],[135.880987,-28.56425],[135.880294,-28.562065],[135.880063,-28.561262],[135.879957,-28.560892],[135.879351,-28.558521],[135.879081,-28.557565],[135.878814,-28.556619],[135.87857,-28.555599],[135.878529,-28.555277],[135.878491,-28.554642],[135.87842,-28.554139],[135.878345,-28.553791],[135.878064,-28.552714],[135.877461,-28.550678],[135.877341,-28.550176],[135.877281,-28.549847],[135.87718,-28.549015],[135.876907,-28.547134],[135.876688,-28.545245],[135.876264,-28.541586],[135.876062,-28.539847],[135.875714,-28.53769],[135.875498,-28.536537],[135.875419,-28.536115],[135.875256,-28.535377],[135.874959,-28.534428],[135.874893,-28.53415],[135.874823,-28.53373],[135.874565,-28.531801],[135.874532,-28.531274],[135.874534,-28.531006],[135.874567,-28.530573],[135.874614,-28.530179],[135.874625,-28.529946],[135.874644,-28.52947],[135.874648,-28.529384],[135.874589,-28.528928],[135.87455,-28.52862],[135.874455,-28.527649],[135.874449,-28.526959],[135.874371,-28.526475],[135.874254,-28.526099],[135.873257,-28.523507],[135.872271,-28.521099],[135.870209,-28.515917],[135.869485,-28.513969],[135.868646,-28.511576],[135.868276,-28.51043],[135.867556,-28.508404],[135.866286,-28.504556],[135.865794,-28.503184],[135.86547,-28.502166],[135.864711,-28.49998]]}},{"type":"Feature","properties":{"tier":"arterial"},"geometry":{"type":"LineString","coordinates":[[136.00002,-28.927708],[135.998334,-28.927796],[135.99673,-28.927885],[135.99579,-28.927938],[135.994912,-28.927993],[135.994197,-28.928079],[135.993049,-28.928257],[135.99135,-28.928515],[135.989601,-28.928801],[135.988045,-28.929078],[135.987379,-28.929201],[135.986794,-28.929262],[135.986172,-28.929309],[135.984965,-28.929356],[135.982708,-28.929407],[135.978958,-28.929454],[135.976811,-28.929455],[135.974746,-28.929403],[135.973582,-28.929384],[135.971839,-28.929341],[135.970144,-28.929294],[135.96884,-28.929281],[135.967504,-28.929304],[135.966185,-28.929322],[135.965224,-28.929342],[135.963508,-28.929421],[135.962917,-28.929469],[135.962468,-28.929505],[135.96215,-28.929548],[135.961824,-28.929585],[135.961485,-28.929605],[135.961078,-28.929566],[135.960773,-28.929501],[135.960268,-28.929327],[135.95948,-28.928994],[135.958686,-28.928646],[135.958166,-28.928416],[135.95786,-28.928313],[135.957516,-28.92821],[135.957125,-28.92813],[135.956663,-28.928078],[135.956234,-28.928073],[135.955799,-28.928149],[135.955194,-28.92836],[135.954201,-28.928754],[135.953835,-28.928858],[135.953557,-28.928932],[135.953198,-28.92897],[135.952726,-28.928975],[135.947575,-28.928924],[135.94441,-28.928877],[135.942608,-28.928811],[135.939196,-28.928666],[135.938312,-28.928656],[135.937823,-28.928689],[135.936547,-28.928848],[135.93321,-28.929233],[135.930748,-28.929524],[135.929561,-28.929703],[135.928479,-28.929876],[135.927636,-28.930023],[135.926895,-28.930154],[135.926188,-28.930327],[135.925614,-28.930463],[135.924937,-28.930567],[135.924289,-28.930599],[135.923522,-28.930609],[135.922798,-28.93059],[135.922185,-28.930558],[135.920303,-28.930364],[135.919492,-28.930286],[135.918929,-28.930257],[135.918232,-28.930271],[135.917068,-28.930342],[135.916381,-28.930389],[135.915689,-28.930403],[135.914955,-28.93036],[135.913727,-28.930233],[135.912873,-28.930196],[135.911259,-28.930186],[135.909885,-28.930173],[135.908893,-28.930172],[135.907508,-28.930253],[135.906033,-28.93037],[135.904531,-28.930497],[135.903437,-28.930586],[135.901452,-28.930628],[135.900095,-28.930624],[135.898517,-28.930586],[135.897525,-28.930591],[135.89611,-28.930688],[135.893824,-28.930854],[135.890531,-28.931106],[135.890004,-28.93115],[135.889442,-28.931177],[135.889124,-28.931182],[135.888804,-28.931148],[135.888374,-28.931059],[135.887452,-28.930825],[135.887299,-28.930791],[135.886705,-28.930661],[135.885943,-28.930539],[135.88339,-28.930351],[135.878476,-28.930131],[135.875665,-28.930018],[135.875189,-28.92997],[135.874879,-28.929934],[135.874786,-28.929923],[135.874438,-28.929853],[135.873773,-28.929665],[135.873064,-28.929435],[135.871793,-28.928989],[135.870751,-28.928699],[135.869603,-28.928455],[135.868612,-28.92828],[135.867657,-28.928153],[135.866889,-28.928112],[135.865957,-28.928158],[135.864646,-28.928361],[135.863306,-28.928576],[135.862168,-28.928755],[135.861288,-28.928872],[135.860211,-28.928961],[135.857947,-28.929144],[135.855672,-28.929347],[135.85424,-28.929473],[135.853248,-28.929529],[135.852545,-28.929538],[135.851961,-28.929472],[135.851119,-28.929303],[135.850368,-28.929092],[135.8493,-28.92874],[135.845067,-28.927219],[135.843377,-28.926675],[135.842611,-28.926463],[135.842101,-28.92635],[135.841563,-28.926267],[135.840979,-28.926224],[135.840431,-28.926243],[135.838625,-28.926374],[135.837793,-28.92643],[135.83702,-28.926445],[135.836086,-28.926445],[135.835009,-28.92636],[135.834112,-28.926304],[135.833255,-28.926247],[135.832853,-28.926205],[135.832413,-28.926125],[135.831581,-28.925937],[135.830283,-28.925679],[135.829393,-28.925505],[135.828807,-28.92544],[135.828202,-28.925435],[135.827601,-28.925421],[135.82692,-28.925449],[135.826194,-28.925525],[135.825348,-28.925688],[135.821427,-28.92658],[135.819313,-28.927139],[135.817408,-28.927655],[135.816175,-28.92797],[135.815358,-28.928196],[135.814613,-28.928332],[135.814141,-28.928393],[135.813691,-28.928435],[135.813196,-28.928426],[135.809248,-28.928206],[135.80273,-28.927868],[135.799914,-28.927736],[135.797421,-28.927599],[135.796825,-28.927566],[135.79638,-28.927571],[135.795854,-28.927623],[135.792872,-28.928026],[135.78984,-28.928422],[135.788457,-28.928632],[135.787673,-28.928703],[135.787265,-28.928736],[135.786423,-28.928736],[135.785968,-28.928754],[135.785528,-28.928806],[135.785007,-28.928918],[135.784529,-28.929088],[135.784053,-28.92928],[135.783527,-28.929534],[135.783027,-28.929783],[135.782491,-28.929984],[135.781825,-28.930196],[135.781359,-28.930304],[135.780775,-28.930379],[135.780238,-28.930416],[135.779041,-28.930473],[135.778183,-28.930506],[135.777642,-28.93058],[135.776719,-28.930825],[135.775679,-28.931097],[135.775157,-28.931192],[135.774724,-28.931242],[135.773425,-28.931347],[135.772008,-28.931436],[135.771425,-28.931477],[135.770705,-28.931525],[135.769805,-28.931618],[135.768962,-28.931726],[135.7674,-28.931957],[135.766784,-28.932041],[135.766173,-28.932097],[135.765625,-28.932121],[135.764976,-28.932154],[135.761006,-28.932225],[135.760319,-28.932262],[135.759934,-28.932313],[135.759457,-28.932426],[135.759369,-28.932452],[135.758138,-28.932829],[135.757247,-28.933102],[135.75634,-28.933393],[135.755808,-28.933535],[135.754961,-28.933693],[135.753481,-28.933994],[135.750466,-28.934562],[135.749275,-28.934815],[135.74831,-28.934994],[135.747665,-28.93514],[135.747129,-28.935285],[135.746276,-28.935585],[135.745766,-28.935727],[135.744474,-28.936012],[135.743047,-28.936332],[135.741706,-28.936642],[135.740841,-28.936858],[135.740079,-28.937135],[135.73943,-28.937487],[135.738889,-28.937868],[135.738482,-28.938219],[135.738389,-28.938309],[135.736728,-28.939923],[135.735253,-28.941308],[135.734157,-28.94236],[135.733744,-28.942722],[135.733315,-28.943182],[135.732892,-28.943711],[135.73257,-28.944214],[135.732242,-28.944905],[135.731496,-28.946449],[135.731132,-28.947275],[135.730788,-28.94789],[135.730461,-28.94836],[135.730006,-28.948871],[135.729695,-28.949152],[135.729309,-28.949448],[135.728928,-28.949725],[135.72853,-28.949974],[135.728127,-28.950176],[135.724576,-28.951655],[135.723643,-28.952049],[135.723106,-28.952251],[135.722479,-28.952462],[135.721874,-28.952612],[135.721123,-28.952776],[135.720403,-28.95288],[135.719181,-28.953119],[135.717055,-28.953495],[135.716,-28.953686],[135.715281,-28.953851],[135.714706,-28.954011],[135.714116,-28.954204],[135.713552,-28.954443],[135.712646,-28.954884],[135.711692,-28.955329],[135.711209,-28.955536],[135.710816,-28.955682],[135.710297,-28.955822],[135.709298,-28.956034],[135.70815,-28.956302],[135.705957,-28.95685],[135.703076,-28.957602],[135.701488,-28.958109],[135.698505,-28.959104],[135.695003,-28.960286],[135.694256,-28.960569],[135.693656,-28.960813],[135.693222,-28.961093],[135.692697,-28.961534],[135.691978,-28.96222],[135.691506,-28.962567],[135.691173,-28.96283],[135.690712,-28.963083],[135.690304,-28.963262],[135.689778,-28.963431],[135.689295,-28.963553],[135.688534,-28.963665],[135.687675,-28.963731],[135.683041,-28.963797],[135.681367,-28.963797],[135.680326,-28.963834],[135.679479,-28.963891],[135.678828,-28.963976],[135.678067,-28.964154],[135.676897,-28.964474],[135.675691,-28.96481],[135.674039,-28.965289],[135.672756,-28.965609],[135.671099,-28.965928],[135.669769,-28.9662],[135.668385,-28.966425],[135.667548,-28.96651],[135.667151,-28.966538],[135.666411,-28.966547],[135.665563,-28.966519],[135.664866,-28.966491],[135.663879,-28.966359],[135.66301,-28.966256],[135.661991,-28.966134],[135.660853,-28.965975],[135.660059,-28.965899],[135.659233,-28.965881],[135.657087,-28.965928],[135.654963,-28.965965],[135.653676,-28.965993],[135.652936,-28.966031],[135.652468,-28.966098],[135.651599,-28.966323],[135.65035,-28.966679],[135.649824,-28.966866],[135.648923,-28.967307],[135.647796,-28.967871],[135.646681,-28.968424],[135.646037,-28.968781],[135.645457,-28.969203],[135.644599,-28.969889],[135.644116,-28.970283],[135.643827,-28.970593],[135.64344,-28.971081],[135.643044,-28.971606],[135.642764,-28.972019],[135.642415,-28.972443],[135.641996,-28.972846],[135.640591,-28.973959],[135.638339,-28.975905],[135.636182,-28.977679],[135.635233,-28.978468],[135.634475,-28.979125],[135.632411,-28.980776],[135.631225,-28.981678],[135.629118,-28.983048],[135.625813,-28.985187],[135.624204,-28.986257],[135.62268,-28.987252],[135.621908,-28.98759],[135.620792,-28.988022],[135.61841,-28.988847],[135.616672,-28.989467],[135.614913,-28.990067],[135.613385,-28.990644],[135.612346,-28.991095],[135.609763,-28.992451],[135.603025,-28.996223],[135.599055,-28.998438],[135.596309,-28.999939],[135.596181,-29.00002]]}}]}
