{"type":"FeatureCollection","features":[{"type":"Feature","properties":{"tier":"high"},"geometry":{"type":"LineString","coordinates":[[136.00002,-33.196745],[135.999894,-33.196723],[135.999663,-33.196682],[135.998528,-33.196483],[135.998396,-33.19646],[135.997553,-33.196313],[135.995606,-33.195959],[135.992548,-33.195448],[135.991755,-33.195298],[135.991074,-33.195166],[135.990454,-33.195005],[135.989852,-33.194789],[135.989212,-33.194473],[135.9886,-33.19416],[135.988034,-33.193889],[135.987422,-33.193585],[135.986796,-33.19329],[135.986209,-33.193029],[135.985693,-33.192843],[135.985218,-33.192682],[135.984685,-33.192559],[135.983992,-33.192421],[135.98344,-33.192344],[135.982831,-33.192291],[135.982243,-33.192263],[135.980409,-33.192272],[135.937842,-33.192599],[135.936962,-33.192555],[135.936458,-33.192505],[135.935935,-33.192444],[135.935231,-33.192307],[135.934803,-33.192199],[135.934296,-33.192065]]}},{"type":"Feature","properties":{"tier":"arterial"},"geometry":{"type":"LineString","coordinates":[[135.557029,-33.138073],[135.557942,-33.139168],[135.558261,-33.139605],[135.558486,-33.139955],[135.558698,-33.140388],[135.558817,-33.140678],[135.558909,-33.14096],[135.558992,-33.141258],[135.559278,-33.142227],[135.561081,-33.148492],[135.561868,-33.151192],[135.56323,-33.155864],[135.563965,-33.158411],[135.564188,-33.15918],[135.566818,-33.168233],[135.567108,-33.169269],[135.567694,-33.171275],[135.568072,-33.172575],[135.568117,-33.172732],[135.569619,-33.177988],[135.570118,-33.179684],[135.571849,-33.185683],[135.573449,-33.191175],[135.573708,-33.192064],[135.574527,-33.194873],[135.576795,-33.202718],[135.579277,-33.211227],[135.579545,-33.21218],[135.580217,-33.21446],[135.580335,-33.214841],[135.58054,-33.215338],[135.58077,-33.215798],[135.580982,-33.216139],[135.581267,-33.216555],[135.581506,-33.216861],[135.581801,-33.217191],[135.582097,-33.21749],[135.584493,-33.219791],[135.585781,-33.221042],[135.587073,-33.222268],[135.592637,-33.227651],[135.592963,-33.227973],[135.593525,-33.228612],[135.593702,-33.228835],[135.594125,-33.229417],[135.596223,-33.233012],[135.596523,-33.233577],[135.596861,-33.234307],[135.597041,-33.234753],[135.59724,-33.235311],[135.597862,-33.237165],[135.59797,-33.237598],[135.598048,-33.237997]]}},{"type":"Feature","properties":{"tier":"arterial"},"geometry":{"type":"LineString","coordinates":[[135.552458,-33.132601],[135.552161,-33.13278],[135.551795,-33.133001],[135.551543,-33.133153],[135.55133,-33.133282],[135.550829,-33.133589],[135.55064,-33.133705],[135.550456,-33.1338],[135.550204,-33.133901],[135.550006,-33.133954],[135.549759,-33.134014],[135.549575,-33.134056],[135.549377,-33.134074],[135.54868,-33.134097],[135.547363,-33.134097],[135.546751,-33.134104],[135.546308,-33.134106],[135.545746,-33.134106],[135.545261,-33.134127],[135.544966,-33.134153],[135.544669,-33.134206],[135.544422,-33.134259],[135.544085,-33.134346],[135.543743,-33.134462],[135.543368,-33.134609],[135.543125,-33.134733],[135.542815,-33.134921],[135.542654,-33.135041],[135.54243,-33.135208],[135.542003,-33.135528],[135.541524,-33.135874],[135.540929,-33.136324],[135.539719,-33.137201],[135.538312,-33.138235],[135.536859,-33.13931],[135.535513,-33.14029],[135.533847,-33.141535],[135.53217,-33.142807],[135.530185,-33.144298],[135.529437,-33.144869],[135.528532,-33.145559],[135.527858,-33.146079],[135.527199,-33.146589],[135.526064,-33.14746],[135.524681,-33.148503],[135.523326,-33.149529],[135.521993,-33.150557],[135.520507,-33.151678],[135.518436,-33.153254],[135.516478,-33.154746],[135.514688,-33.156096],[135.512847,-33.157509],[135.512658,-33.157654],[135.512521,-33.15775],[135.510885,-33.158985],[135.509275,-33.16021],[135.507539,-33.161525],[135.506238,-33.162529],[135.505033,-33.163426],[135.504298,-33.164026]]}},{"type":"Feature","properties":{"tier":"arterial"},"geometry":{"type":"LineString","coordinates":[[135.93441,-33.192802],[135.935726,-33.193359],[135.939786,-33.194981],[135.942083,-33.195942],[135.943071,-33.196317],[135.944455,-33.19689],[135.945291,-33.197336],[135.946052,-33.197864],[135.94666,-33.198494],[135.947588,-33.199664],[135.949998,-33.202693],[135.953062,-33.206516],[135.955116,-33.209063],[135.95574,-33.209805],[135.956449,-33.210543],[135.957025,-33.210961],[135.957686,-33.21133],[135.959261,-33.211915],[135.961746,-33.212823],[135.962488,-33.213179],[135.963009,-33.21353],[135.964068,-33.21442],[135.965628,-33.215684],[135.969424,-33.218739],[135.972607,-33.221289],[135.97301,-33.22164],[135.973187,-33.221847],[135.973472,-33.222216],[135.974123,-33.223219],[135.975607,-33.225558],[135.975892,-33.225976],[135.976145,-33.22621],[135.976957,-33.226844],[135.980898,-33.229817],[135.985248,-33.233064],[135.987737,-33.234922],[135.988404,-33.235425],[135.98871,-33.235628],[135.988952,-33.235794],[135.989269,-33.235947],[135.989694,-33.236131],[135.990716,-33.236523],[135.993221,-33.237539],[135.994211,-33.237935],[135.994555,-33.238097],[135.994877,-33.238362],[135.995109,-33.238627],[135.996738,-33.240453],[135.998958,-33.2429],[136.00002,-33.243806]]}},{"type":"Feature","properties":{"tier":"arterial"},"geometry":{"type":"LineString","coordinates":[[135.934803,-33.192199],[135.93483,-33.192119],[135.935283,-33.191453],[135.935496,-33.191194],[135.93577,-33.190956],[135.936137,-33.190714],[135.937286,-33.190063],[135.938021,-33.18965],[135.938273,-33.189475],[135.93881,-33.189056],[135.939919,-33.188149],[135.942994,-33.185673],[135.944186,-33.184718],[135.945042,-33.184078],[135.945368,-33.18378],[135.946733,-33.182441],[135.947298,-33.181802],[135.948016,-33.180996],[135.950105,-33.178531],[135.951165,-33.177342],[135.952841,-33.175423],[135.95334,-33.174844],[135.953976,-33.174119],[135.954527,-33.173475],[135.955352,-33.172545],[135.956478,-33.171249],[135.957624,-33.169974],[135.957838,-33.169765],[135.958118,-33.169578],[135.958495,-33.169373],[135.958867,-33.169228],[135.959346,-33.16904],[135.959712,-33.16887],[135.960008,-33.168686],[135.96041,-33.168388],[135.961144,-33.167808],[135.961368,-33.167544],[135.961556,-33.167241],[135.961658,-33.166955],[135.961898,-33.166183],[135.962224,-33.165083],[135.962473,-33.164333],[135.962626,-33.163834],[135.962662,-33.163459],[135.962626,-33.163028],[135.96258,-33.16255],[135.962494,-33.161757],[135.962203,-33.159152],[135.962193,-33.158439],[135.962264,-33.158039],[135.962422,-33.157552],[135.962697,-33.157088],[135.963041,-33.156706],[135.96343,-33.156365],[135.964132,-33.155834],[135.966265,-33.154254],[135.967756,-33.153159],[135.971026,-33.150768],[135.971819,-33.150234],[135.972312,-33.149951],[135.972691,-33.149779],[135.973004,-33.149661],[135.973782,-33.149417],[135.974023,-33.14935],[135.974574,-33.149224],[135.975475,-33.149064],[135.979758,-33.14837],[135.98117,-33.148147],[135.98144,-33.148132],[135.981728,-33.148156],[135.982059,-33.148219],[135.982387,-33.148319],[135.984019,-33.148922],[135.98444,-33.149031],[135.984804,-33.149085],[135.985226,-33.149106],[135.985669,-33.149097],[135.986022,-33.149052],[135.98644,-33.148967],[135.986785,-33.148847],[135.987174,-33.148759],[135.990672,-33.148035],[135.995256,-33.147066],[135.996046,-33.146898],[136.00002,-33.146078]]}},{"type":"Feature","properties":{"tier":"high"},"geometry":{"type":"LineString","coordinates":[[135.556431,-33.137298],[135.557032,-33.136922],[135.557678,-33.136532],[135.558293,-33.136183],[135.558632,-33.136014],[135.558894,-33.135918],[135.559156,-33.135839]]}},{"type":"Feature","properties":{"tier":"arterial"},"geometry":{"type":"LineString","coordinates":[[135.598048,-33.237997],[135.598188,-33.238805],[135.598215,-33.239348],[135.598218,-33.240069]]}},{"type":"Feature","properties":{"tier":"arterial"},"geometry":{"type":"LineString","coordinates":[[135.597489,-33.24732],[135.597444,-33.249839],[135.59718,-33.257668],[135.597054,-33.261511],[135.597072,-33.261962],[135.597117,-33.262422],[135.597217,-33.262992],[135.597332,-33.263439],[135.597464,-33.263872],[135.597578,-33.264175],[135.597809,-33.264671],[135.598355,-33.265736],[135.599336,-33.267588],[135.604335,-33.277153],[135.604626,-33.277696],[135.604888,-33.27811],[135.605173,-33.278501],[135.605556,-33.278962],[135.606059,-33.279454],[135.606368,-33.279714],[135.610833,-33.283121],[135.612655,-33.284496],[135.612823,-33.284635],[135.618727,-33.289784],[135.620039,-33.290944],[135.621846,-33.29251],[135.623685,-33.294018],[135.624255,-33.294581],[135.6245,-33.294845],[135.624709,-33.295108],[135.624827,-33.295301],[135.624943,-33.295449],[135.625087,-33.295696],[135.625369,-33.296286],[135.625467,-33.296555],[135.625506,-33.296691],[135.625572,-33.296931],[135.625662,-33.297391],[135.625702,-33.297611],[135.625707,-33.297925],[135.625703,-33.298356],[135.625638,-33.300597],[135.625285,-33.311678],[135.62525,-33.31349],[135.625285,-33.314071],[135.625344,-33.31447],[135.62905,-33.331982],[135.629224,-33.33284],[135.62939,-33.33354],[135.629477,-33.333841],[135.629618,-33.33423],[135.629822,-33.334727],[135.630222,-33.335498],[135.630375,-33.335758],[135.630769,-33.336342],[135.631011,-33.336661],[135.63314,-33.339278],[135.634215,-33.340575],[135.636924,-33.343902],[135.639767,-33.347359],[135.644489,-33.353149],[135.645515,-33.354389],[135.647619,-33.356981],[135.647859,-33.357293],[135.648065,-33.357593],[135.648235,-33.357877],[135.648309,-33.358026],[135.648535,-33.35858],[135.648645,-33.358928],[135.648837,-33.359852],[135.64911,-33.361273],[135.649278,-33.362217],[135.649328,-33.36256],[135.649359,-33.362883],[135.649384,-33.363366],[135.649384,-33.363796],[135.649343,-33.364381],[135.649195,-33.365507],[135.64916,-33.365909],[135.64916,-33.366458],[135.64918,-33.366666],[135.649207,-33.366896],[135.649278,-33.367266],[135.649693,-33.368688],[135.650131,-33.370189],[135.650199,-33.370533],[135.650239,-33.371049],[135.65021,-33.37186],[135.649762,-33.3793],[135.649662,-33.38087],[135.649623,-33.381476],[135.649588,-33.381998],[135.64943,-33.384355],[135.649281,-33.386335],[135.648701,-33.395122],[135.648622,-33.396499],[135.648551,-33.397273],[135.648226,-33.399079],[135.647612,-33.402138],[135.647488,-33.402752],[135.64716,-33.404382],[135.644746,-33.416404],[135.643735,-33.42149],[135.64367,-33.421953],[135.643647,-33.422252],[135.643658,-33.422738],[135.643676,-33.422972],[135.643797,-33.423585],[135.643927,-33.424035],[135.644146,-33.424689],[135.645351,-33.428264],[135.646186,-33.430792],[135.646276,-33.431119],[135.646576,-33.432775],[135.6469,-33.434659],[135.648004,-33.440999],[135.648105,-33.441519],[135.648195,-33.441827],[135.648295,-33.442113],[135.64886,-33.443348],[135.650564,-33.446963],[135.652223,-33.450536],[135.652949,-33.452005],[135.654782,-33.455891],[135.656539,-33.45971],[135.658128,-33.4639],[135.660897,-33.471278],[135.662298,-33.475008],[135.662448,-33.475353],[135.662578,-33.475609],[135.662796,-33.475977],[135.66295,-33.476215],[135.663086,-33.476397],[135.665952,-33.479763],[135.666235,-33.480124],[135.666441,-33.480432],[135.666555,-33.480626],[135.666716,-33.48093],[135.666942,-33.481457],[135.669231,-33.48745],[135.670191,-33.490015],[135.671642,-33.493816],[135.671888,-33.494384],[135.672147,-33.494863],[135.673214,-33.496751],[135.67341,-33.497098],[135.673609,-33.497424],[135.673803,-33.497713],[135.674037,-33.498003],[135.67422,-33.49821],[135.674572,-33.498556],[135.674745,-33.49871],[135.674986,-33.498899],[135.675231,-33.499069],[135.675673,-33.499344],[135.676893,-33.499997],[135.676937,-33.50002]]}},{"type":"Feature","properties":{"tier":"arterial"},"geometry":{"type":"LineString","coordinates":[[135.597877,-33.242825],[135.597719,-33.243324],[135.597669,-33.243595],[135.597656,-33.243667],[135.597604,-33.244695]]}},{"type":"Feature","properties":{"tier":"arterial"},"geometry":{"type":"LineString","coordinates":[[135.598219,-33.240541],[135.59812,-33.241642],[135.598111,-33.241903],[135.598053,-33.242255],[135.59801,-33.242444],[135.597894,-33.242776],[135.597877,-33.242825]]}},{"type":"Feature","properties":{"tier":"high"},"geometry":{"type":"LineString","coordinates":[[135.559156,-33.135839],[135.559437,-33.13578],[135.559734,-33.13574],[135.560048,-33.135717],[135.560317,-33.135721],[135.560862,-33.135792]]}},{"type":"Feature","properties":{"tier":"high"},"geometry":{"type":"LineString","coordinates":[[135.563158,-33.136285],[135.568517,-33.137431],[135.568988,-33.137513],[135.569223,-33.13754],[135.569803,-33.137582],[135.570789,-33.137589],[135.601735,-33.137573],[135.606061,-33.137572],[135.623573,-33.137568],[135.641613,-33.137565],[135.64613,-33.137556],[135.648689,-33.137522],[135.653413,-33.137516],[135.66232,-33.13752],[135.665077,-33.137538],[135.676589,-33.13748],[135.677093,-33.137489],[135.677477,-33.137516],[135.678006,-33.137595],[135.678415,-33.137677],[135.678861,-33.137819],[135.679187,-33.137944],[135.679767,-33.138235],[135.680904,-33.138869],[135.682857,-33.139979],[135.684495,-33.140908],[135.686343,-33.141909],[135.68697,-33.142145],[135.688437,-33.142543],[135.692151,-33.143508],[135.693914,-33.143992],[135.694978,-33.144284],[135.6951,-33.144321],[135.696329,-33.144691],[135.697297,-33.144983],[135.700934,-33.146465],[135.705566,-33.148427],[135.70647,-33.148795],[135.706875,-33.14897],[135.707489,-33.149291],[135.714486,-33.153542],[135.714921,-33.15376],[135.715261,-33.153914],[135.715556,-33.154033],[135.715986,-33.154174],[135.716234,-33.154244],[135.716542,-33.154316],[135.717122,-33.154417],[135.717488,-33.154462],[135.719318,-33.154548],[135.719788,-33.154557],[135.722243,-33.154437],[135.723769,-33.154349],[135.724032,-33.154336],[135.725073,-33.154377],[135.726741,-33.154476],[135.727552,-33.154545],[135.729086,-33.154644],[135.73107,-33.154749],[135.731594,-33.15473],[135.731984,-33.154696],[135.73239,-33.154632],[135.732712,-33.15457],[135.733188,-33.154446],[135.733647,-33.154303],[135.734797,-33.153919],[135.736052,-33.153521],[135.739324,-33.152511],[135.744079,-33.151024],[135.749751,-33.149275],[135.754732,-33.14793],[135.757264,-33.147246],[135.763107,-33.145668],[135.765377,-33.145043],[135.778459,-33.141504],[135.779135,-33.141345],[135.779668,-33.141275],[135.779843,-33.141268],[135.779952,-33.141264],[135.780203,-33.141249],[135.780616,-33.14126],[135.780985,-33.141294],[135.781366,-33.141352],[135.786542,-33.142418],[135.796656,-33.144482],[135.802715,-33.145741],[135.803368,-33.1459],[135.803888,-33.14608],[135.804306,-33.146245],[135.804698,-33.146436],[135.80519,-33.146698],[135.805987,-33.147191],[135.809094,-33.149031],[135.809372,-33.149198],[135.810356,-33.149787],[135.815407,-33.152813],[135.81645,-33.153431],[135.817093,-33.153787],[135.81751,-33.153984],[135.817948,-33.154143],[135.818361,-33.154269],[135.819232,-33.154473],[135.824753,-33.155625],[135.825863,-33.155861],[135.825941,-33.155877],[135.82763,-33.156236],[135.832472,-33.157269],[135.838093,-33.15845],[135.844872,-33.159875],[135.845591,-33.16004],[135.846056,-33.160131],[135.846475,-33.1602],[135.846899,-33.160263],[135.847429,-33.160303],[135.847904,-33.160315],[135.848386,-33.160308],[135.849342,-33.160275],[135.854322,-33.160134],[135.859278,-33.159979],[135.866583,-33.159764],[135.86715,-33.15975],[135.867585,-33.159745],[135.868029,-33.159745],[135.868384,-33.15976],[135.868731,-33.159792],[135.869176,-33.159835],[135.871841,-33.160081],[135.87479,-33.160349],[135.875069,-33.160374],[135.876927,-33.160546],[135.877104,-33.160562],[135.877353,-33.160586],[135.877789,-33.160645],[135.878351,-33.160746],[135.879035,-33.160887],[135.879537,-33.161],[135.879975,-33.161091],[135.88043,-33.161188],[135.880731,-33.161259],[135.880965,-33.161318],[135.881197,-33.161388],[135.881554,-33.161524],[135.881886,-33.161665],[135.882264,-33.161863],[135.882538,-33.16203],[135.882882,-33.162268],[135.883236,-33.162539],[135.883632,-33.162861],[135.884731,-33.16372],[135.886688,-33.165207],[135.887216,-33.165609],[135.891184,-33.168624],[135.893574,-33.170423],[135.893842,-33.170598],[135.894161,-33.170773],[135.89445,-33.17092],[135.894704,-33.171037],[135.89494,-33.171132],[135.895221,-33.171228],[135.895548,-33.171327],[135.895934,-33.171428],[135.896353,-33.17153],[135.899664,-33.172328],[135.902576,-33.173032],[135.903804,-33.173322],[135.904124,-33.173397],[135.904454,-33.173478],[135.904785,-33.173566],[135.905022,-33.173638],[135.905268,-33.173716],[135.905484,-33.17379],[135.905709,-33.173875],[135.905926,-33.173969],[135.906137,-33.174078],[135.906395,-33.174217],[135.906637,-33.174366],[135.906911,-33.174529],[135.907225,-33.174735],[135.907592,-33.174978],[135.908069,-33.175277],[135.909113,-33.175965],[135.909381,-33.176141],[135.92603,-33.187121],[135.928946,-33.189025],[135.931685,-33.190832],[135.93215,-33.191115],[135.932594,-33.191369],[135.933111,-33.19161],[135.933571,-33.191799],[135.934296,-33.192065]]}},{"type":"Feature","properties":{"tier":"high"},"geometry":{"type":"LineString","coordinates":[[135.552458,-33.132601],[135.55267,-33.132853],[135.552859,-33.133077],[135.553521,-33.133864],[135.554663,-33.135223],[135.55592,-33.136699],[135.556431,-33.137298]]}},{"type":"Feature","properties":{"tier":"high"},"geometry":{"type":"LineString","coordinates":[[135.552138,-33.132236],[135.552458,-33.132601]]}},{"type":"Feature","properties":{"tier":"high"},"geometry":{"type":"LineString","coordinates":[[135.49998,-33.083702],[135.500726,-33.084152],[135.501838,-33.084822],[135.502039,-33.084942],[135.508585,-33.088842],[135.508748,-33.08894],[135.512328,-33.091082],[135.512761,-33.091389],[135.513336,-33.091868],[135.519613,-33.098707],[135.523427,-33.102927],[135.527479,-33.107329],[135.532909,-33.112727],[135.53651,-33.116333],[135.545573,-33.125303],[135.549901,-33.129605],[135.55062,-33.130404],[135.552138,-33.132236]]}},{"type":"Feature","properties":{"tier":"high"},"geometry":{"type":"LineString","coordinates":[[135.560862,-33.135792],[135.56114,-33.135854],[135.56132,-33.135891],[135.563158,-33.136285]]}},{"type":"Feature","properties":{"tier":"arterial"},"geometry":{"type":"LineString","coordinates":[[135.556431,-33.137298],[135.557029,-33.138073]]}},{"type":"Feature","properties":{"tier":"arterial"},"geometry":{"type":"LineString","coordinates":[[135.49998,-33.171027],[135.500513,-33.170609],[135.500984,-33.170079],[135.501467,-33.169184],[135.502381,-33.16723],[135.503165,-33.165644],[135.503579,-33.164865],[135.503707,-33.164684],[135.503803,-33.164548],[135.504102,-33.164207],[135.504298,-33.164026]]}},{"type":"Feature","properties":{"tier":"arterial"},"geometry":{"type":"LineString","coordinates":[[135.93441,-33.192802],[135.934803,-33.192199]]}},{"type":"Feature","properties":{"tier":"arterial"},"geometry":{"type":"LineString","coordinates":[[135.597604,-33.244695],[135.597489,-33.24732]]}},{"type":"Feature","properties":{"tier":"arterial"},"geometry":{"type":"LineString","coordinates":[[135.598218,-33.240069],[135.598219,-33.240541]]}}]}
