{"type":"FeatureCollection","features":[{"type":"Feature","properties":{"tier":"arterial"},"geometry":{"type":"LineString","coordinates":[[135.730103,-34.034528],[135.730172,-34.035032],[135.730353,-34.03644],[135.730599,-34.038393],[135.730774,-34.039766],[135.730849,-34.040433],[135.730881,-34.040855],[135.730886,-34.041301],[135.730848,-34.041838],[135.730781,-34.042357],[135.730719,-34.042646],[135.730548,-34.043283],[135.729659,-34.046216],[135.728681,-34.049485],[135.728617,-34.049701],[135.728511,-34.050122],[135.728436,-34.050515],[135.728391,-34.05097],[135.72837,-34.051558],[135.728374,-34.059311],[135.728374,-34.062943],[135.728374,-34.063227],[135.728375,-34.068244],[135.728386,-34.071163],[135.728379,-34.072588],[135.72838,-34.074181],[135.728379,-34.075894],[135.728377,-34.076846],[135.728378,-34.078418],[135.728384,-34.07904],[135.728386,-34.080338],[135.728388,-34.082306],[135.72839,-34.084252],[135.728391,-34.086468],[135.72839,-34.08869],[135.728372,-34.105072],[135.728392,-34.109329],[135.728425,-34.109763],[135.728512,-34.110317],[135.729286,-34.113289],[135.729484,-34.11404],[135.729735,-34.115156],[135.72982,-34.115718],[135.729903,-34.116578],[135.729908,-34.117364],[135.729887,-34.11789],[135.729843,-34.11844],[135.729758,-34.118945],[135.729613,-34.119588],[135.729436,-34.120252],[135.729167,-34.121084],[135.728657,-34.12258],[135.728559,-34.122924],[135.728454,-34.123512],[135.728423,-34.124018],[135.728381,-34.129202],[135.728411,-34.13101],[135.728397,-34.131342],[135.728382,-34.131707],[135.72826,-34.132491],[135.728099,-34.133027],[135.727893,-34.133514],[135.726761,-34.135519],[135.726597,-34.135925],[135.726341,-34.136834],[135.726333,-34.136936],[135.726271,-34.137685],[135.72627,-34.13805],[135.726259,-34.139505],[135.726276,-34.140904],[135.726325,-34.141519],[135.726379,-34.141834],[135.726504,-34.142323],[135.726964,-34.143471],[135.727414,-34.144655],[135.727694,-34.145284],[135.728123,-34.146381],[135.728256,-34.146755],[135.728347,-34.147114],[135.728418,-34.147534],[135.728458,-34.147989],[135.728475,-34.148589],[135.728482,-34.170133],[135.728485,-34.177954],[135.728476,-34.18761],[135.728478,-34.197535],[135.728555,-34.210778],[135.728525,-34.214608],[135.728528,-34.217142],[135.728522,-34.227933],[135.728517,-34.248018]]}},{"type":"Feature","properties":{"tier":"regional"},"geometry":{"type":"LineString","coordinates":[[135.968038,-34.45109],[135.975837,-34.451122],[135.977772,-34.451122],[135.987853,-34.451122],[136.00002,-34.45108]]}},{"type":"Feature","properties":{"tier":"arterial"},"geometry":{"type":"LineString","coordinates":[[136.00002,-34.354441],[135.999253,-34.354108],[135.997027,-34.353288],[135.996039,-34.35297],[135.995235,-34.352671],[135.993963,-34.351915],[135.993226,-34.351467],[135.99287,-34.351166],[135.992254,-34.350544],[135.991485,-34.349768],[135.990999,-34.349334],[135.990229,-34.348872],[135.989249,-34.348377],[135.988503,-34.348075],[135.98756,-34.34784],[135.986617,-34.347728],[135.985758,-34.347682],[135.985142,-34.347714],[135.984375,-34.347833],[135.983482,-34.34807],[135.982781,-34.348329],[135.982178,-34.348645],[135.981557,-34.348951],[135.979983,-34.350116],[135.979287,-34.350658],[135.978339,-34.351507],[135.976711,-34.352918],[135.975941,-34.353413],[135.975066,-34.353801],[135.974054,-34.354115],[135.973552,-34.354215],[135.973034,-34.354295],[135.972394,-34.354309],[135.970409,-34.354229],[135.969291,-34.354202],[135.968514,-34.354295],[135.967744,-34.354443],[135.966993,-34.354679],[135.966105,-34.355081],[135.963709,-34.356248],[135.962924,-34.356534],[135.962374,-34.356663],[135.96188,-34.356728],[135.961338,-34.356709],[135.960937,-34.356683],[135.960364,-34.356566],[135.959696,-34.356352],[135.959217,-34.356093],[135.958769,-34.355775],[135.958502,-34.355535],[135.957866,-34.35479],[135.956908,-34.35348],[135.955855,-34.352611],[135.953758,-34.350912],[135.952855,-34.350251],[135.95278,-34.35021],[135.9524,-34.350004],[135.951559,-34.34957],[135.950915,-34.349375],[135.949879,-34.349109],[135.948889,-34.349038],[135.947993,-34.349051],[135.94687,-34.349245],[135.945394,-34.349706],[135.94431,-34.349972],[135.939786,-34.350289],[135.939032,-34.350328],[135.938537,-34.350315],[135.937634,-34.350199],[135.935584,-34.349816],[135.934744,-34.349706],[135.934076,-34.349693],[135.930864,-34.349842],[135.930149,-34.3499],[135.92945,-34.350056],[135.927541,-34.350769],[135.92718,-34.350893],[135.926135,-34.351191],[135.923779,-34.351846],[135.923394,-34.351937],[135.922837,-34.351988],[135.920104,-34.352086],[135.916255,-34.352261],[135.915635,-34.352254],[135.913577,-34.351995],[135.907011,-34.351042],[135.905511,-34.350841],[135.902591,-34.350722],[135.900795,-34.350683],[135.899742,-34.350574],[135.899035,-34.350455],[135.898293,-34.350208],[135.897527,-34.349912],[135.896845,-34.349477],[135.8956,-34.348755],[135.89463,-34.348271],[135.894139,-34.348113],[135.890273,-34.347312],[135.887551,-34.346743],[135.887078,-34.346666],[135.886053,-34.34649],[135.884271,-34.346166],[135.883582,-34.345944],[135.882988,-34.345699],[135.881373,-34.344758],[135.880117,-34.34398],[135.878042,-34.342697],[135.877276,-34.342381],[135.876103,-34.342084],[135.872122,-34.341365],[135.870973,-34.34125],[135.870126,-34.341269],[135.869092,-34.341432],[135.86662,-34.342055],[135.865007,-34.342486],[135.863927,-34.34263],[135.862441,-34.342707],[135.860828,-34.342726],[135.859911,-34.342688],[135.858878,-34.342525],[135.857276,-34.341997],[135.856092,-34.341394],[135.854885,-34.340953],[135.853167,-34.340598],[135.851495,-34.340426],[135.849673,-34.340359],[135.848245,-34.340282],[135.847085,-34.3401],[135.845959,-34.339812],[135.845077,-34.339486],[135.843895,-34.33889],[135.8421,-34.337922],[135.84131,-34.337545],[135.840533,-34.337229],[135.838954,-34.336699],[135.837609,-34.336205],[135.836955,-34.335889],[135.836178,-34.335334],[135.835647,-34.334886],[135.835037,-34.334142],[135.834593,-34.333434],[135.834321,-34.332706],[135.834192,-34.332247],[135.833988,-34.330689],[135.833828,-34.330011],[135.833532,-34.329303],[135.833118,-34.328641],[135.832643,-34.328114],[135.832084,-34.327593],[135.831748,-34.327329],[135.831191,-34.326956],[135.830775,-34.326742],[135.830262,-34.326524],[135.826802,-34.325549],[135.821649,-34.324054],[135.819221,-34.323089],[135.813809,-34.320776],[135.81252,-34.320281],[135.81038,-34.319584],[135.808505,-34.319025],[135.80759,-34.318658],[135.807049,-34.318413],[135.806494,-34.318067],[135.805998,-34.317737],[135.805457,-34.317274],[135.805019,-34.316848],[135.804535,-34.316433],[135.803981,-34.315959],[135.803407,-34.315619],[135.802972,-34.315416],[135.802737,-34.315335],[135.800908,-34.314705],[135.798167,-34.31376],[135.794484,-34.312535],[135.793346,-34.311979],[135.792747,-34.311583],[135.792238,-34.311126],[135.790502,-34.308875],[135.784886,-34.301581],[135.78106,-34.296454],[135.780605,-34.295859],[135.780144,-34.295248],[135.779637,-34.294574],[135.778943,-34.29366],[135.7786,-34.293222],[135.778415,-34.292992],[135.778164,-34.292726],[135.777984,-34.292559],[135.777678,-34.2923],[135.777402,-34.292094],[135.776124,-34.29115],[135.775966,-34.291034],[135.775916,-34.290997],[135.77396,-34.289536]]}},{"type":"Feature","properties":{"tier":"arterial"},"geometry":{"type":"LineString","coordinates":[[135.982635,-34.161527],[135.983615,-34.162101],[135.984599,-34.162666],[135.985381,-34.163068],[135.985963,-34.163314],[135.986364,-34.163439],[135.986618,-34.163497],[135.987209,-34.1636],[135.987702,-34.163648],[135.988877,-34.163731],[135.990456,-34.163837],[135.991829,-34.163924],[135.99235,-34.163973],[135.992815,-34.164046],[135.993397,-34.164179],[135.994506,-34.164489],[135.998192,-34.165539],[135.999489,-34.165922],[136.00002,-34.166074]]}},{"type":"Feature","properties":{"tier":"regional"},"geometry":{"type":"LineString","coordinates":[[135.727694,-34.145284],[135.728658,-34.144826],[135.728989,-34.144667],[135.729182,-34.144534],[135.729295,-34.144413],[135.729364,-34.144297],[135.729414,-34.144128],[135.729432,-34.143933],[135.729435,-34.143633],[135.729428,-34.142196],[135.729426,-34.142114],[135.729423,-34.141295],[135.729424,-34.141053],[135.72943,-34.139541],[135.729421,-34.138471],[135.729412,-34.138382],[135.729375,-34.13828],[135.729305,-34.138189]]}},{"type":"Feature","properties":{"tier":"arterial"},"geometry":{"type":"LineString","coordinates":[[135.844771,-34.128419],[135.846806,-34.129165],[135.850848,-34.13058],[135.852084,-34.131104],[135.858849,-34.134426],[135.864955,-34.13738],[135.868746,-34.139195],[135.869257,-34.139388],[135.869908,-34.139572],[135.870623,-34.139672],[135.879126,-34.140864],[135.886858,-34.141918],[135.894924,-34.143033],[135.903241,-34.144179],[135.904848,-34.144427],[135.906861,-34.145149],[135.913519,-34.147649]]}},{"type":"Feature","properties":{"tier":"arterial"},"geometry":{"type":"LineString","coordinates":[[135.729305,-34.138189],[135.734361,-34.138212],[135.739983,-34.138201],[135.742852,-34.138188],[135.74408,-34.138197],[135.74619,-34.138212],[135.747027,-34.138207],[135.750581,-34.138217],[135.752541,-34.138222],[135.760274,-34.138173],[135.762732,-34.13878],[135.765535,-34.139472],[135.765623,-34.139494],[135.766623,-34.139696],[135.771412,-34.140492],[135.771852,-34.140439],[135.774726,-34.139811],[135.775309,-34.139675],[135.775825,-34.139527],[135.777316,-34.138826],[135.777653,-34.138663],[135.778307,-34.138343],[135.77875,-34.138149],[135.779117,-34.138014],[135.779557,-34.13792],[135.779991,-34.13785],[135.784118,-34.137249],[135.785911,-34.136668],[135.789623,-34.135407],[135.790344,-34.135101],[135.790857,-34.134729],[135.791164,-34.134288],[135.79175,-34.133431],[135.794444,-34.131148],[135.795011,-34.130775],[135.800688,-34.127248],[135.807023,-34.123301],[135.813267,-34.119415],[135.817178,-34.116991],[135.817791,-34.116745],[135.818376,-34.116655],[135.819007,-34.116685],[135.822314,-34.117274],[135.823999,-34.117834],[135.828234,-34.1194],[135.828928,-34.119848],[135.830226,-34.120862],[135.831406,-34.121608],[135.831901,-34.121877],[135.833659,-34.12263],[135.834307,-34.123003],[135.835524,-34.123943],[135.836641,-34.12498],[135.837227,-34.12536],[135.839822,-34.126703],[135.844771,-34.128419]]}},{"type":"Feature","properties":{"tier":"arterial"},"geometry":{"type":"LineString","coordinates":[[135.913519,-34.147649],[135.915387,-34.148344],[135.916207,-34.148614],[135.91678,-34.148769],[135.917373,-34.148835],[135.918599,-34.148925],[135.919429,-34.14899],[135.919696,-34.149031],[135.922809,-34.149972],[135.923422,-34.150111],[135.9244,-34.150307],[135.926071,-34.150536],[135.930182,-34.150871],[135.930574,-34.150931],[135.931123,-34.15107],[135.932179,-34.151363],[135.933199,-34.151655],[135.933756,-34.151771],[135.934256,-34.15184],[135.934783,-34.151876],[135.936801,-34.151959],[135.939012,-34.152031],[135.940891,-34.152099],[135.943391,-34.15217],[135.945187,-34.152207],[135.945972,-34.152207],[135.946711,-34.15218],[135.94745,-34.152153],[135.947802,-34.152164],[135.949299,-34.15231],[135.951327,-34.152518],[135.954869,-34.152885],[135.956423,-34.153028],[135.956962,-34.153048],[135.957398,-34.153041],[135.957793,-34.152991],[135.962128,-34.15244],[135.966067,-34.151669],[135.966759,-34.151607],[135.967539,-34.151638],[135.968508,-34.151805],[135.973214,-34.15295],[135.973919,-34.153231],[135.974536,-34.153606],[135.975052,-34.154002],[135.977,-34.155936],[135.980121,-34.1592],[135.981054,-34.160129],[135.981732,-34.160802],[135.982082,-34.161111],[135.982635,-34.161527]]}},{"type":"Feature","properties":{"tier":"arterial"},"geometry":{"type":"LineString","coordinates":[[135.728477,-34.260481],[135.72779,-34.260098],[135.726403,-34.259203],[135.725835,-34.258861],[135.724803,-34.258136],[135.724256,-34.257752],[135.723203,-34.25705],[135.719665,-34.254631],[135.719577,-34.254571],[135.718694,-34.253976],[135.7172,-34.252953],[135.716011,-34.25216],[135.71476,-34.251294],[135.71383,-34.25066],[135.712948,-34.250064],[135.711482,-34.249073],[135.703498,-34.243645],[135.70256,-34.243032],[135.702262,-34.242859],[135.70204,-34.242744],[135.701749,-34.242613],[135.701456,-34.242505],[135.701157,-34.242409],[135.700786,-34.24231],[135.699773,-34.242109],[135.697864,-34.241769],[135.696764,-34.241543],[135.696058,-34.241329],[135.695876,-34.241262],[135.695474,-34.241087],[135.695175,-34.240924],[135.694925,-34.240763],[135.694621,-34.240525],[135.694433,-34.240351],[135.694209,-34.240115],[135.694011,-34.239874],[135.693833,-34.239632],[135.693582,-34.239249],[135.692346,-34.236914],[135.692097,-34.236466],[135.69196,-34.236236],[135.691822,-34.23604],[135.691477,-34.235608],[135.691108,-34.235228],[135.690669,-34.234843],[135.690038,-34.234394],[135.687924,-34.232965],[135.682426,-34.229237],[135.679869,-34.227511],[135.678184,-34.226357],[135.677252,-34.22573],[135.654024,-34.209968],[135.645793,-34.204382],[135.640837,-34.20103],[135.640467,-34.20082],[135.640048,-34.200609],[135.639678,-34.200451],[135.639195,-34.200276],[135.638843,-34.200172],[135.638401,-34.200056],[135.63339,-34.199003],[135.622836,-34.196786],[135.618673,-34.195931],[135.617831,-34.195741],[135.617359,-34.195603],[135.616747,-34.195399],[135.612424,-34.193801],[135.591526,-34.186021],[135.585203,-34.183667],[135.582162,-34.182544],[135.581313,-34.182219],[135.58005,-34.181735],[135.575113,-34.179901],[135.574555,-34.179718],[135.57396,-34.179565],[135.573541,-34.179485],[135.573305,-34.179451],[135.572664,-34.179395],[135.572174,-34.179386],[135.571466,-34.179395],[135.570001,-34.179431],[135.569205,-34.179411],[135.569008,-34.179395],[135.568457,-34.179324],[135.567922,-34.179221],[135.567515,-34.179116],[135.567124,-34.178986],[135.566723,-34.17883],[135.566061,-34.178532],[135.549031,-34.170634],[135.548834,-34.170526],[135.5486,-34.170377],[135.548211,-34.170071],[135.547972,-34.169833],[135.547734,-34.169536],[135.547527,-34.169232],[135.546822,-34.168116],[135.546613,-34.167834],[135.546399,-34.167593],[135.546182,-34.167384],[135.545952,-34.167185],[135.545702,-34.166995],[135.545496,-34.166857],[135.545275,-34.166723],[135.544367,-34.166231],[135.54404,-34.166041],[135.54382,-34.165898],[135.542536,-34.164978],[135.542175,-34.164664],[135.541586,-34.164071],[135.540422,-34.162898],[135.540327,-34.162792],[135.540138,-34.16254],[135.540041,-34.162382],[135.539927,-34.162153],[135.539744,-34.161609],[135.539136,-34.159557],[135.538966,-34.159161],[135.538837,-34.158924],[135.538686,-34.158678],[135.538523,-34.158459],[135.538334,-34.158236],[135.538103,-34.158006],[135.537809,-34.15775],[135.537553,-34.157556],[135.537073,-34.157269],[135.536778,-34.157122],[135.536484,-34.157003],[135.536174,-34.156892],[135.535869,-34.156809],[135.535554,-34.156736],[135.535172,-34.156669],[135.534907,-34.156642],[135.534584,-34.156628],[135.534273,-34.156629],[135.533713,-34.156668],[135.533133,-34.156768],[135.532647,-34.156894],[135.531053,-34.157359],[135.530466,-34.157559],[135.529882,-34.157791],[135.529403,-34.157998],[135.528962,-34.158205],[135.528443,-34.158477],[135.528099,-34.158685],[135.527796,-34.158868],[135.527032,-34.159383],[135.526619,-34.15971],[135.526241,-34.160021],[135.525331,-34.160846],[135.525124,-34.161004],[135.524847,-34.161197],[135.524544,-34.161383],[135.524105,-34.161621],[135.523584,-34.161847],[135.523337,-34.161941],[135.522793,-34.162142],[135.522543,-34.162213],[135.522111,-34.162283],[135.521917,-34.162297],[135.521457,-34.162294],[135.521135,-34.162254],[135.520891,-34.162203],[135.520696,-34.162148],[135.520472,-34.162071],[135.520193,-34.161947],[135.519952,-34.161813],[135.519655,-34.161598],[135.518988,-34.161077],[135.518715,-34.16088],[135.518491,-34.16074],[135.518025,-34.160506],[135.517639,-34.160356],[135.517338,-34.160263],[135.516988,-34.160186],[135.514015,-34.159669],[135.513718,-34.159598],[135.513269,-34.159444],[135.513024,-34.159329],[135.512778,-34.15919],[135.512585,-34.15906],[135.512413,-34.158923],[135.512228,-34.158751],[135.512066,-34.158575],[135.511929,-34.158394],[135.511505,-34.15769],[135.511341,-34.157443],[135.511169,-34.157218],[135.511006,-34.157038],[135.510838,-34.156877],[135.510601,-34.156672],[135.510328,-34.156478],[135.510017,-34.156284],[135.505214,-34.153501],[135.502151,-34.151711],[135.49998,-34.150455]]}},{"type":"Feature","properties":{"tier":"arterial"},"geometry":{"type":"LineString","coordinates":[[135.728531,-34.257376],[135.728526,-34.258914],[135.728533,-34.259866],[135.728518,-34.260209],[135.728477,-34.260481]]}},{"type":"Feature","properties":{"tier":"arterial"},"geometry":{"type":"LineString","coordinates":[[135.728477,-34.260481],[135.728359,-34.260925],[135.728026,-34.261955],[135.727749,-34.262591],[135.727108,-34.264061],[135.72672,-34.264983],[135.726639,-34.265153],[135.72654,-34.265297],[135.726447,-34.265402],[135.726056,-34.265817],[135.725616,-34.266326],[135.72551,-34.266464],[135.725439,-34.26659],[135.725414,-34.266635],[135.725114,-34.267309],[135.724732,-34.268175],[135.72449,-34.268716],[135.723904,-34.270079],[135.723795,-34.270422],[135.723761,-34.270728],[135.723756,-34.270903],[135.72378,-34.271437],[135.723742,-34.271714],[135.723694,-34.271879],[135.723658,-34.271963]]}},{"type":"Feature","properties":{"tier":"arterial"},"geometry":{"type":"LineString","coordinates":[[135.723658,-34.271963],[135.72317,-34.273086],[135.721949,-34.275861]]}},{"type":"Feature","properties":{"tier":"arterial"},"geometry":{"type":"LineString","coordinates":[[135.706656,-34.414729],[135.706257,-34.416235],[135.706138,-34.416603],[135.705413,-34.418556],[135.703431,-34.423996],[135.702439,-34.42668],[135.701378,-34.429593],[135.699994,-34.433391],[135.69967,-34.434191],[135.699359,-34.434813],[135.698984,-34.435401],[135.698294,-34.436366],[135.697704,-34.437171],[135.696962,-34.438182],[135.69663,-34.438656],[135.69645,-34.438942],[135.696288,-34.439231],[135.696134,-34.439585],[135.696011,-34.439925],[135.695922,-34.440254],[135.695856,-34.440565],[135.695794,-34.440944],[135.695362,-34.444467],[135.695232,-34.445162],[135.695113,-34.445621],[135.694943,-34.446167],[135.694211,-34.448302],[135.693524,-34.450365],[135.692166,-34.454355],[135.691753,-34.4556],[135.686561,-34.471076],[135.686071,-34.472537],[135.684562,-34.477035],[135.680331,-34.489586],[135.680204,-34.490118],[135.68012,-34.490778],[135.680137,-34.491496],[135.680234,-34.492127],[135.68037,-34.49278],[135.681997,-34.50002]]}},{"type":"Feature","properties":{"tier":"arterial"},"geometry":{"type":"LineString","coordinates":[[135.736778,-34.266108],[135.736423,-34.265867]]}},{"type":"Feature","properties":{"tier":"arterial"},"geometry":{"type":"LineString","coordinates":[[135.733887,-34.264125],[135.733773,-34.26405],[135.732617,-34.263287],[135.732589,-34.263268],[135.732499,-34.263213],[135.732432,-34.263165],[135.731904,-34.262803],[135.731427,-34.262477],[135.730871,-34.262096],[135.730368,-34.261756],[135.730028,-34.261517],[135.729858,-34.261411],[135.729239,-34.260993],[135.729039,-34.260869],[135.728879,-34.260759],[135.728671,-34.260616],[135.728477,-34.260481]]}},{"type":"Feature","properties":{"tier":"arterial"},"geometry":{"type":"LineString","coordinates":[[135.734492,-34.264554],[135.734203,-34.264351],[135.733965,-34.26418],[135.733887,-34.264125]]}},{"type":"Feature","properties":{"tier":"arterial"},"geometry":{"type":"LineString","coordinates":[[135.708409,-34.409877],[135.708231,-34.410367],[135.707889,-34.411299],[135.707637,-34.411997],[135.707439,-34.412543],[135.706727,-34.414532],[135.706656,-34.414729]]}},{"type":"Feature","properties":{"tier":"arterial"},"geometry":{"type":"LineString","coordinates":[[135.717223,-34.293762],[135.716151,-34.29883],[135.715403,-34.3024],[135.715311,-34.302947],[135.715259,-34.303488],[135.715234,-34.30451],[135.715245,-34.311343],[135.715256,-34.321899],[135.715266,-34.331946],[135.715261,-34.332119],[135.715243,-34.332666],[135.715203,-34.333091],[135.715101,-34.333708],[135.714444,-34.33711],[135.714112,-34.339402],[135.713625,-34.344025],[135.712126,-34.35828],[135.712116,-34.358375]]}},{"type":"Feature","properties":{"tier":"arterial"},"geometry":{"type":"LineString","coordinates":[[135.727251,-33.99998],[135.727706,-34.003366],[135.728084,-34.005677]]}},{"type":"Feature","properties":{"tier":"arterial"},"geometry":{"type":"LineString","coordinates":[[135.728084,-34.005677],[135.728113,-34.005881]]}},{"type":"Feature","properties":{"tier":"arterial"},"geometry":{"type":"LineString","coordinates":[[135.773866,-34.289466],[135.772515,-34.288457],[135.77121,-34.287486],[135.769918,-34.286521],[135.76976,-34.286403],[135.768512,-34.285471],[135.767394,-34.284647],[135.766619,-34.284058],[135.765816,-34.283468],[135.764966,-34.282829],[135.76454,-34.282514],[135.763885,-34.28203],[135.762659,-34.281113],[135.762045,-34.280663],[135.761823,-34.280499],[135.761654,-34.280381],[135.761418,-34.280231],[135.760764,-34.279877],[135.759669,-34.279333],[135.757947,-34.278481],[135.755968,-34.277503],[135.754425,-34.276737],[135.753371,-34.27622],[135.753023,-34.276049],[135.752602,-34.275873],[135.7523,-34.275769],[135.751937,-34.275664],[135.751528,-34.275585],[135.75127,-34.275547],[135.751004,-34.275512],[135.749992,-34.275387],[135.749463,-34.275302],[135.748931,-34.275188],[135.748631,-34.275096],[135.748311,-34.274984],[135.74782,-34.274776],[135.74739,-34.274544],[135.747159,-34.274387],[135.74693,-34.274223],[135.746706,-34.274044],[135.746416,-34.273775],[135.746102,-34.273427],[135.74586,-34.273115],[135.745353,-34.272399],[135.744871,-34.271781],[135.744733,-34.27163],[135.744534,-34.271436],[135.744278,-34.271209],[135.743983,-34.270986],[135.743547,-34.270688],[135.738648,-34.267369]]}},{"type":"Feature","properties":{"tier":"arterial"},"geometry":{"type":"LineString","coordinates":[[135.77396,-34.289536],[135.773866,-34.289466]]}},{"type":"Feature","properties":{"tier":"arterial"},"geometry":{"type":"LineString","coordinates":[[135.721949,-34.275861],[135.721514,-34.276882],[135.720692,-34.278759],[135.720475,-34.279288],[135.720357,-34.279613]]}},{"type":"Feature","properties":{"tier":"arterial"},"geometry":{"type":"LineString","coordinates":[[135.720357,-34.279613],[135.720292,-34.279792]]}},{"type":"Feature","properties":{"tier":"arterial"},"geometry":{"type":"LineString","coordinates":[[135.720292,-34.279792],[135.720227,-34.279971],[135.720095,-34.280392],[135.719921,-34.281042],[135.718955,-34.285584],[135.718763,-34.286485],[135.717247,-34.29365]]}},{"type":"Feature","properties":{"tier":"arterial"},"geometry":{"type":"LineString","coordinates":[[135.717247,-34.29365],[135.717223,-34.293762]]}},{"type":"Feature","properties":{"tier":"arterial"},"geometry":{"type":"LineString","coordinates":[[135.712103,-34.358502],[135.712075,-34.358771],[135.711853,-34.36093],[135.711766,-34.361633],[135.711506,-34.364086],[135.711402,-34.365174],[135.711353,-34.365911],[135.711018,-34.377145],[135.71097,-34.378503],[135.710947,-34.378858],[135.710917,-34.379095],[135.710883,-34.379314],[135.710738,-34.379886],[135.710513,-34.380506],[135.708024,-34.386214],[135.707878,-34.386603],[135.707755,-34.386992],[135.707655,-34.387466],[135.707611,-34.387759],[135.707582,-34.38825],[135.707588,-34.388599],[135.707642,-34.389116],[135.707695,-34.389415],[135.70777,-34.38972],[135.707859,-34.390011],[135.707987,-34.39036],[135.708513,-34.391673],[135.708648,-34.392052],[135.708799,-34.392598],[135.708906,-34.393201],[135.708944,-34.393541],[135.70896,-34.393884],[135.708958,-34.394229],[135.708873,-34.398161],[135.708833,-34.399782],[135.708671,-34.408474],[135.70865,-34.408825],[135.708589,-34.409263],[135.70849,-34.409666],[135.708457,-34.409754],[135.708426,-34.409835],[135.708409,-34.409877]]}},{"type":"Feature","properties":{"tier":"arterial"},"geometry":{"type":"LineString","coordinates":[[135.712116,-34.358375],[135.712103,-34.358502]]}},{"type":"Feature","properties":{"tier":"arterial"},"geometry":{"type":"LineString","coordinates":[[135.729621,-34.028041],[135.729778,-34.029628],[135.729812,-34.030082],[135.729834,-34.030703],[135.729839,-34.031469],[135.729844,-34.031853],[135.729851,-34.032117],[135.729867,-34.03266],[135.730103,-34.034528]]}},{"type":"Feature","properties":{"tier":"arterial"},"geometry":{"type":"LineString","coordinates":[[135.728113,-34.005881],[135.728153,-34.006238],[135.72823,-34.006922],[135.728279,-34.00757],[135.728322,-34.012592],[135.728328,-34.013286],[135.728336,-34.01702],[135.728336,-34.018032],[135.728336,-34.01938],[135.728339,-34.020062],[135.728358,-34.020501],[135.728391,-34.020798],[135.728546,-34.021634],[135.728719,-34.022578],[135.72881,-34.023092],[135.728966,-34.023919],[135.729096,-34.024653],[135.729186,-34.025152],[135.72929,-34.025686],[135.7294,-34.026314],[135.729477,-34.026743],[135.729531,-34.027151],[135.729621,-34.028041]]}},{"type":"Feature","properties":{"tier":"arterial"},"geometry":{"type":"LineString","coordinates":[[135.738648,-34.267369],[135.737397,-34.266527],[135.736778,-34.266108]]}},{"type":"Feature","properties":{"tier":"arterial"},"geometry":{"type":"LineString","coordinates":[[135.736423,-34.265867],[135.734492,-34.264554]]}},{"type":"Feature","properties":{"tier":"arterial"},"geometry":{"type":"LineString","coordinates":[[135.728517,-34.248018],[135.728531,-34.257376]]}},{"type":"Feature","properties":{"tier":"high"},"geometry":{"type":"LineString","coordinates":[[136.00002,-34.427952],[135.996639,-34.430205],[135.990667,-34.434346],[135.989535,-34.434949],[135.988456,-34.43556],[135.988252,-34.43565],[135.987154,-34.436136],[135.986712,-34.436312],[135.98582,-34.436667],[135.984959,-34.437117],[135.984222,-34.437554],[135.983521,-34.437976],[135.982806,-34.438517],[135.981673,-34.439454],[135.978489,-34.442301],[135.976007,-34.444409],[135.97339,-34.446669],[135.968038,-34.45109],[135.959205,-34.458483],[135.951504,-34.464869],[135.950885,-34.46542],[135.950381,-34.465983],[135.949843,-34.466555],[135.949261,-34.467233],[135.946635,-34.470563],[135.945702,-34.471901],[135.944747,-34.472969],[135.943445,-34.473976],[135.942055,-34.474939],[135.939601,-34.476675],[135.938038,-34.477972],[135.931554,-34.483455],[135.928861,-34.485717],[135.927256,-34.487074],[135.926439,-34.487771],[135.925966,-34.488259],[135.925695,-34.488589],[135.92544,-34.488971],[135.925365,-34.489091],[135.925196,-34.48936],[135.925038,-34.489676],[135.924934,-34.489916],[135.924819,-34.490253],[135.92472,-34.490625],[135.924585,-34.491383],[135.923902,-34.49476],[135.922836,-34.50002]]}}]}
