{"type":"FeatureCollection","features":[{"type":"Feature","properties":{"tier":"arterial"},"geometry":{"type":"LineString","coordinates":[[136.477226,-32.50002],[136.474585,-32.495956],[136.474019,-32.495144],[136.473745,-32.494875],[136.473431,-32.494696],[136.47124,-32.494122],[136.467394,-32.493088],[136.462425,-32.492063],[136.456618,-32.490792],[136.443205,-32.487532],[136.442112,-32.487246],[136.441726,-32.487071],[136.441394,-32.486795],[136.440173,-32.485116],[136.439131,-32.483698],[136.438508,-32.482713],[136.438109,-32.482052],[136.437713,-32.481534],[136.437469,-32.481315],[136.436302,-32.480576],[136.435757,-32.480246],[136.435457,-32.480128],[136.435127,-32.480063],[136.434067,-32.479968],[136.432246,-32.479787],[136.431243,-32.479651],[136.429316,-32.479333],[136.428289,-32.479147],[136.427334,-32.479051],[136.426242,-32.479056],[136.425179,-32.479105],[136.419,-32.479684],[136.411757,-32.480471],[136.409624,-32.480617],[136.408053,-32.480772],[136.405172,-32.481118],[136.404205,-32.481289],[136.403281,-32.481401],[136.401959,-32.481536],[136.401075,-32.481749],[136.399395,-32.482269],[136.393686,-32.483971],[136.393062,-32.484103],[136.389542,-32.484476],[136.388932,-32.484572],[136.388354,-32.484739],[136.385849,-32.485674],[136.385248,-32.485891],[136.384886,-32.485979],[136.383341,-32.486298],[136.381029,-32.486807],[136.380726,-32.486873],[136.380385,-32.48688],[136.379946,-32.486803],[136.377448,-32.486122],[136.373889,-32.485067],[136.373229,-32.484898],[136.372932,-32.484886],[136.372655,-32.48495],[136.37199,-32.485162],[136.371215,-32.485488],[136.370518,-32.485861],[136.369436,-32.486542],[136.363596,-32.489556],[136.360052,-32.491391],[136.359177,-32.491782],[136.357707,-32.49233],[136.356672,-32.492576],[136.35617,-32.492597],[136.353278,-32.492496],[136.345739,-32.492194],[136.344611,-32.492163],[136.343844,-32.492197],[136.342963,-32.492285],[136.33952,-32.492716],[136.337589,-32.492959],[136.336774,-32.493071],[136.336139,-32.493217],[136.329437,-32.494967],[136.326744,-32.495595],[136.326426,-32.495669],[136.320123,-32.497205],[136.319143,-32.497462],[136.318453,-32.497657],[136.316001,-32.498449],[136.315265,-32.498795],[136.3132,-32.499795],[136.312706,-32.50002]]}},{"type":"Feature","properties":{"tier":"arterial"},"geometry":{"type":"LineString","coordinates":[[136.090388,-32.50002],[136.083058,-32.497349],[136.0761,-32.493964],[136.075258,-32.493535],[136.074198,-32.492995],[136.073306,-32.492546],[136.0727,-32.492244],[136.072037,-32.491939],[136.071661,-32.491792],[136.071071,-32.491559],[136.070275,-32.491267],[136.069781,-32.491102],[136.069263,-32.490933],[136.068874,-32.490805],[136.068453,-32.49069],[136.068029,-32.490552],[136.067628,-32.490417],[136.067154,-32.490246],[136.066886,-32.490141],[136.066596,-32.490013],[136.066323,-32.489871],[136.065977,-32.489701],[136.065565,-32.489543],[136.064971,-32.489321],[136.064295,-32.489086],[136.063223,-32.488737],[136.062049,-32.488355],[136.061343,-32.488151],[136.060835,-32.488022],[136.060431,-32.48792],[136.060073,-32.487809],[136.059691,-32.487661],[136.059044,-32.487401],[136.058439,-32.48716],[136.058112,-32.487027],[136.057791,-32.486894],[136.05725,-32.486647],[136.056434,-32.486292],[136.054896,-32.485683],[136.053145,-32.484982],[136.051918,-32.48449],[136.050753,-32.484039],[136.050023,-32.48375],[136.049595,-32.483569],[136.049301,-32.483422],[136.048987,-32.483254],[136.048693,-32.483088],[136.048366,-32.482908],[136.048066,-32.482746],[136.04774,-32.48259],[136.047318,-32.482396],[136.04694,-32.48223],[136.046596,-32.482071],[136.046033,-32.481772],[136.045476,-32.481477],[136.045056,-32.48123],[136.044667,-32.480983],[136.044367,-32.480771],[136.043773,-32.480308],[136.043249,-32.47991],[136.042825,-32.4796],[136.042454,-32.479343],[136.04204,-32.479069],[136.041832,-32.478896],[136.04166,-32.478705],[136.041524,-32.47853],[136.041412,-32.478345],[136.041242,-32.478031],[136.041076,-32.477692],[136.040844,-32.477228],[136.040562,-32.476706],[136.039558,-32.474972],[136.039357,-32.474532],[136.039277,-32.474285],[136.03923,-32.474091],[136.039205,-32.473947],[136.039194,-32.473645],[136.039205,-32.473367],[136.039224,-32.472798],[136.039275,-32.471676],[136.039302,-32.470896],[136.039351,-32.47018],[136.039357,-32.469665],[136.03934,-32.469572],[136.039311,-32.469488],[136.039239,-32.469319],[136.039145,-32.469134],[136.039027,-32.46893],[136.038828,-32.468612],[136.03856,-32.46822],[136.037568,-32.466795],[136.036023,-32.464478],[136.035936,-32.464322],[136.035847,-32.464143],[136.035731,-32.463856],[136.035675,-32.463683],[136.035611,-32.46346],[136.035552,-32.463152],[136.035483,-32.462718],[136.035409,-32.462169],[136.035325,-32.461617],[136.035214,-32.460867],[136.035117,-32.460384],[136.035012,-32.459954],[136.034951,-32.459747],[136.034897,-32.459602],[136.034818,-32.459429],[136.034618,-32.45909],[136.034191,-32.458561],[136.033428,-32.457575],[136.032817,-32.45659],[136.032615,-32.456229],[136.03211,-32.455164],[136.031767,-32.454404],[136.030969,-32.452868],[136.030643,-32.452455],[136.029887,-32.451738],[136.028834,-32.450928],[136.028316,-32.450677],[136.027184,-32.450243],[136.026231,-32.449768],[136.02357,-32.448139],[136.023321,-32.4479],[136.023055,-32.447603],[136.021985,-32.44563],[136.021529,-32.444598],[136.020884,-32.442467],[136.019903,-32.439234],[136.019795,-32.438929],[136.019604,-32.438639],[136.018927,-32.437679],[136.016077,-32.433521],[136.015116,-32.432145],[136.014034,-32.430326],[136.013627,-32.429715],[136.013056,-32.429066],[136.012576,-32.428349],[136.012123,-32.427509],[136.010949,-32.42451],[136.010735,-32.424192],[136.009082,-32.422227],[136.008574,-32.421744],[136.008011,-32.421316],[136.005101,-32.419472],[136.004486,-32.419058],[136.003297,-32.418089],[135.99998,-32.415761]]}},{"type":"Feature","properties":{"tier":"regional"},"geometry":{"type":"LineString","coordinates":[[136.067693,-32.438863],[136.067588,-32.438887],[136.067389,-32.439062],[136.067159,-32.439315],[136.066668,-32.439865],[136.066549,-32.439998],[136.066073,-32.440595],[136.065795,-32.440912],[136.065455,-32.441267],[136.065095,-32.441617],[136.064152,-32.442625],[136.062995,-32.443768],[136.062122,-32.444536],[136.060572,-32.445705],[136.057996,-32.446806],[136.055259,-32.447979],[136.052984,-32.449573],[136.049928,-32.451152],[136.046666,-32.452745],[136.042203,-32.454194],[136.038426,-32.455208],[136.032817,-32.45659]]}}]}
