{"type":"FeatureCollection","features":[{"type":"Feature","properties":{"tier":"high"},"geometry":{"type":"LineString","coordinates":[[136.50002,-31.248802],[136.499937,-31.248775],[136.499383,-31.248581],[136.498794,-31.248363],[136.498075,-31.248077],[136.497466,-31.247819],[136.496723,-31.247484],[136.49598,-31.247134],[136.495062,-31.246667],[136.494178,-31.246178],[136.493349,-31.245683],[136.492541,-31.245172],[136.492156,-31.24492],[136.491787,-31.244667],[136.491147,-31.24421],[136.49051,-31.243736],[136.489539,-31.242954],[136.487004,-31.240823],[136.485475,-31.23954]]}},{"type":"Feature","properties":{"tier":"high"},"geometry":{"type":"LineString","coordinates":[[136.485475,-31.23954],[136.484108,-31.238389],[136.483071,-31.237526]]}},{"type":"Feature","properties":{"tier":"high"},"geometry":{"type":"LineString","coordinates":[[136.483071,-31.237526],[136.482643,-31.237188],[136.48217,-31.236827],[136.48114,-31.236085],[136.480447,-31.235632],[136.479895,-31.235291],[136.479379,-31.234987],[136.478532,-31.234511],[136.477979,-31.23422],[136.477416,-31.233939],[136.476639,-31.233572],[136.476268,-31.233405],[136.475491,-31.233076],[136.474782,-31.232798],[136.474204,-31.232583],[136.473689,-31.232404],[136.473016,-31.232184],[136.47247,-31.232019],[136.471526,-31.231752],[136.470584,-31.231518],[136.470025,-31.231389],[136.468923,-31.231175],[136.467886,-31.231003],[136.467024,-31.230889],[136.466174,-31.230794],[136.465989,-31.23078],[136.465432,-31.230733],[136.464807,-31.230692],[136.463934,-31.23064],[136.46295,-31.230595],[136.461652,-31.230556],[136.459966,-31.230535],[136.458837,-31.230544],[136.457715,-31.230565],[136.456586,-31.230604],[136.455468,-31.230661],[136.454359,-31.230731],[136.45324,-31.230815],[136.451248,-31.230962],[136.449241,-31.231092],[136.447085,-31.231215],[136.444845,-31.231324],[136.441661,-31.231435],[136.438186,-31.231505],[136.434722,-31.231524],[136.431267,-31.231496],[136.426791,-31.231392],[136.425152,-31.23139],[136.424132,-31.231407],[136.42312,-31.23144],[136.421602,-31.231516],[136.420206,-31.231619],[136.418977,-31.231735],[136.417638,-31.231888],[136.417462,-31.23191],[136.416046,-31.232104],[136.41466,-31.23232],[136.413248,-31.23258],[136.411902,-31.232856],[136.410811,-31.233099],[136.409773,-31.233344],[136.408679,-31.233627],[136.407571,-31.233935],[136.406279,-31.234323],[136.405419,-31.234602],[136.40442,-31.234927],[136.403442,-31.235284],[136.40262,-31.235572],[136.401863,-31.235826],[136.401259,-31.236002],[136.400884,-31.236094],[136.400411,-31.236195],[136.399918,-31.236286],[136.39931,-31.23638],[136.398777,-31.236446],[136.39804,-31.236498],[136.397505,-31.236523],[136.396992,-31.236531],[136.396528,-31.236524],[136.396072,-31.236507],[136.395693,-31.236486],[136.395356,-31.236459],[136.395005,-31.236425],[136.394168,-31.236324],[136.39375,-31.236261],[136.39339,-31.236194],[136.392672,-31.236038],[136.392013,-31.2359],[136.391178,-31.235745],[136.389495,-31.235455],[136.387927,-31.235233],[136.38639,-31.235064],[136.385819,-31.235009],[136.384409,-31.234893],[136.383307,-31.234824],[136.38233,-31.234779],[136.381231,-31.234753],[136.380129,-31.234739],[136.378781,-31.23475],[136.377808,-31.234794],[136.37695,-31.234815],[136.375789,-31.234799],[136.375055,-31.23477],[136.374384,-31.234733],[136.3737,-31.23467],[136.372984,-31.234592],[136.372252,-31.234496],[136.371585,-31.234387],[136.37079,-31.234241],[136.370023,-31.234085],[136.369377,-31.233932],[136.368782,-31.233779],[136.367823,-31.233505],[136.366867,-31.233208],[136.366076,-31.23293],[136.364598,-31.232364],[136.353262,-31.228058],[136.349446,-31.226615],[136.345967,-31.225277],[136.344195,-31.224557],[136.342438,-31.223804],[136.340751,-31.223044],[136.339041,-31.222235],[136.338346,-31.221894],[136.337286,-31.221358],[136.336235,-31.220811],[136.334207,-31.21972],[136.332218,-31.218583],[136.330354,-31.217456],[136.326422,-31.215014],[136.324288,-31.213689],[136.323177,-31.213019],[136.322017,-31.212333],[136.319855,-31.211117],[136.31934,-31.210841],[136.318336,-31.210299],[136.317345,-31.209782],[136.31629,-31.209252],[136.315271,-31.208754],[136.313869,-31.20808],[136.311863,-31.207164],[136.310267,-31.20647],[136.307223,-31.205209],[136.304557,-31.204137],[136.301029,-31.202765],[136.297472,-31.201438],[136.295146,-31.200595],[136.292871,-31.199792],[136.290358,-31.198936],[136.287899,-31.19812],[136.282879,-31.19653],[136.279904,-31.195588],[136.277973,-31.195021],[136.271963,-31.193197],[136.267439,-31.191845],[136.266393,-31.19153],[136.265346,-31.191203],[136.264299,-31.190867],[136.263199,-31.190545],[136.261113,-31.189931],[136.26049,-31.189731],[136.259018,-31.189284],[136.257882,-31.188951],[136.25674,-31.188606],[136.25447,-31.187908],[136.251743,-31.187084],[136.250382,-31.186682],[136.249246,-31.18634],[136.24639,-31.185507],[136.245586,-31.185294],[136.244718,-31.185087],[136.2439,-31.18489],[136.243079,-31.184713],[136.241324,-31.184362],[136.239493,-31.18407],[136.237859,-31.183826],[136.237276,-31.183747],[136.236684,-31.183687],[136.235664,-31.183587],[136.234588,-31.183492],[136.233028,-31.183399],[136.231452,-31.18334],[136.230341,-31.183322],[136.229253,-31.183318],[136.227722,-31.183337],[136.226278,-31.183377],[136.223697,-31.183567],[136.222802,-31.183659],[136.221828,-31.183777],[136.220299,-31.183964],[136.218586,-31.184232],[136.217932,-31.184345],[136.216986,-31.18454],[136.215996,-31.184724],[136.21457,-31.184965],[136.213085,-31.18518],[136.211892,-31.185326],[136.21071,-31.185441],[136.209591,-31.185548],[136.208456,-31.18562],[136.207199,-31.185691],[136.205824,-31.185727],[136.204936,-31.185741],[136.204052,-31.185739],[136.202476,-31.185705],[136.200153,-31.185584],[136.198147,-31.185406],[136.19677,-31.185242],[136.195528,-31.185073],[136.194473,-31.18491],[136.193114,-31.18468],[136.191519,-31.18436],[136.182493,-31.182351],[136.175177,-31.180727],[136.172183,-31.180064],[136.154143,-31.176053],[136.150976,-31.175344],[136.150059,-31.175139],[136.148451,-31.174788],[136.148208,-31.174735],[136.147923,-31.174673],[136.144662,-31.173965],[136.138954,-31.172683],[136.136653,-31.172197],[136.136064,-31.172043],[136.133256,-31.171458],[136.130629,-31.170979],[136.126383,-31.170338],[136.124652,-31.17002],[136.123847,-31.169895],[136.123414,-31.169828],[136.120924,-31.16941],[136.119282,-31.169101],[136.118302,-31.168905],[136.116159,-31.168442],[136.111656,-31.167405],[136.105272,-31.16593],[136.103932,-31.16562],[136.102761,-31.165355],[136.100819,-31.164965],[136.099517,-31.164736],[136.098211,-31.164532],[136.096667,-31.164331],[136.095418,-31.164186],[136.0941,-31.164069],[136.092723,-31.16397],[136.091841,-31.163924],[136.090969,-31.163888],[136.089706,-31.163852],[136.088763,-31.16385],[136.086622,-31.163839],[136.082401,-31.163832],[136.080194,-31.163821],[136.079054,-31.163797],[136.076656,-31.163705],[136.075137,-31.163609],[136.073445,-31.16348],[136.071728,-31.163311],[136.070431,-31.163163],[136.069162,-31.162999],[136.067292,-31.162728],[136.065506,-31.162434],[136.063904,-31.162134],[136.062426,-31.161831],[136.06096,-31.161506],[136.059189,-31.161072],[136.057912,-31.160735],[136.056468,-31.160334],[136.055035,-31.159911],[136.053739,-31.159516],[136.052441,-31.159088],[136.050283,-31.158319],[136.048314,-31.157561],[136.046315,-31.156733],[136.044517,-31.155934],[136.042686,-31.155077],[136.040885,-31.154168],[136.03922,-31.153284],[136.032652,-31.149707],[136.030809,-31.1487],[136.024072,-31.145031],[136.021578,-31.143674],[136.020196,-31.142919],[136.019071,-31.142329],[136.017815,-31.141701],[136.016495,-31.141084],[136.015254,-31.140531],[136.014469,-31.140203],[136.013561,-31.139838],[136.012754,-31.139523],[136.011943,-31.139222],[136.01113,-31.138934],[136.009839,-31.1385],[136.008534,-31.138092],[136.007041,-31.137659],[136.005538,-31.137264],[135.99998,-31.135848]]}}]}
