{"type":"FeatureCollection","features":[{"type":"Feature","properties":{"tier":"arterial"},"geometry":{"type":"LineString","coordinates":[[136.50002,-33.747339],[136.499681,-33.746804],[136.497175,-33.74283],[136.496905,-33.742388],[136.496721,-33.742018],[136.496585,-33.741624],[136.496508,-33.741294],[136.496479,-33.740892],[136.496431,-33.739983],[136.496469,-33.736396],[136.496489,-33.732462],[136.49649,-33.731937],[136.496497,-33.729053]]}},{"type":"Feature","properties":{"tier":"arterial"},"geometry":{"type":"LineString","coordinates":[[136.494072,-33.707014],[136.494047,-33.706793],[136.494041,-33.706625],[136.494037,-33.706412],[136.494039,-33.705604]]}},{"type":"Feature","properties":{"tier":"arterial"},"geometry":{"type":"LineString","coordinates":[[136.494006,-33.701832],[136.492727,-33.70183]]}},{"type":"Feature","properties":{"tier":"arterial"},"geometry":{"type":"LineString","coordinates":[[136.492727,-33.701697],[136.494007,-33.701699]]}},{"type":"Feature","properties":{"tier":"arterial"},"geometry":{"type":"LineString","coordinates":[[136.493979,-33.704837],[136.493984,-33.704338],[136.493988,-33.703832],[136.493991,-33.703518],[136.493992,-33.703361],[136.494006,-33.701832]]}},{"type":"Feature","properties":{"tier":"arterial"},"geometry":{"type":"LineString","coordinates":[[136.492734,-33.698937],[136.492734,-33.698237],[136.492754,-33.697916],[136.49279,-33.697662],[136.492832,-33.697499],[136.492923,-33.697202],[136.493055,-33.696752]]}},{"type":"Feature","properties":{"tier":"arterial"},"geometry":{"type":"LineString","coordinates":[[136.493055,-33.696752],[136.493236,-33.696071],[136.493309,-33.695718],[136.493342,-33.695462],[136.493364,-33.695157],[136.493371,-33.694867],[136.493365,-33.694562],[136.493341,-33.694212],[136.493297,-33.69381],[136.493232,-33.693359],[136.493168,-33.692972],[136.492813,-33.69069],[136.492428,-33.688016],[136.49228,-33.686993],[136.491894,-33.684505],[136.491834,-33.684083],[136.491851,-33.683461],[136.492323,-33.681108],[136.492358,-33.680702],[136.492331,-33.68034],[136.492252,-33.680023],[136.492012,-33.679559],[136.491552,-33.678725],[136.491436,-33.67832],[136.491401,-33.677958],[136.491481,-33.677265],[136.491481,-33.676704],[136.491365,-33.676232],[136.491232,-33.675708],[136.491215,-33.675303],[136.491321,-33.674823],[136.49164,-33.67382],[136.491702,-33.673392],[136.491702,-33.672987],[136.491613,-33.672419],[136.491392,-33.671475],[136.491135,-33.6707],[136.490736,-33.669867],[136.490426,-33.669107],[136.490176,-33.668284]]}},{"type":"Feature","properties":{"tier":"arterial"},"geometry":{"type":"LineString","coordinates":[[136.490176,-33.668284],[136.489168,-33.66833],[136.488027,-33.668384],[136.487506,-33.668342],[136.487065,-33.668208],[136.486593,-33.668008],[136.486152,-33.667708],[136.485601,-33.667157],[136.485009,-33.666523],[136.484568,-33.665939],[136.484247,-33.665196],[136.483826,-33.663936],[136.483596,-33.663486],[136.483245,-33.662976],[136.482021,-33.661366],[136.481741,-33.660882],[136.48156,-33.660406],[136.48146,-33.659931],[136.48137,-33.659263],[136.48144,-33.658812],[136.4816,-33.65812],[136.482462,-33.655257],[136.482753,-33.654773],[136.483475,-33.653922],[136.484187,-33.652987],[136.484478,-33.652436],[136.484718,-33.652102],[136.485089,-33.651852],[136.485581,-33.651668],[136.486252,-33.651477],[136.486724,-33.651268],[136.487185,-33.650859],[136.487576,-33.650458],[136.48901,-33.649549],[136.489463,-33.64927],[136.489741,-33.649098],[136.491255,-33.647838],[136.491696,-33.647612],[136.492148,-33.647546],[136.49291,-33.647646],[136.493209,-33.647573],[136.493391,-33.647529],[136.493782,-33.64727],[136.494073,-33.646895],[136.494474,-33.645693],[136.494734,-33.645309],[136.495978,-33.643848],[136.496168,-33.643281],[136.496158,-33.642863],[136.496088,-33.642471],[136.496108,-33.642162],[136.496459,-33.641528],[136.4969,-33.640793],[136.497091,-33.640242],[136.497121,-33.63985],[136.497121,-33.636853],[136.497111,-33.634858],[136.497218,-33.633826],[136.49733,-33.632847],[136.497339,-33.62827],[136.49738,-33.624077],[136.497376,-33.619546],[136.49737,-33.613994],[136.497391,-33.60949],[136.497399,-33.608399],[136.497432,-33.604272],[136.497422,-33.599345],[136.497419,-33.599032],[136.497411,-33.59826],[136.497311,-33.597739],[136.497178,-33.597215],[136.496976,-33.596421],[136.49674,-33.595561],[136.496701,-33.59524],[136.496696,-33.594957],[136.49674,-33.594554],[136.496871,-33.594073],[136.497174,-33.592965],[136.497251,-33.592627],[136.497257,-33.59196],[136.497305,-33.588604],[136.497304,-33.588507],[136.497277,-33.585908],[136.497278,-33.581709],[136.497285,-33.580019],[136.497292,-33.578255],[136.497294,-33.577788],[136.497301,-33.576215],[136.497324,-33.571658],[136.497422,-33.571],[136.497633,-33.570473],[136.498003,-33.569939],[136.498402,-33.569505],[136.499186,-33.568859],[136.499593,-33.568444],[136.499895,-33.567847],[136.49997,-33.567439],[136.499947,-33.566924],[136.499849,-33.566585],[136.499141,-33.565209],[136.498711,-33.564556],[136.49798,-33.563614],[136.497626,-33.562923],[136.497415,-33.562207],[136.497354,-33.561636],[136.497369,-33.559795],[136.497402,-33.555451],[136.497423,-33.550427],[136.497423,-33.548758],[136.497423,-33.54723],[136.497351,-33.546635],[136.497258,-33.546092],[136.49701,-33.545024],[136.496772,-33.543947],[136.496565,-33.542999],[136.496575,-33.542473],[136.496658,-33.542059],[136.496958,-33.541189],[136.497289,-33.540206],[136.497413,-33.539534],[136.497465,-33.538913],[136.497444,-33.534664],[136.497442,-33.533637],[136.497433,-33.530148],[136.497477,-33.52481],[136.49748,-33.524423],[136.497479,-33.524199],[136.497467,-33.518219],[136.497474,-33.517054],[136.497505,-33.511982],[136.497493,-33.509268],[136.497329,-33.508632],[136.497098,-33.508219],[136.496753,-33.507818],[136.496264,-33.507399],[136.495715,-33.507099],[136.495355,-33.50698],[136.49353,-33.506607],[136.485644,-33.505069],[136.475872,-33.503138],[136.473908,-33.502733],[136.473205,-33.502646],[136.472729,-33.50262]]}},{"type":"Feature","properties":{"tier":"arterial"},"geometry":{"type":"LineString","coordinates":[[136.472729,-33.50262],[136.472326,-33.502655],[136.47179,-33.502723],[136.47094,-33.502888],[136.467942,-33.503474],[136.464883,-33.504078],[136.463866,-33.504272],[136.463183,-33.504365],[136.462753,-33.504382],[136.462406,-33.504374],[136.462094,-33.504352],[136.460523,-33.504109],[136.457221,-33.503598],[136.452617,-33.502898],[136.451682,-33.50277],[136.451313,-33.502733],[136.449907,-33.502666],[136.44894,-33.502628],[136.448425,-33.502594],[136.448071,-33.50254],[136.447837,-33.502486],[136.447234,-33.502315],[136.446994,-33.502184],[136.44653,-33.501907],[136.445973,-33.501426],[136.445666,-33.500997],[136.445379,-33.500539],[136.445011,-33.49998]]}},{"type":"Feature","properties":{"tier":"arterial"},"geometry":{"type":"LineString","coordinates":[[136.240669,-33.946251],[136.240653,-33.950236],[136.240632,-33.954023],[136.240625,-33.954638],[136.240586,-33.955023],[136.240509,-33.955408],[136.240382,-33.955888],[136.240341,-33.956165],[136.24034,-33.956457],[136.240371,-33.956809],[136.240474,-33.957139],[136.240628,-33.957474],[136.240753,-33.957762],[136.240784,-33.957896],[136.240826,-33.958114]]}},{"type":"Feature","properties":{"tier":"arterial"},"geometry":{"type":"LineString","coordinates":[[136.215211,-33.859533],[136.217108,-33.863105],[136.218763,-33.866129],[136.219429,-33.867171],[136.220251,-33.868186],[136.221405,-33.869541],[136.221861,-33.870324],[136.224331,-33.874883],[136.224924,-33.876324],[136.225257,-33.877451],[136.225374,-33.878646],[136.225284,-33.880767],[136.225311,-33.88111],[136.225536,-33.882111],[136.226327,-33.88444],[136.226696,-33.885493],[136.226984,-33.886023],[136.228495,-33.888435],[136.230419,-33.891458],[136.231346,-33.892951],[136.231678,-33.893511],[136.232893,-33.896378],[136.23444,-33.900148],[136.234763,-33.900842],[136.235006,-33.901193],[136.23649,-33.902738],[136.237551,-33.90388],[136.238154,-33.904821],[136.239683,-33.907291],[136.239869,-33.907763],[136.239877,-33.908138],[136.239709,-33.90887],[136.238907,-33.911326],[136.238887,-33.911386],[136.238368,-33.913004],[136.238302,-33.913398],[136.238499,-33.913834],[136.239648,-33.915114],[136.240337,-33.915918],[136.24055,-33.916313],[136.240665,-33.917184],[136.240616,-33.924878],[136.240583,-33.93253],[136.240626,-33.938856],[136.24068,-33.943233],[136.240669,-33.946251]]}},{"type":"Feature","properties":{"tier":"arterial"},"geometry":{"type":"LineString","coordinates":[[136.194134,-33.851569],[136.194478,-33.851701],[136.20305,-33.85451],[136.211112,-33.857135],[136.211535,-33.857297],[136.213873,-33.858727],[136.215019,-33.859347],[136.215211,-33.859533]]}},{"type":"Feature","properties":{"tier":"arterial"},"geometry":{"type":"LineString","coordinates":[[136.194134,-33.851569],[136.194249,-33.851373],[136.194788,-33.850822],[136.198256,-33.847566],[136.198456,-33.847341],[136.198578,-33.847116],[136.198692,-33.84682],[136.199878,-33.841953],[136.200064,-33.841217],[136.20039,-33.839888],[136.200478,-33.839645],[136.200615,-33.8394],[136.200849,-33.83905],[136.203891,-33.834868],[136.205914,-33.832071],[136.206042,-33.831824],[136.206112,-33.831594],[136.206181,-33.831171],[136.206525,-33.828392],[136.206527,-33.82818],[136.206499,-33.82799],[136.206416,-33.827775],[136.206284,-33.827531],[136.204691,-33.824979],[136.204544,-33.824664],[136.204475,-33.824434],[136.204473,-33.824298],[136.204501,-33.823914],[136.204936,-33.820771],[136.204979,-33.820101],[136.205018,-33.818927],[136.205016,-33.818386],[136.204982,-33.817915],[136.20488,-33.817253],[136.204719,-33.816366],[136.204612,-33.815882],[136.20436,-33.814778],[136.204266,-33.813979],[136.204183,-33.813502],[136.204086,-33.813247],[136.203863,-33.812942],[136.203262,-33.812214],[136.202571,-33.811319],[136.20195,-33.810457]]}},{"type":"Feature","properties":{"tier":"arterial"},"geometry":{"type":"LineString","coordinates":[[136.20195,-33.810457],[136.201677,-33.809964],[136.201497,-33.809503],[136.201442,-33.809145],[136.201461,-33.808691],[136.201574,-33.807395],[136.201541,-33.806996],[136.201422,-33.806455],[136.201087,-33.805298],[136.200953,-33.804876],[136.200938,-33.804544],[136.201019,-33.804233],[136.201719,-33.801298],[136.202109,-33.799619],[136.202451,-33.798477],[136.202803,-33.797402],[136.203014,-33.796967],[136.203952,-33.795452],[136.205884,-33.79231],[136.206265,-33.791609],[136.207934,-33.788906],[136.208353,-33.788418],[136.209518,-33.787406],[136.209938,-33.786961],[136.210127,-33.786386],[136.211396,-33.781868],[136.212787,-33.777164],[136.213102,-33.776095],[136.213213,-33.775725],[136.213404,-33.775085],[136.214219,-33.772083],[136.214439,-33.771281],[136.21446,-33.770818],[136.214376,-33.770382],[136.213306,-33.767469],[136.212939,-33.766274],[136.212981,-33.765646],[136.21319,-33.763919],[136.213148,-33.763448],[136.213033,-33.762985],[136.212414,-33.761982],[136.212131,-33.761407],[136.211942,-33.760744],[136.211942,-33.760369],[136.211973,-33.760081]]}},{"type":"Feature","properties":{"tier":"arterial"},"geometry":{"type":"LineString","coordinates":[[136.211973,-33.760081],[136.212106,-33.759582],[136.212907,-33.757864],[136.21321,-33.757027],[136.213318,-33.756424],[136.213297,-33.755992],[136.213059,-33.75503],[136.212063,-33.751494],[136.211435,-33.749101],[136.211176,-33.7474],[136.211154,-33.74696],[136.211176,-33.745898],[136.211327,-33.741903],[136.211457,-33.739122],[136.211673,-33.737503],[136.212474,-33.732904],[136.212658,-33.731428],[136.212626,-33.731023],[136.21242,-33.729926],[136.212193,-33.728981],[136.211458,-33.725698],[136.21138,-33.724965],[136.211414,-33.724547],[136.212217,-33.72218],[136.213768,-33.717075],[136.21435,-33.715143]]}},{"type":"Feature","properties":{"tier":"arterial"},"geometry":{"type":"LineString","coordinates":[[136.21435,-33.715143],[136.214787,-33.715104],[136.217733,-33.715526],[136.22534,-33.716569],[136.225893,-33.71676],[136.229576,-33.718139],[136.230795,-33.718876],[136.232713,-33.720162],[136.233194,-33.720466],[136.233443,-33.720577],[136.233682,-33.720661],[136.233874,-33.720697],[136.23405,-33.720708],[136.234445,-33.720711],[136.235023,-33.720694],[136.236784,-33.720662],[136.238154,-33.720622],[136.238841,-33.720588],[136.239622,-33.720551],[136.240244,-33.72053],[136.241069,-33.72053],[136.242683,-33.720533],[136.244525,-33.720513],[136.24502,-33.720427],[136.245642,-33.720226],[136.248875,-33.718857],[136.252673,-33.717164],[136.257385,-33.713008],[136.259723,-33.710934],[136.260067,-33.710668]]}},{"type":"Feature","properties":{"tier":"arterial"},"geometry":{"type":"LineString","coordinates":[[136.270854,-33.691199],[136.271932,-33.690517]]}},{"type":"Feature","properties":{"tier":"arterial"},"geometry":{"type":"LineString","coordinates":[[136.260067,-33.710668],[136.263082,-33.708861],[136.263583,-33.708448],[136.263852,-33.708061],[136.265909,-33.704782],[136.266472,-33.703886],[136.266521,-33.70352],[136.267683,-33.697124],[136.268357,-33.693366],[136.268589,-33.692755],[136.268956,-33.69247],[136.269827,-33.691887]]}},{"type":"Feature","properties":{"tier":"arterial"},"geometry":{"type":"LineString","coordinates":[[136.269727,-33.688162],[136.270333,-33.687748]]}},{"type":"Feature","properties":{"tier":"arterial"},"geometry":{"type":"LineString","coordinates":[[136.270926,-33.687359],[136.270846,-33.687261],[136.27018,-33.686456],[136.269848,-33.685759],[136.269517,-33.684769],[136.269435,-33.683787],[136.269271,-33.67665],[136.269123,-33.670345],[136.268986,-33.665106],[136.268806,-33.664172],[136.268446,-33.663327],[136.267515,-33.661873],[136.26295,-33.655607],[136.260743,-33.652574],[136.256302,-33.646528],[136.255385,-33.645224],[136.2549,-33.64441],[136.254459,-33.643228],[136.253437,-33.640143],[136.252434,-33.637186],[136.251091,-33.633052],[136.249527,-33.628257],[136.247791,-33.622808],[136.247237,-33.621164],[136.246711,-33.620184],[136.245527,-33.618638],[136.241884,-33.614221],[136.240935,-33.61309],[136.23991,-33.611856],[136.239391,-33.611164],[136.238248,-33.6088],[136.237355,-33.607202],[136.236706,-33.606134],[136.236153,-33.605274],[136.235713,-33.604601],[136.235424,-33.604184],[136.235127,-33.603784],[136.234836,-33.603409],[136.23331,-33.601672],[136.232112,-33.600293],[136.231018,-33.599018],[136.230303,-33.598212],[136.229569,-33.597365],[136.229296,-33.597045],[136.229034,-33.596692],[136.228787,-33.596314],[136.228596,-33.595994],[136.228398,-33.59563],[136.228143,-33.595131],[136.227794,-33.594476],[136.227152,-33.593225],[136.22666,-33.592269],[136.226418,-33.591783],[136.226254,-33.591386],[136.226013,-33.590801],[136.225438,-33.589435],[136.225323,-33.589184],[136.225006,-33.588495],[136.224657,-33.587813],[136.224175,-33.586893],[136.224056,-33.586665],[136.223897,-33.586358],[136.223674,-33.585926],[136.223335,-33.58527],[136.222558,-33.583776],[136.222097,-33.582898],[136.221906,-33.582505],[136.221756,-33.582158],[136.221665,-33.58192],[136.221544,-33.581509],[136.221451,-33.581134],[136.221395,-33.580803],[136.221361,-33.580454],[136.221337,-33.580064],[136.221318,-33.579408],[136.221289,-33.578459],[136.221265,-33.577684],[136.221249,-33.577205],[136.221231,-33.576936],[136.221194,-33.576713],[136.221122,-33.576366],[136.221027,-33.576006],[136.220887,-33.575625],[136.220717,-33.575229],[136.220505,-33.574834],[136.22029,-33.574477],[136.219858,-33.573898],[136.219016,-33.572779],[136.21793,-33.571351],[136.216846,-33.569927],[136.215826,-33.568594],[136.215045,-33.567556],[136.214046,-33.566232],[136.213023,-33.564901],[136.212445,-33.564132],[136.212233,-33.563852],[136.212125,-33.563691],[136.212064,-33.5636],[136.211908,-33.563359],[136.211757,-33.563106],[136.211611,-33.56283],[136.211428,-33.562474],[136.211229,-33.562044],[136.211065,-33.561675],[136.210562,-33.560534],[136.210209,-33.559739],[136.20995,-33.559162],[136.209258,-33.557635],[136.20822,-33.555301],[136.207319,-33.55327],[136.206497,-33.551463],[136.205634,-33.549514],[136.205024,-33.548167],[136.204124,-33.546162],[136.203768,-33.545354],[136.20358,-33.544899],[136.203472,-33.544601],[136.203329,-33.544119],[136.203255,-33.543766],[136.203162,-33.543212],[136.203064,-33.542591],[136.202807,-33.540997],[136.202576,-33.53955],[136.202311,-33.537877],[136.202012,-33.535905],[136.201705,-33.534003],[136.20144,-33.532378],[136.201156,-33.530518],[136.200833,-33.528493],[136.20052,-33.526112],[136.200414,-33.525274],[136.200361,-33.524862],[136.200269,-33.524221],[136.200192,-33.523771],[136.199948,-33.522198],[136.199871,-33.521718],[136.199657,-33.520387],[136.199423,-33.519214],[136.199222,-33.518235],[136.198878,-33.516444],[136.198647,-33.515052],[136.198334,-33.513061],[136.198308,-33.512894],[136.197956,-33.510714],[136.197669,-33.508896],[136.197501,-33.507749],[136.197352,-33.506813],[136.197301,-33.506342],[136.19728,-33.505929],[136.197277,-33.50556],[136.197288,-33.505085],[136.197293,-33.504818],[136.197325,-33.504193],[136.197344,-33.503569],[136.19736,-33.503081],[136.197363,-33.502989],[136.197439,-33.501212],[136.197489,-33.49998]]}},{"type":"Feature","properties":{"tier":"high"},"geometry":{"type":"LineString","coordinates":[[136.478202,-33.964984],[136.477602,-33.965209],[136.476548,-33.965608],[136.476006,-33.9658],[136.475449,-33.965975],[136.474943,-33.966105],[136.474457,-33.966202],[136.47394,-33.966285],[136.473367,-33.966348],[136.472433,-33.96642],[136.471289,-33.966509],[136.470697,-33.966554],[136.470295,-33.966605],[136.46984,-33.96668],[136.469481,-33.966762],[136.469061,-33.966874],[136.468684,-33.967006],[136.46826,-33.967184],[136.467914,-33.967349],[136.467574,-33.967531],[136.467247,-33.967729],[136.466927,-33.967963],[136.466494,-33.968299],[136.465965,-33.968728],[136.464408,-33.96999],[136.461266,-33.972513],[136.461198,-33.972567],[136.454399,-33.978041],[136.443799,-33.986573],[136.436545,-33.992418],[136.433574,-33.994811],[136.430769,-33.997072],[136.427682,-33.999559],[136.427108,-34.00002]]}},{"type":"Feature","properties":{"tier":"arterial"},"geometry":{"type":"LineString","coordinates":[[136.492727,-33.701697],[136.492728,-33.701394],[136.49273,-33.700344]]}},{"type":"Feature","properties":{"tier":"arterial"},"geometry":{"type":"LineString","coordinates":[[136.494165,-33.701833],[136.494161,-33.702295],[136.494158,-33.70269],[136.494153,-33.703362],[136.494149,-33.703834],[136.494145,-33.704335],[136.494141,-33.704838]]}},{"type":"Feature","properties":{"tier":"arterial"},"geometry":{"type":"LineString","coordinates":[[135.99998,-33.648749],[136.001305,-33.648694],[136.003702,-33.648579],[136.012415,-33.648204],[136.013204,-33.64817],[136.014309,-33.648122],[136.015282,-33.648066],[136.015697,-33.648026],[136.016201,-33.647935],[136.016695,-33.64783],[136.017039,-33.647731],[136.017317,-33.647631],[136.017775,-33.64744],[136.019117,-33.646828],[136.019664,-33.646603],[136.020258,-33.646401],[136.020566,-33.646318],[136.020829,-33.64626],[136.021091,-33.646209],[136.021371,-33.646168],[136.021855,-33.646117],[136.022383,-33.646103],[136.022866,-33.646121],[136.023452,-33.646189],[136.023898,-33.646275],[136.024341,-33.646388],[136.024953,-33.646583],[136.025258,-33.646699],[136.025958,-33.646984],[136.026835,-33.647364],[136.027501,-33.647631],[136.028111,-33.647834],[136.028461,-33.64793],[136.028859,-33.648023],[136.02911,-33.648071],[136.029753,-33.648159],[136.030328,-33.648193],[136.030926,-33.648187],[136.031369,-33.648169],[136.031925,-33.64811],[136.032594,-33.64799],[136.033515,-33.647788],[136.036957,-33.646983],[136.037757,-33.646779],[136.038254,-33.646633],[136.03877,-33.64648],[136.039267,-33.646314],[136.045049,-33.644329],[136.04516,-33.644291],[136.045703,-33.644105],[136.047503,-33.643509],[136.048011,-33.643368],[136.048736,-33.643239],[136.049292,-33.64318],[136.04969,-33.643158],[136.050011,-33.643153],[136.050609,-33.643172],[136.0509,-33.643198],[136.051213,-33.643229],[136.051597,-33.643282],[136.05402,-33.643687],[136.055047,-33.643918],[136.055494,-33.644044],[136.055864,-33.644162],[136.056408,-33.644352],[136.057973,-33.644947],[136.058395,-33.645094],[136.059103,-33.645328],[136.059813,-33.645525],[136.060051,-33.645579],[136.06075,-33.645717],[136.061608,-33.645839],[136.062631,-33.645944],[136.064457,-33.64607],[136.064985,-33.646138],[136.065287,-33.646191],[136.065588,-33.646259],[136.066141,-33.646412],[136.066492,-33.64655],[136.066642,-33.646609],[136.066989,-33.646782],[136.067419,-33.647032],[136.067735,-33.647237],[136.069418,-33.648477],[136.070276,-33.649093],[136.071096,-33.649603],[136.07141,-33.649773],[136.072016,-33.650066],[136.072736,-33.650355],[136.073114,-33.65047],[136.073807,-33.650654],[136.07462,-33.650814],[136.075148,-33.6509],[136.075692,-33.650974],[136.077441,-33.65114],[136.078296,-33.651322],[136.078491,-33.651364],[136.07976,-33.652068],[136.081477,-33.653327],[136.083131,-33.654554],[136.084438,-33.655279],[136.085886,-33.655748],[136.08759,-33.656004],[136.088918,-33.65591],[136.090373,-33.655704],[136.092653,-33.65536],[136.093603,-33.655217],[136.094328,-33.655111],[136.096154,-33.654845],[136.097638,-33.654778],[136.100292,-33.655026],[136.101145,-33.655205],[136.105546,-33.656678],[136.106838,-33.65722],[136.108106,-33.657898],[136.109781,-33.659164],[136.110902,-33.660266],[136.112292,-33.66175],[136.114114,-33.662984],[136.115495,-33.66352],[136.11699,-33.663834],[136.119278,-33.664126],[136.120952,-33.664743],[136.121055,-33.664778],[136.123576,-33.665636],[136.124909,-33.665877],[136.135951,-33.666543],[136.136544,-33.666579],[136.147981,-33.667269],[136.151216,-33.667452],[136.151438,-33.667465],[136.152419,-33.66752],[136.152878,-33.667546],[136.153186,-33.667564],[136.16144,-33.668031],[136.162193,-33.667985],[136.163678,-33.667679],[136.164563,-33.667287],[136.165954,-33.666432],[136.167454,-33.665832],[136.168031,-33.665684],[136.169071,-33.665508],[136.181975,-33.664555],[136.188421,-33.663981],[136.189133,-33.663918],[136.191923,-33.663812],[136.19474,-33.664139],[136.20513,-33.665197],[136.208586,-33.665293],[136.220107,-33.665815],[136.221267,-33.665928],[136.223539,-33.666561],[136.224595,-33.66716],[136.22652,-33.668551]]}},{"type":"Feature","properties":{"tier":"arterial"},"geometry":{"type":"LineString","coordinates":[[136.276926,-33.693567],[136.277313,-33.693857],[136.277819,-33.694191],[136.278579,-33.694582],[136.279369,-33.694885],[136.281595,-33.695707],[136.283529,-33.69642],[136.284689,-33.696885],[136.28664,-33.697623],[136.287279,-33.697814],[136.288096,-33.697957],[136.289234,-33.698049],[136.290252,-33.698134],[136.290979,-33.698172],[136.291671,-33.698142],[136.294906,-33.697628],[136.295387,-33.697608],[136.295915,-33.697619],[136.296394,-33.697662],[136.296795,-33.697721],[136.297601,-33.697931],[136.29832,-33.698215],[136.30131,-33.699647],[136.301951,-33.699885],[136.302646,-33.70007],[136.303047,-33.700141],[136.304149,-33.700278],[136.307756,-33.700686],[136.308473,-33.700731],[136.309021,-33.700721],[136.309453,-33.70067],[136.310044,-33.700549],[136.313587,-33.699568],[136.314064,-33.699446],[136.314561,-33.699335],[136.322963,-33.69802],[136.323853,-33.697812],[136.328499,-33.696608],[136.328984,-33.696508],[136.340636,-33.694748],[136.34134,-33.694703],[136.342229,-33.694744],[136.344156,-33.694933],[136.344696,-33.694976],[136.345177,-33.694986],[136.345832,-33.694952],[136.346521,-33.694862],[136.364083,-33.690489],[136.364764,-33.69039],[136.365358,-33.69035],[136.37755,-33.690378],[136.380837,-33.690372],[136.381974,-33.690361],[136.389227,-33.69029],[136.392859,-33.690265],[136.399288,-33.69029],[136.400499,-33.690286],[136.422974,-33.690383],[136.429949,-33.690413],[136.438905,-33.690452],[136.439396,-33.690454],[136.441105,-33.690461]]}},{"type":"Feature","properties":{"tier":"arterial"},"geometry":{"type":"LineString","coordinates":[[136.274057,-33.69269],[136.274669,-33.692276],[136.275294,-33.691878]]}},{"type":"Feature","properties":{"tier":"arterial"},"geometry":{"type":"LineString","coordinates":[[136.267322,-33.685603],[136.268498,-33.686855]]}},{"type":"Feature","properties":{"tier":"arterial"},"geometry":{"type":"LineString","coordinates":[[136.269827,-33.691887],[136.270854,-33.691199]]}},{"type":"Feature","properties":{"tier":"arterial"},"geometry":{"type":"LineString","coordinates":[[136.240177,-33.964065],[136.240144,-33.964356],[136.240104,-33.965377],[136.240148,-33.965832],[136.240224,-33.966227],[136.24034,-33.9667],[136.240411,-33.967168],[136.240462,-33.967745],[136.240572,-33.969389],[136.240643,-33.971563],[136.240702,-33.973346],[136.240756,-33.977819],[136.240758,-33.981958],[136.240719,-33.984961],[136.240696,-33.98675],[136.240697,-33.986813],[136.240693,-33.986985],[136.240692,-33.987152],[136.240689,-33.987891],[136.240711,-33.991798],[136.240729,-33.995958],[136.240744,-33.999442],[136.240746,-34.00002]]}},{"type":"Feature","properties":{"tier":"arterial"},"geometry":{"type":"LineString","coordinates":[[136.498753,-33.701769],[136.499332,-33.701769]]}},{"type":"Feature","properties":{"tier":"arterial"},"geometry":{"type":"LineString","coordinates":[[136.499332,-33.701769],[136.499921,-33.701801],[136.50002,-33.701809]]}},{"type":"Feature","properties":{"tier":"arterial"},"geometry":{"type":"LineString","coordinates":[[136.491438,-33.701828],[136.490773,-33.701776],[136.490571,-33.70176],[136.490198,-33.701731],[136.490123,-33.701725]]}},{"type":"Feature","properties":{"tier":"arterial"},"geometry":{"type":"LineString","coordinates":[[136.490123,-33.701725],[136.490567,-33.701715],[136.49144,-33.701695]]}},{"type":"Feature","properties":{"tier":"arterial"},"geometry":{"type":"LineString","coordinates":[[136.471059,-33.696434],[136.474902,-33.697501],[136.475692,-33.697719],[136.47808,-33.698386],[136.478545,-33.698516],[136.478832,-33.698597],[136.479634,-33.698826],[136.482582,-33.699677],[136.485746,-33.700558],[136.488165,-33.701239],[136.488727,-33.701393],[136.489514,-33.701603],[136.489693,-33.701651],[136.489889,-33.701694],[136.490123,-33.701725]]}},{"type":"Feature","properties":{"tier":"arterial"},"geometry":{"type":"LineString","coordinates":[[136.269727,-33.688162],[136.270019,-33.688492]]}},{"type":"Feature","properties":{"tier":"arterial"},"geometry":{"type":"LineString","coordinates":[[136.270019,-33.688492],[136.270929,-33.689467],[136.271932,-33.690517],[136.272969,-33.691549],[136.274057,-33.69269]]}},{"type":"Feature","properties":{"tier":"arterial"},"geometry":{"type":"LineString","coordinates":[[136.275294,-33.691878],[136.27371,-33.690235],[136.272595,-33.689078],[136.272411,-33.688887],[136.271916,-33.688374],[136.271106,-33.687544],[136.270926,-33.687359]]}},{"type":"Feature","properties":{"tier":"arterial"},"geometry":{"type":"LineString","coordinates":[[136.494039,-33.705604],[136.493979,-33.704837]]}},{"type":"Feature","properties":{"tier":"arterial"},"geometry":{"type":"LineString","coordinates":[[136.494141,-33.704838],[136.494039,-33.705604]]}},{"type":"Feature","properties":{"tier":"arterial"},"geometry":{"type":"LineString","coordinates":[[136.492727,-33.70183],[136.491438,-33.701828]]}},{"type":"Feature","properties":{"tier":"arterial"},"geometry":{"type":"LineString","coordinates":[[136.492727,-33.70183],[136.492727,-33.701697]]}},{"type":"Feature","properties":{"tier":"arterial"},"geometry":{"type":"LineString","coordinates":[[136.49144,-33.701695],[136.492065,-33.701696],[136.492727,-33.701697]]}},{"type":"Feature","properties":{"tier":"arterial"},"geometry":{"type":"LineString","coordinates":[[136.494166,-33.7017],[136.495439,-33.701701],[136.495947,-33.701702],[136.496721,-33.701703],[136.496886,-33.701704]]}},{"type":"Feature","properties":{"tier":"arterial"},"geometry":{"type":"LineString","coordinates":[[136.494007,-33.701699],[136.494166,-33.7017]]}},{"type":"Feature","properties":{"tier":"arterial"},"geometry":{"type":"LineString","coordinates":[[136.494165,-33.701833],[136.494006,-33.701832]]}},{"type":"Feature","properties":{"tier":"arterial"},"geometry":{"type":"LineString","coordinates":[[136.496886,-33.701837],[136.49672,-33.701836],[136.495438,-33.701834],[136.494597,-33.701833],[136.494165,-33.701833]]}},{"type":"Feature","properties":{"tier":"arterial"},"geometry":{"type":"LineString","coordinates":[[136.494166,-33.7017],[136.494165,-33.701833]]}},{"type":"Feature","properties":{"tier":"arterial"},"geometry":{"type":"LineString","coordinates":[[136.494006,-33.701832],[136.494007,-33.701699]]}},{"type":"Feature","properties":{"tier":"arterial"},"geometry":{"type":"LineString","coordinates":[[136.49273,-33.700344],[136.492734,-33.698937]]}},{"type":"Feature","properties":{"tier":"arterial"},"geometry":{"type":"LineString","coordinates":[[136.270333,-33.687748],[136.270926,-33.687359]]}},{"type":"Feature","properties":{"tier":"arterial"},"geometry":{"type":"LineString","coordinates":[[136.275294,-33.691878],[136.275615,-33.692211],[136.276926,-33.693567]]}},{"type":"Feature","properties":{"tier":"arterial"},"geometry":{"type":"LineString","coordinates":[[136.264817,-33.684199],[136.265934,-33.684637],[136.267322,-33.685603]]}},{"type":"Feature","properties":{"tier":"arterial"},"geometry":{"type":"LineString","coordinates":[[136.22652,-33.668551],[136.2285,-33.669944],[136.229876,-33.670576],[136.233006,-33.671255],[136.239967,-33.672349],[136.24131,-33.6728],[136.242471,-33.673346],[136.243566,-33.674025],[136.245151,-33.675008],[136.254005,-33.680495],[136.25499,-33.681035],[136.255929,-33.681407],[136.261035,-33.683032]]}},{"type":"Feature","properties":{"tier":"arterial"},"geometry":{"type":"LineString","coordinates":[[136.268498,-33.686855],[136.269727,-33.688162]]}},{"type":"Feature","properties":{"tier":"arterial"},"geometry":{"type":"LineString","coordinates":[[136.261035,-33.683032],[136.264817,-33.684199]]}},{"type":"Feature","properties":{"tier":"high"},"geometry":{"type":"LineString","coordinates":[[136.478772,-33.964786],[136.478202,-33.964984]]}},{"type":"Feature","properties":{"tier":"arterial"},"geometry":{"type":"LineString","coordinates":[[136.451352,-33.690788],[136.461702,-33.692928],[136.465424,-33.694324],[136.469675,-33.695952],[136.470385,-33.696207],[136.471059,-33.696434]]}},{"type":"Feature","properties":{"tier":"arterial"},"geometry":{"type":"LineString","coordinates":[[136.451118,-33.69074],[136.451352,-33.690788]]}},{"type":"Feature","properties":{"tier":"arterial"},"geometry":{"type":"LineString","coordinates":[[136.441776,-33.690464],[136.443477,-33.690472],[136.448166,-33.690444],[136.449144,-33.690457],[136.449919,-33.690523],[136.45095,-33.690705],[136.451118,-33.69074]]}},{"type":"Feature","properties":{"tier":"arterial"},"geometry":{"type":"LineString","coordinates":[[136.441105,-33.690461],[136.441356,-33.690462],[136.441776,-33.690464]]}},{"type":"Feature","properties":{"tier":"arterial"},"geometry":{"type":"LineString","coordinates":[[136.496497,-33.729053],[136.496498,-33.728214],[136.496533,-33.724887],[136.496547,-33.723678],[136.496562,-33.719991],[136.496566,-33.719217],[136.496566,-33.719147],[136.496585,-33.716886],[136.496576,-33.716484],[136.496469,-33.715921],[136.495318,-33.711696],[136.495157,-33.711109],[136.49461,-33.709118],[136.494465,-33.708593],[136.494333,-33.708092],[136.494142,-33.707369],[136.494072,-33.707014]]}},{"type":"Feature","properties":{"tier":"arterial"},"geometry":{"type":"LineString","coordinates":[[136.496886,-33.701704],[136.498753,-33.701769]]}},{"type":"Feature","properties":{"tier":"arterial"},"geometry":{"type":"LineString","coordinates":[[136.498753,-33.701769],[136.496886,-33.701837]]}},{"type":"Feature","properties":{"tier":"high"},"geometry":{"type":"LineString","coordinates":[[136.50002,-33.954774],[136.499846,-33.954891],[136.49627,-33.957289],[136.494322,-33.958602],[136.493726,-33.959003],[136.49334,-33.959249],[136.493046,-33.959411],[136.49271,-33.95957],[136.492422,-33.95969],[136.491369,-33.960081],[136.483662,-33.962965],[136.480337,-33.964209],[136.479661,-33.964458],[136.478939,-33.964724],[136.478772,-33.964786]]}}]}
