{"type":"FeatureCollection","features":[{"type":"Feature","properties":{"tier":"arterial"},"geometry":{"type":"LineString","coordinates":[[136.371693,-30.49998],[136.373491,-30.504796],[136.376652,-30.513151],[136.38027,-30.522751],[136.384331,-30.533619],[136.387987,-30.543448],[136.391998,-30.554182],[136.395806,-30.564325],[136.399576,-30.574304],[136.415432,-30.61671],[136.431738,-30.66017],[136.445887,-30.697871],[136.45167,-30.71325],[136.453857,-30.719067],[136.454044,-30.719672],[136.454139,-30.720215],[136.454187,-30.720801],[136.454159,-30.721243],[136.454103,-30.72173],[136.453996,-30.722111],[136.453773,-30.722748],[136.453571,-30.723322],[136.452793,-30.725369],[136.452662,-30.725714],[136.452369,-30.726259],[136.452009,-30.726738],[136.450704,-30.728143],[136.448716,-30.730287],[136.447403,-30.731705],[136.445234,-30.734046],[136.443477,-30.735942],[136.44224,-30.737276],[136.4312,-30.749187],[136.420761,-30.762197],[136.417657,-30.766065],[136.415594,-30.768636],[136.415171,-30.769158],[136.411909,-30.773182],[136.410677,-30.774702],[136.410263,-30.775441],[136.410107,-30.775899],[136.410018,-30.776381],[136.409984,-30.77679],[136.41001,-30.777238],[136.410288,-30.778953],[136.411834,-30.789369],[136.411951,-30.790158],[136.414815,-30.809453],[136.414842,-30.809962],[136.414693,-30.81031],[136.414414,-30.810676]]}},{"type":"Feature","properties":{"tier":"arterial"},"geometry":{"type":"LineString","coordinates":[[135.99998,-30.589875],[136.01467,-30.598776],[136.030807,-30.608554],[136.045189,-30.617239],[136.054347,-30.622896],[136.062931,-30.62798],[136.074825,-30.635168],[136.116112,-30.660146],[136.127795,-30.667212],[136.146246,-30.678371],[136.152628,-30.682171],[136.153211,-30.682411],[136.154,-30.682587],[136.154579,-30.682634],[136.155438,-30.68264],[136.158067,-30.682553],[136.16415,-30.682351],[136.167849,-30.682267],[136.174361,-30.682116],[136.177187,-30.682071],[136.177796,-30.682129],[136.178196,-30.682207],[136.17896,-30.682477],[136.179469,-30.682656],[136.1807,-30.683336],[136.19924,-30.69358],[136.21124,-30.700071],[136.211598,-30.700327],[136.211948,-30.700633],[136.212232,-30.700924],[136.212437,-30.701193],[136.212693,-30.701584],[136.218932,-30.710797],[136.221786,-30.714983],[136.222095,-30.715319],[136.222442,-30.715598],[136.223012,-30.715974],[136.223686,-30.716293],[136.229708,-30.71844],[136.230411,-30.718654],[136.231298,-30.718825],[136.232318,-30.718933],[136.243754,-30.719826],[136.245263,-30.719929],[136.247363,-30.7201],[136.24793,-30.720206],[136.248493,-30.720383],[136.249128,-30.720676],[136.262228,-30.727845],[136.269351,-30.731804],[136.280415,-30.737806],[136.291639,-30.743937],[136.300593,-30.748825],[136.308938,-30.753386],[136.310007,-30.75397],[136.315184,-30.756743],[136.316749,-30.757582],[136.320568,-30.759704],[136.331814,-30.765788],[136.335298,-30.767706],[136.335974,-30.768078],[136.337033,-30.768661],[136.337099,-30.768697],[136.337134,-30.768716],[136.339484,-30.769998],[136.342271,-30.771535],[136.350787,-30.776174],[136.351588,-30.776614],[136.353306,-30.777559],[136.363302,-30.782913],[136.365929,-30.784343],[136.371002,-30.787105],[136.373477,-30.788452],[136.375287,-30.789432],[136.375982,-30.789808],[136.382936,-30.793571],[136.385258,-30.794828],[136.391638,-30.798293],[136.400232,-30.802961],[136.405114,-30.805627],[136.40859,-30.807537],[136.410293,-30.808476],[136.414414,-30.810676],[136.415102,-30.811061],[136.417068,-30.812158],[136.417619,-30.812549],[136.418355,-30.813115],[136.41937,-30.813727],[136.421568,-30.814923],[136.421679,-30.814983],[136.439579,-30.824724],[136.441282,-30.82565],[136.442428,-30.826332],[136.443183,-30.8269],[136.443938,-30.827619],[136.447062,-30.831452],[136.450155,-30.83549],[136.451764,-30.837546],[136.45187,-30.837682],[136.455489,-30.842305],[136.464583,-30.853921],[136.465693,-30.855358],[136.465872,-30.85559],[136.466067,-30.855822],[136.466272,-30.856056],[136.466397,-30.856195],[136.46662,-30.856434],[136.466835,-30.856657],[136.467059,-30.856881],[136.467342,-30.857153],[136.467623,-30.857411],[136.46786,-30.857679],[136.468065,-30.857907],[136.468306,-30.858188],[136.468662,-30.85865],[136.468982,-30.85907],[136.469349,-30.859558],[136.469851,-30.860179],[136.470403,-30.860916],[136.472651,-30.863783],[136.488963,-30.884603],[136.50002,-30.898714]]}},{"type":"Feature","properties":{"tier":"regional"},"geometry":{"type":"LineString","coordinates":[[136.1807,-30.683336],[136.180399,-30.683861],[136.1802,-30.684055],[136.179653,-30.684309],[136.177185,-30.684779],[136.176467,-30.685028],[136.175965,-30.685347],[136.175828,-30.685434],[136.172803,-30.687547]]}},{"type":"Feature","properties":{"tier":"regional"},"geometry":{"type":"LineString","coordinates":[[136.172803,-30.687547],[136.170995,-30.68883],[136.169638,-30.689761],[136.169251,-30.690015],[136.157379,-30.692098],[136.154309,-30.692637],[136.145404,-30.694759],[136.144867,-30.69487],[136.144242,-30.695121],[136.143666,-30.695442],[136.142443,-30.696272],[136.14034,-30.698025],[136.140056,-30.698373],[136.139825,-30.698726],[136.139755,-30.699181],[136.13972,-30.700599],[136.139693,-30.701171],[136.139596,-30.702966],[136.139556,-30.703704],[136.139524,-30.704279],[136.139288,-30.704887],[136.138978,-30.70539],[136.138614,-30.705766],[136.13811,-30.706103],[136.138016,-30.70614],[136.137552,-30.706324],[136.136737,-30.706518],[136.131974,-30.707535],[136.129634,-30.708034],[136.129154,-30.708137],[136.129007,-30.708168],[136.128786,-30.708215],[136.118431,-30.710465],[136.118245,-30.710505],[136.117991,-30.71056],[136.117769,-30.710608],[136.117747,-30.710613]]}},{"type":"Feature","properties":{"tier":"regional"},"geometry":{"type":"LineString","coordinates":[[136.488974,-30.902673],[136.491755,-30.902091],[136.497324,-30.90091],[136.50002,-30.900344]]}}]}
