{"type":"FeatureCollection","features":[{"type":"Feature","properties":{"tier":"regional"},"geometry":{"type":"LineString","coordinates":[[136.383063,-26.229336],[136.38344,-26.22977],[136.38486,-26.23323],[136.38587,-26.23544],[136.3872,-26.239],[136.38818,-26.2414],[136.38904,-26.24327],[136.39099,-26.2464],[136.39451,-26.25155],[136.39513,-26.25327],[136.39687,-26.2558],[136.39842,-26.25934],[136.39928,-26.26114],[136.40082,-26.26372],[136.40325,-26.26805],[136.4067,-26.27344],[136.40848,-26.27717],[136.40945,-26.27981],[136.41155,-26.28076],[136.41402,-26.2814],[136.41734,-26.28155],[136.41949,-26.28146],[136.42172,-26.28164],[136.42232,-26.28357],[136.42378,-26.28535],[136.42595,-26.2867],[136.42709,-26.2897],[136.42848,-26.29282],[136.42964,-26.29569],[136.43133,-26.29674],[136.4326,-26.30013],[136.4338,-26.30273],[136.43475,-26.30447],[136.43597,-26.30766],[136.43681,-26.31007],[136.43781,-26.31251],[136.43895,-26.31442],[136.44017,-26.31633],[136.441032,-26.317679],[136.44146,-26.31899],[136.441792,-26.319314],[136.442245,-26.319374],[136.442659,-26.319291],[136.443337,-26.31868],[136.4455,-26.31865],[136.47026,-26.31906],[136.48936,-26.3191],[136.49596,-26.31917],[136.50002,-26.319249]]}},{"type":"Feature","properties":{"tier":"regional"},"geometry":{"type":"LineString","coordinates":[[136.383063,-26.229336],[136.384628,-26.228981],[136.387497,-26.22838],[136.387527,-26.228367],[136.390228,-26.227879],[136.392441,-26.22743],[136.393265,-26.227221],[136.393555,-26.227205],[136.394867,-26.226913],[136.395355,-26.226892],[136.396774,-26.22653],[136.397171,-26.226503],[136.401535,-26.225632],[136.401917,-26.22559],[136.402252,-26.225487],[136.404831,-26.224985],[136.404999,-26.224916],[136.40535,-26.224905],[136.40892,-26.224155],[136.410309,-26.223793],[136.412476,-26.223328],[136.412659,-26.223228],[136.413147,-26.223192],[136.414963,-26.222744],[136.415176,-26.222729],[136.41597,-26.222523],[136.417572,-26.222204],[136.417755,-26.222128],[136.417953,-26.22213],[136.418365,-26.221958],[136.418793,-26.221945],[136.420013,-26.221682],[136.421341,-26.22147],[136.421783,-26.221325],[136.425018,-26.220663],[136.42569,-26.220459],[136.426422,-26.220367],[136.429718,-26.219671],[136.430054,-26.219641],[136.430801,-26.219416],[136.432236,-26.219244],[136.43335,-26.218914],[136.434174,-26.218775],[136.438049,-26.217968],[136.43924,-26.217695],[136.440063,-26.217562],[136.440414,-26.217445],[136.440796,-26.217426],[136.441818,-26.217175],[136.444397,-26.216644],[136.444794,-26.216505],[136.445007,-26.216522],[136.445312,-26.216471],[136.445938,-26.216322],[136.446121,-26.216228],[136.446777,-26.216158],[136.447388,-26.215963],[136.44841,-26.21582],[136.450424,-26.215359],[136.451019,-26.215309],[136.451614,-26.215136],[136.452042,-26.215139],[136.452744,-26.21493],[136.454315,-26.214602],[136.454727,-26.214439],[136.455124,-26.214447],[136.456573,-26.214125],[136.456818,-26.214018],[136.457123,-26.214012],[136.458206,-26.213778],[136.460541,-26.213291],[136.460983,-26.21324],[136.463379,-26.212706],[136.463959,-26.212631],[136.465042,-26.212376],[136.46611,-26.21224],[136.466736,-26.212015],[136.467957,-26.211811],[136.468155,-26.211723],[136.468399,-26.211679],[136.46994,-26.211395],[136.470261,-26.211304],[136.473282,-26.210747],[136.474014,-26.210562],[136.474426,-26.210331],[136.474884,-26.210346],[136.475739,-26.210222],[136.476517,-26.210035],[136.476776,-26.210032],[136.477203,-26.209888],[136.477615,-26.209856],[136.478256,-26.209728],[136.478424,-26.209639],[136.478745,-26.209633],[136.480042,-26.209316],[136.483093,-26.208715],[136.483383,-26.208609],[136.483658,-26.208672],[136.484222,-26.208561],[136.485291,-26.208279],[136.487381,-26.207823],[136.487656,-26.207798],[136.490555,-26.207209],[136.491272,-26.207003],[136.492035,-26.206903],[136.493729,-26.20652],[136.494171,-26.206488],[136.494583,-26.206369],[136.499298,-26.205376],[136.50002,-26.205235]]}},{"type":"Feature","properties":{"tier":"regional"},"geometry":{"type":"LineString","coordinates":[[135.99998,-26.305995],[136.002213,-26.304665],[136.003296,-26.304117],[136.007298,-26.30172],[136.007828,-26.301403],[136.008575,-26.301102],[136.01004,-26.30064],[136.014206,-26.299458],[136.016296,-26.299126],[136.017899,-26.298803],[136.020462,-26.298368],[136.021698,-26.298103],[136.024475,-26.297634],[136.025864,-26.297316],[136.029907,-26.296631],[136.030441,-26.296488],[136.03096,-26.296221],[136.031372,-26.296286],[136.031876,-26.296255],[136.033401,-26.296011],[136.036636,-26.295372],[136.037094,-26.295319],[136.037262,-26.295277],[136.037491,-26.295059],[136.037704,-26.294966],[136.037827,-26.294954],[136.037888,-26.295122],[136.038086,-26.295141],[136.039139,-26.294916],[136.041748,-26.294472],[136.052277,-26.292498],[136.056473,-26.291775],[136.068054,-26.289597],[136.078934,-26.287659],[136.082001,-26.287054],[136.082657,-26.28698],[136.092911,-26.285069],[136.095856,-26.284584],[136.096603,-26.284414],[136.097565,-26.284342],[136.098572,-26.284048],[136.104462,-26.283009],[136.111099,-26.281794],[136.111877,-26.281614],[136.112823,-26.28149],[136.116425,-26.280798],[136.123932,-26.27948],[136.126175,-26.279032],[136.132812,-26.277821],[136.141281,-26.276354],[136.14296,-26.276014],[136.145081,-26.275681],[136.14537,-26.275593],[136.149872,-26.274782],[136.150772,-26.274656],[136.158447,-26.273273],[136.161179,-26.272772],[136.161453,-26.27268],[136.161774,-26.272671],[136.16246,-26.272554],[136.168411,-26.271446],[136.180084,-26.269417],[136.182007,-26.269018],[136.18515,-26.268454],[136.185608,-26.268408],[136.185944,-26.268305],[136.201797,-26.265375],[136.202225,-26.265249],[136.202957,-26.265162],[136.208023,-26.264214],[136.210678,-26.26367],[136.211304,-26.263578],[136.222321,-26.261147],[136.222824,-26.26108],[136.226028,-26.260401],[136.226776,-26.260292],[136.232407,-26.259119],[136.234863,-26.258635],[136.235687,-26.258512],[136.238678,-26.257854],[136.246796,-26.256258],[136.24826,-26.25593],[136.248703,-26.25588],[136.250122,-26.255573],[136.250565,-26.255514],[136.251236,-26.255344],[136.254745,-26.254637],[136.257599,-26.254082],[136.259079,-26.253841],[136.260254,-26.253551],[136.261566,-26.253338],[136.265167,-26.252575],[136.265564,-26.252535],[136.268631,-26.251938],[136.269089,-26.251812],[136.269394,-26.251783],[136.272171,-26.251209],[136.276779,-26.250372],[136.279144,-26.249855],[136.279678,-26.24979],[136.28125,-26.24943],[136.283813,-26.248959],[136.293015,-26.247082],[136.299866,-26.245829],[136.300919,-26.245567],[136.303772,-26.245007],[136.304306,-26.244949],[136.305862,-26.244648],[136.30809,-26.244162],[136.311005,-26.243605],[136.311844,-26.243393],[136.317596,-26.242279],[136.318008,-26.242237],[136.324524,-26.240852],[136.327362,-26.240324],[136.329056,-26.239937],[136.329437,-26.239914],[136.331085,-26.239561],[136.334915,-26.238867],[136.33606,-26.238642],[136.336624,-26.238474],[136.33696,-26.238485],[136.343658,-26.237089],[136.34433,-26.236917],[136.345612,-26.236692],[136.347275,-26.236303],[136.348434,-26.236105],[136.348724,-26.236013],[136.351959,-26.235415],[136.360611,-26.233683],[136.360916,-26.23366],[136.362137,-26.233379],[136.365295,-26.232796],[136.368561,-26.232105],[136.374878,-26.230902],[136.380386,-26.229755],[136.383063,-26.229336]]}}]}
