{"type":"FeatureCollection","features":[{"type":"Feature","properties":{"tier":"high"},"geometry":{"type":"LineString","coordinates":[[136.411107,-33.149186],[136.40692,-33.152085],[136.40396,-33.154134],[136.402862,-33.154924],[136.401841,-33.155753],[136.401024,-33.156532],[136.400269,-33.157401],[136.399465,-33.158596],[136.397445,-33.16237],[136.395135,-33.166958],[136.393279,-33.170313],[136.39281,-33.170991],[136.389976,-33.174508],[136.389293,-33.175325],[136.387498,-33.17749],[136.385731,-33.17965],[136.383858,-33.18184],[136.383077,-33.182708],[136.38193,-33.18398],[136.381529,-33.184433],[136.380966,-33.185006],[136.38028,-33.185622],[136.379971,-33.185871],[136.379694,-33.186088],[136.378417,-33.186864],[136.377802,-33.18723],[136.37716,-33.187745],[136.376542,-33.188295],[136.376174,-33.188743],[136.375936,-33.189034],[136.375593,-33.189535],[136.375002,-33.190445],[136.37365,-33.192571],[136.372298,-33.194684],[136.371831,-33.195378],[136.371274,-33.196046],[136.370743,-33.196621],[136.368405,-33.198624],[136.36602,-33.200677],[136.365463,-33.201253],[136.364968,-33.201848],[136.364495,-33.202497],[136.364096,-33.203169],[136.362908,-33.205407],[136.362138,-33.20678],[136.361666,-33.207507],[136.361551,-33.207641],[136.36079,-33.208532],[136.359971,-33.209337],[136.359604,-33.209648],[136.358777,-33.210249],[136.357919,-33.210798],[136.357083,-33.211231],[136.356189,-33.211629],[136.352514,-33.213098],[136.351184,-33.213677],[136.350664,-33.213936],[136.347405,-33.215847],[136.344162,-33.217771],[136.341022,-33.219658],[136.339318,-33.220648],[136.337237,-33.221871],[136.33554,-33.222899],[136.333969,-33.223918],[136.33258,-33.224801],[136.331246,-33.225648],[136.330629,-33.226054],[136.330004,-33.226453],[136.329402,-33.226774],[136.329124,-33.226914],[136.328743,-33.227078],[136.32804,-33.227357],[136.327455,-33.22755],[136.326928,-33.227696],[136.326581,-33.227778],[136.326093,-33.227871],[136.325476,-33.227964],[136.324805,-33.228035],[136.324196,-33.228064],[136.323613,-33.22807],[136.323014,-33.228046],[136.322622,-33.228008],[136.322082,-33.227942],[136.321914,-33.227916],[136.321717,-33.227884],[136.320945,-33.227762],[136.318028,-33.227279],[136.314576,-33.226716],[136.293732,-33.22328],[136.283638,-33.221617],[136.281825,-33.221316],[136.27707,-33.220536],[136.273116,-33.21988],[136.272803,-33.219828],[136.271888,-33.21968],[136.271562,-33.219622],[136.27145,-33.219602],[136.271401,-33.21959],[136.270918,-33.219476],[136.270371,-33.219317],[136.26976,-33.219119],[136.268565,-33.218708],[136.267542,-33.218364],[136.266508,-33.218053],[136.266066,-33.21795],[136.265444,-33.217824],[136.26496,-33.217759],[136.264342,-33.217705],[136.263495,-33.217683],[136.261847,-33.217646],[136.25916,-33.217618],[136.258017,-33.217604],[136.257882,-33.217602],[136.256387,-33.217574],[136.255252,-33.217568],[136.254091,-33.217539],[136.253724,-33.21752],[136.253072,-33.217426],[136.252581,-33.217335],[136.251937,-33.217196],[136.251801,-33.217166],[136.250861,-33.217016],[136.250355,-33.216966],[136.249842,-33.216953],[136.249366,-33.216963],[136.248804,-33.217019],[136.248148,-33.217119],[136.24765,-33.217238],[136.24699,-33.21743],[136.246323,-33.217687],[136.245825,-33.217922],[136.245226,-33.218285],[136.244426,-33.218831],[136.243657,-33.21939],[136.2428,-33.21987],[136.242221,-33.220136],[136.241498,-33.220363],[136.240973,-33.22048],[136.240448,-33.22057],[136.239894,-33.220617],[136.239381,-33.220627],[136.238871,-33.220605],[136.238462,-33.22057],[136.237841,-33.220473],[136.236686,-33.220257],[136.23599,-33.220128],[136.232053,-33.219417],[136.227164,-33.218534],[136.226574,-33.218398],[136.225983,-33.218234],[136.225424,-33.218021],[136.224839,-33.217745],[136.224387,-33.217498],[136.222921,-33.216512],[136.221569,-33.215578],[136.219012,-33.213878],[136.216492,-33.212163],[136.212938,-33.209775],[136.211307,-33.208687],[136.210807,-33.208418],[136.210339,-33.208192],[136.209811,-33.207997],[136.209269,-33.207855],[136.207821,-33.207562],[136.206638,-33.20735],[136.205637,-33.207149],[136.204675,-33.206971],[136.200005,-33.206104],[136.199344,-33.205979],[136.198631,-33.205903],[136.196879,-33.205906],[136.193481,-33.205871],[136.189801,-33.205875],[136.186083,-33.205838],[136.185199,-33.205806],[136.178525,-33.205388],[136.173107,-33.205042],[136.172208,-33.204999],[136.171729,-33.204953],[136.171331,-33.204904],[136.170085,-33.204682],[136.164996,-33.203756],[136.161043,-33.203032],[136.160426,-33.202927],[136.160393,-33.202922],[136.159777,-33.202846],[136.159342,-33.202817],[136.15905,-33.20282],[136.15853,-33.202843],[136.157991,-33.202894],[136.157276,-33.202966],[136.156187,-33.203085],[136.131975,-33.205276],[136.119124,-33.206466],[136.11523,-33.206829],[136.11133,-33.207182],[136.108159,-33.207478],[136.105334,-33.207735],[136.104558,-33.207786],[136.10387,-33.207818],[136.100946,-33.207894],[136.095894,-33.208053],[136.090381,-33.208222],[136.086176,-33.208343],[136.080959,-33.208502],[136.079664,-33.20854],[136.076313,-33.208639],[136.071755,-33.208779],[136.070131,-33.208826],[136.069188,-33.208858],[136.068687,-33.208877],[136.067949,-33.208864],[136.067535,-33.208826],[136.067192,-33.208782],[136.066599,-33.208661],[136.066295,-33.208578],[136.065812,-33.208416],[136.065451,-33.20827],[136.064961,-33.208031],[136.058265,-33.204447],[136.057547,-33.204156],[136.057091,-33.204],[136.056594,-33.203873],[136.055983,-33.203757],[136.054593,-33.203565],[136.048395,-33.202632],[136.046304,-33.202311],[136.045498,-33.202238],[136.045095,-33.202235],[136.044605,-33.20226],[136.044228,-33.202295],[136.04386,-33.202356],[136.043354,-33.202464],[136.042875,-33.202604],[136.042491,-33.202737],[136.041632,-33.203078],[136.04083,-33.203361],[136.040145,-33.203523],[136.039549,-33.203608],[136.039179,-33.203638],[136.0387,-33.203644],[136.038119,-33.203619],[136.037886,-33.203603],[136.037302,-33.203563],[136.035971,-33.203449],[136.02622,-33.202716],[136.025687,-33.202622],[136.025238,-33.202512],[136.02477,-33.202395],[136.024077,-33.20218],[136.023045,-33.201817],[136.022376,-33.20163],[136.021658,-33.201447],[136.017284,-33.200476],[136.007126,-33.198179],[136.005986,-33.197916],[136.003754,-33.197429],[136.002051,-33.197111],[136.001549,-33.197019],[136.001458,-33.197003],[135.99998,-33.196738]]}},{"type":"Feature","properties":{"tier":"arterial"},"geometry":{"type":"LineString","coordinates":[[136.445037,-33.50002],[136.443428,-33.497578],[136.435092,-33.484502],[136.430244,-33.476899],[136.429653,-33.476012],[136.429325,-33.475489],[136.428997,-33.474954],[136.428795,-33.474539],[136.428661,-33.474225],[136.428404,-33.473434],[136.427755,-33.471422],[136.427394,-33.470441],[136.427044,-33.469268],[136.41993,-33.447153],[136.412524,-33.424299],[136.411188,-33.420094],[136.411066,-33.419603],[136.410934,-33.418925],[136.41085,-33.418084],[136.410811,-33.417441],[136.410845,-33.413618],[136.410835,-33.412133],[136.410885,-33.403795],[136.410892,-33.403278],[136.410943,-33.402849],[136.411071,-33.402353],[136.411197,-33.40202],[136.411391,-33.401651],[136.411621,-33.401299],[136.412514,-33.400194],[136.412709,-33.399925],[136.4129,-33.399614],[136.413181,-33.399144],[136.413362,-33.398819],[136.414159,-33.397015],[136.41438,-33.396354],[136.414468,-33.39581],[136.414477,-33.395406],[136.414456,-33.395122],[136.414377,-33.394519],[136.412669,-33.383359],[136.412595,-33.382826],[136.412565,-33.382389],[136.412571,-33.381438],[136.412604,-33.37877],[136.412626,-33.378297],[136.412651,-33.378018],[136.412695,-33.377716],[136.412821,-33.3772],[136.412996,-33.376551],[136.413565,-33.374715],[136.421612,-33.348678],[136.423212,-33.343582],[136.424023,-33.340933],[136.424283,-33.340119],[136.424771,-33.338622],[136.424915,-33.338049],[136.42497,-33.337691],[136.425023,-33.337019],[136.425152,-33.335346],[136.42521,-33.334829],[136.425289,-33.334355],[136.425419,-33.333633],[136.42584,-33.331497],[136.425936,-33.330967],[136.426107,-33.330197],[136.426192,-33.32973],[136.426242,-33.329255],[136.426285,-33.328855],[136.426253,-33.325788],[136.426324,-33.300337],[136.426274,-33.296099],[136.42629,-33.29237],[136.426297,-33.287627],[136.426385,-33.271416],[136.426385,-33.271002],[136.426385,-33.270715],[136.426384,-33.270541],[136.426384,-33.270264],[136.426384,-33.26927],[136.426439,-33.215657],[136.426566,-33.189887],[136.426673,-33.167888],[136.426674,-33.167625],[136.426482,-33.152313],[136.426484,-33.151207],[136.426488,-33.148112],[136.426502,-33.144878]]}},{"type":"Feature","properties":{"tier":"arterial"},"geometry":{"type":"LineString","coordinates":[[136.197488,-33.50002],[136.197513,-33.499398],[136.197574,-33.497967],[136.197648,-33.496007],[136.19772,-33.494052],[136.197781,-33.49243],[136.197858,-33.490581],[136.197953,-33.488274],[136.197982,-33.48749],[136.198014,-33.486603],[136.198096,-33.484718],[136.198181,-33.482878],[136.198239,-33.481077],[136.198329,-33.47909],[136.198374,-33.477649],[136.198377,-33.476973],[136.19838,-33.476593],[136.198382,-33.476387],[136.19838,-33.475826],[136.198396,-33.475411],[136.198438,-33.474862],[136.198494,-33.474336],[136.198629,-33.473472]]}},{"type":"Feature","properties":{"tier":"arterial"},"geometry":{"type":"LineString","coordinates":[[136.426502,-33.144878],[136.426953,-33.145],[136.42749,-33.145139],[136.433806,-33.14692],[136.434279,-33.147045],[136.440258,-33.148625],[136.444407,-33.149764],[136.444821,-33.149878],[136.446133,-33.15035],[136.44644,-33.150617],[136.447397,-33.151634],[136.450709,-33.157149],[136.451739,-33.158545],[136.452254,-33.159079],[136.455983,-33.161595],[136.459357,-33.163618],[136.461687,-33.165415],[136.464002,-33.167054],[136.468434,-33.169984],[136.47039,-33.171319],[136.473279,-33.17329],[136.478161,-33.176668],[136.480627,-33.178044],[136.483374,-33.17904],[136.486245,-33.179543],[136.486654,-33.179574],[136.48713,-33.179611]]}},{"type":"Feature","properties":{"tier":"arterial"},"geometry":{"type":"LineString","coordinates":[[136.421249,-33.142053],[136.421328,-33.142205],[136.423871,-33.143562],[136.425157,-33.144249],[136.426502,-33.144878]]}},{"type":"Feature","properties":{"tier":"arterial"},"geometry":{"type":"LineString","coordinates":[[136.088748,-33.319232],[136.089393,-33.31943],[136.090781,-33.319843],[136.090914,-33.319875],[136.091161,-33.319919],[136.091785,-33.319958],[136.092545,-33.319986],[136.093655,-33.320053],[136.094195,-33.320123],[136.094488,-33.320228],[136.094777,-33.320355],[136.09513,-33.320549],[136.095986,-33.321016],[136.097522,-33.321867],[136.098685,-33.322512],[136.099107,-33.322747],[136.099529,-33.322931],[136.09994,-33.323087],[136.100229,-33.323189],[136.101058,-33.323319],[136.1021,-33.32349],[136.103183,-33.32364],[136.103521,-33.323703],[136.103731,-33.323764],[136.104008,-33.323875],[136.104392,-33.324043],[136.104708,-33.32418],[136.104928,-33.324269],[136.105232,-33.324339],[136.105647,-33.32444],[136.105848,-33.324481],[136.10605,-33.324539],[136.106312,-33.324637],[136.106605,-33.324809],[136.107631,-33.325508],[136.108666,-33.326191],[136.109072,-33.326493],[136.109449,-33.326753],[136.10981,-33.326924],[136.110555,-33.32723],[136.111962,-33.32776],[136.113418,-33.32831],[136.113981,-33.328516],[136.114247,-33.328627],[136.114422,-33.328726],[136.114585,-33.328865],[136.114714,-33.329053],[136.115425,-33.330162],[136.115737,-33.330555],[136.115939,-33.330762],[136.116281,-33.331064],[136.117383,-33.332004],[136.118866,-33.333221],[136.119581,-33.333675],[136.120265,-33.334075],[136.121102,-33.334558],[136.122007,-33.335187],[136.123455,-33.336191],[136.125318,-33.337432],[136.128196,-33.339329],[136.129181,-33.33997],[136.129443,-33.340132],[136.129652,-33.340218],[136.130059,-33.340364],[136.131063,-33.340711],[136.132717,-33.341317],[136.133268,-33.34152],[136.133629,-33.341667],[136.134059,-33.341908],[136.13496,-33.342426],[136.136861,-33.343509],[136.137393,-33.343839],[136.137777,-33.344084],[136.138192,-33.344401],[136.139351,-33.345332],[136.140682,-33.346326],[136.140853,-33.346443],[136.141169,-33.346596],[136.14256,-33.347136],[136.144355,-33.347857],[136.145473,-33.348317],[136.146377,-33.348775],[136.14794,-33.349524],[136.149742,-33.350404],[136.150477,-33.350721],[136.150727,-33.350829],[136.151723,-33.351331],[136.152628,-33.351795],[136.153046,-33.352055],[136.153715,-33.352513],[136.155502,-33.353748],[136.157582,-33.355218],[136.158209,-33.355622],[136.158521,-33.355857],[136.158806,-33.35605],[136.159198,-33.356273],[136.15976,-33.356527],[136.161532,-33.357394],[136.162524,-33.357854],[136.162905,-33.357988],[136.163395,-33.358076],[136.16476,-33.358277],[136.166714,-33.358565],[136.17036,-33.359093],[136.173706,-33.359572],[136.174915,-33.359721],[136.17533,-33.359763],[136.175816,-33.359829],[136.176117,-33.359871],[136.176299,-33.359915],[136.176554,-33.360007],[136.176999,-33.360163],[136.177702,-33.360464],[136.178143,-33.360655],[136.178375,-33.360725],[136.178702,-33.360798],[136.179584,-33.360982],[136.181044,-33.361274],[136.181375,-33.361341],[136.181637,-33.36142],[136.181865,-33.361528],[136.182124,-33.361662],[136.182432,-33.361833],[136.182804,-33.362017],[136.184382,-33.362833],[136.186203,-33.363811],[136.186389,-33.3639],[136.186515,-33.363951],[136.186606,-33.363976],[136.18672,-33.364002],[136.186842,-33.364015],[136.186983,-33.364015],[136.188788,-33.363938],[136.188998,-33.363935],[136.189173,-33.363935],[136.189325,-33.363935],[136.189568,-33.36398],[136.190115,-33.364081],[136.191902,-33.364386],[136.194199,-33.36478],[136.196879,-33.365231],[136.198373,-33.365497],[136.199963,-33.365758],[136.200985,-33.365933],[136.201886,-33.366101]]}},{"type":"Feature","properties":{"tier":"arterial"},"geometry":{"type":"LineString","coordinates":[[135.99998,-33.243772],[136.001311,-33.244908]]}},{"type":"Feature","properties":{"tier":"arterial"},"geometry":{"type":"LineString","coordinates":[[136.063339,-33.296644],[136.063019,-33.296364],[136.062647,-33.296075],[136.062305,-33.29584],[136.061921,-33.295637],[136.061396,-33.295405],[136.060905,-33.295217],[136.059715,-33.294775],[136.058221,-33.294213],[136.056598,-33.293606],[136.055571,-33.293234],[136.055149,-33.293059],[136.054868,-33.292923],[136.054442,-33.292659],[136.053925,-33.292338],[136.05321,-33.291899],[136.051431,-33.290835],[136.048435,-33.288995],[136.048184,-33.28881],[136.047941,-33.288616],[136.047602,-33.288299],[136.047271,-33.287993],[136.046207,-33.286986],[136.045177,-33.286004],[136.044344,-33.285229],[136.043865,-33.284866],[136.043511,-33.284666],[136.042998,-33.284389],[136.042508,-33.284122],[136.041968,-33.283868],[136.041158,-33.283445],[136.039827,-33.282759],[136.039405,-33.282527],[136.039131,-33.282381],[136.038907,-33.282219],[136.038755,-33.282076],[136.038253,-33.28157],[136.037641,-33.280858],[136.037227,-33.280337],[136.035987,-33.278789],[136.035288,-33.277956],[136.034972,-33.277654],[136.034607,-33.27734],[136.034113,-33.276981],[136.032558,-33.275833],[136.03068,-33.274463],[136.030391,-33.274247],[136.030125,-33.274009],[136.029809,-33.273678],[136.029448,-33.273309],[136.028471,-33.272267],[136.026748,-33.270432],[136.025136,-33.268706],[136.023391,-33.266818],[136.021863,-33.265181],[136.019825,-33.263013],[136.018076,-33.261137],[136.017076,-33.260148],[136.01686,-33.259942],[136.01662,-33.259738],[136.016046,-33.25929],[136.015244,-33.258686],[136.012662,-33.25674],[136.011054,-33.255507],[136.010746,-33.255227],[136.01051,-33.255014],[136.010282,-33.254753],[136.009955,-33.254362],[136.009647,-33.25399],[136.008579,-33.252658],[136.007336,-33.251116],[136.006035,-33.249513],[136.004906,-33.248121],[136.004655,-33.247806],[136.004438,-33.247542],[136.004142,-33.247237],[136.003857,-33.24696],[136.003404,-33.246591],[136.002845,-33.246133],[136.002073,-33.245536],[136.001609,-33.245143],[136.001311,-33.244908]]}},{"type":"Feature","properties":{"tier":"arterial"},"geometry":{"type":"LineString","coordinates":[[135.99998,-33.146086],[136.000617,-33.145955],[136.000887,-33.145888],[136.001118,-33.145816],[136.001316,-33.145707],[136.001346,-33.145684],[136.001438,-33.145614],[136.001561,-33.145493],[136.001636,-33.145373],[136.001748,-33.145032],[136.001755,-33.144781],[136.001752,-33.14397],[136.001737,-33.141201],[136.001734,-33.136333],[136.00177,-33.135989],[136.001813,-33.135748],[136.001853,-33.135578],[136.001914,-33.135314],[136.002058,-33.134919],[136.002263,-33.134545],[136.002404,-33.134315],[136.002821,-33.133687],[136.002968,-33.133512],[136.00313,-33.133395],[136.003451,-33.133183],[136.009131,-33.12979],[136.014001,-33.126906],[136.015039,-33.126273],[136.015622,-33.125935],[136.016148,-33.12569],[136.016721,-33.125485],[136.017196,-33.125325],[136.017618,-33.125132],[136.019318,-33.124077],[136.023385,-33.121476],[136.027332,-33.118978],[136.031496,-33.116513],[136.03633,-33.113617],[136.041117,-33.110766],[136.043488,-33.109345],[136.043808,-33.109125],[136.044291,-33.108684],[136.044788,-33.108195],[136.044946,-33.108017],[136.045087,-33.107833],[136.045202,-33.10768],[136.045335,-33.107426],[136.045551,-33.106928],[136.0458,-33.106135],[136.046459,-33.103419],[136.047198,-33.100465],[136.047796,-33.098211],[136.048494,-33.095417],[136.049114,-33.09293],[136.04937,-33.091988],[136.049597,-33.091415],[136.049878,-33.09079],[136.050292,-33.090072],[136.050811,-33.089212],[136.052096,-33.087045],[136.052741,-33.085992],[136.053494,-33.084719],[136.053793,-33.084199],[136.055443,-33.081477],[136.05563,-33.081163],[136.055814,-33.080783],[136.056095,-33.080019],[136.056214,-33.079606],[136.056264,-33.07931],[136.056296,-33.078987],[136.056329,-33.076416],[136.056322,-33.074448],[136.056322,-33.074044],[136.056322,-33.072784],[136.056296,-33.068543],[136.056296,-33.067073],[136.056296,-33.065474],[136.056299,-33.057598],[136.056299,-33.052639],[136.05629,-33.048501],[136.05629,-33.041043],[136.05629,-33.035701],[136.056276,-33.031752],[136.056296,-33.022432],[136.056263,-33.017089],[136.056257,-33.011629],[136.056257,-33.006458],[136.056217,-33.006235],[136.056057,-33.005739],[136.055061,-33.002552],[136.05425,-32.99998]]}},{"type":"Feature","properties":{"tier":"arterial"},"geometry":{"type":"LineString","coordinates":[[136.48713,-33.179611],[136.488446,-33.179623],[136.490936,-33.179571],[136.498352,-33.179358],[136.50002,-33.179295]]}},{"type":"Feature","properties":{"tier":"arterial"},"geometry":{"type":"LineString","coordinates":[[136.413615,-33.134429],[136.41512,-33.134921],[136.416219,-33.135297],[136.417175,-33.135616],[136.417587,-33.135766],[136.417846,-33.135861],[136.418008,-33.135921],[136.418052,-33.135941],[136.418304,-33.13606],[136.418877,-33.136357],[136.420116,-33.137],[136.421231,-33.137625],[136.422346,-33.13825]]}},{"type":"Feature","properties":{"tier":"arterial"},"geometry":{"type":"LineString","coordinates":[[136.425669,-33.134635],[136.425887,-33.134762],[136.426085,-33.134878],[136.426365,-33.135041]]}},{"type":"Feature","properties":{"tier":"arterial"},"geometry":{"type":"LineString","coordinates":[[136.412021,-33.13389],[136.413173,-33.134282],[136.413615,-33.134429]]}},{"type":"Feature","properties":{"tier":"arterial"},"geometry":{"type":"LineString","coordinates":[[136.259196,-32.99998],[136.259687,-33.00035],[136.260546,-33.000884],[136.262987,-33.002145],[136.263807,-33.002485],[136.264923,-33.002737],[136.265568,-33.002847],[136.266532,-33.002953],[136.267326,-33.003025],[136.268149,-33.003193],[136.268818,-33.003381],[136.269114,-33.003463],[136.269994,-33.003835],[136.273431,-33.005369],[136.274109,-33.005672],[136.275015,-33.00603],[136.27698,-33.006607],[136.280286,-33.007578],[136.280959,-33.007776],[136.281696,-33.008039],[136.282296,-33.008298],[136.282853,-33.008564],[136.28315,-33.008707],[136.285576,-33.010269],[136.286097,-33.010604],[136.288812,-33.012353],[136.28942,-33.012802],[136.290166,-33.013481],[136.290953,-33.014219],[136.291454,-33.014729],[136.291926,-33.015304],[136.292326,-33.015952],[136.293512,-33.018938],[136.296382,-33.026207],[136.296573,-33.026656],[136.296746,-33.027017],[136.302969,-33.036473],[136.303397,-33.037018],[136.303899,-33.0376],[136.304412,-33.038091],[136.304884,-33.038487],[136.305337,-33.038866],[136.305823,-33.039226],[136.308977,-33.04124],[136.309943,-33.041852],[136.310935,-33.042372],[136.312394,-33.042984],[136.313188,-33.043314],[136.313913,-33.043692],[136.314621,-33.044106],[136.315098,-33.044441],[136.318985,-33.047883],[136.334584,-33.062091],[136.345008,-33.07149],[136.345113,-33.071585],[136.345312,-33.071767],[136.348274,-33.074469],[136.348851,-33.074923],[136.349538,-33.075391],[136.350369,-33.075877],[136.351097,-33.076236],[136.356241,-33.078586],[136.357241,-33.07904],[136.357877,-33.079382],[136.358437,-33.079761],[136.359058,-33.080209],[136.359558,-33.080635],[136.367102,-33.087849],[136.380531,-33.100735],[136.381003,-33.101262],[136.381397,-33.101759],[136.381726,-33.102287],[136.382048,-33.10288],[136.385767,-33.111004],[136.386196,-33.111801],[136.386647,-33.112394],[136.38726,-33.113058],[136.387968,-33.113615],[136.388848,-33.114172],[136.392319,-33.115952],[136.393278,-33.116456],[136.394136,-33.116809],[136.399667,-33.118698],[136.400494,-33.119044],[136.40131,-33.119451],[136.402068,-33.119942],[136.40281,-33.120511],[136.404743,-33.122081],[136.405263,-33.122565],[136.40573,-33.123063],[136.406124,-33.123752],[136.406383,-33.124741],[136.406383,-33.12505],[136.406361,-33.125522],[136.40622,-33.126382],[136.405927,-33.128181],[136.405858,-33.129154],[136.40591,-33.129691],[136.406066,-33.130287],[136.406361,-33.130897],[136.406847,-33.131478],[136.407488,-33.132117],[136.407814,-33.132334],[136.407992,-33.132452],[136.408859,-33.132815],[136.411689,-33.133782]]}},{"type":"Feature","properties":{"tier":"arterial"},"geometry":{"type":"LineString","coordinates":[[136.19891,-33.470536],[136.198914,-33.470445],[136.198953,-33.469523],[136.198964,-33.469211],[136.198992,-33.468412],[136.199015,-33.467889],[136.199012,-33.466956],[136.199028,-33.466791],[136.199056,-33.466639],[136.199084,-33.466557]]}},{"type":"Feature","properties":{"tier":"arterial"},"geometry":{"type":"LineString","coordinates":[[136.199084,-33.466557],[136.198851,-33.466546],[136.198741,-33.46654],[136.198437,-33.466524],[136.198259,-33.466515],[136.198127,-33.466509],[136.198029,-33.466495],[136.197903,-33.46646],[136.197778,-33.466401],[136.197698,-33.466344],[136.197607,-33.466271],[136.197556,-33.466206],[136.197509,-33.466124],[136.197479,-33.466046],[136.197461,-33.465961],[136.197456,-33.465859],[136.197485,-33.465484]]}},{"type":"Feature","properties":{"tier":"arterial"},"geometry":{"type":"LineString","coordinates":[[136.198797,-33.472346],[136.198809,-33.47222],[136.198841,-33.471872],[136.198859,-33.471678],[136.198883,-33.471352]]}},{"type":"Feature","properties":{"tier":"arterial"},"geometry":{"type":"LineString","coordinates":[[136.063339,-33.296644],[136.063525,-33.296844],[136.063753,-33.297146],[136.063913,-33.297438],[136.063993,-33.297597],[136.064225,-33.298128],[136.064441,-33.298662],[136.064784,-33.299444],[136.064924,-33.299807]]}},{"type":"Feature","properties":{"tier":"high"},"geometry":{"type":"LineString","coordinates":[[136.50002,-33.124794],[136.496814,-33.124791],[136.489442,-33.124798],[136.482075,-33.124805],[136.481039,-33.124683],[136.480356,-33.124524],[136.479508,-33.124364],[136.478587,-33.124285],[136.468869,-33.124311],[136.468283,-33.124381],[136.46755,-33.124519],[136.467185,-33.124619],[136.46674,-33.124698],[136.466279,-33.124755],[136.465807,-33.124786],[136.458268,-33.124789],[136.443182,-33.12477],[136.441086,-33.124767],[136.437094,-33.124765],[136.436321,-33.124886],[136.435507,-33.125103],[136.435449,-33.125119],[136.434879,-33.125325],[136.434423,-33.125543],[136.434215,-33.125667],[136.433946,-33.125828],[136.433423,-33.126222],[136.432912,-33.126654],[136.432511,-33.127079],[136.431709,-33.128099],[136.428671,-33.131939]]}},{"type":"Feature","properties":{"tier":"high"},"geometry":{"type":"LineString","coordinates":[[136.426677,-33.13465],[136.426365,-33.135041],[136.426223,-33.135269],[136.426077,-33.135502],[136.425733,-33.136172],[136.425552,-33.136522],[136.424939,-33.137442]]}},{"type":"Feature","properties":{"tier":"arterial"},"geometry":{"type":"LineString","coordinates":[[136.198883,-33.471352],[136.198892,-33.471027],[136.198898,-33.470817],[136.198901,-33.47075],[136.19891,-33.470536]]}},{"type":"Feature","properties":{"tier":"arterial"},"geometry":{"type":"LineString","coordinates":[[136.198629,-33.473472],[136.198768,-33.472543],[136.198797,-33.472346]]}},{"type":"Feature","properties":{"tier":"high"},"geometry":{"type":"LineString","coordinates":[[136.414556,-33.146799],[136.414287,-33.146985],[136.413491,-33.147536],[136.411107,-33.149186]]}},{"type":"Feature","properties":{"tier":"high"},"geometry":{"type":"LineString","coordinates":[[136.42021,-33.141579],[136.42005,-33.141559],[136.41985,-33.141575],[136.419677,-33.141691],[136.419056,-33.142491],[136.418978,-33.142621],[136.41892,-33.142719],[136.418756,-33.143184],[136.41874,-33.143226],[136.418631,-33.143514],[136.418428,-33.143839],[136.418157,-33.144172],[136.418057,-33.144267],[136.417726,-33.14458],[136.417001,-33.145091],[136.416773,-33.145253],[136.416712,-33.145296],[136.416263,-33.145614],[136.416078,-33.145745],[136.415216,-33.146342],[136.414556,-33.146799]]}},{"type":"Feature","properties":{"tier":"high"},"geometry":{"type":"LineString","coordinates":[[136.424939,-33.137442],[136.424586,-33.1379],[136.423965,-33.138705],[136.423913,-33.138773],[136.423563,-33.139226],[136.423501,-33.139306],[136.423382,-33.139452],[136.422265,-33.140909],[136.422111,-33.141107],[136.421608,-33.141762],[136.421447,-33.141973],[136.421249,-33.142053],[136.420995,-33.142008],[136.420864,-33.141931],[136.420621,-33.141802],[136.420516,-33.141745],[136.420402,-33.141682],[136.42021,-33.141579]]}},{"type":"Feature","properties":{"tier":"high"},"geometry":{"type":"LineString","coordinates":[[136.428671,-33.131939],[136.428146,-33.132653],[136.426677,-33.13465]]}},{"type":"Feature","properties":{"tier":"arterial"},"geometry":{"type":"LineString","coordinates":[[136.197485,-33.465484],[136.197555,-33.464746],[136.197645,-33.463833],[136.197723,-33.462803],[136.197768,-33.461878],[136.197783,-33.461516],[136.19783,-33.460362],[136.197896,-33.458903],[136.19792,-33.458208],[136.197952,-33.457654],[136.198014,-33.456159],[136.198023,-33.455971],[136.19808,-33.454743],[136.198149,-33.453244],[136.198194,-33.452042],[136.198228,-33.451338],[136.198276,-33.450094],[136.198332,-33.448748],[136.198407,-33.447207],[136.198454,-33.446059],[136.198525,-33.444524],[136.198576,-33.443128],[136.198608,-33.441535],[136.198619,-33.43991],[136.198623,-33.438279],[136.198623,-33.438118],[136.198628,-33.43657],[136.198638,-33.435179],[136.198638,-33.43388],[136.198649,-33.432513],[136.198656,-33.431552],[136.198677,-33.431175],[136.198692,-33.430745],[136.198711,-33.43036],[136.198733,-33.430005],[136.198791,-33.428927],[136.198796,-33.428848],[136.198844,-33.428013],[136.198872,-33.427429],[136.198915,-33.427058],[136.198964,-33.426778],[136.199014,-33.426567],[136.199114,-33.426189],[136.19925,-33.425804],[136.199383,-33.425474],[136.199563,-33.42508],[136.199799,-33.424639],[136.199998,-33.424303],[136.200238,-33.423925],[136.200507,-33.42351],[136.200759,-33.42314],[136.201086,-33.422683],[136.201778,-33.421728],[136.201984,-33.421434],[136.202072,-33.421301],[136.202143,-33.421174],[136.202222,-33.421032],[136.2023,-33.420848],[136.202385,-33.420619],[136.202512,-33.420246],[136.202596,-33.419934],[136.202786,-33.419235],[136.203153,-33.417839],[136.203514,-33.416515],[136.203703,-33.415859],[136.203868,-33.415225],[136.204206,-33.413953],[136.204562,-33.412674],[136.204685,-33.412216],[136.204798,-33.411732],[136.204843,-33.411537],[136.204874,-33.41134],[136.204925,-33.410972],[136.204946,-33.410639],[136.204946,-33.410461],[136.204925,-33.410295],[136.204901,-33.410109],[136.204861,-33.40989],[136.20479,-33.409593],[136.204691,-33.409351],[136.204474,-33.408902],[136.204221,-33.408433],[136.203957,-33.40799],[136.203571,-33.407348],[136.202864,-33.406184],[136.202152,-33.40503],[136.201956,-33.404709],[136.201813,-33.404454],[136.201708,-33.404257],[136.201598,-33.40403],[136.201525,-33.403872],[136.201424,-33.403632],[136.201294,-33.403303],[136.20115,-33.402898],[136.201053,-33.402556],[136.20094,-33.402105],[136.200818,-33.401501],[136.20062,-33.400471],[136.200378,-33.399266],[136.200131,-33.398035],[136.199859,-33.396731],[136.199533,-33.395175],[136.19923,-33.393734],[136.199031,-33.392755],[136.198917,-33.392206],[136.198608,-33.390737],[136.198327,-33.389333],[136.198094,-33.388185],[136.197823,-33.386875],[136.197557,-33.385602],[136.197272,-33.384227],[136.196993,-33.382858],[136.196845,-33.382107],[136.19671,-33.381497],[136.196461,-33.380297],[136.196367,-33.379804],[136.196322,-33.379515],[136.196309,-33.379243],[136.196303,-33.379008],[136.196317,-33.37873],[136.19633,-33.378414],[136.196352,-33.378191],[136.196405,-33.377965],[136.196472,-33.377716],[136.196585,-33.377398],[136.196729,-33.37701],[136.19701,-33.376391],[136.197161,-33.376068],[136.197506,-33.375333],[136.198125,-33.374039],[136.198758,-33.372717],[136.19943,-33.371297],[136.200138,-33.36979],[136.200862,-33.36826],[136.201401,-33.367125],[136.201555,-33.3668],[136.201886,-33.366101]]}},{"type":"Feature","properties":{"tier":"arterial"},"geometry":{"type":"LineString","coordinates":[[136.064924,-33.299807],[136.065019,-33.299985],[136.065099,-33.300159],[136.065209,-33.300296],[136.065349,-33.300414],[136.065726,-33.30069],[136.066608,-33.301259],[136.067233,-33.301668],[136.068231,-33.30232],[136.06841,-33.302454],[136.068619,-33.302628],[136.068786,-33.302816],[136.069209,-33.303375],[136.070011,-33.304449],[136.070786,-33.305457],[136.070916,-33.305577],[136.071159,-33.305793],[136.071619,-33.306079],[136.073535,-33.307239],[136.074497,-33.307811],[136.074987,-33.308043],[136.075195,-33.308179]]}},{"type":"Feature","properties":{"tier":"arterial"},"geometry":{"type":"LineString","coordinates":[[136.075195,-33.308179],[136.075318,-33.308259],[136.07555,-33.308447],[136.075885,-33.308745],[136.076143,-33.309015],[136.076615,-33.30959],[136.077607,-33.310804],[136.078987,-33.312504],[136.079546,-33.313168],[136.07966,-33.31327],[136.081052,-33.314299],[136.083101,-33.315827],[136.085492,-33.317645],[136.086546,-33.318442],[136.086785,-33.318601],[136.087101,-33.318738],[136.08815,-33.319049],[136.088748,-33.319232]]}},{"type":"Feature","properties":{"tier":"arterial"},"geometry":{"type":"LineString","coordinates":[[136.41985,-33.141575],[136.419901,-33.141402],[136.420927,-33.140079],[136.421124,-33.139826],[136.422346,-33.13825],[136.423532,-33.13672],[136.423861,-33.136187],[136.424045,-33.13597],[136.424748,-33.135731],[136.425669,-33.134635]]}},{"type":"Feature","properties":{"tier":"arterial"},"geometry":{"type":"LineString","coordinates":[[136.411689,-33.133782],[136.412021,-33.13389]]}}]}
