{"type":"FeatureCollection","features":[{"type":"Feature","properties":{"tier":"arterial"},"geometry":{"type":"LineString","coordinates":[[136.048079,-30.00002],[136.048175,-29.999892],[136.048406,-29.999581],[136.048696,-29.999149],[136.04883,-29.998979],[136.048977,-29.998777],[136.049095,-29.998626],[136.049202,-29.998489],[136.049323,-29.998317],[136.049511,-29.998108],[136.049666,-29.997843],[136.04987,-29.997565],[136.050069,-29.997286],[136.050358,-29.996868],[136.050734,-29.996357],[136.052342,-29.994127],[136.058113,-29.986227],[136.059902,-29.983654],[136.060198,-29.983239],[136.060321,-29.983082],[136.060393,-29.983009],[136.060477,-29.982939],[136.060559,-29.982871],[136.060674,-29.982783],[136.060795,-29.982714],[136.06088,-29.98267],[136.06103,-29.982588],[136.061153,-29.982533],[136.061376,-29.982433],[136.076796,-29.975325],[136.091598,-29.968365],[136.107311,-29.960999],[136.125697,-29.952399],[136.146287,-29.942727],[136.15991,-29.934989],[136.164574,-29.932315],[136.167206,-29.930831],[136.167305,-29.930792],[136.167372,-29.930779],[136.167436,-29.930767],[136.167534,-29.930715],[136.169691,-29.929431],[136.169955,-29.929309],[136.170277,-29.92924],[136.170559,-29.929275],[136.171125,-29.929508],[136.171351,-29.929572],[136.171618,-29.929566],[136.171875,-29.929453],[136.177391,-29.926054],[136.178045,-29.9256],[136.184154,-29.920771],[136.184407,-29.920582],[136.184573,-29.92044],[136.184675,-29.920324],[136.184746,-29.920214],[136.184831,-29.920052],[136.184852,-29.919999],[136.184905,-29.919866],[136.185102,-29.91942],[136.185292,-29.919002],[136.185492,-29.918574],[136.185598,-29.918231],[136.185632,-29.918095],[136.185737,-29.917593],[136.185747,-29.917382],[136.185733,-29.917302],[136.185701,-29.9172],[136.185678,-29.917114],[136.18566,-29.91705],[136.185654,-29.916961],[136.18566,-29.916873],[136.18568,-29.916807],[136.185728,-29.91671],[136.185782,-29.916613],[136.185858,-29.916476],[136.185931,-29.916354],[136.185999,-29.916241],[136.186065,-29.916154],[136.186143,-29.916083],[136.186228,-29.916003],[136.186316,-29.915947],[136.186399,-29.915906],[136.186493,-29.915871],[136.186585,-29.915843],[136.186658,-29.915825],[136.186761,-29.915822],[136.186847,-29.915814],[136.18689,-29.915734],[136.186931,-29.915626],[136.186982,-29.915568],[136.187032,-29.915539],[136.18709,-29.915509],[136.187159,-29.915485],[136.18724,-29.915468],[136.187316,-29.915464],[136.187399,-29.915468],[136.187448,-29.915477],[136.187545,-29.915494],[136.187605,-29.915515],[136.187675,-29.915556],[136.187724,-29.915599],[136.187852,-29.915755],[136.188022,-29.915994],[136.188574,-29.91685],[136.188675,-29.916996],[136.189013,-29.917484],[136.189117,-29.917616],[136.189185,-29.917682],[136.189263,-29.917745],[136.189373,-29.917815],[136.189498,-29.917875],[136.1896,-29.917908],[136.189649,-29.917924],[136.189802,-29.917952],[136.189936,-29.917961],[136.190133,-29.917947],[136.190307,-29.917936],[136.190503,-29.91791],[136.190898,-29.917845],[136.191046,-29.91783],[136.19118,-29.917836],[136.191293,-29.917866],[136.191364,-29.917898],[136.191451,-29.917957],[136.191521,-29.91803],[136.191584,-29.918143],[136.191607,-29.918236],[136.191736,-29.918521],[136.191923,-29.918918],[136.192009,-29.919044],[136.192101,-29.919171],[136.192198,-29.91927],[136.192379,-29.919399],[136.192497,-29.919454],[136.192758,-29.919536],[136.193438,-29.919729],[136.193826,-29.919809],[136.194134,-29.919864],[136.194445,-29.91993],[136.194586,-29.919963],[136.194758,-29.920012],[136.195769,-29.920344],[136.199256,-29.921578],[136.202496,-29.92272],[136.20553,-29.923766],[136.20925,-29.925056],[136.210962,-29.92564],[136.211461,-29.925813],[136.211808,-29.925954],[136.212114,-29.926093],[136.212707,-29.926393],[136.213995,-29.927257],[136.215443,-29.928262],[136.216924,-29.929271],[136.218104,-29.930056],[136.220663,-29.9318],[136.222631,-29.933138],[136.224455,-29.934375],[136.225737,-29.935249],[136.227534,-29.936444],[136.229267,-29.937718],[136.230308,-29.93835],[136.231402,-29.939079],[136.232813,-29.940051],[136.233939,-29.9408],[136.235962,-29.942189],[136.237416,-29.943152],[136.240661,-29.945355],[136.242533,-29.94661],[136.24565,-29.948762],[136.247973,-29.950338],[136.250403,-29.951969],[136.253284,-29.953931],[136.255284,-29.955306],[136.257511,-29.956794],[136.260488,-29.958829],[136.263406,-29.960777],[136.264232,-29.96132],[136.264565,-29.961558],[136.264849,-29.961799],[136.265118,-29.962138],[136.265375,-29.962533],[136.266528,-29.964341],[136.268084,-29.96693],[136.270278,-29.970517],[136.272091,-29.973492],[136.274446,-29.977381],[136.275251,-29.978749],[136.275388,-29.978968],[136.275522,-29.979103],[136.275634,-29.979207],[136.275763,-29.979314],[136.275929,-29.979423],[136.276249,-29.979616],[136.277051,-29.980044],[136.282498,-29.982978],[136.282732,-29.983096],[136.28304,-29.983196],[136.283416,-29.983299],[136.283759,-29.983364],[136.284081,-29.983394],[136.284537,-29.983405],[136.287737,-29.983496],[136.287879,-29.983512],[136.287986,-29.983542],[136.288069,-29.983591],[136.288136,-29.983652],[136.288198,-29.983731],[136.288233,-29.983835],[136.288426,-29.984818],[136.289217,-29.988386],[136.290102,-29.992442],[136.290282,-29.99329],[136.290328,-29.993497],[136.290389,-29.993681],[136.290464,-29.993834],[136.290577,-29.994027],[136.290698,-29.994182],[136.290834,-29.994322],[136.291001,-29.99447],[136.29125,-29.994689],[136.29261,-29.995953],[136.29415,-29.997367],[136.294265,-29.997488],[136.294356,-29.997595],[136.294421,-29.997695],[136.29449,-29.997839],[136.294643,-29.998287],[136.295218,-30.00002]]}}]}
