{"type":"FeatureCollection","features":[{"type":"Feature","properties":{"tier":"arterial"},"geometry":{"type":"LineString","coordinates":[[136.173314,-28.862928],[136.172748,-28.862627],[136.170306,-28.861201],[136.168922,-28.860394],[136.165013,-28.858111],[136.163945,-28.857488],[136.159182,-28.854743],[136.15916,-28.85473],[136.153237,-28.851263],[136.152712,-28.850928],[136.152066,-28.850444],[136.151774,-28.850175],[136.151499,-28.849888],[136.151247,-28.849575],[136.151021,-28.84925],[136.1502,-28.847933],[136.148404,-28.845053],[136.143466,-28.837261],[136.140968,-28.833283],[136.139968,-28.83166],[136.138237,-28.82895],[136.134645,-28.823253],[136.132498,-28.819928],[136.129784,-28.815625],[136.128553,-28.81373],[136.128033,-28.812897],[136.127797,-28.812573],[136.127408,-28.812109],[136.12712,-28.81183],[136.126803,-28.811578],[136.126477,-28.811341],[136.126134,-28.811124],[136.124229,-28.810079],[136.122798,-28.809294],[136.121353,-28.808501],[136.115653,-28.80534],[136.115171,-28.805078],[136.114799,-28.804876],[136.111452,-28.803057],[136.11075,-28.802634],[136.110051,-28.802175],[136.109571,-28.801812],[136.108421,-28.800941],[136.108414,-28.800936],[136.108047,-28.800653],[136.105751,-28.798888],[136.105248,-28.798485],[136.102163,-28.796156],[136.100484,-28.794889],[136.100021,-28.794513],[136.099686,-28.794255],[136.099132,-28.79383],[136.098926,-28.793672],[136.098323,-28.793146],[136.097518,-28.792252],[136.096881,-28.791475],[136.09595,-28.790413],[136.093322,-28.787288],[136.093047,-28.786995],[136.092459,-28.786468],[136.092283,-28.786311],[136.091918,-28.786015],[136.091867,-28.785973],[136.090828,-28.78513],[136.090182,-28.784641],[136.089856,-28.784415],[136.088969,-28.783897],[136.087485,-28.783172],[136.086951,-28.78288],[136.086612,-28.782662],[136.086298,-28.782431],[136.085854,-28.782046],[136.085584,-28.781763],[136.085336,-28.78147],[136.085092,-28.781169],[136.084867,-28.780849],[136.083873,-28.779325],[136.081711,-28.776009],[136.080853,-28.774754],[136.078726,-28.771559],[136.078054,-28.770579],[136.077477,-28.769782],[136.076974,-28.769188],[136.071698,-28.763317],[136.068257,-28.759418],[136.067717,-28.758835],[136.06553,-28.756372],[136.063651,-28.754347],[136.063007,-28.753621],[136.061972,-28.75226],[136.060651,-28.750347],[136.058952,-28.747737],[136.058093,-28.746361],[136.057531,-28.74559],[136.057283,-28.74532],[136.057007,-28.745067],[136.056421,-28.744591],[136.055127,-28.743622],[136.054855,-28.743419],[136.054147,-28.742842],[136.053123,-28.742007],[136.050369,-28.739763],[136.049862,-28.739421],[136.049478,-28.739236],[136.049092,-28.739076],[136.047716,-28.738558],[136.047158,-28.738305],[136.046801,-28.738121],[136.044255,-28.736615],[136.042183,-28.735356],[136.04081,-28.734602],[136.040497,-28.734404],[136.040211,-28.734177],[136.039948,-28.733916],[136.039442,-28.733361],[136.039021,-28.732967],[136.038928,-28.732901],[136.0387,-28.73274]]}},{"type":"Feature","properties":{"tier":"arterial"},"geometry":{"type":"LineString","coordinates":[[136.0387,-28.73274],[136.038189,-28.73244],[136.037603,-28.732127],[136.037569,-28.732109],[136.037224,-28.731925],[136.037011,-28.731811],[136.036158,-28.731406],[136.034879,-28.730854],[136.034386,-28.730655],[136.033848,-28.730437],[136.032294,-28.729735],[136.031593,-28.729463],[136.030846,-28.729214],[136.026553,-28.727855],[136.025653,-28.727589],[136.024525,-28.727285],[136.02057,-28.726361],[136.018677,-28.725838],[136.016513,-28.725077],[136.01523,-28.72459],[136.014979,-28.7245],[136.01455,-28.724347],[136.014256,-28.724242],[136.008802,-28.722328],[136.0083,-28.72216],[136.007479,-28.721913],[136.006267,-28.721608],[136.006145,-28.721574],[136.005578,-28.721416],[136.001848,-28.720088],[135.99998,-28.719456]]}},{"type":"Feature","properties":{"tier":"arterial"},"geometry":{"type":"LineString","coordinates":[[136.334682,-28.905643],[136.332378,-28.905043],[136.331017,-28.904688],[136.329549,-28.904305],[136.326215,-28.903463],[136.32401,-28.902906],[136.322989,-28.902648],[136.321906,-28.902424],[136.321283,-28.902282],[136.319862,-28.902194],[136.318472,-28.902198],[136.314776,-28.90211],[136.313265,-28.902132],[136.312232,-28.902013],[136.311559,-28.901916],[136.310475,-28.901595],[136.30944,-28.901306],[136.303856,-28.89975],[136.297774,-28.898055],[136.29158,-28.896296],[136.290489,-28.895986],[136.289585,-28.895695],[136.289381,-28.895613],[136.288953,-28.895441],[136.288322,-28.895105],[136.287776,-28.894687],[136.287439,-28.894431]]}},{"type":"Feature","properties":{"tier":"arterial"},"geometry":{"type":"LineString","coordinates":[[136.189148,-28.895856],[136.194158,-28.895705],[136.195515,-28.895763],[136.198705,-28.895824],[136.201571,-28.895824],[136.206058,-28.89566],[136.209274,-28.895608],[136.214725,-28.895496],[136.218077,-28.895526],[136.223016,-28.895555],[136.228109,-28.895563],[136.234813,-28.89554],[136.241953,-28.895578],[136.243523,-28.89562],[136.245801,-28.895682],[136.252718,-28.895794],[136.256804,-28.895899],[136.259372,-28.895861],[136.261658,-28.895705],[136.266205,-28.895421],[136.269847,-28.895182],[136.275,-28.894876],[136.279983,-28.894548],[136.283687,-28.89431],[136.286133,-28.894115]]}},{"type":"Feature","properties":{"tier":"arterial"},"geometry":{"type":"LineString","coordinates":[[136.189148,-28.895856],[136.188475,-28.89587],[136.187736,-28.895912],[136.186931,-28.895959],[136.186277,-28.896034],[136.184371,-28.896415],[136.179484,-28.897448],[136.178895,-28.897593],[136.178551,-28.897777],[136.178277,-28.898129],[136.178036,-28.898575],[136.177753,-28.899185],[136.177452,-28.899763],[136.177077,-28.900284],[136.176953,-28.900407],[136.17625,-28.901102],[136.175628,-28.901716],[136.175017,-28.902242],[136.174468,-28.90269],[136.174158,-28.902876],[136.173766,-28.903023],[136.173289,-28.903149],[136.172891,-28.903291],[136.172586,-28.903474],[136.172274,-28.903662],[136.171734,-28.903867],[136.171395,-28.904018],[136.17129,-28.904093],[136.171137,-28.904202],[136.170881,-28.904487],[136.170547,-28.904944],[136.170343,-28.905146],[136.169427,-28.905746],[136.16881,-28.906145],[136.168332,-28.906362],[136.167646,-28.906586],[136.166777,-28.906774],[136.166251,-28.906835],[136.165569,-28.906869],[136.16507,-28.906902],[136.164588,-28.90691],[136.16403,-28.906896],[136.163478,-28.906845],[136.162877,-28.906746],[136.16117,-28.90637],[136.157293,-28.905516],[136.157138,-28.905479],[136.156288,-28.905277],[136.1558,-28.905188],[136.15543,-28.905141],[136.154974,-28.905146],[136.153107,-28.905315],[136.152217,-28.905366],[136.151038,-28.905431],[136.150425,-28.90546],[136.149755,-28.905479],[136.149101,-28.905464],[136.14849,-28.905403],[136.147825,-28.905318],[136.147299,-28.905224],[136.14702,-28.905168],[136.146634,-28.905027],[136.146376,-28.904877],[136.146081,-28.904694],[136.145523,-28.904309],[136.145148,-28.904022],[136.144696,-28.90376],[136.14423,-28.903595],[136.143822,-28.903502],[136.143398,-28.903436],[136.143002,-28.903426],[136.14254,-28.903463],[136.142058,-28.903539],[136.141139,-28.903741],[136.140368,-28.903942],[136.139949,-28.904],[136.139659,-28.904014],[136.139182,-28.904032],[136.13872,-28.90408],[136.138339,-28.904164],[136.138012,-28.904263],[136.137669,-28.904432],[136.13725,-28.904671],[136.136892,-28.904886],[136.136511,-28.905102],[136.135963,-28.905315],[136.134986,-28.905611],[136.134649,-28.90568],[136.134231,-28.905732],[136.133866,-28.905736],[136.133394,-28.905736],[136.132965,-28.905765],[136.132391,-28.90583],[136.13156,-28.905891],[136.130336,-28.905995],[136.129729,-28.90608],[136.126796,-28.90669],[136.124054,-28.907263],[136.118481,-28.907573],[136.112913,-28.907976],[136.112537,-28.908005],[136.111937,-28.908089],[136.111625,-28.908192],[136.111325,-28.908343],[136.110992,-28.908483],[136.110638,-28.908615],[136.107945,-28.909188],[136.107896,-28.909198],[136.105982,-28.909592],[136.105145,-28.909761],[136.104491,-28.90993],[136.104105,-28.910108],[136.103379,-28.910419],[136.102098,-28.910991],[136.09977,-28.911855],[136.098326,-28.912354],[136.096412,-28.912973],[136.09535,-28.913273],[136.094406,-28.913555],[136.093569,-28.913837],[136.092796,-28.914034],[136.09191,-28.914176],[136.090994,-28.914288],[136.090168,-28.914438],[136.089342,-28.914654],[136.088612,-28.914767],[136.087893,-28.914757],[136.087207,-28.914729],[136.086499,-28.914588],[136.085447,-28.914297],[136.083563,-28.913678],[136.082791,-28.913509],[136.080083,-28.913555],[136.078838,-28.913593],[136.078205,-28.913658],[136.07725,-28.913865],[136.075952,-28.914128],[136.07459,-28.91441],[136.073774,-28.914597],[136.072819,-28.915114],[136.071628,-28.915724],[136.07047,-28.916269],[136.068903,-28.916776],[136.067637,-28.917133],[136.066182,-28.917491],[136.064697,-28.917791],[136.064412,-28.917822],[136.063936,-28.917875],[136.063228,-28.917884],[136.062455,-28.917828],[136.061704,-28.917734],[136.060975,-28.917612],[136.060127,-28.917471],[136.059419,-28.917368],[136.058797,-28.917359],[136.058131,-28.917499],[136.056741,-28.918008],[136.052971,-28.919303],[136.051098,-28.919867],[136.049945,-28.920242],[136.049001,-28.920589],[136.048315,-28.920955],[136.04745,-28.921369],[136.046716,-28.921716],[136.045965,-28.922045],[136.044946,-28.922336],[136.043444,-28.922646],[136.039667,-28.923303],[136.036356,-28.923858],[136.034238,-28.924204],[136.032157,-28.924561],[136.029983,-28.924929],[136.028524,-28.925116],[136.024554,-28.925492],[136.019726,-28.925924],[136.01816,-28.926037],[136.015077,-28.926308],[136.013826,-28.926431],[136.012609,-28.92659],[136.010993,-28.926825],[136.009448,-28.927032],[136.008075,-28.927145],[136.006015,-28.927295],[136.003859,-28.927473],[136.002695,-28.927557],[136.001204,-28.927646],[135.99998,-28.92771]]}},{"type":"Feature","properties":{"tier":"arterial"},"geometry":{"type":"LineString","coordinates":[[136.337396,-28.906293],[136.335763,-28.905925]]}},{"type":"Feature","properties":{"tier":"arterial"},"geometry":{"type":"LineString","coordinates":[[136.343233,-28.907834],[136.342195,-28.907546],[136.342038,-28.907502],[136.341914,-28.907463],[136.34175,-28.907423],[136.341709,-28.907413],[136.3408,-28.907192]]}},{"type":"Feature","properties":{"tier":"arterial"},"geometry":{"type":"LineString","coordinates":[[136.447989,-29.00002],[136.446876,-28.99968],[136.445126,-28.999145],[136.44393,-28.998779],[136.441736,-28.998002],[136.441464,-28.997893],[136.440823,-28.997636],[136.440757,-28.997588],[136.439714,-28.996849],[136.438641,-28.996018],[136.433747,-28.992029],[136.429125,-28.988352],[136.427756,-28.986971],[136.427103,-28.986238],[136.415112,-28.971608],[136.413377,-28.969469],[136.413344,-28.969429],[136.412399,-28.968265],[136.411734,-28.967482],[136.40938,-28.964712],[136.408852,-28.964205],[136.405608,-28.961082],[136.404944,-28.960443],[136.403958,-28.959529],[136.399706,-28.955584],[136.392583,-28.948978],[136.391126,-28.947574]]}},{"type":"Feature","properties":{"tier":"arterial"},"geometry":{"type":"LineString","coordinates":[[136.286133,-28.894115],[136.28646,-28.894089],[136.286951,-28.894062]]}},{"type":"Feature","properties":{"tier":"arterial"},"geometry":{"type":"LineString","coordinates":[[136.286951,-28.894062],[136.286405,-28.893548]]}},{"type":"Feature","properties":{"tier":"arterial"},"geometry":{"type":"LineString","coordinates":[[136.287439,-28.894431],[136.286951,-28.894062]]}},{"type":"Feature","properties":{"tier":"arterial"},"geometry":{"type":"LineString","coordinates":[[136.335763,-28.905925],[136.335633,-28.905891],[136.334682,-28.905643]]}},{"type":"Feature","properties":{"tier":"arterial"},"geometry":{"type":"LineString","coordinates":[[136.340243,-28.907056],[136.339743,-28.906934],[136.338957,-28.906726],[136.337949,-28.906447],[136.337396,-28.906293]]}},{"type":"Feature","properties":{"tier":"arterial"},"geometry":{"type":"LineString","coordinates":[[136.3408,-28.907192],[136.340243,-28.907056]]}},{"type":"Feature","properties":{"tier":"arterial"},"geometry":{"type":"LineString","coordinates":[[136.387627,-28.944317],[136.370251,-28.928139],[136.36323,-28.921613],[136.360051,-28.918656],[136.354014,-28.913039],[136.353824,-28.912862],[136.352289,-28.911423],[136.352202,-28.911346],[136.351435,-28.910661],[136.35107,-28.910336],[136.350467,-28.909928],[136.349767,-28.90967],[136.349253,-28.909526],[136.348851,-28.909413],[136.348236,-28.90924],[136.343233,-28.907834]]}},{"type":"Feature","properties":{"tier":"arterial"},"geometry":{"type":"LineString","coordinates":[[136.391126,-28.947574],[136.387627,-28.944317]]}},{"type":"Feature","properties":{"tier":"arterial"},"geometry":{"type":"LineString","coordinates":[[136.267497,-28.873289],[136.266985,-28.872985],[136.266032,-28.872485],[136.265982,-28.872458],[136.265732,-28.872327],[136.264949,-28.871894],[136.263427,-28.871051],[136.260811,-28.869603],[136.260221,-28.869293],[136.259625,-28.869007],[136.258817,-28.868682],[136.256319,-28.867819],[136.255483,-28.867514],[136.25299,-28.86666],[136.251944,-28.866389],[136.251509,-28.866313],[136.251068,-28.866259],[136.249951,-28.866208],[136.249057,-28.866238],[136.246955,-28.866382],[136.244534,-28.866547],[136.241074,-28.866807],[136.236529,-28.867124],[136.234262,-28.867262],[136.232205,-28.867424],[136.230111,-28.867551],[136.225425,-28.867886],[136.223291,-28.868004],[136.222138,-28.868103],[136.220983,-28.868182],[136.218905,-28.868301],[136.215923,-28.868523],[136.214511,-28.868604],[136.211687,-28.868824],[136.209012,-28.868987],[136.206591,-28.869172],[136.204537,-28.869294],[136.202911,-28.869412],[136.199119,-28.869652],[136.196387,-28.869849],[136.195449,-28.869901],[136.194292,-28.869998],[136.192686,-28.870086],[136.192001,-28.870096],[136.191543,-28.870072],[136.190656,-28.869959],[136.190235,-28.869874],[136.189415,-28.869648],[136.188813,-28.869437],[136.187196,-28.868779],[136.186299,-28.868414],[136.18473,-28.86774],[136.184313,-28.867567],[136.180362,-28.865929],[136.17935,-28.865492],[136.178367,-28.865081],[136.174098,-28.863293],[136.173314,-28.862928]]}},{"type":"Feature","properties":{"tier":"arterial"},"geometry":{"type":"LineString","coordinates":[[136.286405,-28.893548],[136.285239,-28.892451],[136.281601,-28.88903],[136.279474,-28.887029],[136.27855,-28.88616],[136.278079,-28.885724],[136.276513,-28.884274],[136.27346,-28.881397],[136.27318,-28.881116],[136.272773,-28.880673],[136.272511,-28.880359],[136.272042,-28.879695],[136.271719,-28.87918],[136.270671,-28.877417],[136.27018,-28.876546],[136.269437,-28.875332],[136.269099,-28.874822],[136.268858,-28.874491],[136.268593,-28.874175],[136.268298,-28.873882],[136.268142,-28.873753],[136.267823,-28.873509],[136.267497,-28.873289]]}}]}
