{"type":"FeatureCollection","features":[{"type":"Feature","properties":{"tier":"arterial"},"geometry":{"type":"LineString","coordinates":[[136.473841,-30.479819],[136.472769,-30.478279],[136.469478,-30.476829],[136.468808,-30.4767],[136.467699,-30.476296],[136.466396,-30.476129],[136.465532,-30.475847],[136.464021,-30.475635],[136.462844,-30.475475],[136.459219,-30.476302],[136.457365,-30.477008],[136.45694,-30.476938],[136.455973,-30.476643],[136.455377,-30.476219],[136.454818,-30.475635],[136.454029,-30.474365],[136.45356,-30.473344],[136.450225,-30.468108],[136.447596,-30.46482],[136.447097,-30.464261],[136.446479,-30.463548],[136.446021,-30.463181],[136.44533,-30.462702],[136.445088,-30.462559],[136.444758,-30.462452],[136.444339,-30.462392],[136.444046,-30.462342],[136.443875,-30.462293],[136.443618,-30.462136],[136.443215,-30.461842],[136.442601,-30.461402],[136.44187,-30.460848],[136.441601,-30.460658],[136.438207,-30.459005],[136.437792,-30.458761],[136.437515,-30.45855],[136.437109,-30.458144],[136.436903,-30.457902],[136.436738,-30.457751],[136.436005,-30.457237],[136.435887,-30.457118],[136.435809,-30.457006],[136.435548,-30.456553],[136.435425,-30.456397],[136.434792,-30.455882],[136.433987,-30.455329],[136.433589,-30.454978],[136.433227,-30.454575],[136.432994,-30.454328],[136.432623,-30.453994],[136.432202,-30.45365],[136.432018,-30.45348],[136.431727,-30.453153],[136.431404,-30.452695],[136.431233,-30.452484],[136.431055,-30.452221],[136.430916,-30.452061],[136.430739,-30.452019],[136.430619,-30.451994],[136.430525,-30.451957],[136.430491,-30.451883],[136.430476,-30.4516],[136.430476,-30.451383],[136.430445,-30.451248],[136.430318,-30.451021],[136.43016,-30.450806],[136.429974,-30.45062],[136.429738,-30.450387],[136.429439,-30.450102],[136.429221,-30.44994],[136.429088,-30.449869],[136.42876,-30.44976],[136.428229,-30.449675],[136.427821,-30.449649],[136.427634,-30.44961],[136.42751,-30.449554],[136.427287,-30.449386],[136.426999,-30.449097],[136.426831,-30.448944],[136.426615,-30.448843],[136.426376,-30.448813],[136.425614,-30.448723],[136.42544,-30.448688],[136.424931,-30.448539],[136.423926,-30.448151],[136.423594,-30.447995],[136.423423,-30.447793],[136.423374,-30.447553],[136.423403,-30.447241],[136.423391,-30.447035],[136.423347,-30.446903],[136.423265,-30.446769],[136.423097,-30.446638],[136.422901,-30.446525],[136.422328,-30.446347],[136.422125,-30.446253],[136.421736,-30.446023],[136.421286,-30.445653],[136.421127,-30.445471],[136.420929,-30.445178],[136.420893,-30.44501],[136.420908,-30.444791],[136.421067,-30.444446],[136.421314,-30.443841],[136.421398,-30.443451],[136.42143,-30.443299],[136.421367,-30.443044],[136.421233,-30.442812],[136.42112,-30.44268],[136.41921,-30.44086],[136.419016,-30.440621],[136.418872,-30.440313],[136.418813,-30.44015],[136.418691,-30.439844],[136.41855,-30.439512],[136.418374,-30.439142],[136.418167,-30.43879],[136.418011,-30.43855],[136.417803,-30.438251],[136.417693,-30.43809],[136.417471,-30.437788],[136.417027,-30.437289],[136.416836,-30.437078],[136.416584,-30.436838],[136.416393,-30.436712],[136.416095,-30.436548],[136.41565,-30.436345],[136.415057,-30.436095],[136.414459,-30.435849],[136.414181,-30.435731],[136.413679,-30.435503],[136.41337,-30.43529],[136.41252,-30.434488],[136.412085,-30.434071],[136.411688,-30.433691],[136.411252,-30.433275],[136.410871,-30.432934],[136.410102,-30.432361],[136.409609,-30.431988],[136.409249,-30.431733],[136.406801,-30.42999],[136.406099,-30.429508],[136.405589,-30.429228],[136.405398,-30.429162],[136.404575,-30.428972],[136.403806,-30.428731],[136.403464,-30.428644],[136.402857,-30.428489],[136.402254,-30.428335],[136.401177,-30.42817],[136.400574,-30.428103],[136.400279,-30.428155],[136.399941,-30.428199],[136.399859,-30.428182],[136.399741,-30.428109],[136.399663,-30.428092]]}},{"type":"Feature","properties":{"tier":"arterial"},"geometry":{"type":"LineString","coordinates":[[136.399663,-30.428092],[136.399232,-30.427259],[136.399082,-30.426863],[136.399047,-30.42671],[136.398999,-30.426387],[136.398978,-30.425968],[136.399022,-30.425656],[136.399188,-30.424826],[136.399248,-30.424445],[136.399257,-30.424289],[136.39923,-30.423494],[136.399135,-30.422623],[136.398947,-30.421658],[136.398845,-30.421111],[136.398841,-30.420868],[136.398941,-30.41984],[136.39926,-30.417606],[136.399284,-30.417103],[136.399309,-30.416597],[136.399329,-30.415966],[136.399346,-30.415766],[136.399383,-30.415571],[136.399756,-30.413659],[136.400002,-30.412731],[136.400204,-30.411419],[136.400291,-30.411033],[136.400388,-30.410619],[136.400489,-30.410215],[136.400519,-30.409828],[136.400529,-30.408884],[136.400572,-30.40844],[136.400696,-30.407773],[136.400837,-30.40719],[136.400938,-30.40687],[136.401218,-30.405737],[136.401333,-30.405345],[136.401526,-30.404897],[136.401745,-30.404481],[136.402557,-30.403081],[136.402671,-30.402826],[136.402726,-30.402587],[136.402784,-30.402127],[136.403157,-30.399184],[136.403699,-30.39543],[136.403801,-30.394822],[136.403883,-30.39447],[136.404132,-30.39377],[136.404848,-30.392016],[136.405197,-30.391067],[136.405493,-30.390202],[136.405559,-30.389902],[136.40559,-30.389587],[136.405601,-30.388957],[136.405581,-30.388563],[136.405665,-30.388237],[136.405887,-30.387632],[136.406155,-30.386521],[136.406252,-30.386114],[136.40636,-30.385425],[136.406412,-30.384937],[136.406403,-30.384044],[136.406348,-30.383299],[136.406225,-30.382456],[136.406054,-30.381653],[136.405642,-30.380551],[136.4055,-30.380154],[136.40516,-30.379261],[136.404884,-30.378628],[136.404718,-30.378356],[136.40378,-30.376884],[136.402586,-30.375316],[136.401018,-30.372699],[136.398953,-30.36936],[136.397204,-30.366614],[136.393277,-30.360406],[136.390822,-30.356551],[136.38999,-30.355366],[136.388612,-30.353048],[136.385317,-30.347941],[136.384427,-30.347033],[136.377174,-30.340833],[136.373256,-30.338328],[136.372786,-30.3379],[136.372402,-30.337392],[136.37172,-30.33615],[136.37096,-30.334458],[136.37077,-30.33425],[136.37056,-30.334149],[136.370257,-30.334055],[136.369976,-30.334018],[136.368804,-30.334024],[136.367856,-30.333921],[136.367008,-30.33376],[136.365929,-30.333524],[136.362166,-30.332346],[136.361712,-30.332053],[136.36138,-30.331731],[136.360636,-30.3309],[136.359895,-30.329921],[136.357617,-30.326261],[136.356743,-30.324538],[136.356703,-30.324464]]}},{"type":"Feature","properties":{"tier":"arterial"},"geometry":{"type":"LineString","coordinates":[[136.399663,-30.428092],[136.39978,-30.428445],[136.399937,-30.429323],[136.400048,-30.429576],[136.400504,-30.430152],[136.400784,-30.430501],[136.401069,-30.430815],[136.401471,-30.431004],[136.401658,-30.431164],[136.401734,-30.431334],[136.401725,-30.431542],[136.40162,-30.431979],[136.401573,-30.43244],[136.401516,-30.433021],[136.401197,-30.433873],[136.400866,-30.434417],[136.400546,-30.434977],[136.400016,-30.436145],[136.399849,-30.436609],[136.399154,-30.438798],[136.398789,-30.43944],[136.398208,-30.440288],[136.397967,-30.440723],[136.397858,-30.440903],[136.397675,-30.441086],[136.397215,-30.441377],[136.39643,-30.441909],[136.395384,-30.442806],[136.394788,-30.443442],[136.39328,-30.4457],[136.392114,-30.447266],[136.39096,-30.448611],[136.390031,-30.449935],[136.389688,-30.450223],[136.389207,-30.45044],[136.388495,-30.450682],[136.386643,-30.451201],[136.384161,-30.451829],[136.383687,-30.451968],[136.383348,-30.452155],[136.381894,-30.45313],[136.380546,-30.453888],[136.37979,-30.454357],[136.379376,-30.454623],[136.378618,-30.454893],[136.378221,-30.455104],[136.377728,-30.455533],[136.377134,-30.456183],[136.370369,-30.466194],[136.369462,-30.467494],[136.367921,-30.470024],[136.366546,-30.472353],[136.36624,-30.47295],[136.366002,-30.473546],[136.364744,-30.477061],[136.364011,-30.478643],[136.363986,-30.478855],[136.364,-30.479006],[136.36412,-30.479143],[136.364133,-30.479157],[136.365317,-30.479869],[136.365754,-30.480209],[136.366158,-30.480628],[136.366515,-30.48107],[136.366872,-30.481708],[136.367031,-30.482185],[136.367132,-30.482736],[136.36715,-30.483413],[136.366929,-30.486783],[136.366915,-30.487039],[136.366973,-30.487381],[136.367174,-30.487936],[136.367867,-30.489808],[136.368088,-30.490392],[136.370051,-30.495587],[136.371707,-30.50002]]}},{"type":"Feature","properties":{"tier":"arterial"},"geometry":{"type":"LineString","coordinates":[[136.50002,-30.494452],[136.498529,-30.493683],[136.497516,-30.492143],[136.497188,-30.491168],[136.49736,-30.490033],[136.496422,-30.488416],[136.494523,-30.487871],[136.493183,-30.487069],[136.49255,-30.486498],[136.492163,-30.48601],[136.491255,-30.485753],[136.4906,-30.48583],[136.489729,-30.48576],[136.488805,-30.485946],[136.487875,-30.48592],[136.487033,-30.485574],[136.486587,-30.485215],[136.486088,-30.485157],[136.484673,-30.485182],[136.48378,-30.485054],[136.480244,-30.484181],[136.479819,-30.483906],[136.47929,-30.482693],[136.478688,-30.481808],[136.477824,-30.481378],[136.477057,-30.481166],[136.476595,-30.480736],[136.475486,-30.480377],[136.474622,-30.480206],[136.473841,-30.479819]]}},{"type":"Feature","properties":{"tier":"arterial"},"geometry":{"type":"LineString","coordinates":[[135.99998,-30.026151],[136.002136,-30.02512],[136.007317,-30.022644],[136.010467,-30.02112],[136.010967,-30.020978],[136.011589,-30.020886],[136.012459,-30.020756],[136.012772,-30.020675],[136.013087,-30.020573],[136.013345,-30.020448],[136.013662,-30.020247],[136.013888,-30.020126],[136.014166,-30.020036],[136.014563,-30.019948],[136.015175,-30.019811],[136.015494,-30.019684],[136.015774,-30.019513],[136.016215,-30.019015],[136.01691,-30.018146],[136.017319,-30.017699],[136.017492,-30.017486],[136.017656,-30.017199],[136.017797,-30.016859],[136.018047,-30.016399],[136.018421,-30.015708],[136.018659,-30.015407],[136.018946,-30.015267],[136.019308,-30.01519],[136.019833,-30.01515],[136.020179,-30.015095],[136.02062,-30.014926],[136.021206,-30.01458],[136.022152,-30.014153],[136.033292,-30.009228],[136.036714,-30.007608],[136.037307,-30.007395],[136.037666,-30.007302],[136.037857,-30.007267],[136.038069,-30.00725],[136.038278,-30.007251],[136.038594,-30.007255],[136.038836,-30.00725],[136.039041,-30.007234],[136.039286,-30.007188],[136.039501,-30.007137],[136.039666,-30.007086],[136.039812,-30.007017],[136.039998,-30.006931],[136.040132,-30.006849],[136.040517,-30.006628],[136.040988,-30.006317],[136.0412,-30.00616],[136.042071,-30.005471],[136.042371,-30.005288],[136.04285,-30.005101],[136.04336,-30.00495],[136.043849,-30.004895],[136.044074,-30.00483],[136.044205,-30.004758],[136.044305,-30.004624],[136.044431,-30.004452],[136.044592,-30.00421],[136.044702,-30.004045],[136.044884,-30.003862],[136.045458,-30.003441],[136.045753,-30.003204],[136.045914,-30.002991],[136.04608,-30.002782],[136.04633,-30.002422],[136.046509,-30.002168],[136.046649,-30.001973],[136.046831,-30.00172],[136.047097,-30.001358],[136.047301,-30.001095],[136.04773,-30.000473],[136.047975,-30.000158],[136.048109,-29.99998]]}},{"type":"Feature","properties":{"tier":"arterial"},"geometry":{"type":"LineString","coordinates":[[136.295204,-29.99998],[136.295864,-30.001969],[136.296711,-30.004468],[136.297146,-30.005736],[136.297529,-30.006884],[136.297655,-30.007402],[136.297811,-30.008136],[136.297934,-30.009081],[136.298077,-30.01008],[136.29831,-30.011606],[136.298404,-30.012086],[136.298656,-30.013786],[136.298795,-30.014625],[136.29882,-30.014874],[136.298822,-30.015041],[136.298801,-30.015189],[136.298763,-30.015331],[136.297961,-30.017319],[136.2971,-30.019463],[136.296743,-30.020382],[136.296682,-30.020566],[136.296647,-30.020712],[136.296641,-30.020896],[136.296666,-30.021044],[136.296781,-30.021365],[136.297358,-30.022716],[136.297444,-30.022951],[136.297511,-30.023146],[136.297545,-30.023343],[136.297556,-30.023538],[136.297532,-30.023757],[136.297274,-30.024739],[136.297055,-30.025666],[136.296545,-30.027779],[136.296317,-30.028745],[136.296151,-30.029442],[136.296043,-30.029959],[136.295955,-30.030482],[136.295743,-30.032251],[136.2957,-30.03272],[136.295687,-30.032839],[136.295655,-30.032982],[136.295668,-30.033136],[136.2957,-30.033244],[136.295743,-30.033354],[136.295833,-30.033483],[136.295915,-30.03358],[136.296041,-30.033677],[136.29629,-30.033898],[136.296789,-30.034311],[136.297148,-30.034643],[136.297377,-30.034859],[136.29758,-30.03508],[136.297731,-30.035261],[136.297916,-30.035498],[136.29813,-30.035765],[136.29964,-30.037715],[136.300399,-30.038667],[136.300999,-30.039483],[136.30134,-30.03989],[136.301419,-30.039986],[136.301466,-30.040034],[136.301518,-30.040072],[136.301603,-30.040118],[136.301671,-30.040139],[136.30174,-30.040161],[136.301791,-30.040175],[136.301826,-30.040179],[136.301876,-30.040184],[136.301945,-30.040187],[136.302848,-30.04015],[136.303819,-30.040103],[136.304496,-30.040131],[136.305933,-30.04032],[136.307018,-30.040474],[136.307077,-30.040492],[136.307145,-30.040515],[136.307214,-30.040543],[136.307296,-30.040583],[136.307515,-30.040709],[136.307936,-30.040924],[136.308336,-30.041133],[136.308599,-30.041296],[136.308827,-30.041432],[136.309076,-30.041577],[136.309358,-30.041762],[136.309578,-30.041929],[136.309881,-30.042159],[136.309978,-30.042237],[136.31011,-30.042336],[136.310259,-30.042434],[136.310372,-30.042494],[136.310542,-30.042584],[136.310884,-30.042732],[136.311455,-30.042963],[136.312565,-30.043428],[136.313817,-30.043937],[136.313963,-30.043995],[136.314174,-30.044065],[136.314372,-30.044129],[136.315746,-30.044528],[136.317161,-30.044951],[136.317342,-30.045011],[136.317472,-30.04507],[136.317569,-30.045123],[136.317663,-30.045183],[136.317731,-30.045234],[136.317814,-30.045304],[136.318051,-30.04551],[136.319075,-30.046246],[136.321152,-30.047293],[136.322077,-30.04787],[136.323925,-30.049252],[136.325242,-30.050139],[136.326376,-30.050934],[136.329265,-30.053655],[136.331305,-30.05627],[136.332788,-30.057839],[136.333206,-30.058459],[136.3351,-30.062608],[136.335721,-30.063479],[136.336072,-30.063835],[136.336596,-30.064179],[136.33839,-30.065193],[136.33917,-30.065932],[136.343382,-30.070971],[136.343804,-30.071597],[136.344317,-30.073015],[136.345834,-30.077737],[136.34646,-30.079354],[136.347394,-30.081776],[136.347714,-30.08339],[136.347951,-30.084626],[136.348149,-30.085358],[136.348171,-30.085995],[136.348032,-30.086647],[136.34781,-30.087489],[136.347654,-30.088742],[136.347618,-30.090365],[136.347668,-30.091492],[136.347937,-30.092799],[136.348125,-30.093914],[136.348192,-30.094538],[136.348171,-30.095353],[136.348036,-30.096792],[136.347702,-30.098537],[136.34744,-30.099526],[136.346454,-30.102314],[136.346423,-30.102818],[136.34638,-30.103572],[136.34642,-30.104388],[136.346368,-30.104788],[136.346177,-30.105665],[136.3461,-30.106434],[136.346128,-30.107922],[136.346102,-30.108849],[136.345866,-30.110428],[136.345012,-30.112344],[136.344435,-30.114679],[136.343796,-30.11654],[136.342821,-30.119285],[136.34211,-30.121284],[136.339779,-30.127751],[136.337631,-30.133822],[136.336105,-30.13804],[136.33536,-30.140162],[136.334889,-30.141604],[136.334398,-30.143193],[136.333896,-30.144625],[136.333648,-30.145385],[136.333401,-30.146285],[136.333114,-30.147669],[136.333004,-30.148515],[136.332918,-30.149455],[136.332942,-30.150059],[136.33295,-30.150378],[136.332883,-30.150911],[136.332683,-30.151742],[136.332176,-30.153096],[136.33158,-30.154556],[136.331317,-30.155635],[136.330548,-30.160032],[136.331557,-30.164055],[136.332803,-30.166601],[136.333513,-30.169164],[136.333677,-30.170496],[136.333667,-30.170772],[136.333661,-30.171122],[136.333597,-30.171477],[136.333508,-30.17186],[136.33338,-30.172556],[136.333061,-30.174315],[136.332843,-30.175408],[136.332433,-30.177374],[136.332277,-30.177975],[136.33222,-30.178252],[136.332188,-30.178424],[136.33217,-30.178506],[136.332155,-30.178617],[136.332122,-30.178897],[136.332087,-30.179681],[136.332095,-30.180077],[136.332098,-30.181244],[136.332122,-30.182225],[136.332124,-30.182528],[136.332154,-30.182913],[136.332191,-30.183157],[136.332226,-30.183349],[136.332288,-30.183632],[136.33235,-30.184012],[136.332401,-30.184875],[136.332398,-30.185461],[136.332371,-30.18586],[136.332334,-30.186166],[136.332285,-30.186377],[136.33221,-30.186637],[136.332141,-30.186882],[136.331974,-30.187309],[136.331626,-30.188065],[136.331245,-30.188811],[136.330917,-30.1894],[136.330569,-30.190119],[136.330376,-30.190546],[136.330274,-30.190731],[136.33015,-30.190856],[136.330032,-30.191005],[136.329846,-30.191109],[136.32882,-30.191709],[136.328517,-30.191872],[136.328163,-30.192011],[136.327884,-30.192117],[136.327605,-30.192257],[136.327428,-30.1924],[136.327283,-30.192546],[136.32709,-30.192873],[136.326932,-30.19333],[136.326763,-30.194028],[136.32665,-30.194443],[136.326567,-30.194811],[136.326492,-30.195059],[136.326398,-30.195247],[136.326191,-30.195498],[136.325912,-30.195889],[136.325521,-30.196413],[136.325346,-30.196624],[136.325177,-30.196847],[136.324907,-30.197463],[136.324351,-30.198929],[136.323294,-30.202364],[136.32321,-30.202817],[136.32322,-30.203248],[136.323488,-30.20532],[136.323583,-30.206688],[136.323692,-30.208874],[136.323732,-30.209253],[136.323802,-30.209591],[136.324859,-30.212474],[136.326851,-30.218279],[136.32821,-30.222282],[136.328426,-30.223198],[136.32892,-30.228269],[136.329803,-30.239547],[136.331108,-30.245522],[136.332323,-30.251056],[136.333671,-30.257014],[136.334866,-30.262557],[136.335322,-30.264739],[136.336451,-30.270682],[136.338078,-30.277715],[136.34089,-30.289741],[136.34174,-30.292511],[136.342546,-30.294455],[136.342658,-30.294771],[136.342703,-30.295123],[136.342847,-30.297825],[136.342783,-30.298133],[136.342767,-30.298353],[136.34282,-30.298572],[136.344658,-30.30256],[136.344744,-30.302835],[136.344819,-30.304227],[136.344948,-30.304815],[136.34516,-30.305287],[136.345372,-30.305799],[136.345772,-30.307097],[136.34601,-30.307812],[136.346308,-30.30834],[136.346646,-30.308743],[136.347451,-30.30962],[136.349661,-30.311838],[136.350052,-30.312278],[136.350439,-30.312825],[136.350599,-30.313256],[136.350651,-30.313651],[136.350664,-30.314412],[136.350726,-30.315001],[136.350887,-30.31562],[136.351393,-30.317016],[136.351627,-30.317426],[136.352625,-30.31883],[136.353771,-30.320352],[136.356328,-30.323763],[136.356703,-30.324464]]}}]}
