{"type":"FeatureCollection","features":[{"type":"Feature","properties":{"tier":"regional"},"geometry":{"type":"LineString","coordinates":[[136.909217,-26.50002],[136.90915,-26.49941],[136.90847,-26.49769],[136.907813,-26.496547],[136.90585,-26.49417],[136.90443,-26.4928],[136.90272,-26.49136],[136.90068,-26.48975],[136.89926,-26.48834],[136.89785,-26.48638],[136.89619,-26.48306],[136.89482,-26.47993],[136.89345,-26.47654],[136.89218,-26.47229],[136.89094,-26.46765],[136.88995,-26.46523],[136.88896,-26.4619],[136.88538,-26.45667],[136.881615,-26.449152],[136.881452,-26.448938],[136.881151,-26.448698],[136.880655,-26.448412],[136.880164,-26.448064],[136.87965,-26.44759],[136.876986,-26.445146],[136.876388,-26.444805],[136.875814,-26.44455],[136.875521,-26.444418],[136.875194,-26.444387],[136.874988,-26.444385],[136.874687,-26.444418],[136.87425,-26.444536],[136.87368,-26.444652],[136.87295,-26.44471],[136.871569,-26.444788],[136.87027,-26.4451],[136.870082,-26.445146],[136.869865,-26.445237],[136.869545,-26.445403],[136.869229,-26.445605],[136.868813,-26.445785],[136.868478,-26.445926],[136.868159,-26.445984],[136.867915,-26.445979],[136.867574,-26.44595],[136.867263,-26.445883],[136.86613,-26.44568],[136.86356,-26.44512],[136.86113,-26.44516],[136.858613,-26.4453],[136.858039,-26.445321],[136.857463,-26.445343],[136.856647,-26.445352],[136.856303,-26.445369],[136.856006,-26.445374],[136.855753,-26.445319],[136.855474,-26.445187],[136.855177,-26.444954],[136.854981,-26.444699],[136.854858,-26.444413],[136.85479,-26.443988],[136.85478,-26.443549],[136.854841,-26.443109],[136.854973,-26.442607],[136.855185,-26.441981],[136.855356,-26.441421],[136.855375,-26.441118],[136.855372,-26.440938],[136.85533,-26.440736],[136.855252,-26.440537],[136.85259,-26.43478],[136.85156,-26.43257],[136.84688,-26.42238],[136.84618,-26.41984],[136.845633,-26.417739],[136.845116,-26.416242],[136.844593,-26.414683],[136.844518,-26.413467],[136.844445,-26.413117],[136.844104,-26.412382],[136.84384,-26.41201],[136.843396,-26.411358],[136.842927,-26.410801],[136.842313,-26.410263],[136.84165,-26.40978],[136.84131,-26.409403],[136.841116,-26.409094],[136.84038,-26.40727],[136.839931,-26.40602],[136.838413,-26.402052],[136.83779,-26.40028],[136.83654,-26.3962],[136.836407,-26.395627],[136.836197,-26.39495],[136.835967,-26.394513],[136.835334,-26.39346],[136.834797,-26.392475],[136.834395,-26.391735],[136.83429,-26.39135],[136.833789,-26.388232],[136.83352,-26.38708],[136.83294,-26.38521],[136.83118,-26.38036],[136.82976,-26.37626],[136.829122,-26.374838],[136.828623,-26.37392],[136.82804,-26.373],[136.82695,-26.37107],[136.826332,-26.370003],[136.826069,-26.369465],[136.8259,-26.36897],[136.82489,-26.36592],[136.82422,-26.3635],[136.82304,-26.35839],[136.822934,-26.357677],[136.822773,-26.35718],[136.822572,-26.356757],[136.822228,-26.356281],[136.82182,-26.35528],[136.81948,-26.35021],[136.819294,-26.349811],[136.818994,-26.349263],[136.81853,-26.348566],[136.816778,-26.345835],[136.816585,-26.345383],[136.816295,-26.344927],[136.81603,-26.344641],[136.815732,-26.34423],[136.815555,-26.34384],[136.815448,-26.343528],[136.81513,-26.34283],[136.814901,-26.342391],[136.814624,-26.342025],[136.814281,-26.34173],[136.813865,-26.341509],[136.813439,-26.341338],[136.812497,-26.341037],[136.811939,-26.340778],[136.811317,-26.340412],[136.81083,-26.34004],[136.80897,-26.33713],[136.80747,-26.33532],[136.80487,-26.33122],[136.80382,-26.32927],[136.802668,-26.327343],[136.802471,-26.325606],[136.80217,-26.32485],[136.801476,-26.323642],[136.800771,-26.323125]]}},{"type":"Feature","properties":{"tier":"regional"},"geometry":{"type":"LineString","coordinates":[[136.49998,-26.319248],[136.50575,-26.31936],[136.51942,-26.31951],[136.52238,-26.31949],[136.524908,-26.31955],[136.525879,-26.319573],[136.52871,-26.31964],[136.53592,-26.31972],[136.54263,-26.31981],[136.54804,-26.31992],[136.55369,-26.31998],[136.55879,-26.32007],[136.56527,-26.32011],[136.57171,-26.32015],[136.57808,-26.32024],[136.58493,-26.32035],[136.59016,-26.32043],[136.59806,-26.32054],[136.60407,-26.32062],[136.61102,-26.32069],[136.6178,-26.32067],[136.62398,-26.32069],[136.62952,-26.32073],[136.63542,-26.32077],[136.64158,-26.32084],[136.6469,-26.3209],[136.65321,-26.32101],[136.6602,-26.32112],[136.66724,-26.32116],[136.6729,-26.32127],[136.67833,-26.32135],[136.68421,-26.32142],[136.68953,-26.32153],[136.69591,-26.32163],[136.70174,-26.3217],[136.70831,-26.3218],[136.7137,-26.32195],[136.7214,-26.3221],[136.72747,-26.32223],[136.73322,-26.32234],[136.7391,-26.32243],[136.74494,-26.32251],[136.74998,-26.32262],[136.7576,-26.32279],[136.76386,-26.32294],[136.76991,-26.32303],[136.775,-26.32303],[136.78131,-26.32305],[136.78775,-26.32309],[136.7935,-26.32313],[136.79852,-26.32311],[136.800771,-26.323125]]}},{"type":"Feature","properties":{"tier":"regional"},"geometry":{"type":"LineString","coordinates":[[136.49998,-26.205243],[136.504944,-26.204273],[136.5056,-26.204138],[136.505783,-26.20406],[136.506363,-26.20401],[136.507324,-26.203848],[136.507858,-26.203691],[136.508316,-26.203657],[136.50943,-26.203465],[136.510712,-26.203167],[136.511444,-26.20307],[136.515244,-26.202362],[136.515518,-26.202242],[136.515945,-26.202164],[136.516434,-26.202141],[136.518143,-26.201817],[136.518845,-26.201611],[136.519318,-26.201597],[136.523407,-26.200798],[136.523727,-26.200727],[136.524109,-26.200558],[136.524826,-26.200596],[136.525513,-26.200409],[136.528412,-26.199877],[136.528732,-26.199774],[136.528961,-26.199755],[136.529175,-26.19964],[136.529388,-26.199654],[136.529617,-26.199587],[136.529892,-26.199596],[136.530319,-26.199463],[136.53212,-26.199181],[136.53389,-26.198835],[136.53418,-26.198795],[136.534424,-26.198826],[136.534729,-26.198668],[136.535156,-26.198645],[136.535934,-26.198448],[136.537811,-26.198112],[136.538437,-26.19796],[136.542007,-26.197298],[136.54277,-26.197193],[136.54512,-26.196745],[136.545471,-26.196632],[136.54715,-26.196362],[136.548569,-26.196049],[136.548782,-26.196047],[136.55011,-26.195787],[136.550354,-26.195782],[136.550858,-26.195641],[136.554932,-26.194866],[136.555267,-26.194836],[136.555801,-26.194715],[136.556351,-26.194506],[136.556931,-26.194529],[136.557251,-26.194471],[136.559128,-26.194044],[136.566055,-26.192654],[136.566238,-26.192608],[136.566681,-26.192383],[136.56694,-26.192362],[136.567291,-26.192425],[136.567932,-26.192263],[136.571716,-26.191526],[136.573975,-26.191021],[136.574188,-26.190929],[136.575165,-26.19088],[136.575623,-26.190695],[136.579575,-26.189865],[136.579971,-26.1898],[136.583237,-26.189093],[136.584106,-26.188946],[136.584518,-26.188847],[136.584671,-26.188738],[136.585159,-26.188755],[136.585388,-26.188658],[136.586212,-26.188503],[136.586395,-26.188345],[136.586838,-26.188347],[136.588791,-26.187946],[136.589752,-26.187811],[136.590668,-26.187582],[136.591476,-26.187471],[136.591766,-26.187336],[136.592056,-26.187338],[136.594955,-26.186768],[136.596085,-26.186588],[136.596619,-26.186455],[136.596909,-26.186436],[136.597214,-26.186287],[136.597534,-26.18631],[136.598648,-26.186083],[136.598877,-26.185923],[136.59903,-26.185871],[136.599625,-26.185888],[136.602264,-26.185389],[136.602524,-26.185436],[136.602905,-26.185421],[136.603455,-26.185175],[136.608231,-26.184259],[136.608536,-26.184055],[136.608856,-26.184128],[136.609268,-26.184101],[136.609879,-26.183941],[136.613632,-26.183249],[136.613937,-26.1831],[136.614426,-26.183155],[136.616257,-26.182724],[136.618439,-26.182304],[136.618652,-26.182299],[136.619781,-26.182091],[136.619949,-26.182043],[136.620117,-26.181927],[136.620361,-26.181963],[136.62059,-26.181938],[136.628494,-26.180372],[136.630569,-26.180031],[136.63089,-26.179935],[136.631775,-26.179781],[136.631943,-26.179707],[136.632278,-26.179697],[136.632462,-26.179609],[136.632645,-26.179623],[136.636185,-26.178968],[136.636566,-26.178993],[136.636963,-26.178822],[136.640106,-26.17823],[136.64035,-26.178274],[136.640488,-26.178131],[136.640945,-26.178022],[136.641357,-26.178024],[136.642609,-26.177809],[136.643326,-26.177631],[136.644257,-26.17749],[136.644501,-26.177216],[136.644791,-26.177242],[136.646088,-26.177155],[136.64856,-26.176655],[136.64888,-26.176529],[136.649292,-26.176523],[136.65036,-26.176315],[136.650574,-26.176214],[136.650833,-26.176249],[136.651138,-26.176208],[136.651657,-26.176098],[136.651901,-26.176004],[136.65271,-26.175867],[136.653091,-26.175848],[136.653305,-26.175848],[136.653412,-26.17577],[136.655502,-26.175411],[136.655731,-26.175453],[136.656143,-26.175257],[136.656494,-26.17518],[136.659286,-26.174688],[136.660782,-26.17437],[136.661591,-26.174255],[136.661957,-26.174082],[136.662354,-26.173975],[136.662918,-26.173996],[136.664551,-26.173632],[136.664871,-26.173609],[136.66571,-26.173443],[136.66597,-26.173321],[136.666336,-26.17325],[136.666702,-26.173063],[136.667007,-26.172737],[136.667633,-26.172676],[136.667831,-26.172501],[136.667984,-26.172438],[136.668167,-26.17244],[136.668457,-26.172619],[136.669052,-26.172546],[136.669373,-26.172688],[136.669617,-26.172688],[136.67128,-26.17239],[136.671539,-26.172302],[136.672226,-26.172243],[136.673187,-26.172001],[136.67392,-26.171873],[136.674164,-26.171787],[136.674469,-26.171782],[136.676804,-26.171352],[136.680252,-26.170645],[136.68074,-26.170586],[136.681015,-26.170494],[136.681381,-26.170464],[136.684982,-26.169794],[136.685715,-26.169596],[136.685715,-26.169594],[136.686264,-26.169535],[136.687042,-26.169373],[136.687912,-26.169348],[136.688232,-26.169147],[136.689346,-26.168964],[136.689774,-26.168793],[136.689911,-26.168819],[136.690399,-26.168772],[136.69075,-26.16864],[136.691147,-26.168633],[136.692474,-26.168335],[136.693268,-26.168228],[136.699112,-26.167145],[136.700882,-26.166771],[136.701111,-26.166689],[136.701355,-26.166702],[136.701981,-26.166571],[136.702652,-26.166508],[136.702866,-26.16642],[136.705276,-26.165976],[136.706223,-26.165758],[136.706558,-26.165792],[136.707092,-26.165503],[136.707626,-26.165337],[136.708862,-26.165262],[136.710175,-26.165051],[136.710449,-26.164953],[136.713623,-26.164371],[136.714172,-26.164345],[136.715515,-26.163982],[136.718689,-26.163448],[136.719269,-26.163342],[136.719574,-26.163237],[136.72023,-26.163172],[136.720718,-26.163034],[136.72171,-26.162874],[136.72171,-26.162872],[136.721756,-26.162798],[136.724197,-26.162376],[136.724426,-26.162256],[136.724823,-26.162323],[136.725037,-26.162201],[136.725571,-26.162165],[136.725815,-26.161993],[136.72612,-26.161972],[136.726807,-26.16189],[136.727203,-26.161768],[136.728516,-26.161594],[136.72876,-26.161493],[136.729248,-26.161444],[136.729996,-26.161259],[136.730515,-26.161074],[136.730942,-26.161091],[136.731461,-26.161003],[136.732544,-26.160738],[136.735123,-26.160282],[136.735367,-26.160194],[136.73616,-26.160088],[136.736542,-26.159992],[136.736984,-26.159805],[136.737503,-26.159512],[136.737869,-26.159418],[136.738052,-26.159416],[136.738373,-26.159193],[136.738693,-26.159082],[136.739563,-26.159063],[136.739899,-26.159126],[136.740143,-26.159243],[136.740402,-26.1593],[136.746277,-26.158211],[136.746979,-26.158035],[136.747223,-26.158043],[136.747849,-26.157843],[136.748245,-26.157825],[136.749329,-26.157597],[136.749466,-26.15749],[136.749588,-26.157173],[136.74968,-26.157133],[136.750122,-26.157345],[136.750595,-26.15736],[136.752411,-26.156994],[136.752823,-26.156946],[136.75322,-26.156788],[136.753601,-26.156775],[136.755478,-26.156425],[136.755753,-26.156382],[136.755997,-26.156303],[136.756638,-26.156227],[136.759537,-26.155609],[136.760269,-26.155516],[136.760941,-26.155359],[136.766571,-26.15432],[136.766876,-26.154224],[136.767731,-26.154102],[136.768402,-26.153936],[136.772476,-26.153187],[136.772964,-26.15307],[136.773788,-26.152685],[136.77475,-26.152723],[136.775787,-26.152557],[136.778915,-26.151928],[136.780228,-26.151741],[136.780991,-26.151558],[136.783661,-26.151064],[136.784576,-26.150841],[136.78566,-26.150131],[136.786041,-26.149952],[136.786392,-26.150026],[136.786774,-26.150261],[136.787048,-26.150352],[136.787384,-26.150373],[136.787735,-26.15027],[136.789062,-26.150042],[136.790359,-26.149755],[136.7939,-26.149109],[136.79425,-26.14889],[136.794678,-26.148268],[136.794937,-26.148155],[136.795486,-26.148275],[136.796555,-26.149244],[136.796829,-26.149303],[136.797211,-26.149227],[136.79747,-26.149071],[136.79805,-26.148243],[136.798279,-26.14809],[136.798508,-26.148043],[136.799072,-26.148071],[136.799973,-26.148026],[136.800552,-26.148031],[136.801483,-26.148207],[136.801697,-26.14818],[136.801941,-26.148054],[136.802139,-26.147829],[136.802399,-26.147688],[136.802612,-26.147448],[136.802902,-26.147331],[136.803055,-26.147367],[136.803452,-26.147148],[136.80368,-26.147106],[136.80394,-26.147169],[136.804398,-26.1471],[136.80896,-26.146231],[136.809359,-26.146145],[136.809555,-26.146103],[136.80986,-26.145884],[136.81041,-26.146049],[136.810745,-26.146286],[136.811035,-26.146406],[136.811264,-26.146397],[136.811462,-26.146276],[136.81192,-26.146095],[136.812683,-26.14554],[136.813766,-26.1453],[136.814423,-26.144861],[136.814819,-26.144495],[136.815048,-26.144381],[136.815323,-26.1444],[136.816025,-26.144867],[136.816589,-26.144814],[136.81868,-26.144377],[136.818848,-26.144295],[136.819717,-26.143639],[136.819824,-26.143608],[136.82019,-26.143705],[136.821091,-26.144293],[136.82135,-26.144358],[136.821609,-26.144333],[136.822403,-26.143921],[136.822769,-26.143671],[136.823547,-26.142965],[136.823807,-26.142952],[136.824463,-26.143217],[136.825089,-26.143135],[136.825623,-26.142982],[136.825714,-26.14278],[136.825882,-26.142742],[136.826019,-26.142462],[136.826218,-26.142288],[136.828156,-26.141933],[136.828629,-26.141972],[136.829422,-26.142534],[136.829636,-26.14262],[136.829758,-26.142611],[136.83078,-26.141983],[136.831558,-26.141838],[136.83165,-26.141687],[136.832077,-26.141676],[136.833817,-26.141294],[136.834091,-26.141293],[136.834976,-26.141113],[136.835098,-26.140972],[136.835159,-26.140802],[136.835251,-26.140562],[136.835358,-26.140503],[136.836151,-26.140663],[136.836746,-26.140909],[136.83728,-26.140932],[136.837494,-26.140846],[136.837936,-26.140532],[136.838364,-26.140402],[136.840469,-26.140003],[136.841476,-26.139357],[136.841766,-26.139233],[136.842163,-26.139259],[136.842499,-26.139519],[136.843155,-26.139915],[136.843384,-26.14003],[136.843658,-26.140068],[136.843918,-26.139986],[136.844925,-26.139181],[136.845123,-26.139088],[136.84964,-26.138193],[136.850082,-26.137964],[136.850494,-26.137682],[136.850754,-26.137424],[136.850937,-26.137356],[136.851212,-26.13736],[136.851486,-26.137552],[136.852325,-26.137959],[136.85289,-26.138119],[136.853165,-26.138073],[136.854218,-26.137556],[136.855042,-26.137209],[136.856079,-26.136929],[136.856781,-26.136805],[136.857147,-26.136784],[136.858032,-26.137142],[136.858551,-26.137136],[136.859039,-26.136837],[136.859299,-26.136755],[136.859558,-26.136566],[136.859787,-26.136478],[136.860077,-26.13616],[136.862793,-26.135641],[136.863113,-26.135506],[136.863571,-26.135489],[136.869675,-26.134258],[136.870102,-26.133871],[136.870728,-26.133665],[136.871201,-26.133591],[136.871429,-26.133638],[136.872391,-26.133612],[136.872818,-26.133648],[136.875931,-26.133047],[136.877029,-26.132875],[136.877762,-26.132685],[136.87796,-26.132372],[136.878448,-26.132048],[136.878876,-26.131872],[136.879333,-26.131851],[136.88002,-26.132071],[136.880219,-26.132072],[136.880554,-26.132132],[136.880753,-26.132113],[136.881317,-26.131891],[136.882935,-26.131508],[136.883408,-26.131464],[136.883682,-26.131502],[136.886307,-26.130949],[136.886475,-26.130941],[136.886703,-26.131039],[136.886917,-26.13105],[136.887375,-26.130783],[136.889557,-26.13032],[136.890182,-26.130033],[136.89035,-26.130026],[136.890579,-26.130114],[136.890793,-26.130116],[136.893051,-26.129736],[136.893738,-26.129683],[136.894409,-26.129423],[136.896439,-26.128868],[136.896713,-26.128752],[136.897141,-26.128841],[136.8974,-26.128843],[136.898911,-26.128548],[136.899155,-26.128374],[136.899475,-26.127901],[136.899551,-26.127861],[136.899734,-26.128031],[136.900711,-26.128592],[136.90097,-26.128654],[136.901215,-26.128653],[136.901398,-26.128559],[136.901779,-26.128103],[136.902054,-26.127958],[136.905243,-26.127342],[136.906586,-26.127184],[136.908218,-26.12682],[136.908707,-26.126596],[136.909103,-26.126501],[136.910553,-26.126362],[136.911102,-26.12624],[136.911377,-26.126259],[136.911819,-26.126125],[136.912155,-26.126101],[136.912735,-26.125967],[136.9133,-26.125786],[136.913742,-26.125809],[136.916351,-26.125307],[136.92012,-26.124531],[136.920456,-26.124365],[136.920874,-26.12434],[136.92218,-26.124012],[136.922272,-26.123995],[136.924225,-26.123686],[136.924545,-26.123604],[136.924789,-26.123457],[136.925018,-26.123526],[136.927246,-26.123171],[136.928436,-26.122934],[136.92894,-26.122627],[136.929718,-26.122009],[136.930069,-26.122051],[136.930176,-26.122183],[136.930374,-26.122242],[136.930511,-26.122341],[136.930664,-26.122549],[136.930908,-26.122686],[136.931595,-26.122702],[136.931793,-26.122644],[136.933395,-26.121794],[136.934113,-26.121168],[136.934418,-26.121073],[136.934494,-26.121094],[136.935028,-26.121607],[136.935913,-26.121508],[136.937836,-26.121105],[136.944824,-26.11978],[136.945099,-26.119591],[136.94519,-26.119589],[136.945404,-26.119682],[136.945557,-26.119673],[136.946014,-26.119555],[136.948624,-26.11908],[136.948929,-26.118971],[136.950241,-26.118752],[136.950607,-26.118608],[136.95079,-26.118641],[136.950989,-26.11862],[136.954376,-26.117977],[136.955322,-26.117773],[136.955597,-26.117764],[136.956131,-26.117664],[136.95639,-26.117554],[136.956497,-26.117567],[136.956528,-26.117556],[136.956833,-26.117531],[136.958954,-26.117096],[136.959946,-26.116961],[136.960678,-26.116798],[136.9608,-26.11673],[136.961395,-26.116169],[136.961761,-26.115986],[136.962021,-26.116066],[136.962357,-26.116068],[136.962509,-26.116138],[136.962585,-26.116249],[136.962784,-26.116396],[136.963013,-26.116425],[136.964554,-26.116093],[136.965424,-26.115961],[136.966171,-26.115746],[136.966904,-26.115685],[136.967621,-26.11552],[136.967941,-26.115492],[136.969437,-26.114849],[136.969559,-26.114861],[136.969757,-26.11496],[136.970154,-26.114904],[136.970779,-26.114994],[136.972794,-26.114481],[136.973145,-26.114456],[136.973938,-26.114304],[136.975769,-26.113901],[136.976013,-26.11381],[136.976273,-26.113813],[136.977142,-26.113655],[136.979721,-26.113087],[136.981995,-26.112665],[136.983002,-26.11241],[136.984238,-26.112192],[136.987152,-26.111572],[136.987366,-26.111486],[136.987854,-26.111549],[136.988281,-26.111336],[136.989609,-26.111053],[136.990158,-26.110859],[136.99057,-26.110874],[136.991302,-26.110725],[136.993179,-26.110247],[136.993988,-26.109955],[136.995117,-26.109934],[136.995911,-26.109764],[136.997864,-26.109211],[136.998383,-26.108835],[136.998505,-26.108862],[136.998825,-26.109125],[136.999252,-26.109365],[136.999603,-26.109373],[136.999802,-26.109308],[137.00002,-26.109187]]}}]}
