{"type":"FeatureCollection","features":[{"type":"Feature","properties":{"tier":"arterial"},"geometry":{"type":"LineString","coordinates":[[136.835179,-33.50002],[136.834739,-33.499444],[136.832351,-33.496601],[136.830769,-33.494856],[136.829733,-33.49394]]}},{"type":"Feature","properties":{"tier":"arterial"},"geometry":{"type":"LineString","coordinates":[[136.829733,-33.49394],[136.827035,-33.491708],[136.825533,-33.490451],[136.823806,-33.488988],[136.822381,-33.487851],[136.821134,-33.486809],[136.820515,-33.486303],[136.820174,-33.486025],[136.819707,-33.485635],[136.819163,-33.485182],[136.81843,-33.484581],[136.817564,-33.483835],[136.816927,-33.483314],[136.816743,-33.483147],[136.816623,-33.483033],[136.816507,-33.482909],[136.816397,-33.482788],[136.816291,-33.482672],[136.816156,-33.482492],[136.816043,-33.482332],[136.815955,-33.482194],[136.81581,-33.481956],[136.815677,-33.481686],[136.815554,-33.481391],[136.815477,-33.481169],[136.815424,-33.480992],[136.815389,-33.480864],[136.815328,-33.480554],[136.815295,-33.480273],[136.815278,-33.480032],[136.815276,-33.479779],[136.81529,-33.479559],[136.815312,-33.479353],[136.815351,-33.479111],[136.81541,-33.478848],[136.81548,-33.478591],[136.815554,-33.478362],[136.815662,-33.47808],[136.815786,-33.477853],[136.815919,-33.477629],[136.816143,-33.477283],[136.817738,-33.475082],[136.818869,-33.473523],[136.819566,-33.472563],[136.820779,-33.470901],[136.820916,-33.4707],[136.821016,-33.470532],[136.821127,-33.470332],[136.821223,-33.470145],[136.821908,-33.468612],[136.822875,-33.466401],[136.82302,-33.466056],[136.8231,-33.465846],[136.823206,-33.465515],[136.823303,-33.465207],[136.823438,-33.464632],[136.823688,-33.463544],[136.823897,-33.462571],[136.824095,-33.461697],[136.824189,-33.46136],[136.824279,-33.461043],[136.824394,-33.460675],[136.824573,-33.460163],[136.824811,-33.459535],[136.825031,-33.459028],[136.825175,-33.458711],[136.825658,-33.457761],[136.825749,-33.457553],[136.825829,-33.457354],[136.825919,-33.457051],[136.825975,-33.45683],[136.826013,-33.456601],[136.826047,-33.456361],[136.826067,-33.456077],[136.826061,-33.455807],[136.826042,-33.455525],[136.825992,-33.455192],[136.825915,-33.454862],[136.825812,-33.454539],[136.825659,-33.454167],[136.825505,-33.453872],[136.825375,-33.453639],[136.825179,-33.453347],[136.824967,-33.453089],[136.824802,-33.45291],[136.82461,-33.452719],[136.824441,-33.452568],[136.82426,-33.452415],[136.824103,-33.45229],[136.823913,-33.452152],[136.823493,-33.451876],[136.822421,-33.451164],[136.821687,-33.450645],[136.820445,-33.449732],[136.819096,-33.448743],[136.818562,-33.448345],[136.818303,-33.448141],[136.818102,-33.447958],[136.817937,-33.447798],[136.817791,-33.447636],[136.81762,-33.447436],[136.817461,-33.447232],[136.817295,-33.446973],[136.817164,-33.446753],[136.81703,-33.446493],[136.816936,-33.446266],[136.81684,-33.445978],[136.816739,-33.445633],[136.816451,-33.44441],[136.816369,-33.444164],[136.816274,-33.443932],[136.816156,-33.443703],[136.815987,-33.443431],[136.815809,-33.443184],[136.815664,-33.443007],[136.815534,-33.442863],[136.815412,-33.442732],[136.815202,-33.44254],[136.815047,-33.442402],[136.814874,-33.442276],[136.814694,-33.442148],[136.81451,-33.442027],[136.814299,-33.441904],[136.814068,-33.44179],[136.813852,-33.441687],[136.813647,-33.441608],[136.813432,-33.441533],[136.812917,-33.441392],[136.808064,-33.440068],[136.807352,-33.439872],[136.806935,-33.439746],[136.806613,-33.439639],[136.806332,-33.439532],[136.806009,-33.439393],[136.805722,-33.439254],[136.805512,-33.439133],[136.805223,-33.438962],[136.804971,-33.438783],[136.804724,-33.438607],[136.804484,-33.438422],[136.804283,-33.438246],[136.80412,-33.4381],[136.803953,-33.437925],[136.803807,-33.437767],[136.803647,-33.437576],[136.803511,-33.437394],[136.803362,-33.437166],[136.803183,-33.436869],[136.803045,-33.436615],[136.802949,-33.436409],[136.802836,-33.436129],[136.802768,-33.435915],[136.802711,-33.435719],[136.802658,-33.435487],[136.802613,-33.435229],[136.802572,-33.434915],[136.802554,-33.434642],[136.802557,-33.43435],[136.802569,-33.434108],[136.8026,-33.433835],[136.802639,-33.433571],[136.802705,-33.433294],[136.802796,-33.43294],[136.802848,-33.432706],[136.802891,-33.432414],[136.80292,-33.432131],[136.802945,-33.431814],[136.802955,-33.431076],[136.802954,-33.430425],[136.802922,-33.429859],[136.802879,-33.429433],[136.802837,-33.42906],[136.802798,-33.428706],[136.802742,-33.428348],[136.80264,-33.427802],[136.802571,-33.427379],[136.802538,-33.427056],[136.802517,-33.426758],[136.802509,-33.426447],[136.802512,-33.426132],[136.802528,-33.425829],[136.802552,-33.425469],[136.802621,-33.424903],[136.802729,-33.423949],[136.802831,-33.422975],[136.802967,-33.421717],[136.803043,-33.420987],[136.803065,-33.420751],[136.803109,-33.420272],[136.803189,-33.419514],[136.80323,-33.419116],[136.80337,-33.41766],[136.803485,-33.416633],[136.803753,-33.414011],[136.80378,-33.413722],[136.803802,-33.413454],[136.803815,-33.41314],[136.803853,-33.412534],[136.803863,-33.412117],[136.803874,-33.41158],[136.803863,-33.410969],[136.80386,-33.41055],[136.803826,-33.409596],[136.803776,-33.408929],[136.803744,-33.408589],[136.803704,-33.408188],[136.803665,-33.407906],[136.803622,-33.407603],[136.803571,-33.407293],[136.803494,-33.406818],[136.803436,-33.406504],[136.803362,-33.40615],[136.803272,-33.405758],[136.803166,-33.405315],[136.803104,-33.405042],[136.803055,-33.40479],[136.802993,-33.404479],[136.802947,-33.404226],[136.802894,-33.403979],[136.802729,-33.403292],[136.802562,-33.40246],[136.802439,-33.401878],[136.802283,-33.40121],[136.802104,-33.400384],[136.802006,-33.399876],[136.801841,-33.399132],[136.801689,-33.398384],[136.801612,-33.398044],[136.801575,-33.3978],[136.801546,-33.397559],[136.801538,-33.397355],[136.801541,-33.39708],[136.80153,-33.396714],[136.801506,-33.396426],[136.801469,-33.396187],[136.801428,-33.395947],[136.801364,-33.395703],[136.801291,-33.395509],[136.801209,-33.395307],[136.801125,-33.395114],[136.801014,-33.394892],[136.800826,-33.394513],[136.800611,-33.394078],[136.800387,-33.393602],[136.800187,-33.393186],[136.799945,-33.392679],[136.799769,-33.392275],[136.799573,-33.391805],[136.799257,-33.390968],[136.798942,-33.390174],[136.798654,-33.389395],[136.798307,-33.38852],[136.797831,-33.387324],[136.797713,-33.387008],[136.797625,-33.386706],[136.797364,-33.385741],[136.797231,-33.385302],[136.797053,-33.384858],[136.796963,-33.384673],[136.796887,-33.384516],[136.796654,-33.384084],[136.796367,-33.383573],[136.79597,-33.382885],[136.795473,-33.382001],[136.79518,-33.381492],[136.795129,-33.381404],[136.795004,-33.381197],[136.794862,-33.380988],[136.7948,-33.380901],[136.79465,-33.380688],[136.794379,-33.380325],[136.794052,-33.379958],[136.793786,-33.379664],[136.793416,-33.379304],[136.793008,-33.378941],[136.792708,-33.378699],[136.792362,-33.378446],[136.792027,-33.378213],[136.791681,-33.377991],[136.791303,-33.377779],[136.790822,-33.377525],[136.789723,-33.37701],[136.789343,-33.376811],[136.789037,-33.376651],[136.788634,-33.376356],[136.78843,-33.376191],[136.788129,-33.375915],[136.787837,-33.375608],[136.787639,-33.375348],[136.787494,-33.375147],[136.787247,-33.374737],[136.787062,-33.374363],[136.78674,-33.373527],[136.785935,-33.371332],[136.785455,-33.369988],[136.784753,-33.368237],[136.78332,-33.364803],[136.782961,-33.363969],[136.782773,-33.363566],[136.782577,-33.363216],[136.782395,-33.362925],[136.782202,-33.362676],[136.782038,-33.362477],[136.781805,-33.362253],[136.781559,-33.36202],[136.781298,-33.361837],[136.781038,-33.361653],[136.78072,-33.361462],[136.77496,-33.358018],[136.774406,-33.357684],[136.774138,-33.357495],[136.773894,-33.357299],[136.773623,-33.35707],[136.773405,-33.356865],[136.773214,-33.356673],[136.773046,-33.356468],[136.77289,-33.356259],[136.772758,-33.356054],[136.772624,-33.355819],[136.772491,-33.355557],[136.772384,-33.35533],[136.772295,-33.355104],[136.772215,-33.354857],[136.772145,-33.354632],[136.772059,-33.354265],[136.771882,-33.353513],[136.771764,-33.353057],[136.771682,-33.352717],[136.771633,-33.352512],[136.771512,-33.352011],[136.771446,-33.351812],[136.771356,-33.35158],[136.771258,-33.351356],[136.771148,-33.351134],[136.771036,-33.350939],[136.770938,-33.350771],[136.770855,-33.350634],[136.770743,-33.350468],[136.770632,-33.350314],[136.770493,-33.350137],[136.770322,-33.349949],[136.770171,-33.349787],[136.770051,-33.349668],[136.769899,-33.349527],[136.769764,-33.349402],[136.768488,-33.348327],[136.767029,-33.347059],[136.764207,-33.344619],[136.763813,-33.344276],[136.763365,-33.343895],[136.763029,-33.343646],[136.762699,-33.343413],[136.762254,-33.343117],[136.761509,-33.342624],[136.760987,-33.342279],[136.759973,-33.341618],[136.759183,-33.341107],[136.758542,-33.340692],[136.75783,-33.340212],[136.757256,-33.339838],[136.75608,-33.339075],[136.754986,-33.338354],[136.753576,-33.337437],[136.752592,-33.336776],[136.752369,-33.336615],[136.752171,-33.336462],[136.751979,-33.336299],[136.751787,-33.336114],[136.751629,-33.335946],[136.751472,-33.335763],[136.751339,-33.335602],[136.75122,-33.335446],[136.751091,-33.335263],[136.75063,-33.334615],[136.750285,-33.334142],[136.749942,-33.333667],[136.749504,-33.333061],[136.74856,-33.331756],[136.748296,-33.331425],[136.748093,-33.331197],[136.74791,-33.331002],[136.747723,-33.330825],[136.747567,-33.330685],[136.747355,-33.330514],[136.747148,-33.330363],[136.746923,-33.330203],[136.745865,-33.3295],[136.744903,-33.328849],[136.744473,-33.328556],[136.743954,-33.328212],[136.743311,-33.327786],[136.742951,-33.327551]]}},{"type":"Feature","properties":{"tier":"arterial"},"geometry":{"type":"LineString","coordinates":[[136.7426,-33.327266],[136.742346,-33.327069],[136.742143,-33.326883],[136.741425,-33.326025],[136.739435,-33.323676],[136.738739,-33.323118],[136.738028,-33.32273],[136.732776,-33.320657],[136.731964,-33.320172],[136.72355,-33.314499],[136.719198,-33.310328],[136.712423,-33.303902],[136.707824,-33.299452],[136.707563,-33.29904],[136.706895,-33.296688],[136.706068,-33.292565],[136.705819,-33.291246],[136.70572,-33.290721],[136.705806,-33.290045],[136.706614,-33.286568],[136.707265,-33.284103],[136.70718,-33.283048],[136.706944,-33.282334],[136.706081,-33.281273],[136.701272,-33.278176],[136.700554,-33.277451],[136.699896,-33.2767],[136.697263,-33.272372],[136.693492,-33.266267],[136.690455,-33.259787],[136.689647,-33.258048],[136.689258,-33.25746],[136.688765,-33.256972],[136.683048,-33.252004],[136.682675,-33.25168],[136.682152,-33.251179],[136.681897,-33.250792],[136.681553,-33.250066],[136.681269,-33.249415],[136.679204,-33.242458],[136.678698,-33.24055],[136.678063,-33.238907],[136.677989,-33.238781],[136.677713,-33.238341],[136.676639,-33.237253],[136.675231,-33.236183],[136.672963,-33.234957],[136.671834,-33.234382],[136.668334,-33.233499],[136.666189,-33.232983],[136.665171,-33.232673],[136.656114,-33.229511],[136.649232,-33.226955],[136.64684,-33.226129],[136.645853,-33.225948],[136.643106,-33.225742],[136.642412,-33.225561],[136.641378,-33.225019],[136.639557,-33.224012],[136.633216,-33.217959],[136.632367,-33.217274],[136.631611,-33.216913],[136.629565,-33.216186],[136.62938,-33.216122],[136.628991,-33.21601],[136.627708,-33.215893],[136.613666,-33.215545],[136.610814,-33.215468],[136.610602,-33.215462],[136.60896,-33.215418],[136.608158,-33.215299],[136.607526,-33.215106],[136.6068,-33.214809],[136.601354,-33.212188],[136.60015,-33.211866],[136.599595,-33.211801],[136.589874,-33.21184],[136.576697,-33.21184],[136.572361,-33.211827]]}},{"type":"Feature","properties":{"tier":"arterial"},"geometry":{"type":"LineString","coordinates":[[136.49998,-33.179296],[136.502142,-33.179214],[136.505233,-33.179851],[136.507625,-33.180457],[136.512151,-33.180477],[136.517279,-33.180354],[136.524197,-33.180693],[136.53287,-33.181227],[136.539493,-33.181647],[136.540389,-33.18173],[136.5411,-33.181926],[136.541753,-33.18224],[136.542094,-33.182518],[136.542485,-33.18291],[136.544241,-33.186041],[136.545548,-33.188271],[136.547516,-33.191626],[136.549564,-33.195188],[136.550803,-33.196707],[136.552741,-33.19838],[136.555426,-33.201507],[136.555933,-33.202098],[136.55609,-33.20228],[136.558261,-33.204682],[136.559092,-33.205987],[136.559347,-33.207125],[136.559361,-33.207694],[136.559329,-33.208601],[136.559316,-33.208953],[136.559314,-33.20924],[136.559341,-33.209506],[136.559375,-33.20969],[136.559446,-33.209924],[136.559549,-33.210178],[136.559682,-33.210434],[136.559836,-33.210654],[136.56001,-33.210864],[136.560186,-33.211027],[136.560326,-33.211145],[136.560552,-33.211304],[136.560848,-33.211479],[136.561157,-33.211617],[136.561413,-33.21171],[136.561696,-33.21179],[136.561858,-33.211818],[136.561984,-33.21184],[136.562455,-33.211883],[136.563671,-33.211878],[136.565348,-33.211888],[136.572361,-33.211827]]}},{"type":"Feature","properties":{"tier":"high"},"geometry":{"type":"LineString","coordinates":[[136.846342,-32.99998],[136.842809,-33.003157],[136.841266,-33.004523],[136.839833,-33.005752],[136.838945,-33.006478],[136.838384,-33.006943],[136.837622,-33.007593],[136.837164,-33.007965],[136.836618,-33.008409],[136.836174,-33.008724],[136.835587,-33.009106],[136.835033,-33.009454],[136.834264,-33.009903],[136.818307,-33.019394],[136.812066,-33.02316],[136.811536,-33.02349],[136.810685,-33.024003],[136.810189,-33.024261],[136.809479,-33.024608],[136.808819,-33.024939],[136.808081,-33.02535],[136.807112,-33.025926],[136.800152,-33.030031],[136.795765,-33.032662],[136.793761,-33.033864],[136.780235,-33.041987],[136.77471,-33.045302],[136.770233,-33.047933],[136.769526,-33.048343],[136.768246,-33.049085],[136.764105,-33.051487],[136.75901,-33.054439],[136.758561,-33.054683],[136.758114,-33.054945],[136.757744,-33.055178],[136.757439,-33.055382],[136.75714,-33.055605],[136.756904,-33.055801],[136.756592,-33.056093],[136.753514,-33.059105],[136.753222,-33.059355],[136.752945,-33.05959],[136.752706,-33.059793],[136.752377,-33.060054],[136.752021,-33.060312],[136.751671,-33.060566],[136.751206,-33.060895],[136.748537,-33.062631],[136.747945,-33.06302],[136.747465,-33.063307],[136.7471,-33.063522],[136.7466,-33.063791],[136.744492,-33.064904],[136.739931,-33.067294],[136.735002,-33.069882],[136.730889,-33.072053],[136.729353,-33.072858],[136.728138,-33.073475],[136.727141,-33.074019],[136.725871,-33.074803],[136.716338,-33.080836],[136.709931,-33.08489],[136.70962,-33.085078],[136.709295,-33.085261],[136.708914,-33.085458],[136.708616,-33.085585],[136.708318,-33.08569],[136.708076,-33.085776],[136.707789,-33.085857],[136.707232,-33.085995],[136.70477,-33.08651],[136.700888,-33.087325],[136.696777,-33.088058],[136.692327,-33.088847],[136.685429,-33.090072],[136.685371,-33.090082],[136.684808,-33.090182],[136.684321,-33.090273],[136.683915,-33.09036],[136.683494,-33.090474],[136.683151,-33.090582],[136.682745,-33.090731],[136.682342,-33.090895],[136.678993,-33.092239],[136.6718,-33.09514],[136.666362,-33.097341],[136.657221,-33.101026],[136.645544,-33.105722],[136.638697,-33.108452],[136.633346,-33.110628],[136.631628,-33.111312],[136.630727,-33.11167],[136.628254,-33.112655],[136.623637,-33.114535],[136.623031,-33.114773],[136.622397,-33.115028],[136.621909,-33.11522],[136.621425,-33.115389],[136.621045,-33.11551],[136.620644,-33.115618],[136.620163,-33.115725],[136.614432,-33.117018],[136.609101,-33.118203],[136.604831,-33.119152],[136.59858,-33.120534],[136.598466,-33.12056],[136.598156,-33.120629],[136.597587,-33.120756],[136.593746,-33.121616],[136.580238,-33.124579],[136.579801,-33.124655],[136.579536,-33.124699],[136.579255,-33.124738],[136.578921,-33.124777],[136.57858,-33.124802],[136.576948,-33.124838],[136.566119,-33.124848],[136.507148,-33.1248],[136.506169,-33.124799],[136.49998,-33.124794]]}},{"type":"Feature","properties":{"tier":"arterial"},"geometry":{"type":"LineString","coordinates":[[136.742951,-33.327551],[136.742881,-33.327501],[136.7426,-33.327266]]}}]}
