{"type":"FeatureCollection","features":[{"type":"Feature","properties":{"tier":"arterial"},"geometry":{"type":"LineString","coordinates":[[137.00002,-32.650989],[136.996512,-32.651466],[136.994048,-32.651661],[136.992353,-32.65164],[136.991149,-32.651558],[136.988673,-32.651472],[136.986775,-32.651301],[136.983116,-32.650822],[136.981941,-32.650658],[136.981473,-32.650641],[136.980908,-32.650685],[136.97952,-32.65089],[136.978184,-32.651177],[136.9774,-32.651385],[136.976928,-32.651397],[136.976452,-32.65133],[136.973267,-32.650335],[136.966985,-32.648779],[136.965013,-32.648258],[136.9643,-32.64812],[136.964007,-32.6481],[136.963516,-32.64814],[136.962905,-32.648077],[136.961742,-32.647627],[136.960735,-32.647303],[136.959949,-32.64712],[136.958162,-32.646879],[136.956378,-32.646566],[136.937107,-32.642194],[136.93213,-32.641011],[136.93042,-32.640606],[136.928938,-32.640354],[136.927339,-32.64003],[136.92287,-32.639165],[136.921738,-32.638851],[136.919574,-32.638489],[136.908451,-32.636156],[136.896684,-32.63363],[136.895627,-32.633432],[136.894932,-32.633384],[136.893204,-32.633418],[136.881455,-32.633631],[136.867132,-32.633808],[136.866018,-32.63377],[136.864681,-32.633562],[136.863969,-32.633555],[136.859704,-32.633812],[136.852788,-32.633775],[136.850768,-32.633522],[136.848043,-32.632925],[136.846408,-32.632681],[136.843743,-32.632359],[136.841677,-32.631984],[136.83557,-32.630552],[136.833218,-32.629583],[136.831905,-32.629056],[136.830428,-32.628447],[136.829464,-32.628099],[136.828287,-32.627683],[136.825168,-32.626406],[136.824091,-32.626063],[136.823079,-32.625813],[136.820851,-32.625492],[136.818342,-32.625187],[136.817546,-32.625122],[136.815911,-32.625153],[136.814533,-32.625081],[136.808638,-32.624468],[136.8008,-32.623639],[136.796365,-32.623126],[136.796112,-32.623084],[136.795198,-32.622835],[136.794669,-32.622752],[136.793486,-32.622732],[136.786925,-32.622982],[136.785721,-32.623116],[136.785297,-32.623137],[136.784918,-32.623098],[136.771404,-32.620301],[136.769284,-32.619727],[136.768553,-32.619487],[136.767885,-32.619202],[136.767299,-32.618872],[136.76605,-32.617907],[136.765501,-32.617502],[136.765017,-32.617193],[136.764731,-32.617048],[136.762134,-32.616017],[136.758504,-32.614647],[136.757376,-32.614248],[136.75693,-32.61412],[136.754674,-32.613575],[136.753312,-32.613076],[136.752137,-32.612579],[136.750495,-32.61161],[136.750192,-32.611406],[136.745881,-32.607295],[136.743074,-32.603846],[136.742835,-32.60344],[136.742634,-32.603046],[136.742379,-32.602481],[136.742167,-32.602154],[136.741515,-32.601418],[136.740054,-32.599847],[136.73952,-32.599196],[136.739144,-32.598718],[136.738583,-32.598193],[136.737831,-32.597547],[136.737256,-32.597136],[136.736001,-32.596486],[136.730005,-32.593472],[136.727244,-32.592019],[136.726421,-32.591555],[136.725934,-32.591132],[136.725626,-32.590729],[136.72529,-32.590158],[136.724922,-32.589286],[136.723523,-32.58576],[136.72281,-32.584161],[136.722428,-32.583444],[136.722168,-32.582961],[136.720697,-32.580244],[136.720059,-32.579121],[136.719699,-32.57858],[136.719189,-32.577847],[136.717222,-32.575165],[136.717012,-32.574804],[136.715962,-32.572229],[136.713282,-32.565898],[136.712907,-32.564978],[136.712818,-32.564601],[136.712744,-32.563893],[136.712417,-32.558844],[136.712283,-32.558388],[136.712113,-32.558095],[136.711623,-32.557602],[136.710639,-32.556871],[136.705451,-32.553124],[136.704314,-32.552305],[136.703271,-32.551626],[136.699131,-32.548973],[136.698269,-32.548213],[136.697122,-32.546966],[136.696416,-32.546253],[136.695869,-32.545798],[136.685926,-32.537928],[136.682671,-32.535274],[136.681747,-32.534639],[136.680769,-32.534237],[136.67987,-32.533988],[136.678242,-32.533732],[136.676587,-32.533556],[136.668927,-32.533061],[136.667744,-32.532977],[136.666762,-32.532914],[136.665842,-32.532923],[136.664622,-32.532984],[136.659569,-32.533382],[136.658068,-32.533482],[136.655874,-32.533484],[136.654627,-32.533562],[136.650581,-32.534009],[136.640389,-32.534775],[136.639816,-32.534762],[136.637903,-32.534661],[136.634675,-32.534601],[136.634203,-32.534628],[136.625566,-32.536181],[136.624732,-32.536279],[136.624324,-32.53627],[136.621701,-32.536136],[136.621285,-32.536158],[136.612154,-32.536827],[136.610264,-32.537229],[136.609518,-32.537397],[136.608677,-32.537519],[136.607611,-32.537603],[136.606125,-32.53763],[136.602455,-32.53748],[136.598848,-32.537281],[136.592856,-32.537054],[136.591817,-32.537117],[136.591179,-32.537122],[136.588597,-32.537076],[136.587175,-32.537064],[136.581258,-32.536852],[136.580064,-32.536861],[136.579466,-32.536908],[136.578829,-32.536955],[136.578413,-32.536964],[136.578064,-32.536946],[136.577808,-32.536975],[136.577466,-32.537046],[136.577037,-32.537231],[136.575905,-32.537805],[136.575535,-32.537954],[136.575074,-32.538074],[136.574703,-32.538115],[136.574339,-32.538126],[136.573888,-32.538162],[136.573525,-32.538255],[136.572976,-32.538553],[136.572602,-32.538759],[136.572182,-32.538885],[136.571689,-32.538972],[136.571087,-32.538934],[136.570484,-32.538901],[136.5697,-32.538978],[136.567059,-32.539484],[136.564584,-32.539962],[136.564182,-32.540112],[136.563932,-32.540289],[136.563694,-32.540537],[136.563206,-32.54118],[136.562837,-32.54158],[136.562476,-32.541816],[136.562094,-32.541995],[136.559396,-32.542884],[136.558248,-32.543239],[136.557642,-32.543401],[136.557127,-32.543521],[136.556157,-32.543668],[136.555043,-32.543802],[136.55242,-32.544213],[136.551411,-32.544367],[136.550443,-32.544439],[136.549426,-32.544469],[136.5486,-32.544428],[136.547702,-32.544335],[136.546513,-32.544279],[136.545398,-32.544356],[136.544328,-32.544437],[136.543602,-32.544476],[136.542057,-32.544652],[136.540699,-32.544693],[136.539622,-32.544735],[136.53831,-32.544835],[136.537639,-32.544829],[136.537055,-32.544735],[136.536339,-32.544548],[136.531747,-32.543667],[136.530236,-32.543234],[136.524779,-32.541748],[136.520475,-32.540115],[136.519641,-32.539746],[136.5157,-32.537583],[136.511829,-32.535275],[136.510828,-32.534608],[136.509898,-32.534013],[136.509406,-32.533568],[136.508826,-32.532974],[136.508513,-32.532572],[136.507119,-32.53057],[136.506818,-32.530032],[136.506314,-32.528875],[136.505957,-32.528169],[136.504995,-32.526463],[136.504549,-32.525737],[136.504287,-32.525396],[136.502783,-32.523601],[136.502293,-32.52303],[136.501523,-32.522216],[136.501244,-32.52187],[136.500936,-32.521376],[136.49998,-32.519595]]}},{"type":"Feature","properties":{"tier":"high"},"geometry":{"type":"LineString","coordinates":[[137.00002,-32.866361],[136.997469,-32.868563],[136.989023,-32.875765],[136.979036,-32.884405],[136.971771,-32.890694],[136.966463,-32.895286],[136.961581,-32.8995],[136.955252,-32.904854],[136.952429,-32.907289],[136.951859,-32.907781],[136.943885,-32.91466],[136.934886,-32.922446],[136.924921,-32.931296],[136.920404,-32.935313],[136.915095,-32.939923],[136.909219,-32.945017],[136.903104,-32.950478],[136.894271,-32.958205],[136.888207,-32.963484],[136.887922,-32.963732],[136.886974,-32.964581],[136.881238,-32.969718],[136.873005,-32.977059],[136.865814,-32.983352],[136.860137,-32.988166],[136.850411,-32.996322],[136.846298,-33.00002]]}}]}
