{"type":"FeatureCollection","features":[{"type":"Feature","properties":{"tier":"arterial"},"geometry":{"type":"LineString","coordinates":[[136.530249,-29.079585],[136.529139,-29.077049],[136.526772,-29.072922],[136.52656,-29.07254],[136.524916,-29.069572],[136.524847,-29.069447],[136.524738,-29.06925],[136.524516,-29.068849],[136.523357,-29.067093],[136.522042,-29.065441],[136.521163,-29.064335],[136.518007,-29.060305],[136.516404,-29.058182],[136.515603,-29.056856],[136.514592,-29.054873],[136.512694,-29.051026],[136.511079,-29.048041],[136.510105,-29.046619],[136.508829,-29.04476],[136.508514,-29.044301],[136.506801,-29.041844],[136.505519,-29.040012],[136.504212,-29.038309],[136.502683,-29.036811],[136.500612,-29.034946],[136.49998,-29.034247]]}},{"type":"Feature","properties":{"tier":"arterial"},"geometry":{"type":"LineString","coordinates":[[136.559495,-29.125132],[136.559058,-29.124508],[136.556568,-29.120674],[136.551661,-29.112941],[136.548961,-29.108741],[136.547766,-29.106845],[136.545892,-29.104551],[136.542382,-29.100143],[136.539186,-29.095977],[136.537448,-29.092939],[136.536919,-29.091963],[136.536307,-29.090832],[136.534131,-29.086809],[136.531813,-29.082547],[136.530445,-29.080033],[136.530249,-29.079585]]}},{"type":"Feature","properties":{"tier":"arterial"},"geometry":{"type":"LineString","coordinates":[[137.00002,-29.462784],[136.995451,-29.461825],[136.979367,-29.458405],[136.968536,-29.456105],[136.965003,-29.455589],[136.962673,-29.455119],[136.962282,-29.455053],[136.959821,-29.454447],[136.954226,-29.453071],[136.95322,-29.452851],[136.949499,-29.452036],[136.948713,-29.451864],[136.947374,-29.451571],[136.939242,-29.449791],[136.928923,-29.447583],[136.925651,-29.446826],[136.924689,-29.446614],[136.922432,-29.44612],[136.905922,-29.442623],[136.903824,-29.442211],[136.899533,-29.441303],[136.897436,-29.44086],[136.895666,-29.440485],[136.886206,-29.438483],[136.877384,-29.436602],[136.868715,-29.434629],[136.866861,-29.43385],[136.8653,-29.432968],[136.862023,-29.430888],[136.859392,-29.429219],[136.855614,-29.426824],[136.849176,-29.422741],[136.845979,-29.420694],[136.843583,-29.419229],[136.842693,-29.418725],[136.842523,-29.418639],[136.841494,-29.418119],[136.84143,-29.418091],[136.838577,-29.416822],[136.835852,-29.415603],[136.82641,-29.411346],[136.821633,-29.409175],[136.816937,-29.407038],[136.81654,-29.406794],[136.81534,-29.406056],[136.812028,-29.403988],[136.810967,-29.403316],[136.808748,-29.401902],[136.807667,-29.4011],[136.807184,-29.400585],[136.806918,-29.400301],[136.806265,-29.399204],[136.805177,-29.39625],[136.804339,-29.393975],[136.804044,-29.393145],[136.801776,-29.386779],[136.801298,-29.385823],[136.800762,-29.384964],[136.799912,-29.383974],[136.797071,-29.380664],[136.794664,-29.378033],[136.793999,-29.377486],[136.792907,-29.376808],[136.792077,-29.376387],[136.788332,-29.374489],[136.788084,-29.374363],[136.787726,-29.374199],[136.787357,-29.374082],[136.786894,-29.374],[136.786299,-29.373978],[136.785295,-29.373977],[136.784466,-29.373977],[136.783593,-29.373834],[136.783148,-29.373698],[136.782716,-29.373475],[136.782166,-29.37301],[136.781456,-29.372153],[136.780372,-29.370845],[136.779564,-29.370074],[136.774045,-29.365442],[136.771309,-29.363122],[136.768695,-29.360698],[136.758421,-29.350802],[136.758228,-29.3506],[136.752494,-29.344626],[136.748885,-29.340855],[136.746899,-29.338779],[136.74644,-29.3383],[136.740472,-29.331859],[136.728669,-29.318918],[136.722908,-29.312341],[136.721078,-29.310205],[136.717252,-29.305738],[136.709241,-29.296472],[136.708582,-29.295704],[136.708475,-29.295602],[136.70791,-29.295059],[136.707396,-29.294692],[136.706875,-29.294435],[136.706423,-29.294213],[136.704651,-29.293343],[136.703823,-29.292954],[136.703058,-29.292456],[136.702386,-29.291876],[136.701671,-29.291082],[136.699342,-29.28835],[136.695804,-29.28436],[136.695774,-29.284326],[136.695182,-29.283658],[136.694048,-29.282406],[136.693879,-29.28222],[136.690959,-29.278995],[136.689798,-29.277699],[136.687008,-29.274584],[136.674369,-29.260472],[136.665251,-29.250752],[136.66371,-29.249069],[136.663613,-29.248963],[136.661891,-29.247181],[136.660257,-29.245741],[136.656145,-29.242603],[136.654133,-29.241006],[136.645622,-29.23425],[136.645066,-29.233824],[136.644791,-29.233598],[136.644524,-29.233358],[136.644305,-29.233141],[136.644146,-29.232992],[136.643945,-29.232757],[136.643774,-29.232531],[136.643588,-29.232264],[136.643446,-29.232055],[136.643333,-29.231882],[136.643218,-29.231657],[136.643106,-29.231411],[136.642861,-29.230855],[136.642687,-29.230429],[136.64265,-29.230338],[136.642133,-29.229074],[136.639801,-29.223366],[136.63956,-29.222778],[136.638886,-29.221439],[136.637991,-29.220491],[136.637314,-29.219835],[136.636797,-29.219333],[136.611479,-29.194759],[136.604328,-29.187787],[136.593699,-29.177422],[136.589592,-29.173416],[136.577339,-29.161592],[136.573591,-29.157974],[136.572512,-29.156795],[136.572294,-29.156398],[136.571999,-29.15586],[136.571595,-29.154873],[136.571023,-29.152124],[136.570029,-29.147121],[136.569879,-29.146331],[136.568681,-29.14002],[136.568396,-29.13852],[136.568384,-29.138468],[136.568204,-29.137732],[136.568178,-29.137622],[136.567995,-29.13687],[136.567835,-29.136364],[136.56728,-29.135395],[136.566845,-29.134833],[136.566195,-29.133995],[136.563853,-29.130969],[136.56071,-29.126866],[136.559495,-29.125132]]}}]}
