{"type":"FeatureCollection","features":[{"type":"Feature","properties":{"tier":"arterial"},"geometry":{"type":"LineString","coordinates":[[136.804381,-31.259321],[136.804976,-31.258673],[136.805117,-31.258463],[136.80523,-31.258245],[136.805353,-31.257904],[136.805389,-31.257719],[136.805411,-31.257535],[136.80541,-31.257346],[136.805392,-31.257158],[136.805349,-31.256959],[136.805291,-31.256764],[136.805202,-31.256554],[136.805087,-31.256354],[136.804523,-31.255479],[136.804033,-31.254723],[136.803864,-31.254322],[136.80374,-31.253916],[136.803629,-31.253352],[136.803591,-31.252926],[136.803646,-31.252162],[136.803715,-31.251755],[136.803744,-31.25163],[136.803773,-31.251504],[136.804242,-31.249819],[136.805737,-31.244674],[136.805925,-31.243988],[136.806399,-31.24226],[136.807175,-31.239583],[136.807783,-31.237311],[136.808043,-31.236038],[136.808102,-31.235125],[136.808148,-31.233091],[136.808193,-31.232225],[136.808298,-31.231038],[136.808476,-31.230117],[136.808888,-31.228449],[136.808988,-31.228048],[136.809271,-31.227252],[136.809901,-31.225721],[136.810663,-31.223961],[136.811499,-31.222044],[136.813055,-31.218378],[136.813183,-31.218088],[136.813521,-31.217324],[136.814434,-31.215243],[136.81568,-31.212354],[136.816863,-31.209601],[136.817114,-31.208934],[136.817333,-31.208188],[136.817456,-31.207301],[136.817465,-31.20663],[136.817397,-31.205786],[136.817347,-31.205388],[136.817228,-31.20483],[136.816202,-31.202109],[136.81565,-31.200825],[136.815631,-31.200779],[136.815527,-31.200489],[136.815444,-31.200188],[136.815404,-31.199941],[136.815377,-31.199714],[136.815361,-31.199314],[136.815373,-31.199089],[136.815395,-31.198893],[136.815484,-31.198428],[136.815528,-31.198059],[136.815542,-31.197662],[136.815525,-31.197326],[136.815476,-31.196981],[136.815372,-31.196565],[136.815213,-31.196105],[136.815052,-31.19568],[136.814588,-31.19454],[136.813967,-31.19301],[136.81388,-31.192774],[136.812804,-31.18994]]}},{"type":"Feature","properties":{"tier":"high"},"geometry":{"type":"LineString","coordinates":[[136.924777,-31.379473],[136.922497,-31.378434]]}},{"type":"Feature","properties":{"tier":"regional"},"geometry":{"type":"LineString","coordinates":[[136.819031,-31.205604],[136.819213,-31.20558],[136.820505,-31.205486],[136.821126,-31.205456],[136.821967,-31.205409],[136.823468,-31.20531],[136.824076,-31.205275],[136.824951,-31.205237],[136.82577,-31.205177],[136.82665,-31.205129],[136.827685,-31.205059],[136.828828,-31.205001],[136.82896,-31.204992]]}},{"type":"Feature","properties":{"tier":"regional"},"geometry":{"type":"LineString","coordinates":[[136.831425,-31.204832],[136.831862,-31.204793],[136.832128,-31.204735],[136.832587,-31.204605],[136.833209,-31.204343],[136.833451,-31.204213],[136.833721,-31.204034],[136.83399,-31.203823],[136.834523,-31.203258],[136.834847,-31.202673],[136.835003,-31.202237],[136.835105,-31.20177],[136.8351,-31.20133],[136.834957,-31.200633],[136.83474,-31.200146],[136.834644,-31.200005],[136.834403,-31.199728],[136.834057,-31.199143]]}},{"type":"Feature","properties":{"tier":"regional"},"geometry":{"type":"LineString","coordinates":[[136.816107,-31.198262],[136.817464,-31.201738],[136.819031,-31.205604]]}},{"type":"Feature","properties":{"tier":"regional"},"geometry":{"type":"LineString","coordinates":[[136.829188,-31.192347],[136.829032,-31.192314],[136.828868,-31.192303],[136.828605,-31.19237],[136.828177,-31.192487],[136.827371,-31.19269],[136.826554,-31.192926],[136.826174,-31.19302],[136.825914,-31.193077],[136.825778,-31.193113],[136.825596,-31.193165],[136.825074,-31.193504],[136.824538,-31.193877],[136.823879,-31.194333],[136.823344,-31.194683],[136.82289,-31.194998],[136.822212,-31.195431],[136.822168,-31.195459],[136.821578,-31.195851],[136.821498,-31.195915],[136.821098,-31.196148],[136.821026,-31.196191],[136.820963,-31.196224],[136.820775,-31.196321],[136.820038,-31.196629],[136.819274,-31.196943],[136.818507,-31.197258],[136.817764,-31.197568],[136.817256,-31.197788],[136.816107,-31.198262]]}},{"type":"Feature","properties":{"tier":"regional"},"geometry":{"type":"LineString","coordinates":[[136.834057,-31.199143],[136.83398,-31.198997],[136.833503,-31.198179],[136.832224,-31.196234],[136.832158,-31.196131],[136.830318,-31.19328],[136.830038,-31.192876],[136.829841,-31.192659],[136.829188,-31.192347]]}},{"type":"Feature","properties":{"tier":"high"},"geometry":{"type":"LineString","coordinates":[[136.804381,-31.259321],[136.803741,-31.258916],[136.802569,-31.258201],[136.800451,-31.256921],[136.798583,-31.255912],[136.79739,-31.255304],[136.796466,-31.254857],[136.795426,-31.254384],[136.794538,-31.253992],[136.793278,-31.25344],[136.79216,-31.252986],[136.790973,-31.252531],[136.790525,-31.252358],[136.790017,-31.252173],[136.789081,-31.251855],[136.787929,-31.251467],[136.786827,-31.251129],[136.785728,-31.250795],[136.784614,-31.250483],[136.783647,-31.250222],[136.783013,-31.250072],[136.781762,-31.249779],[136.780563,-31.249516],[136.779349,-31.249286],[136.778378,-31.249107],[136.777457,-31.248956],[136.775935,-31.248726],[136.774338,-31.248524],[136.77299,-31.248377],[136.772312,-31.248311],[136.771636,-31.248259],[136.770466,-31.248173],[136.769298,-31.248107],[136.767804,-31.248055],[136.766272,-31.248019],[136.764413,-31.248039],[136.762562,-31.248096],[136.759217,-31.248259],[136.756622,-31.248385],[136.752983,-31.248559],[136.750366,-31.248686],[136.746724,-31.248857],[136.745484,-31.248893],[136.744188,-31.24891],[136.742961,-31.248903],[136.74172,-31.24888],[136.740731,-31.248848],[136.739794,-31.248806],[136.73911,-31.248773],[136.738431,-31.248728],[136.737758,-31.24868],[136.737085,-31.248621],[136.735914,-31.248514],[136.734738,-31.248417],[136.733875,-31.248367],[136.733012,-31.248325],[136.73221,-31.248303],[136.731466,-31.248297],[136.73066,-31.2483],[136.729918,-31.248317],[136.729296,-31.248337],[136.728674,-31.248369],[136.728059,-31.248405],[136.72738,-31.248456],[136.725887,-31.248597],[136.724866,-31.248723],[136.723831,-31.248873],[136.722434,-31.249107],[136.721535,-31.249287],[136.721028,-31.249388],[136.719987,-31.249631],[136.719384,-31.249786],[136.718392,-31.250041],[136.709508,-31.252592],[136.700516,-31.255176],[136.699774,-31.255389],[136.698175,-31.255848],[136.69434,-31.25695],[136.685533,-31.259478],[136.682475,-31.260354],[136.681301,-31.260688],[136.679421,-31.261228],[136.677889,-31.261676],[136.676654,-31.262038],[136.676618,-31.262049],[136.671316,-31.263552],[136.665038,-31.265356],[136.662338,-31.266131],[136.660902,-31.266536],[136.659456,-31.266914],[136.658669,-31.267104],[136.657858,-31.26729],[136.657245,-31.267426],[136.656564,-31.26757],[136.655192,-31.267839],[136.653803,-31.268082],[136.652481,-31.268287],[136.651533,-31.26842],[136.650337,-31.268566],[136.649511,-31.268657],[136.648618,-31.268746],[136.64697,-31.268877],[136.645502,-31.268964],[136.644231,-31.269015],[136.642945,-31.269044],[136.640954,-31.269046],[136.639803,-31.269019],[136.63865,-31.268979],[136.636869,-31.268877],[136.635723,-31.268787],[136.634574,-31.268679],[136.633426,-31.268558],[136.627843,-31.267851],[136.627678,-31.26783],[136.621184,-31.266988],[136.61463,-31.266153],[136.606615,-31.26513],[136.606468,-31.265111],[136.605397,-31.264968],[136.604723,-31.264879],[136.602963,-31.26461],[136.60155,-31.264357],[136.600045,-31.264055],[136.598853,-31.263783],[136.59759,-31.263483],[136.596371,-31.263157],[136.595562,-31.262935],[136.594794,-31.262703],[136.593249,-31.262208],[136.59221,-31.261865],[136.591213,-31.261501],[136.590331,-31.261165],[136.589925,-31.26101],[136.58869,-31.260506],[136.588149,-31.260268],[136.586754,-31.259653],[136.584704,-31.258672],[136.58297,-31.257749],[136.581948,-31.257184],[136.580952,-31.256594],[136.57903,-31.25539],[136.577874,-31.254607],[136.576585,-31.253701],[136.575467,-31.252858],[136.574392,-31.25201],[136.573891,-31.251593],[136.573325,-31.251149],[136.57289,-31.250834],[136.572495,-31.250562],[136.571973,-31.250229],[136.571434,-31.249909],[136.570735,-31.24951],[136.570384,-31.249322],[136.570022,-31.249145],[136.569447,-31.248873],[136.568867,-31.248608],[136.567758,-31.248168],[136.567282,-31.247996],[136.566795,-31.247836],[136.566296,-31.247683],[136.565788,-31.247541],[136.565236,-31.247397],[136.564679,-31.247269],[136.564168,-31.247164],[136.563652,-31.247073],[136.562803,-31.246946],[136.561837,-31.246837],[136.560889,-31.246771],[136.559991,-31.246734],[136.559169,-31.246727],[136.558072,-31.24677],[136.557578,-31.246801],[136.557079,-31.246845],[136.556401,-31.24692],[136.55571,-31.247019],[136.55526,-31.247094],[136.55476,-31.247188],[136.553939,-31.247368],[136.552793,-31.247671],[136.552529,-31.247742],[136.552334,-31.247795],[136.549897,-31.248462],[136.545984,-31.249532],[136.545056,-31.249764],[136.544062,-31.249999],[136.543069,-31.250214],[136.542007,-31.250423],[136.541077,-31.25059],[136.54013,-31.250742],[136.539306,-31.250858],[136.538482,-31.250961],[136.537594,-31.251058],[136.536767,-31.251137],[136.53457,-31.25131],[136.533255,-31.251392],[136.531742,-31.251477],[136.530201,-31.251546],[136.528921,-31.251589],[136.527689,-31.251618],[136.526408,-31.251638],[136.525128,-31.251645],[136.523787,-31.251637],[136.522507,-31.25162],[136.521163,-31.251585],[136.519824,-31.25154],[136.517067,-31.251407],[136.514269,-31.251208],[136.512349,-31.251038],[136.510379,-31.250837],[136.50877,-31.250648],[136.507177,-31.250443],[136.506225,-31.25031],[136.505218,-31.250143],[136.504597,-31.250027],[136.503978,-31.249899],[136.502928,-31.249658],[136.502122,-31.24945],[136.5015,-31.249272],[136.500711,-31.249034],[136.49998,-31.248789]]}},{"type":"Feature","properties":{"tier":"high"},"geometry":{"type":"LineString","coordinates":[[137.00002,-31.438298],[136.999793,-31.438102],[136.999416,-31.43776],[136.999009,-31.437359],[136.998624,-31.436951],[136.998255,-31.436538],[136.997667,-31.435796],[136.997143,-31.435038],[136.996806,-31.434482],[136.996451,-31.433795],[136.996073,-31.43297],[136.995763,-31.432128],[136.995568,-31.431473],[136.995432,-31.4309],[136.995325,-31.430336],[136.994995,-31.428227],[136.994764,-31.426752],[136.994716,-31.426448],[136.994155,-31.422848],[136.993646,-31.419581],[136.993383,-31.418076],[136.993257,-31.41755],[136.993117,-31.417023],[136.992974,-31.416555],[136.992796,-31.416035],[136.992574,-31.415463],[136.992294,-31.414806],[136.991825,-31.413851],[136.991322,-31.412972],[136.990831,-31.41222],[136.990573,-31.41185],[136.9903,-31.411488],[136.989799,-31.410865],[136.989308,-31.410298],[136.988795,-31.40975],[136.988297,-31.409255],[136.98783,-31.408824],[136.986873,-31.408026],[136.986444,-31.407694],[136.985812,-31.407247],[136.985121,-31.406788],[136.984253,-31.406285],[136.983511,-31.405887],[136.981304,-31.404767],[136.979479,-31.403829],[136.977396,-31.402815],[136.975584,-31.401951],[136.973897,-31.401122],[136.968428,-31.398529],[136.963455,-31.396316],[136.9607,-31.395141],[136.959289,-31.394541],[136.958682,-31.394272],[136.956529,-31.393364],[136.955088,-31.392778],[136.951648,-31.391309],[136.948181,-31.389855],[136.938005,-31.385523],[136.936834,-31.385012],[136.931125,-31.382369],[136.928411,-31.381117],[136.924777,-31.379473]]}},{"type":"Feature","properties":{"tier":"high"},"geometry":{"type":"LineString","coordinates":[[136.804381,-31.259321],[136.805868,-31.260355],[136.807277,-31.261392],[136.809011,-31.262753],[136.811616,-31.264983],[136.811858,-31.265197],[136.812251,-31.265544],[136.812659,-31.265933],[136.814246,-31.267506],[136.815314,-31.268617],[136.816036,-31.26934],[136.816908,-31.270242],[136.819798,-31.273227],[136.82048,-31.273914],[136.82118,-31.274654],[136.822914,-31.276471],[136.823908,-31.277564],[136.824571,-31.278334],[136.82536,-31.279287],[136.826132,-31.280251],[136.826512,-31.280738],[136.826917,-31.281271],[136.827794,-31.282443],[136.828611,-31.283627],[136.829397,-31.284793],[136.830866,-31.286997],[136.832456,-31.289407],[136.833346,-31.290756],[136.834402,-31.292327],[136.834872,-31.292975],[136.8357,-31.294106],[136.836751,-31.295483],[136.838717,-31.297883],[136.839698,-31.299107],[136.841019,-31.300724],[136.842245,-31.302198],[136.845111,-31.305749],[136.847242,-31.308354],[136.850128,-31.311896],[136.851745,-31.313845],[136.853365,-31.315859],[136.857835,-31.321333],[136.860478,-31.324591],[136.860644,-31.324798],[136.86221,-31.326738],[136.862724,-31.327353],[136.863958,-31.328859],[136.866064,-31.331443],[136.867436,-31.33313],[136.868731,-31.334685],[136.870845,-31.337314],[136.872268,-31.339055],[136.873339,-31.340341],[136.873727,-31.340839],[136.873973,-31.341143],[136.875264,-31.342736],[136.875983,-31.343582],[136.876421,-31.344111],[136.877193,-31.345049],[136.877942,-31.345999],[136.879237,-31.34762],[136.880392,-31.349019],[136.880603,-31.349276],[136.881456,-31.350296],[136.882434,-31.351504],[136.883672,-31.353003],[136.884303,-31.353759],[136.8849,-31.35454],[136.886865,-31.356925],[136.887353,-31.357519],[136.888169,-31.358492],[136.888924,-31.35944],[136.889798,-31.360511],[136.890666,-31.361459],[136.891094,-31.361929],[136.891562,-31.36238],[136.892478,-31.363218],[136.893422,-31.364021],[136.893962,-31.364444],[136.894272,-31.364687],[136.895186,-31.365363],[136.896027,-31.365936],[136.897053,-31.366576],[136.89855,-31.367416],[136.898918,-31.367611],[136.899829,-31.368047],[136.900769,-31.368482],[136.901679,-31.36889],[136.902562,-31.369306],[136.903218,-31.36962],[136.904473,-31.370178],[136.906918,-31.371321],[136.909066,-31.372287],[136.913335,-31.374236],[136.917197,-31.376019],[136.920266,-31.377394],[136.922497,-31.378434]]}},{"type":"Feature","properties":{"tier":"arterial"},"geometry":{"type":"LineString","coordinates":[[136.812804,-31.18994],[136.816863,-31.188702],[136.817926,-31.188468],[136.818748,-31.188382],[136.819369,-31.188327],[136.821793,-31.188253],[136.823121,-31.188191],[136.823952,-31.18807],[136.824252,-31.188004],[136.82456,-31.187937],[136.824797,-31.187886],[136.826253,-31.187507],[136.827248,-31.187101],[136.828316,-31.186562],[136.829321,-31.185937],[136.82996,-31.185449],[136.830745,-31.184758],[136.831467,-31.183965],[136.832313,-31.183047],[136.832713,-31.182614],[136.836073,-31.179138],[136.837671,-31.177548],[136.838094,-31.177115],[136.838328,-31.176875],[136.839766,-31.175404],[136.840359,-31.174673],[136.84072,-31.174197],[136.84077,-31.174128],[136.840923,-31.173915],[136.841574,-31.172927],[136.842108,-31.172025],[136.842587,-31.171045],[136.842724,-31.170777],[136.843261,-31.169723],[136.844349,-31.167588],[136.845212,-31.165845],[136.845545,-31.165119],[136.846016,-31.164041],[136.846458,-31.162779],[136.846924,-31.161388],[136.847248,-31.160193],[136.847572,-31.158959],[136.847769,-31.158033],[136.848001,-31.156447],[136.848175,-31.155415],[136.848412,-31.153915],[136.848613,-31.153067],[136.848873,-31.1522],[136.849225,-31.151321],[136.849709,-31.150368],[136.850083,-31.149684],[136.850487,-31.149171],[136.851083,-31.14834],[136.852388,-31.146863],[136.853443,-31.145628],[136.853831,-31.145113],[136.854228,-31.144507],[136.854461,-31.14412],[136.854644,-31.143743],[136.854868,-31.143273],[136.855163,-31.142473],[136.855414,-31.141672],[136.855551,-31.141065],[136.855677,-31.140156],[136.855718,-31.139269],[136.85569,-31.138457],[136.855467,-31.136175],[136.855394,-31.134846],[136.855412,-31.133818],[136.855503,-31.132994],[136.855754,-31.131697],[136.856129,-31.130462],[136.856498,-31.129582],[136.857119,-31.128406],[136.857822,-31.127378],[136.858576,-31.126421],[136.861744,-31.122689],[136.864401,-31.119531],[136.865258,-31.11852],[136.866642,-31.116889],[136.869623,-31.113356],[136.87097,-31.111738],[136.872253,-31.110253],[136.874893,-31.106942],[136.876166,-31.104986],[136.877142,-31.103313],[136.878258,-31.101253],[136.879305,-31.098968],[136.880072,-31.096833],[136.8807,-31.094712],[136.88145,-31.091845],[136.884554,-31.079076],[136.887013,-31.06889],[136.890012,-31.056536],[136.892279,-31.04666],[136.894772,-31.036764],[136.895087,-31.035514],[136.895967,-31.031842],[136.896115,-31.031224],[136.896603,-31.029188],[136.898017,-31.023291],[136.898928,-31.019481],[136.899124,-31.01866],[136.9,-31.014997],[136.900031,-31.014835],[136.900396,-31.0129],[136.901374,-31.00771],[136.902023,-31.004263],[136.902119,-31.003723],[136.902348,-31.00244],[136.902786,-30.99998]]}},{"type":"Feature","properties":{"tier":"arterial"},"geometry":{"type":"LineString","coordinates":[[136.78121,-30.99998],[136.783806,-31.003845],[136.789362,-31.012695],[136.792453,-31.017544],[136.792764,-31.01819],[136.792916,-31.018678],[136.792984,-31.019097],[136.792938,-31.020155],[136.791585,-31.036443],[136.79044,-31.050996],[136.789497,-31.063691],[136.788569,-31.075443],[136.787594,-31.088003],[136.786985,-31.100811],[136.786975,-31.101011],[136.784747,-31.130115],[136.784743,-31.130339],[136.784736,-31.1305],[136.784717,-31.130625],[136.784686,-31.130749],[136.784654,-31.130848],[136.784618,-31.130938],[136.784577,-31.131025],[136.78453,-31.131111],[136.784468,-31.131208],[136.784365,-31.131343],[136.784276,-31.13144],[136.784177,-31.131535],[136.784076,-31.131642]]}},{"type":"Feature","properties":{"tier":"arterial"},"geometry":{"type":"LineString","coordinates":[[136.525619,-31.007794],[136.525796,-31.008255],[136.52615,-31.00898],[136.52652,-31.009536],[136.526858,-31.009932],[136.527486,-31.010488],[136.528006,-31.010893],[136.530206,-31.012102],[136.534229,-31.014322],[136.537919,-31.016373],[136.540162,-31.017614],[136.542458,-31.018885],[136.543558,-31.019468]]}},{"type":"Feature","properties":{"tier":"arterial"},"geometry":{"type":"LineString","coordinates":[[136.525582,-31.007688],[136.525619,-31.007794]]}},{"type":"Feature","properties":{"tier":"arterial"},"geometry":{"type":"LineString","coordinates":[[136.523104,-30.99998],[136.523404,-31.000897],[136.524557,-31.004497],[136.525474,-31.007371],[136.525582,-31.007688]]}},{"type":"Feature","properties":{"tier":"arterial"},"geometry":{"type":"LineString","coordinates":[[136.543558,-31.019468],[136.559956,-31.02854],[136.572892,-31.035795],[136.577107,-31.038093],[136.580518,-31.039985],[136.580826,-31.040179],[136.58116,-31.040437],[136.581745,-31.040975],[136.5822,-31.041522],[136.582504,-31.042016],[136.582979,-31.042984],[136.58361,-31.044422],[136.583895,-31.045019],[136.584319,-31.045642],[136.584712,-31.046099],[136.585342,-31.046683],[136.58603,-31.04716],[136.591851,-31.050892],[136.602088,-31.057434],[136.617075,-31.067062],[136.631072,-31.076112],[136.640317,-31.082044],[136.640705,-31.082288],[136.641284,-31.082577],[136.642051,-31.082862],[136.661226,-31.089479],[136.667008,-31.091448],[136.679436,-31.095683],[136.697668,-31.101886],[136.711889,-31.106779],[136.714942,-31.107829],[136.734588,-31.114497],[136.735534,-31.114818],[136.754278,-31.121165],[136.757449,-31.122236],[136.770769,-31.126734],[136.778787,-31.129485],[136.780933,-31.130222],[136.782092,-31.1306],[136.782438,-31.13073],[136.782866,-31.130905],[136.783055,-31.130997],[136.783307,-31.131132],[136.78354,-31.13127],[136.783728,-31.131392],[136.783896,-31.131508],[136.784076,-31.131642],[136.78422,-31.131757],[136.784342,-31.13186],[136.784425,-31.131933],[136.784535,-31.132035],[136.784689,-31.132185],[136.784759,-31.132258],[136.784868,-31.132376],[136.784937,-31.132454],[136.785032,-31.132567],[136.785167,-31.132738],[136.785447,-31.133129],[136.786989,-31.135274],[136.789458,-31.138708],[136.791586,-31.141718],[136.791968,-31.142258],[136.793166,-31.143953],[136.794754,-31.146198],[136.795213,-31.146847],[136.795449,-31.147181],[136.796522,-31.14879],[136.797312,-31.149884],[136.79801,-31.1507],[136.798962,-31.151416],[136.800101,-31.151973],[136.801257,-31.152299],[136.802876,-31.152479],[136.8032,-31.152486],[136.80366,-31.152508]]}},{"type":"Feature","properties":{"tier":"regional"},"geometry":{"type":"LineString","coordinates":[[136.627467,-31.131429],[136.629441,-31.131576],[136.630803,-31.131679],[136.6309,-31.131686],[136.635793,-31.132352],[136.636034,-31.132357],[136.636222,-31.13232],[136.63634,-31.1322],[136.636361,-31.131975],[136.636415,-31.131525],[136.636495,-31.131342],[136.636689,-31.131085],[136.636962,-31.130557],[136.637139,-31.130198],[136.637134,-31.129886],[136.637059,-31.129487],[136.637059,-31.129225],[136.637188,-31.128871],[136.637418,-31.128426],[136.637879,-31.127889],[136.638545,-31.127324],[136.639054,-31.126837],[136.63943,-31.12635],[136.639634,-31.126038],[136.639773,-31.125675],[136.639945,-31.125244],[136.640047,-31.124876],[136.640202,-31.124601],[136.640733,-31.123793],[136.641329,-31.123085],[136.642069,-31.122373],[136.642353,-31.121997],[136.642466,-31.121772],[136.64252,-31.121441],[136.642675,-31.121184],[136.643485,-31.120073],[136.643791,-31.119788],[136.644075,-31.11954],[136.64547,-31.118488],[136.645631,-31.118328],[136.645808,-31.118098],[136.646055,-31.117671],[136.646457,-31.116881],[136.646645,-31.116647],[136.64701,-31.116367],[136.647256,-31.116105],[136.647573,-31.115687],[136.648099,-31.11509],[136.648378,-31.114906],[136.648576,-31.114704],[136.648887,-31.114428],[136.649145,-31.114213],[136.649585,-31.113983],[136.651054,-31.11283],[136.652712,-31.11171],[136.653329,-31.1112],[136.653833,-31.110837],[136.65408,-31.110667],[136.654321,-31.110584],[136.654547,-31.11052],[136.654617,-31.110472],[136.654708,-31.11041],[136.655003,-31.110056],[136.655598,-31.109294],[136.656006,-31.108931],[136.656591,-31.108554],[136.657433,-31.107925],[136.658291,-31.107149],[136.658919,-31.106657],[136.659418,-31.106207],[136.659643,-31.106047],[136.660603,-31.105596],[136.660957,-31.105376],[136.662153,-31.104591],[136.663108,-31.103925],[136.664466,-31.102987],[136.665034,-31.102643],[136.665338,-31.102476],[136.665469,-31.102381],[136.665501,-31.102289],[136.665502,-31.102232],[136.665512,-31.10171],[136.665619,-31.100477],[136.665676,-31.099171],[136.665749,-31.098089],[136.665877,-31.09658],[136.666011,-31.094385],[136.666068,-31.09384],[136.666216,-31.092658],[136.666315,-31.092021],[136.666301,-31.091803],[136.666358,-31.091688],[136.666549,-31.091634],[136.666754,-31.091615],[136.666882,-31.091573],[136.667008,-31.091448]]}},{"type":"Feature","properties":{"tier":"regional"},"geometry":{"type":"LineString","coordinates":[[136.82896,-31.204992],[136.829659,-31.204948],[136.83057,-31.204886],[136.831425,-31.204832]]}}]}
