{"type":"FeatureCollection","features":[{"type":"Feature","properties":{"tier":"regional"},"geometry":{"type":"LineString","coordinates":[[136.899357,-35.785179],[136.888732,-35.782911],[136.886193,-35.782412],[136.883625,-35.782353],[136.881344,-35.782285],[136.871523,-35.782005],[136.870308,-35.781975],[136.857476,-35.781657],[136.851318,-35.781531],[136.849521,-35.78194],[136.847877,-35.782414],[136.846761,-35.782736],[136.845339,-35.783122],[136.844057,-35.783259],[136.842169,-35.783259],[136.84101,-35.783273],[136.840238,-35.783342],[136.84009,-35.783387],[136.839551,-35.783551],[136.838624,-35.784108],[136.83636,-35.785662],[136.833624,-35.787012],[136.831818,-35.788236],[136.830567,-35.789103],[136.830202,-35.789263],[136.829828,-35.789354],[136.828136,-35.789595],[136.820336,-35.790772],[136.817518,-35.79121],[136.805983,-35.792888],[136.805039,-35.792957],[136.803906,-35.792867],[136.802885,-35.792748],[136.800919,-35.792519],[136.792855,-35.791555],[136.792328,-35.791499],[136.791947,-35.79147],[136.791673,-35.791466],[136.791581,-35.791474],[136.791335,-35.791495],[136.790865,-35.791571],[136.788199,-35.792087],[136.780989,-35.793528],[136.779819,-35.79376],[136.778294,-35.794048],[136.777813,-35.794175],[136.777399,-35.794335],[136.776956,-35.794483],[136.776433,-35.794615],[136.775732,-35.794724],[136.775147,-35.794736],[136.774505,-35.794799],[136.770268,-35.795624],[136.768886,-35.795911],[136.768343,-35.79602],[136.76792,-35.796073],[136.767614,-35.796055],[136.767313,-35.796018],[136.766998,-35.795975],[136.763917,-35.795582],[136.751326,-35.794016],[136.746639,-35.793333],[136.745979,-35.793215],[136.743034,-35.791913],[136.73046,-35.786288],[136.729158,-35.785699],[136.725302,-35.783955],[136.720728,-35.781641],[136.71586,-35.779178],[136.709469,-35.775968],[136.699501,-35.770961],[136.689148,-35.765776],[136.687905,-35.765153],[136.682896,-35.762624],[136.678249,-35.760278],[136.67722,-35.759881],[136.676061,-35.759693],[136.669276,-35.759319],[136.6605,-35.758836],[136.659607,-35.758746],[136.658208,-35.758523],[136.6542,-35.757562],[136.649531,-35.756389],[136.648513,-35.756133],[136.647822,-35.75596],[136.643848,-35.754378],[136.640072,-35.752825],[136.639317,-35.752539],[136.638785,-35.752338],[136.637377,-35.751906],[136.636622,-35.751892],[136.632656,-35.75224],[136.631237,-35.752494],[136.630886,-35.752519],[136.630545,-35.75252],[136.630142,-35.752477],[136.629652,-35.752289],[136.628965,-35.751954],[136.628605,-35.75184],[136.628199,-35.751752],[136.626203,-35.75141],[136.625981,-35.751365],[136.613112,-35.749203],[136.612014,-35.749029],[136.611756,-35.749007],[136.611688,-35.749023],[136.611516,-35.749064],[136.610709,-35.749356],[136.609958,-35.749702],[136.608666,-35.749955],[136.607396,-35.750178],[136.606692,-35.750331],[136.604049,-35.751084],[136.601955,-35.751655],[136.60165,-35.751729],[136.601437,-35.751781],[136.601406,-35.751789],[136.599586,-35.752233],[136.598443,-35.752597],[136.598244,-35.752607],[136.597062,-35.752668],[136.596316,-35.752775]]}},{"type":"Feature","properties":{"tier":"arterial"},"geometry":{"type":"LineString","coordinates":[[136.745898,-36.00002],[136.745938,-35.999908],[136.745963,-35.999732],[136.745914,-35.999577],[136.745834,-35.99944],[136.7453,-35.998905],[136.745134,-35.99866],[136.744983,-35.998444],[136.744864,-35.998212],[136.744751,-35.997847],[136.744786,-35.997471],[136.745369,-35.995437],[136.746236,-35.992273],[136.746352,-35.991252],[136.746229,-35.990892],[136.745902,-35.990399],[136.745894,-35.990091],[136.746067,-35.989748],[136.746415,-35.989187],[136.747148,-35.98863],[136.747444,-35.988031],[136.7476,-35.987065],[136.74753,-35.986781],[136.747174,-35.98618],[136.746755,-35.985543],[136.746232,-35.984651],[136.745667,-35.983728],[136.745015,-35.982677],[136.744614,-35.982154],[136.744225,-35.981741],[136.743559,-35.981112],[136.743439,-35.980944],[136.743359,-35.980741],[136.743363,-35.980485],[136.743589,-35.979983],[136.743898,-35.979395],[136.744241,-35.978739],[136.744424,-35.978278],[136.744503,-35.97775],[136.744586,-35.977466],[136.74477,-35.977322],[136.744977,-35.97722],[136.745251,-35.977015],[136.74553,-35.976546],[136.745989,-35.976183],[136.746485,-35.975566],[136.746768,-35.975355],[136.747032,-35.975186],[136.747247,-35.974977],[136.748042,-35.974212],[136.748201,-35.973926],[136.748167,-35.973361],[136.748073,-35.972625],[136.747583,-35.971937],[136.74727,-35.971502],[136.746961,-35.970987],[136.746614,-35.970104],[136.746289,-35.969271],[136.746107,-35.968356],[136.745638,-35.967831],[136.745313,-35.9676],[136.744892,-35.967494],[136.744533,-35.9675],[136.74403,-35.967596],[136.743107,-35.967497],[136.742618,-35.967345],[136.742225,-35.966931],[136.74141,-35.965973],[136.741059,-35.9651],[136.740216,-35.963752],[136.739464,-35.9624],[136.738998,-35.960575],[136.738783,-35.959753],[136.738707,-35.95946],[136.738469,-35.958549],[136.738269,-35.958168],[136.737945,-35.957876],[136.736709,-35.957057],[136.736172,-35.956688],[136.735971,-35.956279],[136.735928,-35.955971],[136.735885,-35.955653],[136.735879,-35.95487]]}},{"type":"Feature","properties":{"tier":"arterial"},"geometry":{"type":"LineString","coordinates":[[137.00002,-35.790115],[136.99421,-35.791067],[136.981778,-35.793104],[136.981613,-35.793136],[136.968647,-35.795254],[136.967158,-35.795502],[136.965912,-35.795677],[136.963524,-35.795911],[136.95785,-35.79643],[136.956952,-35.796516],[136.952097,-35.796984],[136.951283,-35.797063],[136.947201,-35.797464],[136.944393,-35.797707],[136.943892,-35.797734],[136.943398,-35.797741],[136.94273,-35.797704],[136.942203,-35.797626],[136.941823,-35.797545],[136.941237,-35.797371],[136.940547,-35.797124],[136.939956,-35.796909],[136.932079,-35.794038],[136.930198,-35.793353],[136.929838,-35.793222],[136.925409,-35.79161],[136.920184,-35.789745],[136.919856,-35.789643],[136.919329,-35.789523],[136.918317,-35.789313],[136.916383,-35.788885],[136.905532,-35.786502],[136.899357,-35.785179]]}},{"type":"Feature","properties":{"tier":"regional"},"geometry":{"type":"LineString","coordinates":[[136.596316,-35.752775],[136.595751,-35.752837],[136.594993,-35.752813],[136.59491,-35.752781],[136.594407,-35.752589]]}},{"type":"Feature","properties":{"tier":"arterial"},"geometry":{"type":"LineString","coordinates":[[136.899357,-35.785179],[136.899224,-35.785284],[136.898855,-35.785599],[136.898452,-35.78595],[136.898025,-35.786321],[136.897308,-35.786933],[136.89646,-35.787654],[136.895811,-35.788221],[136.894894,-35.789006],[136.893206,-35.790465],[136.893066,-35.790619],[136.892975,-35.79074],[136.892822,-35.790962],[136.892687,-35.791214],[136.892596,-35.791406],[136.89252,-35.791633],[136.892436,-35.791925],[136.892382,-35.79217],[136.892251,-35.792822],[136.892102,-35.79354],[136.891861,-35.794693],[136.891707,-35.795425],[136.891556,-35.796163],[136.891384,-35.79702],[136.891218,-35.797795],[136.891103,-35.798389],[136.891028,-35.798709],[136.890925,-35.799054],[136.890853,-35.799227],[136.890759,-35.799421],[136.890648,-35.79962],[136.890498,-35.799846],[136.890334,-35.80006],[136.89014,-35.800273],[136.88992,-35.800485],[136.889604,-35.800748],[136.88901,-35.801231],[136.888641,-35.801535],[136.888154,-35.801926],[136.887759,-35.802205],[136.887151,-35.802602],[136.886793,-35.802807],[136.88578,-35.803341],[136.885133,-35.803692],[136.884917,-35.803823],[136.88468,-35.803979],[136.884481,-35.804145],[136.884277,-35.804349],[136.884152,-35.804488],[136.88391,-35.80484],[136.883796,-35.805061],[136.883721,-35.805292],[136.882739,-35.808608],[136.88252,-35.80931],[136.882336,-35.809963],[136.882091,-35.810764],[136.881955,-35.811246],[136.881901,-35.811512],[136.881873,-35.81172],[136.881845,-35.812075],[136.881803,-35.812753],[136.881741,-35.813675],[136.881701,-35.814491],[136.881676,-35.81486],[136.88163,-35.815317],[136.881569,-35.815647],[136.881472,-35.815937],[136.881325,-35.816278],[136.880922,-35.817057],[136.880654,-35.817562],[136.880452,-35.817941],[136.880196,-35.818313],[136.87999,-35.818532],[136.879815,-35.818688],[136.879561,-35.818891],[136.879315,-35.81903],[136.878931,-35.819217],[136.878287,-35.819464],[136.877731,-35.819695],[136.876872,-35.82012],[136.875219,-35.820947],[136.874427,-35.82134],[136.873985,-35.821592],[136.873658,-35.821807],[136.87341,-35.82202],[136.873136,-35.822299],[136.871594,-35.824032],[136.8701,-35.82573],[136.869703,-35.826165],[136.869244,-35.826676],[136.868901,-35.827074],[136.868476,-35.827552],[136.866961,-35.82924],[136.866471,-35.829795],[136.866022,-35.830314],[136.865764,-35.830593],[136.865472,-35.830866],[136.865076,-35.831169],[136.864676,-35.831453],[136.863541,-35.832292],[136.862338,-35.833172],[136.862083,-35.833351],[136.861861,-35.833495],[136.861588,-35.833646],[136.861311,-35.833769],[136.861002,-35.833886],[136.860382,-35.834118],[136.857724,-35.835083],[136.855057,-35.836065],[136.852728,-35.836905],[136.852305,-35.837077],[136.852082,-35.837195],[136.851827,-35.83735],[136.851568,-35.837547],[136.851191,-35.83795],[136.85029,-35.838994],[136.849571,-35.839823],[136.848812,-35.84072],[136.848538,-35.841046],[136.848294,-35.841385],[136.848119,-35.841719],[136.848029,-35.841934],[136.847958,-35.842137],[136.847887,-35.842434],[136.847846,-35.842719],[136.847808,-35.843127],[136.847772,-35.843532],[136.847703,-35.844462],[136.847643,-35.845171],[136.847563,-35.846223],[136.84751,-35.847054],[136.847516,-35.847431],[136.847576,-35.848144],[136.847781,-35.849766],[136.847927,-35.850992],[136.848033,-35.851934],[136.848169,-35.853018],[136.848371,-35.854699],[136.848771,-35.857976],[136.848906,-35.859063],[136.848993,-35.859857],[136.848995,-35.860139],[136.848984,-35.860489],[136.848941,-35.860852],[136.848867,-35.861169],[136.848727,-35.861566],[136.848561,-35.86195],[136.848294,-35.862402],[136.848016,-35.862838],[136.847587,-35.863473],[136.847304,-35.863842],[136.847024,-35.864121],[136.846825,-35.864275],[136.846748,-35.864335],[136.846424,-35.864532],[136.846153,-35.864657],[136.845768,-35.864796],[136.844924,-35.865046],[136.843921,-35.865336],[136.84242,-35.865775],[136.842056,-35.865852],[136.841711,-35.865906],[136.841303,-35.865932],[136.839668,-35.865926],[136.837138,-35.865911],[136.83674,-35.865933],[136.836316,-35.865988],[136.835852,-35.866096],[136.835441,-35.866261],[136.835083,-35.866458],[136.8348,-35.866642],[136.834513,-35.866877],[136.834283,-35.867132],[136.834089,-35.867407],[136.831206,-35.872434],[136.831121,-35.872644],[136.831048,-35.87292],[136.831007,-35.873244],[136.831001,-35.873493],[136.831033,-35.873753],[136.831123,-35.874087],[136.831252,-35.874426],[136.832755,-35.877585],[136.833027,-35.878197],[136.833161,-35.878546],[136.83323,-35.878767],[136.833275,-35.879048],[136.833269,-35.879481],[136.833236,-35.879715],[136.833109,-35.880097],[136.832937,-35.880447],[136.832757,-35.880785],[136.832653,-35.88104],[136.832581,-35.881247],[136.832534,-35.881462],[136.832464,-35.882141],[136.83237,-35.883347],[136.832345,-35.883945],[136.832262,-35.884471],[136.832129,-35.884859],[136.831934,-35.885222],[136.831651,-35.885662],[136.831059,-35.886571],[136.830592,-35.887295],[136.829788,-35.888543],[136.829512,-35.888978],[136.829314,-35.889346],[136.829212,-35.889637],[136.829147,-35.889904],[136.82911,-35.890181],[136.829116,-35.890487],[136.829176,-35.890796],[136.829608,-35.892726],[136.829711,-35.893229],[136.829775,-35.893565],[136.829821,-35.893928],[136.829801,-35.894399],[136.829741,-35.895032],[136.82962,-35.895897],[136.829561,-35.896305],[136.829452,-35.896685],[136.82929,-35.897006],[136.829093,-35.897301],[136.828933,-35.897473],[136.828716,-35.8977],[136.828462,-35.897885],[136.828138,-35.898094],[136.827677,-35.898363],[136.826913,-35.898825],[136.82609,-35.899307],[136.825771,-35.899474],[136.825477,-35.899603],[136.825113,-35.899735],[136.823505,-35.900304],[136.823273,-35.900406],[136.823029,-35.900534],[136.822713,-35.900735],[136.822453,-35.90092],[136.822074,-35.90121],[136.821757,-35.901414],[136.821434,-35.90158],[136.821104,-35.901705],[136.820853,-35.901788],[136.820386,-35.901903],[136.81969,-35.902091],[136.819404,-35.902203],[136.81905,-35.902363],[136.817042,-35.903596],[136.815236,-35.904782],[136.814765,-35.905097],[136.814457,-35.905359],[136.814244,-35.905618],[136.814049,-35.905903],[136.813884,-35.906244],[136.813769,-35.90658],[136.813451,-35.90835],[136.813346,-35.908793],[136.813198,-35.909113],[136.813036,-35.909368],[136.812805,-35.909667],[136.812393,-35.910018],[136.811969,-35.910299],[136.811463,-35.910642],[136.810731,-35.911089],[136.810253,-35.911295],[136.81008,-35.91134],[136.808764,-35.911684],[136.808078,-35.911852],[136.807322,-35.912035],[136.806355,-35.912262],[136.805759,-35.912468],[136.805364,-35.91263],[136.804971,-35.912843],[136.804385,-35.913218],[136.803461,-35.913837],[136.800997,-35.915518],[136.798971,-35.916882],[136.798811,-35.916999],[136.798591,-35.917148],[136.798277,-35.917385],[136.798035,-35.917603],[136.797916,-35.917735],[136.7978,-35.917874],[136.797649,-35.918106],[136.797503,-35.918389],[136.797434,-35.918552],[136.797284,-35.918928],[136.797101,-35.919371],[136.796748,-35.920233],[136.79664,-35.920487],[136.796545,-35.920713],[136.796439,-35.920981],[136.796306,-35.921375],[136.796213,-35.9217],[136.79616,-35.921972],[136.796121,-35.92229],[136.795797,-35.924948],[136.795627,-35.926488],[136.795443,-35.928027],[136.795324,-35.929113],[136.795142,-35.930131],[136.795014,-35.930569],[136.794758,-35.93115],[136.793356,-35.933634],[136.792506,-35.935078],[136.791537,-35.936774],[136.790784,-35.938074],[136.790428,-35.938631],[136.789651,-35.939594],[136.784858,-35.945343],[136.782423,-35.94825],[136.781265,-35.949583],[136.781147,-35.949719]]}},{"type":"Feature","properties":{"tier":"arterial"},"geometry":{"type":"LineString","coordinates":[[136.735879,-35.95487],[136.735944,-35.953352],[136.73597,-35.953135]]}},{"type":"Feature","properties":{"tier":"arterial"},"geometry":{"type":"LineString","coordinates":[[136.855845,-35.977262],[136.856192,-35.977263]]}},{"type":"Feature","properties":{"tier":"arterial"},"geometry":{"type":"LineString","coordinates":[[136.781455,-35.949807],[136.781796,-35.949913],[136.782508,-35.95019],[136.783847,-35.950703],[136.784776,-35.951079],[136.785665,-35.951418],[136.78646,-35.951753],[136.787394,-35.952181],[136.787847,-35.952369],[136.78881,-35.952706],[136.792655,-35.954116],[136.793109,-35.954279],[136.798151,-35.956044],[136.801562,-35.957236],[136.802262,-35.957502],[136.802874,-35.957817],[136.804714,-35.959119],[136.805129,-35.959389],[136.807276,-35.960853],[136.8076,-35.961005],[136.807931,-35.961121],[136.808938,-35.961447],[136.809258,-35.961582],[136.809534,-35.961736],[136.809965,-35.962022],[136.811848,-35.963549],[136.812137,-35.963759],[136.812279,-35.963858],[136.812442,-35.963947],[136.812787,-35.964094],[136.812997,-35.964162],[136.813273,-35.964224],[136.81594,-35.964769],[136.816893,-35.964965],[136.818315,-35.96525],[136.819669,-35.965533],[136.820666,-35.965748],[136.823073,-35.96623],[136.825965,-35.966823],[136.82666,-35.967015],[136.827033,-35.967143],[136.827412,-35.967292],[136.827792,-35.96746],[136.828192,-35.967653],[136.82849,-35.967845],[136.828982,-35.96817],[136.833963,-35.971789],[136.834326,-35.972066],[136.834501,-35.972192],[136.834688,-35.972277],[136.834905,-35.972379],[136.835129,-35.972459],[136.835345,-35.972508],[136.835577,-35.972553],[136.835803,-35.972572],[136.836357,-35.972553],[136.837135,-35.972511],[136.837509,-35.972485],[136.837734,-35.972478],[136.837991,-35.972482],[136.83841,-35.972513],[136.838633,-35.972534],[136.839182,-35.972614],[136.839858,-35.972682],[136.840088,-35.972693],[136.841903,-35.972677],[136.842423,-35.972688],[136.843158,-35.972811],[136.843431,-35.972878],[136.843745,-35.972991],[136.844366,-35.973269],[136.846684,-35.974478],[136.848469,-35.975311],[136.853303,-35.97709],[136.853418,-35.977121],[136.853526,-35.97715],[136.853787,-35.977188],[136.854164,-35.977224],[136.85505,-35.977255],[136.855845,-35.977262]]}},{"type":"Feature","properties":{"tier":"arterial"},"geometry":{"type":"LineString","coordinates":[[136.739074,-35.95155],[136.739702,-35.950302],[136.739952,-35.949817],[136.740434,-35.949082],[136.740724,-35.948894],[136.741569,-35.948346],[136.743464,-35.9471],[136.744252,-35.946627],[136.744393,-35.946563],[136.744603,-35.946508],[136.744837,-35.946475],[136.74701,-35.946288],[136.749488,-35.94611],[136.74966,-35.946107],[136.751751,-35.946264],[136.755299,-35.946354],[136.759207,-35.946343],[136.759956,-35.946385],[136.76052,-35.946529],[136.763505,-35.947343],[136.767076,-35.948032],[136.769793,-35.948539],[136.770352,-35.948626],[136.7706,-35.948657],[136.770845,-35.948676],[136.771164,-35.948679],[136.771903,-35.948648],[136.774268,-35.948509],[136.77644,-35.9484],[136.776744,-35.948427],[136.777011,-35.94848],[136.777968,-35.948802],[136.779551,-35.94929],[136.779983,-35.949406],[136.780474,-35.949538],[136.781147,-35.949719],[136.781204,-35.949737],[136.781265,-35.949753],[136.781455,-35.949807]]}},{"type":"Feature","properties":{"tier":"arterial"},"geometry":{"type":"LineString","coordinates":[[136.877789,-35.977182],[136.88117,-35.977138],[136.883342,-35.977138],[136.88535,-35.977166],[136.888002,-35.977062],[136.889855,-35.976891],[136.890361,-35.976837],[136.891004,-35.976796],[136.891458,-35.976792],[136.8918,-35.976801],[136.892906,-35.976879],[136.89335,-35.976895],[136.894573,-35.976846],[136.896763,-35.976795],[136.899607,-35.976805],[136.90103,-35.976783],[136.901857,-35.9768],[136.902662,-35.976866],[136.903352,-35.976935],[136.904267,-35.977028],[136.904622,-35.977052],[136.904903,-35.977057],[136.905777,-35.977061],[136.906558,-35.977067],[136.909826,-35.977091],[136.912045,-35.977101],[136.912528,-35.977087],[136.913114,-35.977059],[136.913674,-35.977027],[136.916946,-35.976714],[136.919993,-35.976417],[136.920544,-35.976374],[136.921341,-35.976343],[136.925974,-35.97618],[136.926995,-35.97614],[136.927854,-35.976027],[136.930703,-35.975652],[136.932632,-35.9754],[136.933313,-35.975315],[136.934587,-35.97519],[136.937148,-35.975053],[136.937321,-35.975044],[136.938743,-35.974967],[136.939755,-35.974901],[136.942187,-35.974742],[136.944058,-35.974631],[136.945488,-35.9746],[136.946436,-35.974631],[136.948262,-35.97469],[136.948643,-35.974706],[136.949175,-35.974746],[136.950284,-35.974891],[136.950581,-35.974929],[136.951946,-35.97509],[136.952245,-35.97513],[136.952538,-35.975179],[136.952799,-35.975227],[136.953405,-35.975429],[136.956489,-35.976315],[136.960234,-35.97739],[136.961695,-35.977788],[136.967394,-35.979341],[136.968057,-35.97953],[136.96987,-35.980048],[136.972228,-35.980722],[136.974232,-35.981298],[136.974563,-35.981367],[136.975108,-35.981449],[136.975408,-35.981473],[136.977395,-35.981514],[136.979166,-35.981511],[136.979764,-35.981465],[136.981189,-35.981159],[136.98307,-35.980768],[136.983403,-35.980736],[136.983965,-35.980724],[136.984991,-35.98084],[136.988064,-35.981368],[136.989332,-35.981549],[136.989643,-35.981571],[136.990134,-35.981594],[136.990679,-35.981599],[136.991139,-35.981575],[136.991651,-35.981521],[136.992212,-35.981417],[136.992679,-35.981331],[136.993025,-35.981305],[136.993487,-35.981296],[136.993911,-35.981328],[136.996158,-35.981549],[137.00002,-35.981914]]}},{"type":"Feature","properties":{"tier":"arterial"},"geometry":{"type":"LineString","coordinates":[[136.856192,-35.977263],[136.85682,-35.97727],[136.85713,-35.97726],[136.858056,-35.977228],[136.864759,-35.977207],[136.86576,-35.977229],[136.86803,-35.977277],[136.873154,-35.977242],[136.876383,-35.9772],[136.8768,-35.977196]]}},{"type":"Feature","properties":{"tier":"arterial"},"geometry":{"type":"LineString","coordinates":[[136.8768,-35.977196],[136.877789,-35.977182]]}},{"type":"Feature","properties":{"tier":"arterial"},"geometry":{"type":"LineString","coordinates":[[136.736144,-35.952752],[136.736441,-35.952275],[136.736599,-35.952044],[136.736702,-35.951967],[136.736826,-35.95193],[136.737002,-35.951921],[136.737286,-35.951963],[136.737678,-35.952061],[136.737857,-35.952083]]}},{"type":"Feature","properties":{"tier":"arterial"},"geometry":{"type":"LineString","coordinates":[[136.73597,-35.953135],[136.736043,-35.952931],[136.736083,-35.95286],[136.736144,-35.952752]]}},{"type":"Feature","properties":{"tier":"arterial"},"geometry":{"type":"LineString","coordinates":[[136.737857,-35.952083],[136.738023,-35.952073],[136.738326,-35.951985],[136.738606,-35.951873],[136.738775,-35.951807],[136.739074,-35.95155]]}}]}
