{"type":"FeatureCollection","features":[{"type":"Feature","properties":{"tier":"regional"},"geometry":{"type":"LineString","coordinates":[[136.917333,-30.586559],[136.91597,-30.586511],[136.9152,-30.586484],[136.913622,-30.58639],[136.911828,-30.586283],[136.910669,-30.58613],[136.909556,-30.585953],[136.907856,-30.585458],[136.906982,-30.585148],[136.906117,-30.584756],[136.905003,-30.584202],[136.904296,-30.583764],[136.903849,-30.583465],[136.902867,-30.58275],[136.901917,-30.581952],[136.900039,-30.580238],[136.899267,-30.579535],[136.898847,-30.579154],[136.898335,-30.578687],[136.896283,-30.576885],[136.894398,-30.575199],[136.893326,-30.574118],[136.89252,-30.572929],[136.892242,-30.572467],[136.891995,-30.571975],[136.891759,-30.571329],[136.891436,-30.57004],[136.891326,-30.569545],[136.89119,-30.568936],[136.891159,-30.568798],[136.891144,-30.568729],[136.89107,-30.568395],[136.890937,-30.567823],[136.890672,-30.566614],[136.890499,-30.565617],[136.890469,-30.564949],[136.890549,-30.564042],[136.890672,-30.563454],[136.891027,-30.562225],[136.891088,-30.562015],[136.891119,-30.561907],[136.891183,-30.561687],[136.89146,-30.560929],[136.891692,-30.560491],[136.891752,-30.560377],[136.891835,-30.560232],[136.892472,-30.559293],[136.892797,-30.558813],[136.892969,-30.55846],[136.893086,-30.558166],[136.893119,-30.558041],[136.893134,-30.557969],[136.893259,-30.557456],[136.893295,-30.555886],[136.893304,-30.555448],[136.893271,-30.554141],[136.89316,-30.553441],[136.892833,-30.552459],[136.891961,-30.550352],[136.891502,-30.549114],[136.891245,-30.547996],[136.891106,-30.546999],[136.891045,-30.545945],[136.891214,-30.543194],[136.893368,-30.514976],[136.893472,-30.51363]]}},{"type":"Feature","properties":{"tier":"arterial"},"geometry":{"type":"LineString","coordinates":[[136.919218,-30.554286],[136.916599,-30.554182],[136.915579,-30.554156],[136.914516,-30.554108],[136.914028,-30.554101],[136.913543,-30.554104],[136.913017,-30.554112],[136.912476,-30.554141],[136.912036,-30.554175],[136.911575,-30.554221],[136.911132,-30.554276],[136.910658,-30.554351],[136.909241,-30.554607],[136.908372,-30.554766],[136.90795,-30.554833],[136.907459,-30.554882],[136.907095,-30.554907],[136.906733,-30.554921],[136.906173,-30.554906],[136.905712,-30.554852],[136.903114,-30.55463],[136.901356,-30.554438],[136.900945,-30.554411],[136.900634,-30.554387],[136.899829,-30.554428],[136.899194,-30.554459],[136.897094,-30.554678],[136.896059,-30.554847],[136.895631,-30.554943],[136.89442,-30.555229],[136.893468,-30.555453],[136.893304,-30.555448]]}},{"type":"Feature","properties":{"tier":"arterial"},"geometry":{"type":"LineString","coordinates":[[136.902778,-31.00002],[136.902869,-30.99951],[136.903785,-30.99448],[136.904709,-30.989203],[136.905694,-30.983865],[136.905895,-30.982699],[136.906026,-30.981376],[136.906052,-30.979941],[136.906069,-30.975231],[136.906069,-30.967725],[136.906095,-30.960794],[136.906052,-30.955209],[136.90606,-30.949451],[136.906078,-30.942735],[136.906095,-30.939168],[136.906113,-30.931106],[136.906078,-30.924337],[136.906104,-30.918046],[136.906113,-30.90975],[136.906113,-30.903623],[136.906117,-30.902036],[136.906122,-30.900615],[136.906095,-30.898812],[136.905991,-30.89659],[136.905808,-30.893028],[136.905668,-30.890469],[136.905633,-30.889205],[136.905651,-30.888434],[136.90572,-30.887708],[136.905843,-30.88693],[136.906069,-30.885665],[136.906392,-30.884543],[136.906836,-30.883368],[136.907438,-30.881991],[136.908022,-30.880712],[136.908293,-30.879888],[136.908554,-30.87902],[136.90879,-30.877958],[136.908955,-30.877015],[136.909034,-30.876019],[136.90906,-30.875039],[136.909051,-30.874006],[136.908955,-30.873161],[136.908833,-30.87233],[136.908676,-30.871529],[136.908389,-30.870511],[136.907987,-30.869374],[136.907552,-30.868341],[136.907203,-30.86757],[136.906767,-30.866792],[136.906174,-30.865751],[136.905712,-30.864891],[136.905258,-30.86388],[136.90497,-30.863094],[136.904626,-30.861879],[136.904379,-30.860826],[136.904244,-30.859873],[136.90412,-30.85872],[136.903978,-30.856116],[136.903798,-30.851465],[136.903775,-30.850876],[136.903516,-30.843777],[136.903374,-30.83851],[136.903233,-30.833666],[136.903097,-30.829261],[136.902943,-30.82448],[136.902776,-30.819615],[136.902769,-30.818278],[136.902908,-30.816757],[136.903127,-30.815499],[136.903545,-30.813972],[136.903937,-30.812788],[136.904652,-30.811253],[136.905777,-30.809359],[136.908402,-30.805891],[136.910904,-30.802633],[136.913564,-30.799121],[136.914279,-30.797892],[136.914458,-30.797467],[136.914619,-30.797009],[136.914705,-30.79674],[136.914912,-30.795787],[136.915011,-30.794649],[136.914932,-30.793481],[136.914706,-30.792155],[136.913895,-30.789316],[136.912177,-30.782477],[136.910904,-30.777676],[136.908829,-30.769712],[136.908131,-30.76724],[136.907425,-30.765846],[136.90685,-30.764887],[136.906021,-30.763718],[136.904731,-30.762295],[136.901365,-30.758781],[136.895881,-30.752973],[136.89571,-30.752799],[136.895052,-30.752127],[136.893718,-30.750553],[136.890667,-30.746784],[136.889568,-30.745053],[136.888792,-30.743561],[136.888234,-30.74231],[136.887685,-30.740624],[136.887318,-30.739088],[136.887048,-30.737446],[136.886943,-30.73606],[136.886935,-30.734381],[136.887065,-30.732979],[136.887554,-30.730154],[136.888295,-30.726863],[136.889516,-30.721144],[136.88976,-30.719783],[136.889834,-30.719492],[136.890076,-30.718543],[136.890449,-30.717479],[136.890736,-30.716654],[136.891094,-30.715882],[136.89221,-30.713573],[136.894268,-30.709306],[136.894834,-30.708131],[136.897652,-30.702194],[136.898172,-30.701101],[136.898228,-30.700985],[136.898327,-30.700857],[136.899954,-30.697362],[136.900267,-30.696705],[136.900588,-30.696012],[136.900944,-30.695246],[136.901444,-30.694171],[136.902098,-30.692342],[136.902569,-30.690759],[136.902961,-30.689252],[136.903318,-30.687558],[136.903647,-30.685932],[136.904097,-30.683701],[136.904131,-30.683533],[136.904574,-30.681341],[136.904669,-30.680868],[136.904769,-30.680373],[136.905332,-30.677571],[136.905856,-30.674967],[136.906306,-30.672701],[136.906638,-30.671035],[136.907146,-30.66848],[136.907704,-30.665855],[136.907927,-30.664812],[136.908036,-30.664303],[136.908471,-30.66263],[136.908674,-30.66184],[136.908749,-30.661561],[136.909091,-30.660395],[136.90984,-30.657725],[136.910006,-30.656832],[136.910146,-30.656037],[136.910233,-30.655204],[136.910303,-30.654177],[136.91032,-30.651912],[136.910442,-30.648491],[136.91052,-30.647351],[136.910625,-30.646196],[136.910913,-30.644365],[136.911044,-30.643715],[136.911183,-30.643022],[136.911453,-30.641837],[136.911741,-30.640727],[136.912465,-30.638251],[136.91318,-30.635595],[136.913546,-30.633735],[136.913655,-30.633132],[136.913783,-30.632358],[136.913838,-30.63185],[136.913895,-30.631025],[136.913912,-30.630771],[136.913921,-30.630684],[136.914113,-30.628805],[136.914375,-30.624904],[136.914455,-30.62388],[136.914557,-30.622587],[136.914863,-30.618691],[136.914992,-30.61695],[136.915421,-30.611172],[136.91559,-30.609083],[136.915676,-30.608019],[136.915944,-30.60471],[136.916441,-30.598279],[136.91683,-30.593072],[136.916964,-30.591276],[136.917333,-30.586559],[136.917723,-30.580054],[136.918089,-30.573501],[136.918473,-30.566594],[136.918821,-30.560693],[136.919183,-30.554854],[136.919218,-30.554286],[136.919301,-30.552403],[136.919528,-30.548206],[136.919501,-30.547064],[136.919388,-30.546043],[136.919065,-30.544819],[136.918638,-30.54349],[136.917766,-30.541688],[136.916084,-30.538563],[136.913712,-30.534035],[136.910503,-30.528004],[136.907451,-30.522236],[136.906893,-30.521349],[136.906161,-30.52044],[136.905481,-30.519652],[136.903266,-30.517166],[136.902359,-30.516377],[136.9014,-30.515731],[136.900624,-30.515303],[136.899595,-30.514829],[136.898488,-30.514454],[136.895889,-30.513793],[136.894294,-30.513369],[136.894139,-30.513338],[136.893883,-30.513271],[136.893507,-30.513173]]}},{"type":"Feature","properties":{"tier":"arterial"},"geometry":{"type":"LineString","coordinates":[[136.919301,-30.552403],[136.920872,-30.552456],[136.92154,-30.552426],[136.922071,-30.552352],[136.922518,-30.552263],[136.922705,-30.552226],[136.923301,-30.552028],[136.924022,-30.551726],[136.927659,-30.550099],[136.928386,-30.549793],[136.929108,-30.549525],[136.929868,-30.549264],[136.934109,-30.548064],[136.935044,-30.547857],[136.935592,-30.547765],[136.936368,-30.547683],[136.937213,-30.547654],[136.937974,-30.547659],[136.938755,-30.547722],[136.939491,-30.547822],[136.940326,-30.547968],[136.940913,-30.548044],[136.941551,-30.54809],[136.942492,-30.548102],[136.944308,-30.547924],[136.962384,-30.545739],[136.963684,-30.545573],[136.964245,-30.545466],[136.964684,-30.545352],[136.965181,-30.545189],[136.965571,-30.545036],[136.966033,-30.544803],[136.966437,-30.544561],[136.966764,-30.544344],[136.967065,-30.544103],[136.967509,-30.543673],[136.967787,-30.543377],[136.968051,-30.543051],[136.968307,-30.542644],[136.968474,-30.542327],[136.968769,-30.541728],[136.973521,-30.53213],[136.973859,-30.531647],[136.974174,-30.531288],[136.974457,-30.531003],[136.974846,-30.530658],[136.975219,-30.530402],[136.975692,-30.530104],[136.976164,-30.529861],[136.976756,-30.529593],[136.979352,-30.528402],[136.985452,-30.52561],[136.989393,-30.523802],[136.989995,-30.523461],[136.990405,-30.523167],[136.990909,-30.522743],[136.991344,-30.522286],[136.99177,-30.521732],[136.992056,-30.521243],[136.992317,-30.5207],[136.992499,-30.520171],[136.99261,-30.519678],[136.992656,-30.518953],[136.992632,-30.518331],[136.992605,-30.517843],[136.992635,-30.51726],[136.992724,-30.516759],[136.992885,-30.516154],[136.992998,-30.515852],[136.993125,-30.515561],[136.993311,-30.515203],[136.993591,-30.51477],[136.994011,-30.514241],[136.994459,-30.513793],[136.995466,-30.51291],[136.996965,-30.511646],[136.998986,-30.509735],[137.00002,-30.508727]]}},{"type":"Feature","properties":{"tier":"arterial"},"geometry":{"type":"LineString","coordinates":[[136.893883,-30.513271],[136.893692,-30.513287],[136.893562,-30.513378],[136.893472,-30.51363]]}},{"type":"Feature","properties":{"tier":"arterial"},"geometry":{"type":"LineString","coordinates":[[136.893577,-30.512186],[136.893596,-30.512809],[136.893599,-30.512906],[136.8936,-30.512967]]}},{"type":"Feature","properties":{"tier":"arterial"},"geometry":{"type":"LineString","coordinates":[[136.540384,-30.944074],[136.561327,-30.944015],[136.562711,-30.943995],[136.563196,-30.943989],[136.584957,-30.943914],[136.585077,-30.943906],[136.585235,-30.943896],[136.585461,-30.943842],[136.586178,-30.943595],[136.590265,-30.942055],[136.606448,-30.935957],[136.606785,-30.935841],[136.607327,-30.9357],[136.607669,-30.935683],[136.608467,-30.935721],[136.608942,-30.935707],[136.60947,-30.935636],[136.61005,-30.935498],[136.619428,-30.931929],[136.633615,-30.926628],[136.63518,-30.926064],[136.635439,-30.926015],[136.635758,-30.925988],[136.636199,-30.92604],[136.636456,-30.92613],[136.639259,-30.927998],[136.639566,-30.92815],[136.640187,-30.928326],[136.640734,-30.928356],[136.641377,-30.928321],[136.645587,-30.927963],[136.646232,-30.927883],[136.646715,-30.927757],[136.647194,-30.927553],[136.647572,-30.927318],[136.647899,-30.927038],[136.648216,-30.926683],[136.648385,-30.926421],[136.648989,-30.925275],[136.651586,-30.920416],[136.651909,-30.920017],[136.652279,-30.919718],[136.65263,-30.919501],[136.65304,-30.919303],[136.666988,-30.914063],[136.68205,-30.908367],[136.69453,-30.903683],[136.710012,-30.897842],[136.710367,-30.897639],[136.710692,-30.897387],[136.711497,-30.896513],[136.711714,-30.896316],[136.712037,-30.896104],[136.712399,-30.895924],[136.712786,-30.895776],[136.726708,-30.891553],[136.72933,-30.890755],[136.731117,-30.890218],[136.731726,-30.889996],[136.73941,-30.88706],[136.746461,-30.884403],[136.7557,-30.881355],[136.762246,-30.879206],[136.762752,-30.879033],[136.763205,-30.878796],[136.764163,-30.878124],[136.769081,-30.873788],[136.769389,-30.873597],[136.769703,-30.873484],[136.770153,-30.873415],[136.772674,-30.87309],[136.772801,-30.873107],[136.772921,-30.873162],[136.773032,-30.873343],[136.773681,-30.876921],[136.773638,-30.877431],[136.773512,-30.877992],[136.773404,-30.878349],[136.773273,-30.878597],[136.772964,-30.879009],[136.77123,-30.880968],[136.770869,-30.881944],[136.770615,-30.882787],[136.770293,-30.884289],[136.770211,-30.885017],[136.770103,-30.885596],[136.769687,-30.886131],[136.769021,-30.886652],[136.768354,-30.887116],[136.760171,-30.891397],[136.759467,-30.891967],[136.75906,-30.89242],[136.756058,-30.8964],[136.754554,-30.898002],[136.750933,-30.901691],[136.750646,-30.902144],[136.750525,-30.902572],[136.750541,-30.903085],[136.750756,-30.903617],[136.752362,-30.906096],[136.754623,-30.909757],[136.754859,-30.910199],[136.754991,-30.910516],[136.755026,-30.910809],[136.755015,-30.912498],[136.754964,-30.912841],[136.754843,-30.913131],[136.754688,-30.913331],[136.75443,-30.913573],[136.753099,-30.91453],[136.751086,-30.915458],[136.750386,-30.915909],[136.750156,-30.916219],[136.749931,-30.916678],[136.749829,-30.917213],[136.749934,-30.917711],[136.750135,-30.918208],[136.750501,-30.918499],[136.751704,-30.9191],[136.753483,-30.919739],[136.753859,-30.919941],[136.754183,-30.92024],[136.755009,-30.921138],[136.755165,-30.921334],[136.755324,-30.921684],[136.756726,-30.925796],[136.756877,-30.926324],[136.756956,-30.926809],[136.757025,-30.927244],[136.75707,-30.927526],[136.757469,-30.932307],[136.757838,-30.934407],[136.757997,-30.935452],[136.757976,-30.935938],[136.757893,-30.936318],[136.757252,-30.937296],[136.757128,-30.937668],[136.757132,-30.938006],[136.757229,-30.938409],[136.7577,-30.940602],[136.758249,-30.941626],[136.758314,-30.941837],[136.758441,-30.942673],[136.758633,-30.943244],[136.758745,-30.943642],[136.758775,-30.943865],[136.758779,-30.944233],[136.758759,-30.944751],[136.758747,-30.945012],[136.758804,-30.94542],[136.758967,-30.946627],[136.759093,-30.950674],[136.759104,-30.950773],[136.75912,-30.950877],[136.759143,-30.950992],[136.759192,-30.951187],[136.759252,-30.951368],[136.759607,-30.952544],[136.759854,-30.953307],[136.759895,-30.95349],[136.759905,-30.953629],[136.759901,-30.953742],[136.759886,-30.953857],[136.759875,-30.95391],[136.759838,-30.954034],[136.759678,-30.954375],[136.759325,-30.955087],[136.75921,-30.955303],[136.759101,-30.955538],[136.758935,-30.955932],[136.758761,-30.956345],[136.758709,-30.956422],[136.758659,-30.956473],[136.758604,-30.956517],[136.758528,-30.956562],[136.758471,-30.956587],[136.758382,-30.956613],[136.758269,-30.956628],[136.758129,-30.956643],[136.75531,-30.956816],[136.754001,-30.956889],[136.752753,-30.95695],[136.752363,-30.956948],[136.752144,-30.956948],[136.751959,-30.956964],[136.751803,-30.956989],[136.751683,-30.957015],[136.751566,-30.957047],[136.751463,-30.957082],[136.751372,-30.957116],[136.751249,-30.957171],[136.751148,-30.957223],[136.751059,-30.957274],[136.750967,-30.957334],[136.750873,-30.957402],[136.750793,-30.957455],[136.750683,-30.957564],[136.750624,-30.957631],[136.750574,-30.957696],[136.750527,-30.957767],[136.750486,-30.957836],[136.750441,-30.957927],[136.750403,-30.957992],[136.750371,-30.958063],[136.750342,-30.958133],[136.750306,-30.958233],[136.750278,-30.958325],[136.75024,-30.958486],[136.750229,-30.958552],[136.750211,-30.958705],[136.750206,-30.958811],[136.750207,-30.95892],[136.750213,-30.959019],[136.750228,-30.959146],[136.750248,-30.959257],[136.750263,-30.959393],[136.750302,-30.959523],[136.750347,-30.959643],[136.750387,-30.959734],[136.750442,-30.959841],[136.75053,-30.959984],[136.750676,-30.960178],[136.750789,-30.960358],[136.755541,-30.966504],[136.761612,-30.974214],[136.767114,-30.981388],[136.772386,-30.988121],[136.778566,-30.996044],[136.781236,-31.00002]]}},{"type":"Feature","properties":{"tier":"arterial"},"geometry":{"type":"LineString","coordinates":[[136.914458,-30.797467],[136.91422,-30.797396],[136.913953,-30.797289],[136.913807,-30.797178],[136.913537,-30.79687],[136.913315,-30.796787],[136.913104,-30.796708],[136.910239,-30.796737],[136.908789,-30.796752],[136.902019,-30.796746],[136.901744,-30.796746],[136.900175,-30.796744],[136.896552,-30.796754],[136.895807,-30.796756],[136.895591,-30.796757],[136.894845,-30.796759],[136.89228,-30.796745],[136.891813,-30.796883],[136.891272,-30.797136],[136.890882,-30.797318],[136.890454,-30.797382],[136.890172,-30.79733],[136.889219,-30.796885],[136.888444,-30.796676],[136.887059,-30.796243],[136.886146,-30.795987],[136.883125,-30.795061],[136.882361,-30.794796],[136.881062,-30.794431],[136.876365,-30.792936],[136.876122,-30.792782],[136.874579,-30.791477],[136.873833,-30.790807],[136.873301,-30.790458],[136.872356,-30.789767],[136.871894,-30.789211],[136.870754,-30.787742],[136.869753,-30.786545],[136.869139,-30.785811],[136.867648,-30.783973],[136.865851,-30.781683],[136.859369,-30.773754],[136.858873,-30.773239],[136.858605,-30.773054],[136.858349,-30.772876],[136.857863,-30.772686],[136.856543,-30.772251],[136.85458,-30.771605],[136.842316,-30.767563],[136.840796,-30.767062],[136.832259,-30.764253],[136.827851,-30.762999],[136.82556,-30.762495],[136.823971,-30.7621],[136.823483,-30.762059],[136.82315,-30.762087],[136.818703,-30.763755],[136.818193,-30.763875],[136.817779,-30.763878],[136.817297,-30.763838],[136.816694,-30.763675],[136.816241,-30.763549],[136.815106,-30.762878],[136.812226,-30.760354],[136.809374,-30.7579],[136.806433,-30.755373],[136.799656,-30.74955],[136.797258,-30.747374],[136.794236,-30.745064],[136.791902,-30.743208],[136.791715,-30.743063],[136.791029,-30.742616],[136.790941,-30.742559],[136.789807,-30.741882],[136.78794,-30.740854],[136.780296,-30.736378],[136.778977,-30.73566],[136.77836,-30.735306],[136.778098,-30.735056],[136.777896,-30.734764],[136.776861,-30.733099],[136.774905,-30.729952],[136.77478,-30.72975],[136.773303,-30.727374],[136.772996,-30.726925],[136.772629,-30.726389],[136.772358,-30.725992],[136.771799,-30.725124],[136.771583,-30.724958],[136.771321,-30.724846],[136.768702,-30.724037],[136.768377,-30.723936],[136.767791,-30.723738],[136.767714,-30.723712],[136.767586,-30.723634],[136.767249,-30.723429],[136.766837,-30.723036],[136.764604,-30.719711],[136.764523,-30.719373],[136.764604,-30.719034],[136.764847,-30.718782],[136.765341,-30.718444],[136.765482,-30.718227],[136.765533,-30.717923],[136.765472,-30.717576],[136.765371,-30.717064],[136.765392,-30.7165],[136.765573,-30.715294],[136.765382,-30.713393],[136.765462,-30.711857],[136.765674,-30.711084],[136.765624,-30.710625],[136.765513,-30.709939],[136.765537,-30.709435]]}},{"type":"Feature","properties":{"tier":"arterial"},"geometry":{"type":"LineString","coordinates":[[136.54001,-30.973335],[136.539979,-30.97345]]}},{"type":"Feature","properties":{"tier":"arterial"},"geometry":{"type":"LineString","coordinates":[[136.534855,-30.957707],[136.535468,-30.958939],[136.535558,-30.959113],[136.536562,-30.961055],[136.537056,-30.961929],[136.538338,-30.96406],[136.539363,-30.965767],[136.540226,-30.967265],[136.540441,-30.967657],[136.540536,-30.967931],[136.540628,-30.968198],[136.540768,-30.968764],[136.540775,-30.968877],[136.540806,-30.969396],[136.540789,-30.970052],[136.540687,-30.970664],[136.540419,-30.971671],[136.540327,-30.972048],[136.540177,-30.972657],[136.54001,-30.973335]]}},{"type":"Feature","properties":{"tier":"arterial"},"geometry":{"type":"LineString","coordinates":[[136.539979,-30.97345],[136.539802,-30.974201],[136.539518,-30.975217],[136.539309,-30.9757],[136.5391,-30.976073],[136.538864,-30.976372],[136.538499,-30.976741],[136.537163,-30.977788],[136.5338,-30.980424],[136.531284,-30.982408],[136.528489,-30.984627],[136.528156,-30.984945],[136.527905,-30.985211],[136.527685,-30.985492],[136.527486,-30.985795],[136.52681,-30.986871],[136.525324,-30.989208],[136.523774,-30.99164],[136.522545,-30.993613],[136.522309,-30.99416],[136.522127,-30.99474],[136.52203,-30.995278],[136.522009,-30.995655],[136.522014,-30.996115],[136.522025,-30.996492],[136.522132,-30.996942],[136.522347,-30.997664],[136.522856,-30.999221],[136.523117,-31.00002]]}},{"type":"Feature","properties":{"tier":"arterial"},"geometry":{"type":"LineString","coordinates":[[136.49998,-30.898663],[136.500754,-30.899651],[136.500856,-30.899781],[136.500969,-30.899925]]}},{"type":"Feature","properties":{"tier":"arterial"},"geometry":{"type":"LineString","coordinates":[[136.765537,-30.709435],[136.765581,-30.7093],[136.765598,-30.7092],[136.765611,-30.709131],[136.765741,-30.708831],[136.765983,-30.708626],[136.766362,-30.708448],[136.766801,-30.708272],[136.767237,-30.707952],[136.767454,-30.707738],[136.767735,-30.707461],[136.769292,-30.706093],[136.769553,-30.705863],[136.76989,-30.705486],[136.770121,-30.705227],[136.770315,-30.70501],[136.770661,-30.704355],[136.770715,-30.704059],[136.770698,-30.703726],[136.770695,-30.703117],[136.770777,-30.702743],[136.770931,-30.702475],[136.771195,-30.701871],[136.771284,-30.701094],[136.771195,-30.700665],[136.771041,-30.700333],[136.770906,-30.700211],[136.770677,-30.700119],[136.770335,-30.700054],[136.769546,-30.699999],[136.769255,-30.699921],[136.769117,-30.699821],[136.768907,-30.699674],[136.768364,-30.698956],[136.767975,-30.698771],[136.767597,-30.698719],[136.766137,-30.698517],[136.765027,-30.698489],[136.764488,-30.6986],[136.763703,-30.6986],[136.762982,-30.698676],[136.762697,-30.698633],[136.762457,-30.698549],[136.762211,-30.698437],[136.761878,-30.698372],[136.761505,-30.698329],[136.761273,-30.698271],[136.761158,-30.698176],[136.760987,-30.697986],[136.760881,-30.697817],[136.760591,-30.69737],[136.760491,-30.697059],[136.759834,-30.694527],[136.759784,-30.694113],[136.759654,-30.693038],[136.75962,-30.692762],[136.75977,-30.692247],[136.759763,-30.692055],[136.759752,-30.691762],[136.759692,-30.691274],[136.759393,-30.690594],[136.759228,-30.690289],[136.758464,-30.689106],[136.75727,-30.687177],[136.756597,-30.686286],[136.755691,-30.685169],[136.754984,-30.684165],[136.754529,-30.683403],[136.752904,-30.680093],[136.752631,-30.679591],[136.752463,-30.679093],[136.751929,-30.678229],[136.750469,-30.676184],[136.747068,-30.67142],[136.746091,-30.66968],[136.745467,-30.668646],[136.744884,-30.667522],[136.744084,-30.665545],[136.743756,-30.664937],[136.742992,-30.663807],[136.742414,-30.66315],[136.740501,-30.661235],[136.739537,-30.660621],[136.738183,-30.66009],[136.734091,-30.65849],[136.733641,-30.658134],[136.73347,-30.657882],[136.733256,-30.657366],[136.733042,-30.657121],[136.728851,-30.652183],[136.728238,-30.651219],[136.727924,-30.650777],[136.726689,-30.649844],[136.726478,-30.649639],[136.726225,-30.649199],[136.726182,-30.648143],[136.725661,-30.645631],[136.725354,-30.644998],[136.724717,-30.64398],[136.7242,-30.643169],[136.723714,-30.642408],[136.723441,-30.64175],[136.723373,-30.641164],[136.723341,-30.640884],[136.723598,-30.640178],[136.724085,-30.639403],[136.725533,-30.63784],[136.726288,-30.637194],[136.727207,-30.636787],[136.728478,-30.636451],[136.729065,-30.636171],[136.729459,-30.635722],[136.729707,-30.634913],[136.72945,-30.634188],[136.729276,-30.63395],[136.728816,-30.63332],[136.72699,-30.630768],[136.725307,-30.628524],[136.724663,-30.627721],[136.724144,-30.626458],[136.723475,-30.624686],[136.721621,-30.621544],[136.72065,-30.619981],[136.720149,-30.619372],[136.719678,-30.618979],[136.7191,-30.618636],[136.718545,-30.618452],[136.716018,-30.618096],[136.715413,-30.617949],[136.715206,-30.617752],[136.715084,-30.617422],[136.715183,-30.617066],[136.715361,-30.615985],[136.715562,-30.614423],[136.715526,-30.613392],[136.715348,-30.612481],[136.714912,-30.611701],[136.714728,-30.610881],[136.714563,-30.610406],[136.714278,-30.610104],[136.714041,-30.610005],[136.71379,-30.60995],[136.712655,-30.609969],[136.71232,-30.60987],[136.711936,-30.609698],[136.711672,-30.609349],[136.711516,-30.608555],[136.711229,-30.605715],[136.711065,-30.604974],[136.710865,-30.604569],[136.710174,-30.603919],[136.707323,-30.601053],[136.70676,-30.600649],[136.70481,-30.599745],[136.703875,-30.599438],[136.703391,-30.599088],[136.703006,-30.598517],[136.702842,-30.597945],[136.70264,-30.597423],[136.702516,-30.5971],[136.701549,-30.595677],[136.701028,-30.595248],[136.699286,-30.5944],[136.697465,-30.59405],[136.695358,-30.594054],[136.694196,-30.594056],[136.691707,-30.593987],[136.691495,-30.593987],[136.691286,-30.59404],[136.691106,-30.594197],[136.690934,-30.594405],[136.690615,-30.594677],[136.690194,-30.594957],[136.689856,-30.595121],[136.689502,-30.595236],[136.688724,-30.595356],[136.688078,-30.595435],[136.687458,-30.595446],[136.687101,-30.595405],[136.686742,-30.595271],[136.686121,-30.594805],[136.686013,-30.594292],[136.686038,-30.594205],[136.686204,-30.593608],[136.68618,-30.593112],[136.685438,-30.591992],[136.685056,-30.591635],[136.683406,-30.591059],[136.678678,-30.589021],[136.677872,-30.588596],[136.676915,-30.587832],[136.675794,-30.587401],[136.672639,-30.584513],[136.671568,-30.583069],[136.670362,-30.582541],[136.669091,-30.582332],[136.665851,-30.583069],[136.664105,-30.583133],[136.663301,-30.583082],[136.662155,-30.582812],[136.660413,-30.582684],[136.655156,-30.582671],[136.653474,-30.582953],[136.65264,-30.583197],[136.652178,-30.583197],[136.651389,-30.583133],[136.647963,-30.583939],[136.6475,-30.583962],[136.647095,-30.583875],[136.646626,-30.583644],[136.645278,-30.582004],[136.644957,-30.581772],[136.644489,-30.581546],[136.644036,-30.581423],[136.64203,-30.581161],[136.640519,-30.581183],[136.635418,-30.580671],[136.63467,-30.580703],[136.633939,-30.58083],[136.62994,-30.580997],[136.626844,-30.581532],[136.626371,-30.581536],[136.625812,-30.581232],[136.623333,-30.578305],[136.622917,-30.577448],[136.622782,-30.573341],[136.622551,-30.570477],[136.622424,-30.569996],[136.622214,-30.569588],[136.621887,-30.569008],[136.620634,-30.567784],[136.620139,-30.567576],[136.61836,-30.566968],[136.616549,-30.564992],[136.615833,-30.56452],[136.61537,-30.564357],[136.614507,-30.564239],[136.613475,-30.564049],[136.610158,-30.564285],[136.609221,-30.564448],[136.607041,-30.564575],[136.60382,-30.564348],[136.603188,-30.564103],[136.601227,-30.562892],[136.598847,-30.562788],[136.597689,-30.56296],[136.595551,-30.562942],[136.594983,-30.563033],[136.593572,-30.562969],[136.592534,-30.562652],[136.589891,-30.561219],[136.588269,-30.559578],[136.587796,-30.558418],[136.587406,-30.557955],[136.586795,-30.55752],[136.582752,-30.556414],[136.581899,-30.556351],[136.577825,-30.556206],[136.577277,-30.55587],[136.576519,-30.554973],[136.576024,-30.554039],[136.574561,-30.552515],[136.57414,-30.55189],[136.568833,-30.54751],[136.564211,-30.543212],[136.561789,-30.541226],[136.561242,-30.540383],[136.560389,-30.539467],[136.558894,-30.538252],[136.558536,-30.537798],[136.558378,-30.53739],[136.558252,-30.535921],[136.55803,-30.535531],[136.557641,-30.535087],[136.55624,-30.534289],[136.555145,-30.533908],[136.55463,-30.533862],[136.554082,-30.533636],[136.553671,-30.5332],[136.552878,-30.532783],[136.551582,-30.532353],[136.551396,-30.532199],[136.549632,-30.528339],[136.548977,-30.526665],[136.547659,-30.52485],[136.546803,-30.523946],[136.545946,-30.523587],[136.544658,-30.523414],[136.542983,-30.522413],[136.542417,-30.522182],[136.541368,-30.522022],[136.540988,-30.521804],[136.540705,-30.521515],[136.540541,-30.521169],[136.540288,-30.519848],[136.538457,-30.517366],[136.537824,-30.517006],[136.533922,-30.515852],[136.533022,-30.515159],[136.532776,-30.514761],[136.532381,-30.513812],[136.531116,-30.512093],[136.530676,-30.510714],[136.53055,-30.510047],[136.530252,-30.509573],[136.529991,-30.508238],[136.52784,-30.505878],[136.52513,-30.503517],[136.523827,-30.502786],[136.523618,-30.502574],[136.522546,-30.501003],[136.522115,-30.500714],[136.52166,-30.500605],[136.520841,-30.50056],[136.519717,-30.500028],[136.519544,-30.49998]]}},{"type":"Feature","properties":{"tier":"regional"},"geometry":{"type":"LineString","coordinates":[[136.838571,-30.81822],[136.839026,-30.820408],[136.839074,-30.820635],[136.83909,-30.82071],[136.839515,-30.822726],[136.83975,-30.823883],[136.839872,-30.824486],[136.839926,-30.824738],[136.839883,-30.824914],[136.839807,-30.825091],[136.839569,-30.82524],[136.837953,-30.826078],[136.83456,-30.827866],[136.829366,-30.830613],[136.824725,-30.833024],[136.821213,-30.834877],[136.816008,-30.837595],[136.814924,-30.838154],[136.814479,-30.838358],[136.814046,-30.838507],[136.813113,-30.838777],[136.808169,-30.840164],[136.805453,-30.840937],[136.803013,-30.841626],[136.802536,-30.841793],[136.802081,-30.842026],[136.798633,-30.843851],[136.793613,-30.846466],[136.786858,-30.849985],[136.784766,-30.851083],[136.78332,-30.851842],[136.77632,-30.855544],[136.775807,-30.855835],[136.775445,-30.85612],[136.774917,-30.856802],[136.774702,-30.857241],[136.774622,-30.857663],[136.774582,-30.858149],[136.774667,-30.858657],[136.774796,-30.85936],[136.774812,-30.859855],[136.774745,-30.860502],[136.774394,-30.861494],[136.773171,-30.865394],[136.773026,-30.865956],[136.772886,-30.866799],[136.772699,-30.868364],[136.772527,-30.869792],[136.772511,-30.870547],[136.773032,-30.873343]]}},{"type":"Feature","properties":{"tier":"arterial"},"geometry":{"type":"LineString","coordinates":[[136.893472,-30.51363],[136.893507,-30.513173],[136.893577,-30.512186],[136.893771,-30.509451],[136.894037,-30.506216],[136.89404,-30.50585],[136.893837,-30.500826],[136.893802,-30.49998]]}},{"type":"Feature","properties":{"tier":"regional"},"geometry":{"type":"LineString","coordinates":[[136.49998,-30.900352],[136.50049,-30.900245],[136.501145,-30.900149]]}},{"type":"Feature","properties":{"tier":"arterial"},"geometry":{"type":"LineString","coordinates":[[136.500969,-30.899925],[136.501145,-30.900149],[136.501383,-30.900462],[136.50205,-30.90134],[136.502219,-30.901649],[136.502341,-30.901975],[136.502913,-30.904028],[136.503102,-30.904475],[136.503202,-30.904607],[136.503382,-30.904844],[136.507273,-30.909419],[136.508127,-30.910415],[136.511018,-30.913785],[136.513026,-30.916144],[136.523135,-30.927147],[136.529699,-30.934292],[136.534085,-30.939029],[136.534715,-30.93977],[136.535725,-30.94087]]}},{"type":"Feature","properties":{"tier":"regional"},"geometry":{"type":"LineString","coordinates":[[136.89107,-30.568395],[136.891184,-30.568536],[136.891249,-30.568586],[136.891324,-30.568633],[136.891486,-30.568672]]}},{"type":"Feature","properties":{"tier":"regional"},"geometry":{"type":"LineString","coordinates":[[136.891183,-30.561687],[136.891227,-30.561808],[136.891266,-30.561889],[136.891341,-30.561956]]}},{"type":"Feature","properties":{"tier":"regional"},"geometry":{"type":"LineString","coordinates":[[136.891326,-30.562061],[136.89121,-30.562093],[136.891121,-30.562145],[136.891027,-30.562225]]}},{"type":"Feature","properties":{"tier":"arterial"},"geometry":{"type":"LineString","coordinates":[[136.535725,-30.94087],[136.535925,-30.941004],[136.536196,-30.941174],[136.538547,-30.942589],[136.539261,-30.943013],[136.539625,-30.943229],[136.539937,-30.94347],[136.540149,-30.943698],[136.540384,-30.944074],[136.54046,-30.944296],[136.540505,-30.944634],[136.540503,-30.945027],[136.540366,-30.945591],[136.53948,-30.94872],[136.538441,-30.952346],[136.538283,-30.952728],[136.537919,-30.953319],[136.536392,-30.9555],[136.534855,-30.957707]]}},{"type":"Feature","properties":{"tier":"arterial"},"geometry":{"type":"LineString","coordinates":[[136.8936,-30.512967],[136.893751,-30.513191],[136.894139,-30.513338]]}},{"type":"Feature","properties":{"tier":"regional"},"geometry":{"type":"LineString","coordinates":[[136.891499,-30.568739],[136.891367,-30.568796],[136.891315,-30.568824],[136.891254,-30.568866],[136.89119,-30.568936]]}}]}
