{"type":"FeatureCollection","features":[{"type":"Feature","properties":{"tier":"arterial"},"geometry":{"type":"LineString","coordinates":[[137.00002,-35.065876],[136.997932,-35.068568],[136.997378,-35.069179],[136.9913,-35.074519],[136.990108,-35.075506],[136.989791,-35.075732],[136.986817,-35.077513]]}},{"type":"Feature","properties":{"tier":"arterial"},"geometry":{"type":"LineString","coordinates":[[137.00002,-35.218469],[136.996746,-35.220754],[136.993631,-35.222926],[136.993138,-35.223253],[136.992671,-35.223533],[136.991354,-35.224171],[136.990648,-35.224507],[136.99006,-35.224805],[136.989516,-35.225134],[136.989167,-35.225361],[136.988394,-35.225957]]}},{"type":"Feature","properties":{"tier":"arterial"},"geometry":{"type":"LineString","coordinates":[[136.962958,-35.256661],[136.962503,-35.257087],[136.961958,-35.257529],[136.960786,-35.258362],[136.958672,-35.25991],[136.957235,-35.260962],[136.955757,-35.262044],[136.955206,-35.262447],[136.954677,-35.2628],[136.952805,-35.263846],[136.950205,-35.265247],[136.949802,-35.26549]]}},{"type":"Feature","properties":{"tier":"arterial"},"geometry":{"type":"LineString","coordinates":[[136.94162,-35.267941],[136.941588,-35.26797],[136.941577,-35.267977],[136.941554,-35.267987],[136.941541,-35.267991],[136.941514,-35.267996],[136.941492,-35.267997],[136.941464,-35.267995],[136.941447,-35.267991],[136.941423,-35.267982],[136.941387,-35.267961],[136.941373,-35.267946],[136.94136,-35.267929],[136.941352,-35.267912],[136.941347,-35.267896],[136.941345,-35.267869],[136.941349,-35.267847],[136.941357,-35.267826],[136.941372,-35.267807],[136.941392,-35.26779],[136.941413,-35.267774],[136.941474,-35.267742],[136.941501,-35.267731],[136.941523,-35.267726],[136.941555,-35.267724],[136.941577,-35.267727],[136.941592,-35.26773],[136.941609,-35.267736],[136.941628,-35.267746],[136.941637,-35.267752],[136.941654,-35.267767],[136.94166,-35.267773],[136.941671,-35.26779],[136.941676,-35.267802],[136.941681,-35.267822],[136.941682,-35.267836],[136.941677,-35.267864],[136.941664,-35.267889],[136.941655,-35.267901],[136.94162,-35.267941]]}},{"type":"Feature","properties":{"tier":"arterial"},"geometry":{"type":"LineString","coordinates":[[136.986817,-35.077513],[136.982751,-35.079949],[136.978254,-35.08269],[136.978028,-35.08292],[136.977622,-35.083331],[136.97714,-35.084142],[136.976177,-35.085307],[136.973711,-35.087476],[136.97192,-35.089604],[136.970972,-35.090985],[136.970507,-35.091687],[136.970314,-35.091955],[136.969502,-35.093114],[136.969106,-35.093942],[136.96897,-35.094855],[136.968951,-35.095668],[136.96893,-35.096145],[136.968833,-35.096739],[136.968428,-35.098158],[136.96806,-35.09983],[136.967762,-35.101095],[136.96726,-35.102328],[136.966283,-35.105415],[136.965844,-35.106724],[136.965384,-35.108021],[136.96481,-35.109387],[136.964088,-35.110864],[136.963331,-35.112532],[136.962651,-35.114286],[136.962227,-35.115386],[136.961661,-35.116051],[136.961121,-35.116693],[136.960813,-35.117202],[136.96059,-35.117817],[136.960482,-35.118427],[136.96057,-35.119511],[136.9608,-35.121815],[136.96112,-35.124206],[136.961439,-35.125073],[136.961664,-35.125611],[136.961793,-35.126069],[136.961825,-35.126671],[136.961745,-35.127354],[136.961512,-35.128005],[136.961251,-35.128578],[136.961111,-35.129032],[136.961046,-35.129823],[136.961151,-35.130687],[136.96148,-35.131566],[136.961823,-35.132433],[136.961933,-35.132824],[136.961971,-35.133327],[136.961931,-35.13398],[136.96172,-35.134913],[136.961406,-35.13559],[136.961199,-35.135941],[136.960657,-35.136523],[136.960095,-35.136937],[136.959517,-35.137239],[136.958175,-35.137966],[136.957585,-35.138431],[136.956521,-35.139815],[136.955626,-35.141016],[136.955439,-35.141389],[136.955285,-35.141717],[136.954887,-35.143541],[136.954324,-35.146421],[136.95416,-35.147407],[136.954005,-35.148132],[136.953838,-35.148625],[136.952754,-35.150578],[136.952584,-35.150943],[136.952378,-35.15156],[136.95208,-35.152498],[136.952034,-35.152645],[136.951849,-35.153292],[136.951777,-35.153632],[136.951753,-35.154035],[136.951772,-35.154526],[136.95189,-35.155076],[136.951966,-35.155832],[136.95209,-35.157071],[136.952372,-35.160063],[136.952774,-35.164627],[136.95273,-35.165302],[136.952588,-35.165765],[136.95244,-35.166163],[136.951956,-35.16744],[136.951665,-35.168173],[136.951436,-35.168748],[136.951271,-35.169353],[136.951066,-35.170671],[136.950882,-35.172601],[136.950808,-35.173913],[136.950754,-35.176987],[136.950776,-35.177279],[136.950847,-35.177607],[136.950891,-35.177746],[136.951236,-35.178966],[136.951825,-35.180455],[136.952559,-35.18228],[136.953024,-35.183453],[136.953225,-35.184152],[136.953274,-35.184672],[136.953256,-35.184967],[136.953189,-35.185497],[136.953156,-35.186047],[136.95318,-35.186521],[136.953252,-35.186898],[136.953429,-35.187356],[136.953517,-35.187798],[136.953589,-35.18844],[136.953674,-35.192098],[136.953561,-35.192542],[136.953268,-35.193209],[136.953138,-35.193481],[136.952794,-35.194221],[136.952511,-35.194874],[136.952388,-35.195408],[136.952364,-35.195947],[136.952491,-35.196781],[136.952799,-35.197562],[136.953339,-35.198256],[136.954238,-35.199335],[136.954552,-35.199824],[136.954773,-35.200369],[136.955745,-35.202615],[136.95632,-35.20337],[136.957065,-35.204008],[136.957574,-35.20428],[136.958109,-35.204526],[136.959545,-35.205106],[136.961941,-35.206115],[136.963307,-35.206837],[136.964236,-35.207558],[136.966808,-35.209938],[136.967475,-35.21054],[136.967818,-35.210977],[136.967949,-35.211143],[136.969327,-35.213873],[136.970166,-35.215705],[136.971135,-35.21751],[136.971571,-35.218034],[136.972089,-35.218509],[136.97309,-35.21943],[136.973439,-35.219713],[136.973753,-35.219996],[136.974243,-35.220667],[136.974607,-35.221166],[136.974891,-35.221555],[136.975174,-35.22193],[136.975436,-35.222341],[136.975868,-35.223014],[136.97648,-35.223805],[136.976659,-35.224097],[136.977507,-35.225536],[136.978438,-35.227087],[136.978861,-35.227802],[136.979068,-35.228174],[136.979253,-35.228518],[136.979516,-35.229068],[136.979658,-35.229449],[136.979945,-35.230284],[136.980237,-35.231136],[136.980334,-35.23139],[136.980425,-35.231589],[136.980539,-35.231815],[136.980672,-35.23207],[136.980929,-35.232514],[136.981498,-35.233491],[136.981566,-35.2336],[136.981621,-35.233662],[136.981702,-35.233728]]}},{"type":"Feature","properties":{"tier":"arterial"},"geometry":{"type":"LineString","coordinates":[[136.940964,-35.268047],[136.941349,-35.267847]]}},{"type":"Feature","properties":{"tier":"arterial"},"geometry":{"type":"LineString","coordinates":[[136.939354,-35.268833],[136.939871,-35.26857],[136.940389,-35.268308],[136.940964,-35.268047]]}},{"type":"Feature","properties":{"tier":"arterial"},"geometry":{"type":"LineString","coordinates":[[136.941592,-35.26773],[136.94186,-35.267606],[136.941958,-35.267568]]}},{"type":"Feature","properties":{"tier":"arterial"},"geometry":{"type":"LineString","coordinates":[[136.941958,-35.267568],[136.941825,-35.267677],[136.941787,-35.26771],[136.941743,-35.26777],[136.941677,-35.267864]]}},{"type":"Feature","properties":{"tier":"arterial"},"geometry":{"type":"LineString","coordinates":[[136.939334,-35.275374],[136.939476,-35.275451],[136.939538,-35.275528]]}},{"type":"Feature","properties":{"tier":"arterial"},"geometry":{"type":"LineString","coordinates":[[136.939334,-35.275374],[136.939251,-35.275192],[136.939163,-35.274974],[136.939158,-35.274897],[136.939145,-35.274826],[136.939068,-35.274509],[136.939054,-35.27443],[136.939002,-35.274234],[136.938626,-35.272642],[136.938329,-35.27142],[136.938251,-35.270967],[136.938276,-35.270602],[136.938345,-35.270292],[136.938431,-35.269989],[136.938618,-35.269585],[136.938907,-35.269224]]}},{"type":"Feature","properties":{"tier":"arterial"},"geometry":{"type":"LineString","coordinates":[[136.938907,-35.269224],[136.938965,-35.269155],[136.939153,-35.268978],[136.939354,-35.268833]]}},{"type":"Feature","properties":{"tier":"arterial"},"geometry":{"type":"LineString","coordinates":[[136.974148,-35.243795],[136.973354,-35.244848],[136.973084,-35.245176],[136.972555,-35.245679],[136.971475,-35.246489],[136.969553,-35.247916],[136.96919,-35.248246],[136.968865,-35.248572],[136.968225,-35.249302]]}},{"type":"Feature","properties":{"tier":"arterial"},"geometry":{"type":"LineString","coordinates":[[136.988394,-35.225957],[136.987227,-35.226937],[136.987155,-35.227001],[136.985749,-35.228248],[136.985421,-35.228607],[136.984997,-35.229152],[136.984183,-35.230271],[136.984046,-35.230468]]}},{"type":"Feature","properties":{"tier":"arterial"},"geometry":{"type":"LineString","coordinates":[[136.979811,-35.236242],[136.977574,-35.239223],[136.977537,-35.239272],[136.975498,-35.241993]]}},{"type":"Feature","properties":{"tier":"arterial"},"geometry":{"type":"LineString","coordinates":[[136.968225,-35.249302],[136.967446,-35.250106],[136.967084,-35.250508]]}},{"type":"Feature","properties":{"tier":"arterial"},"geometry":{"type":"LineString","coordinates":[[136.949802,-35.26549],[136.949342,-35.265738],[136.948911,-35.265968],[136.948457,-35.266152],[136.948201,-35.266245],[136.948105,-35.26628],[136.947522,-35.266438],[136.947131,-35.266504],[136.946404,-35.266576],[136.945466,-35.266643],[136.945008,-35.266686],[136.94452,-35.266719],[136.94412,-35.266755],[136.943678,-35.266815],[136.943226,-35.266976],[136.942814,-35.267157]]}},{"type":"Feature","properties":{"tier":"arterial"},"geometry":{"type":"LineString","coordinates":[[136.981702,-35.233728],[136.980506,-35.235287],[136.980178,-35.235734],[136.980122,-35.235811],[136.979811,-35.236242]]}},{"type":"Feature","properties":{"tier":"arterial"},"geometry":{"type":"LineString","coordinates":[[136.984046,-35.230468],[136.983038,-35.231834],[136.981702,-35.233728]]}},{"type":"Feature","properties":{"tier":"arterial"},"geometry":{"type":"LineString","coordinates":[[136.942814,-35.267157],[136.941958,-35.267568]]}},{"type":"Feature","properties":{"tier":"arterial"},"geometry":{"type":"LineString","coordinates":[[136.975498,-35.241993],[136.974148,-35.243795]]}},{"type":"Feature","properties":{"tier":"arterial"},"geometry":{"type":"LineString","coordinates":[[136.967084,-35.250508],[136.965574,-35.252188],[136.964996,-35.252943],[136.964708,-35.253484],[136.964668,-35.25356],[136.964385,-35.254305],[136.964197,-35.254834],[136.963954,-35.255346],[136.963462,-35.256079],[136.963,-35.256621],[136.962996,-35.256625]]}},{"type":"Feature","properties":{"tier":"arterial"},"geometry":{"type":"LineString","coordinates":[[136.962996,-35.256625],[136.962958,-35.256661]]}},{"type":"Feature","properties":{"tier":"regional"},"geometry":{"type":"LineString","coordinates":[[136.939538,-35.275528],[136.939514,-35.27561],[136.939427,-35.275754],[136.939337,-35.275848],[136.939099,-35.275983],[136.939034,-35.27602],[136.938782,-35.276124],[136.938517,-35.276134],[136.938461,-35.27612],[136.938244,-35.276068],[136.938099,-35.276058],[136.937924,-35.276099],[136.937795,-35.276158],[136.937457,-35.276314],[136.937367,-35.276359],[136.935368,-35.277228],[136.934886,-35.277453],[136.934114,-35.277889],[136.933739,-35.278081],[136.933622,-35.278136],[136.933518,-35.278194],[136.932909,-35.278419],[136.932303,-35.278633],[136.931656,-35.278907],[136.929713,-35.279858],[136.9293,-35.280108],[136.92875,-35.280513],[136.928363,-35.280858],[136.92798,-35.281327],[136.927702,-35.281631],[136.927402,-35.281814],[136.926929,-35.282057],[136.925019,-35.282885],[136.923141,-35.283794],[136.922862,-35.283915],[136.922637,-35.284029],[136.922074,-35.284385],[136.921795,-35.284558],[136.921494,-35.284743],[136.92108,-35.284926],[136.920731,-35.285037],[136.9205,-35.285093],[136.920348,-35.285116],[136.920141,-35.285128],[136.919972,-35.285129],[136.919774,-35.285104],[136.919554,-35.285068],[136.919078,-35.284989],[136.918704,-35.284985],[136.918318,-35.285063],[136.918014,-35.285124],[136.917553,-35.285196],[136.917107,-35.285217],[136.916579,-35.285182],[136.916261,-35.28513],[136.916019,-35.28512],[136.914625,-35.28523],[136.914286,-35.285234],[136.913623,-35.285202],[136.913023,-35.285168],[136.912598,-35.285185],[136.91226,-35.28522],[136.911828,-35.285313],[136.911069,-35.285572],[136.910814,-35.285629],[136.910586,-35.285658],[136.910121,-35.285676],[136.909602,-35.285696],[136.909497,-35.285703],[136.908968,-35.285735],[136.90886,-35.285741],[136.908164,-35.285713],[136.908083,-35.28571],[136.907858,-35.285665],[136.907127,-35.285427],[136.906764,-35.285327],[136.906532,-35.285283],[136.906398,-35.285258],[136.905856,-35.285268],[136.904983,-35.285196],[136.904644,-35.285175],[136.904247,-35.285158],[136.902448,-35.285205]]}},{"type":"Feature","properties":{"tier":"regional"},"geometry":{"type":"LineString","coordinates":[[136.902448,-35.285205],[136.902028,-35.28522],[136.90174,-35.285222],[136.901721,-35.285222],[136.901424,-35.285223],[136.90135,-35.285199],[136.901282,-35.285177],[136.901151,-35.285134],[136.900923,-35.285006],[136.900824,-35.284968],[136.900636,-35.284895],[136.900417,-35.284851],[136.900364,-35.28484],[136.899924,-35.28485],[136.899519,-35.28486],[136.899318,-35.284864],[136.89904,-35.284851],[136.8988,-35.28484],[136.898401,-35.284744],[136.898358,-35.284734],[136.898108,-35.284654],[136.897889,-35.284585],[136.897564,-35.284422],[136.897336,-35.284267],[136.896318,-35.283301],[136.894055,-35.281064],[136.892352,-35.27937],[136.89167,-35.278848],[136.891204,-35.278567],[136.89076,-35.2783],[136.890078,-35.27789],[136.889176,-35.277363],[136.88774,-35.276639],[136.887552,-35.27654],[136.887421,-35.27646],[136.887326,-35.2764],[136.88724,-35.276329],[136.887135,-35.27623],[136.886974,-35.276066],[136.886714,-35.275776],[136.88654,-35.27558],[136.886293,-35.275201],[136.885966,-35.274748],[136.885606,-35.274098],[136.885292,-35.273682],[136.885008,-35.273428],[136.88486,-35.273358],[136.884671,-35.273268],[136.884231,-35.27319],[136.883545,-35.273182],[136.882056,-35.273164],[136.881542,-35.273121],[136.88061,-35.27297],[136.88036,-35.272957]]}}]}
