{"type":"FeatureCollection","features":[{"type":"Feature","properties":{"tier":"regional"},"geometry":{"type":"LineString","coordinates":[[136.564502,-33.909463],[136.564679,-33.909606],[136.565036,-33.909894],[136.565169,-33.909986],[136.566177,-33.91051],[136.56685,-33.910812],[136.567354,-33.911059],[136.567384,-33.911073],[136.567601,-33.911181],[136.568538,-33.911643],[136.568703,-33.911724],[136.569343,-33.912047],[136.56944,-33.912148],[136.56958,-33.912269],[136.569802,-33.912518],[136.569845,-33.912597],[136.569908,-33.912749],[136.570168,-33.913439],[136.570366,-33.913682],[136.572971,-33.91598],[136.573006,-33.916013],[136.573377,-33.916364]]}},{"type":"Feature","properties":{"tier":"high"},"geometry":{"type":"LineString","coordinates":[[136.919839,-33.682077],[136.919042,-33.681862],[136.918517,-33.681717],[136.918251,-33.681664],[136.918048,-33.681618],[136.917262,-33.681508],[136.914983,-33.681165],[136.913847,-33.680996],[136.91338,-33.680938],[136.912351,-33.680784],[136.911195,-33.680613]]}},{"type":"Feature","properties":{"tier":"regional"},"geometry":{"type":"LineString","coordinates":[[136.922219,-33.682723],[136.92344,-33.683188],[136.924632,-33.683642],[136.924742,-33.683684],[136.925923,-33.684134]]}},{"type":"Feature","properties":{"tier":"arterial"},"geometry":{"type":"LineString","coordinates":[[136.508439,-33.760741],[136.508141,-33.760116],[136.507601,-33.759288],[136.506277,-33.75721],[136.504373,-33.754181],[136.502171,-33.750735],[136.49998,-33.747276]]}},{"type":"Feature","properties":{"tier":"arterial"},"geometry":{"type":"LineString","coordinates":[[136.569034,-33.900359],[136.56895,-33.900316],[136.568459,-33.900063],[136.568157,-33.899848],[136.568126,-33.899816],[136.567929,-33.899613],[136.567739,-33.899271],[136.567665,-33.898929],[136.56769,-33.897018],[136.567714,-33.893771],[136.567732,-33.891419],[136.567687,-33.891112],[136.567648,-33.890843],[136.56732,-33.889885],[136.565885,-33.886031],[136.565031,-33.883789],[136.564778,-33.883306],[136.564468,-33.882839],[136.563849,-33.882263],[136.563343,-33.88192],[136.562677,-33.881546],[136.557586,-33.879348],[136.555811,-33.878548],[136.555342,-33.878284],[136.554958,-33.878011],[136.554554,-33.877707],[136.55296,-33.876126],[136.549854,-33.872997],[136.549472,-33.872565],[136.549205,-33.872209],[136.548117,-33.870363],[136.54704,-33.868497],[136.545778,-33.865469],[136.544517,-33.862487],[136.544099,-33.861469],[136.543983,-33.861046],[136.543943,-33.860591],[136.543936,-33.860182],[136.544038,-33.859648],[136.544168,-33.8592],[136.54436,-33.858751],[136.544661,-33.858308],[136.545187,-33.857695],[136.547437,-33.855196],[136.547977,-33.854515],[136.54838,-33.853771],[136.549082,-33.852384],[136.549735,-33.851095],[136.550326,-33.849506],[136.550365,-33.848822],[136.550352,-33.848106],[136.54994,-33.847112],[136.549258,-33.84567],[136.548294,-33.843629],[136.546889,-33.840659],[136.546076,-33.838918],[136.545902,-33.838376],[136.545519,-33.836879],[136.545336,-33.836279],[136.545057,-33.835794],[136.544692,-33.835317],[136.544056,-33.834702],[136.543569,-33.834153],[136.543273,-33.833676],[136.543107,-33.833271],[136.542907,-33.832562],[136.542437,-33.83019],[136.541749,-33.826769],[136.541462,-33.825518],[136.541157,-33.824889],[136.540876,-33.824468],[136.540713,-33.824224],[136.540147,-33.82371],[136.539059,-33.822965],[136.537797,-33.822133],[136.537013,-33.821461],[136.536491,-33.820723],[136.534889,-33.817541],[136.533766,-33.815291],[136.533487,-33.814872],[136.533165,-33.814474],[136.532329,-33.813671],[136.529012,-33.810756],[136.525078,-33.80732],[136.523154,-33.805613],[136.52271,-33.805186],[136.522353,-33.804708],[136.521987,-33.804122],[136.521116,-33.801989],[136.519758,-33.798567],[136.518279,-33.794832],[136.518244,-33.794739],[136.516225,-33.789736],[136.514004,-33.784188],[136.513559,-33.783062],[136.511819,-33.778659],[136.509454,-33.772783],[136.508953,-33.771462],[136.508773,-33.770837],[136.50863,-33.770351],[136.50857,-33.769815],[136.50857,-33.768286],[136.508606,-33.762428],[136.508604,-33.761438],[136.508533,-33.76108],[136.508439,-33.760741]]}},{"type":"Feature","properties":{"tier":"arterial"},"geometry":{"type":"LineString","coordinates":[[136.527411,-33.698575],[136.529851,-33.698659],[136.534386,-33.698815],[136.535324,-33.698908],[136.54242,-33.700377],[136.542725,-33.70044],[136.544128,-33.700731],[136.553887,-33.702726],[136.554576,-33.702821],[136.555319,-33.702852],[136.561928,-33.702475],[136.562513,-33.702389],[136.566119,-33.701724],[136.566685,-33.701668],[136.567609,-33.701676],[136.568563,-33.70183],[136.573331,-33.703426],[136.580063,-33.704873],[136.582194,-33.705369],[136.591183,-33.707864],[136.594839,-33.708554],[136.599302,-33.709396],[136.608822,-33.711165],[136.608971,-33.711193],[136.617564,-33.71279],[136.622088,-33.713667],[136.635816,-33.716748],[136.637122,-33.716949],[136.638103,-33.716975],[136.639109,-33.716902],[136.640213,-33.71665],[136.641105,-33.716319],[136.644675,-33.714745],[136.646433,-33.713969],[136.648766,-33.712941],[136.656103,-33.710173],[136.6715,-33.704418],[136.679971,-33.701264],[136.687086,-33.698601],[136.694188,-33.695972],[136.695351,-33.69576],[136.696748,-33.695782],[136.701609,-33.696087]]}},{"type":"Feature","properties":{"tier":"regional"},"geometry":{"type":"LineString","coordinates":[[136.926884,-33.684646],[136.925856,-33.684253],[136.924684,-33.683807],[136.924563,-33.68376],[136.923375,-33.683307],[136.92263,-33.683023],[136.922158,-33.682843]]}},{"type":"Feature","properties":{"tier":"arterial"},"geometry":{"type":"LineString","coordinates":[[136.92012,-33.681428],[136.918848,-33.679772],[136.91817,-33.678889],[136.917398,-33.677859],[136.916314,-33.676484]]}},{"type":"Feature","properties":{"tier":"arterial"},"geometry":{"type":"LineString","coordinates":[[136.912292,-33.671245],[136.910637,-33.669084],[136.907302,-33.664755],[136.905974,-33.663037],[136.903992,-33.660471],[136.900488,-33.655923],[136.896906,-33.651251],[136.894632,-33.648284],[136.89355,-33.646872],[136.893147,-33.646351],[136.889888,-33.642134],[136.886868,-33.638218],[136.88626,-33.637453],[136.882714,-33.632847],[136.878446,-33.627337],[136.8768,-33.625155],[136.874576,-33.622304],[136.870438,-33.61692],[136.869882,-33.616179],[136.86956,-33.615748],[136.866252,-33.611331],[136.862452,-33.606297],[136.862362,-33.60617],[136.862112,-33.605822],[136.861598,-33.605143],[136.861519,-33.605005],[136.860388,-33.602784],[136.858504,-33.598929],[136.856941,-33.595732],[136.856326,-33.594503],[136.855916,-33.593852],[136.855388,-33.59321],[136.854705,-33.592591],[136.853484,-33.591696],[136.852419,-33.59081],[136.851355,-33.589687],[136.848854,-33.587018],[136.847008,-33.58509],[136.84651,-33.584496],[136.846207,-33.584065],[136.845911,-33.583535],[136.84578,-33.583124],[136.845659,-33.582537],[136.845598,-33.581949],[136.845598,-33.581026],[136.845669,-33.578173],[136.845692,-33.577297],[136.845699,-33.577006],[136.845568,-33.57631],[136.845236,-33.575496],[136.844702,-33.574632],[136.84442,-33.573893],[136.844279,-33.573238],[136.844249,-33.572785],[136.844243,-33.568996],[136.844239,-33.566838],[136.844253,-33.560034],[136.84425,-33.55872],[136.844239,-33.55423],[136.844239,-33.552002],[136.844238,-33.551335],[136.844224,-33.548947],[136.84422,-33.544382],[136.844206,-33.538016],[136.844192,-33.531162],[136.844192,-33.530098],[136.844192,-33.525092],[136.844178,-33.51819],[136.844189,-33.513782],[136.844172,-33.513355],[136.844161,-33.513287],[136.844092,-33.512861],[136.844072,-33.512767],[136.843943,-33.512158],[136.843885,-33.511941],[136.843601,-33.511173],[136.842942,-33.510157],[136.839713,-33.505955],[136.835148,-33.49998]]}},{"type":"Feature","properties":{"tier":"regional"},"geometry":{"type":"LineString","coordinates":[[136.9895,-33.658548],[136.990071,-33.65862],[136.990649,-33.658751],[136.991052,-33.658878],[136.9918,-33.659113],[136.993407,-33.659717],[136.994506,-33.660157],[136.995033,-33.66043],[136.995494,-33.660716],[136.995957,-33.661098],[137.00002,-33.664933]]}},{"type":"Feature","properties":{"tier":"high"},"geometry":{"type":"LineString","coordinates":[[137.00002,-33.582553],[136.995848,-33.591365],[136.995397,-33.592244],[136.995018,-33.592912],[136.994485,-33.593568],[136.978514,-33.608876],[136.963985,-33.62274],[136.962722,-33.623944],[136.962165,-33.624476],[136.961907,-33.624752],[136.96176,-33.624917],[136.961612,-33.625109],[136.961395,-33.625401],[136.96119,-33.625742],[136.961035,-33.626052],[136.960435,-33.627425],[136.959032,-33.630661],[136.957464,-33.634193],[136.948172,-33.655334],[136.947898,-33.655857],[136.947524,-33.65641],[136.947304,-33.656697],[136.946732,-33.657393],[136.944031,-33.660677],[136.941198,-33.664141],[136.938681,-33.667052],[136.937756,-33.668162],[136.937516,-33.668467],[136.937302,-33.668661],[136.937084,-33.668832],[136.936882,-33.66897],[136.936647,-33.669085],[136.936352,-33.669197],[136.936015,-33.669269],[136.935732,-33.66932],[136.93542,-33.669342],[136.935134,-33.669331],[136.934838,-33.66929],[136.934506,-33.669215],[136.934177,-33.669135],[136.933917,-33.669068],[136.933639,-33.669014],[136.93337,-33.668983],[136.932991,-33.668954],[136.932674,-33.668955],[136.932287,-33.668977],[136.931982,-33.669031],[136.931697,-33.669101],[136.931447,-33.669193],[136.931203,-33.669285],[136.930963,-33.669393],[136.930699,-33.669528],[136.930494,-33.669659],[136.930275,-33.669818],[136.930108,-33.66997],[136.929923,-33.670164],[136.929792,-33.670349],[136.929655,-33.670565],[136.92946,-33.670928],[136.929342,-33.671151]]}},{"type":"Feature","properties":{"tier":"regional"},"geometry":{"type":"LineString","coordinates":[[136.793968,-33.741818],[136.794101,-33.74212],[136.794132,-33.742318],[136.79416,-33.742568],[136.794186,-33.745187],[136.79419,-33.748967],[136.794191,-33.754534],[136.794265,-33.756867],[136.794295,-33.757152],[136.794355,-33.757537],[136.794429,-33.757984],[136.794429,-33.758912],[136.794385,-33.761755],[136.794414,-33.766247]]}},{"type":"Feature","properties":{"tier":"regional"},"geometry":{"type":"LineString","coordinates":[[136.794414,-33.766247],[136.79443,-33.768719],[136.794399,-33.776976],[136.794449,-33.785272],[136.794465,-33.79343],[136.794425,-33.796991],[136.794478,-33.79919]]}},{"type":"Feature","properties":{"tier":"high"},"geometry":{"type":"LineString","coordinates":[[136.792647,-33.743185],[136.7889,-33.747098],[136.788077,-33.747952],[136.770414,-33.766297],[136.753903,-33.783379],[136.752408,-33.784925],[136.742784,-33.79488],[136.741906,-33.795797],[136.741643,-33.796051],[136.741431,-33.796236],[136.741218,-33.79641],[136.740973,-33.796589],[136.740649,-33.796835],[136.740023,-33.797265],[136.739159,-33.797831],[136.732573,-33.802284],[136.721154,-33.810057],[136.717391,-33.812675],[136.716838,-33.813054],[136.716608,-33.81321],[136.704374,-33.821642],[136.703956,-33.821924],[136.700804,-33.824079],[136.696469,-33.826993],[136.695509,-33.827657],[136.69306,-33.82931],[136.689775,-33.831556],[136.689398,-33.831821],[136.688961,-33.832118],[136.672764,-33.843147],[136.670853,-33.844436],[136.661295,-33.850853],[136.660365,-33.851456],[136.659704,-33.851844],[136.658405,-33.852569],[136.657001,-33.85342],[136.653648,-33.855698],[136.635843,-33.867773],[136.63166,-33.870621],[136.625829,-33.874569],[136.615898,-33.881304],[136.608892,-33.886089],[136.596062,-33.894836],[136.594508,-33.895906],[136.594264,-33.89607],[136.594031,-33.896223],[136.593784,-33.896366],[136.59352,-33.896496],[136.593237,-33.89662],[136.592923,-33.896746],[136.592589,-33.89685],[136.59234,-33.89691],[136.592015,-33.896978],[136.591721,-33.897013],[136.591367,-33.897048],[136.590934,-33.897062],[136.590057,-33.897056],[136.583672,-33.897046],[136.575339,-33.896976],[136.5743,-33.896974],[136.573699,-33.897019],[136.573086,-33.897115],[136.572489,-33.89728],[136.571972,-33.89748],[136.571487,-33.897717],[136.571042,-33.897992],[136.570587,-33.898351],[136.570133,-33.898824],[136.569572,-33.899597]]}},{"type":"Feature","properties":{"tier":"regional"},"geometry":{"type":"LineString","coordinates":[[136.740649,-33.796835],[136.74086,-33.796943],[136.741064,-33.796996],[136.746072,-33.796983],[136.749937,-33.796963],[136.759036,-33.79699],[136.768283,-33.796988],[136.778851,-33.797005],[136.788239,-33.79699],[136.794425,-33.796991]]}},{"type":"Feature","properties":{"tier":"high"},"geometry":{"type":"LineString","coordinates":[[136.795618,-33.740092],[136.794209,-33.741568],[136.793968,-33.741818],[136.792647,-33.743185]]}},{"type":"Feature","properties":{"tier":"high"},"geometry":{"type":"LineString","coordinates":[[136.911195,-33.680613],[136.90789,-33.680132],[136.905953,-33.679846],[136.905836,-33.679828]]}},{"type":"Feature","properties":{"tier":"arterial"},"geometry":{"type":"LineString","coordinates":[[136.919839,-33.682077],[136.920065,-33.681584],[136.92012,-33.681428]]}},{"type":"Feature","properties":{"tier":"high"},"geometry":{"type":"LineString","coordinates":[[136.920676,-33.682349],[136.920953,-33.682282],[136.92127,-33.682137],[136.921412,-33.682027]]}},{"type":"Feature","properties":{"tier":"regional"},"geometry":{"type":"LineString","coordinates":[[136.947524,-33.65641],[136.952754,-33.658041],[136.954615,-33.658484],[136.955467,-33.658558],[136.962002,-33.658563],[136.972484,-33.658572],[136.977747,-33.658561],[136.984328,-33.658547],[136.985778,-33.658547],[136.9895,-33.658548]]}},{"type":"Feature","properties":{"tier":"high"},"geometry":{"type":"LineString","coordinates":[[136.929342,-33.671151],[136.929076,-33.671746],[136.928961,-33.671956],[136.928844,-33.672113],[136.928722,-33.672267],[136.928577,-33.672433],[136.927186,-33.673968]]}},{"type":"Feature","properties":{"tier":"high"},"geometry":{"type":"LineString","coordinates":[[136.926677,-33.674534],[136.926136,-33.675124],[136.926101,-33.675163],[136.925981,-33.675289],[136.925869,-33.675407],[136.925217,-33.676087],[136.924949,-33.676367],[136.924761,-33.676595],[136.924198,-33.677237],[136.923881,-33.677646],[136.923605,-33.678083],[136.923387,-33.678475],[136.922304,-33.680423],[136.922014,-33.680945],[136.921575,-33.681734]]}},{"type":"Feature","properties":{"tier":"high"},"geometry":{"type":"LineString","coordinates":[[136.905836,-33.679828],[136.901144,-33.679139],[136.896921,-33.678534],[136.892762,-33.677884],[136.891183,-33.677644],[136.890389,-33.677585],[136.890047,-33.677565],[136.887122,-33.677559],[136.886913,-33.677561],[136.883628,-33.677582],[136.875042,-33.6776],[136.873098,-33.677608],[136.872339,-33.67761],[136.872167,-33.677611],[136.858477,-33.677632],[136.857725,-33.677738],[136.857124,-33.677923],[136.856891,-33.678036],[136.856434,-33.678259],[136.855801,-33.678691],[136.855182,-33.679206]]}},{"type":"Feature","properties":{"tier":"arterial"},"geometry":{"type":"LineString","coordinates":[[136.49998,-33.701806],[136.5002,-33.701825],[136.500651,-33.701894],[136.50125,-33.701976]]}},{"type":"Feature","properties":{"tier":"arterial"},"geometry":{"type":"LineString","coordinates":[[136.916314,-33.676484],[136.915356,-33.675228],[136.915082,-33.674872],[136.912292,-33.671245]]}},{"type":"Feature","properties":{"tier":"regional"},"geometry":{"type":"LineString","coordinates":[[136.921357,-33.682548],[136.921173,-33.682486]]}},{"type":"Feature","properties":{"tier":"high"},"geometry":{"type":"LineString","coordinates":[[136.855182,-33.679206],[136.850764,-33.683034],[136.849536,-33.684097],[136.848202,-33.685392],[136.84451,-33.689246],[136.83426,-33.699946],[136.819955,-33.714862],[136.813939,-33.721062],[136.795618,-33.740092]]}},{"type":"Feature","properties":{"tier":"high"},"geometry":{"type":"LineString","coordinates":[[136.920676,-33.682349],[136.920418,-33.682255],[136.919839,-33.682077]]}},{"type":"Feature","properties":{"tier":"high"},"geometry":{"type":"LineString","coordinates":[[136.921575,-33.681734],[136.921412,-33.682027]]}},{"type":"Feature","properties":{"tier":"regional"},"geometry":{"type":"LineString","coordinates":[[136.921357,-33.682548],[136.921429,-33.68254],[136.921517,-33.682555],[136.922219,-33.682723]]}},{"type":"Feature","properties":{"tier":"high"},"geometry":{"type":"LineString","coordinates":[[136.921173,-33.682486],[136.920676,-33.682349]]}},{"type":"Feature","properties":{"tier":"regional"},"geometry":{"type":"LineString","coordinates":[[136.922158,-33.682843],[136.921504,-33.68261],[136.921417,-33.68257],[136.921357,-33.682548]]}},{"type":"Feature","properties":{"tier":"high"},"geometry":{"type":"LineString","coordinates":[[136.921412,-33.682027],[136.921173,-33.682486]]}},{"type":"Feature","properties":{"tier":"regional"},"geometry":{"type":"LineString","coordinates":[[136.925923,-33.684134],[136.926894,-33.684517]]}},{"type":"Feature","properties":{"tier":"arterial"},"geometry":{"type":"LineString","coordinates":[[136.702345,-33.696134],[136.713277,-33.696821],[136.713576,-33.696804],[136.714053,-33.696776],[136.714766,-33.696622],[136.715518,-33.696281],[136.716062,-33.695895],[136.718783,-33.69345],[136.719622,-33.692923],[136.720218,-33.692712],[136.720906,-33.692572],[136.729745,-33.691102],[136.73507,-33.690208],[136.736748,-33.690014],[136.737324,-33.689964],[136.738538,-33.689859],[136.74657,-33.689167],[136.74773,-33.689064],[136.754606,-33.688456],[136.755422,-33.688296],[136.756131,-33.68806],[136.765882,-33.684834],[136.766775,-33.684688],[136.768808,-33.684667],[136.770174,-33.684666],[136.770752,-33.684598],[136.771273,-33.684456],[136.772105,-33.684101],[136.77451,-33.683011],[136.776136,-33.6817],[136.776957,-33.681319],[136.777749,-33.681185],[136.779058,-33.681116],[136.779792,-33.680878],[136.780414,-33.680467],[136.780902,-33.679864],[136.781827,-33.677021],[136.782062,-33.676581],[136.782372,-33.676194],[136.7828,-33.675902],[136.783261,-33.675675],[136.787965,-33.673798],[136.792199,-33.672117],[136.79316,-33.671886],[136.794515,-33.671829],[136.799231,-33.671685],[136.799276,-33.671683],[136.800621,-33.671936],[136.801234,-33.672005],[136.801978,-33.672015],[136.805352,-33.671895],[136.808083,-33.671797],[136.812019,-33.671203],[136.812926,-33.671173],[136.813497,-33.671203],[136.814104,-33.671302],[136.815494,-33.671653],[136.818088,-33.672435],[136.820721,-33.673228],[136.821661,-33.673614],[136.826622,-33.675945],[136.828965,-33.677046],[136.83079,-33.677903],[136.831615,-33.678175],[136.832484,-33.678378],[136.833601,-33.6785],[136.833978,-33.678541],[136.834952,-33.678501],[136.839321,-33.67815],[136.842918,-33.677837],[136.843329,-33.677805],[136.84365,-33.677789],[136.844198,-33.677778],[136.845478,-33.677768],[136.849156,-33.677764],[136.852292,-33.677749],[136.852988,-33.677858],[136.853689,-33.67813],[136.855182,-33.679206]]}},{"type":"Feature","properties":{"tier":"arterial"},"geometry":{"type":"LineString","coordinates":[[136.701609,-33.696087],[136.701891,-33.696105],[136.702345,-33.696134]]}},{"type":"Feature","properties":{"tier":"high"},"geometry":{"type":"LineString","coordinates":[[136.927186,-33.673968],[136.926677,-33.674534]]}},{"type":"Feature","properties":{"tier":"arterial"},"geometry":{"type":"LineString","coordinates":[[136.50125,-33.701976],[136.506303,-33.702766],[136.509491,-33.703262],[136.510595,-33.703321],[136.511206,-33.703288],[136.511791,-33.703178],[136.512041,-33.7031],[136.512498,-33.702959],[136.524448,-33.698703],[136.525672,-33.698525],[136.526749,-33.698554],[136.526922,-33.698558],[136.527182,-33.698567]]}},{"type":"Feature","properties":{"tier":"arterial"},"geometry":{"type":"LineString","coordinates":[[136.527182,-33.698567],[136.527411,-33.698575]]}},{"type":"Feature","properties":{"tier":"regional"},"geometry":{"type":"LineString","coordinates":[[136.563376,-33.908422],[136.563728,-33.908839],[136.564502,-33.909463]]}},{"type":"Feature","properties":{"tier":"high"},"geometry":{"type":"LineString","coordinates":[[136.569572,-33.899597],[136.569034,-33.900359],[136.566834,-33.903533],[136.564444,-33.906983],[136.563614,-33.908101],[136.563376,-33.908422],[136.562033,-33.910381]]}},{"type":"Feature","properties":{"tier":"high"},"geometry":{"type":"LineString","coordinates":[[136.562033,-33.910381],[136.561714,-33.910841],[136.559311,-33.914281],[136.559039,-33.914631],[136.558789,-33.914891],[136.55853,-33.91514],[136.558226,-33.915389],[136.557875,-33.915647],[136.557379,-33.915984],[136.556743,-33.916414],[136.556199,-33.916792],[136.554485,-33.917916],[136.545598,-33.923932],[136.543379,-33.925451],[136.542191,-33.926253],[136.541309,-33.926847],[136.537939,-33.929116],[136.536677,-33.929974],[136.534172,-33.93168],[136.533401,-33.932189],[136.531972,-33.933157],[136.531555,-33.933441],[136.529035,-33.935156],[136.528608,-33.935445],[136.527763,-33.935987],[136.52488,-33.937946],[136.524391,-33.93829],[136.523392,-33.938968],[136.522212,-33.939773],[136.521527,-33.940236],[136.52038,-33.940984],[136.519804,-33.941379],[136.519199,-33.941814],[136.518354,-33.942372],[136.517652,-33.942845],[136.516955,-33.943314],[136.516141,-33.943865],[136.515194,-33.944505],[136.514105,-33.945257],[136.512588,-33.946274],[136.509229,-33.948547],[136.506634,-33.950295],[136.49998,-33.954801]]}}]}
