{"type":"FeatureCollection","features":[{"type":"Feature","properties":{"tier":"arterial"},"geometry":{"type":"LineString","coordinates":[[136.704814,-36.057691],[136.704842,-36.058034],[136.704851,-36.058148],[136.704846,-36.058227],[136.704836,-36.058318],[136.704808,-36.058457],[136.704784,-36.058591],[136.704775,-36.058694],[136.704769,-36.058764],[136.704779,-36.05885],[136.704797,-36.058938],[136.704827,-36.059029],[136.704966,-36.059409],[136.705009,-36.059564],[136.705029,-36.059682],[136.705039,-36.059775],[136.705047,-36.059955],[136.705036,-36.060106],[136.705004,-36.060468]]}},{"type":"Feature","properties":{"tier":"arterial"},"geometry":{"type":"LineString","coordinates":[[136.704339,-36.056941],[136.704274,-36.056835],[136.704238,-36.056752],[136.704215,-36.056668],[136.704209,-36.056596],[136.704207,-36.056506],[136.704229,-36.056431],[136.704261,-36.05634],[136.70429,-36.056276],[136.70434,-36.056204],[136.704387,-36.056145],[136.704478,-36.056079],[136.704556,-36.056024],[136.70465,-36.055977],[136.704769,-36.055946],[136.70499,-36.055898],[136.70515,-36.055866],[136.70535,-36.055829],[136.705539,-36.055781],[136.705654,-36.055754],[136.705904,-36.055677],[136.706275,-36.055497],[136.706435,-36.055405],[136.706593,-36.055309],[136.706712,-36.055222],[136.706824,-36.055136],[136.706995,-36.054992],[136.707171,-36.054842],[136.70728,-36.054767],[136.707378,-36.054704],[136.707502,-36.054632],[136.707638,-36.054566],[136.707854,-36.054471],[136.708075,-36.05439],[136.70844,-36.054228],[136.708795,-36.054069],[136.710219,-36.053419],[136.711081,-36.053051],[136.712416,-36.052474],[136.713852,-36.051968],[136.714378,-36.051731],[136.714654,-36.051371],[136.714859,-36.050921],[136.714886,-36.050288],[136.715103,-36.050087],[136.715628,-36.049641],[136.716049,-36.049364],[136.716436,-36.049118],[136.716349,-36.047702],[136.716601,-36.047172],[136.716427,-36.046464],[136.716513,-36.045825],[136.716813,-36.044888],[136.717057,-36.044236],[136.716936,-36.043916],[136.716918,-36.043819],[136.716907,-36.043642],[136.716917,-36.043371],[136.71697,-36.043182],[136.717201,-36.042543],[136.717317,-36.041962],[136.717526,-36.041286],[136.717658,-36.040828],[136.71774,-36.040415],[136.717802,-36.040192],[136.71785,-36.040089],[136.717921,-36.040001],[136.718257,-36.039744],[136.719409,-36.038732],[136.719553,-36.038524],[136.719678,-36.038138],[136.7198,-36.037756],[136.72017,-36.03701],[136.720766,-36.035891],[136.720854,-36.03562],[136.720896,-36.035345],[136.72089,-36.034707],[136.720809,-36.033097],[136.72085,-36.032377],[136.72087,-36.031816],[136.72086,-36.031262],[136.720829,-36.030957],[136.720817,-36.030451],[136.720993,-36.029952],[136.72113,-36.029411],[136.721577,-36.028321],[136.721748,-36.027606],[136.721834,-36.026933],[136.721937,-36.026378],[136.722366,-36.025704],[136.725783,-36.021657],[136.730289,-36.016312],[136.731036,-36.015404],[136.735489,-36.010167],[136.735785,-36.009902],[136.736106,-36.009804],[136.736492,-36.009844],[136.736964,-36.010004],[136.737541,-36.010181],[136.737687,-36.010183],[136.737826,-36.01013],[136.737921,-36.010047],[136.737986,-36.009943],[136.738,-36.009825],[136.737943,-36.009701],[136.737841,-36.009582],[136.737585,-36.00935],[136.737447,-36.009186],[136.737342,-36.009],[136.737214,-36.008568],[136.73722,-36.008224],[136.737343,-36.007932],[136.737804,-36.007371],[136.738591,-36.006436],[136.739851,-36.00494],[136.741511,-36.00282],[136.742986,-36.001203],[136.743436,-36.000749],[136.744214,-36.000476],[136.744757,-36.00034],[136.745415,-36.000317],[136.745677,-36.000235],[136.745879,-36.000071],[136.745912,-35.99998]]}},{"type":"Feature","properties":{"tier":"arterial"},"geometry":{"type":"LineString","coordinates":[[136.717057,-36.044236],[136.717224,-36.044234],[136.717354,-36.044253],[136.717799,-36.044271],[136.717975,-36.044295],[136.718008,-36.044297],[136.71877,-36.044359],[136.720095,-36.044454],[136.720896,-36.044467],[136.721118,-36.044453],[136.721773,-36.044352],[136.72217,-36.044308],[136.722426,-36.044255],[136.722559,-36.044242],[136.722769,-36.044189],[136.723034,-36.044167],[136.723289,-36.044112],[136.723811,-36.044029],[136.72441,-36.043895],[136.724586,-36.043873],[136.724711,-36.043836],[136.724932,-36.043817],[136.725279,-36.043751],[136.725402,-36.04371],[136.725534,-36.043701],[136.726289,-36.043494],[136.726462,-36.04346],[136.726541,-36.043428],[136.726673,-36.043417],[136.726884,-36.043359],[136.727015,-36.043339],[136.727474,-36.043206],[136.727774,-36.043143],[136.727983,-36.043081],[136.728114,-36.043061],[136.728622,-36.04293],[136.728754,-36.042915],[136.728922,-36.042867],[136.729352,-36.042778],[136.729561,-36.042718],[136.730205,-36.042581],[136.730405,-36.042531],[136.730926,-36.042402],[136.731188,-36.042355],[136.731462,-36.042289],[136.731614,-36.042253],[136.732185,-36.042182],[136.734808,-36.042168],[136.735251,-36.042189],[136.735384,-36.042183],[136.736183,-36.042227],[136.73774,-36.042237],[136.738585,-36.042264],[136.738713,-36.042293],[136.7392,-36.04233],[136.740211,-36.042451],[136.740611,-36.042474],[136.741184,-36.042535],[136.741488,-36.042584],[136.741666,-36.04259],[136.741926,-36.042639],[136.742676,-36.042714],[136.743197,-36.042795],[136.743419,-36.042808],[136.743982,-36.042906],[136.744203,-36.042926],[136.74442,-36.042967],[136.745166,-36.043067],[136.745903,-36.0432],[136.74608,-36.043213],[136.746858,-36.043352],[136.747197,-36.043433],[136.74759,-36.043495],[136.74789,-36.043558],[136.748372,-36.043626],[136.748499,-36.043658],[136.749031,-36.0437],[136.749295,-36.043668],[136.74976,-36.043545],[136.750565,-36.043249],[136.750592,-36.043221],[136.750834,-36.043131],[136.751126,-36.043045],[136.751286,-36.042983],[136.751503,-36.042944],[136.751725,-36.042942],[136.752071,-36.043008],[136.75236,-36.043102],[136.752596,-36.043202],[136.752664,-36.043247],[136.752903,-36.04334],[136.753314,-36.043553],[136.753591,-36.043726],[136.753921,-36.043903],[136.753947,-36.043931],[136.754847,-36.044318],[136.754913,-36.044362],[136.755228,-36.044495],[136.755312,-36.044518],[136.755574,-36.044649],[136.756011,-36.044828],[136.756443,-36.045094],[136.756508,-36.045113],[136.756561,-36.045121],[136.756627,-36.045112],[136.756708,-36.045083],[136.756773,-36.04503]]}},{"type":"Feature","properties":{"tier":"arterial"},"geometry":{"type":"LineString","coordinates":[[136.704814,-36.057691],[136.704749,-36.057587],[136.704714,-36.057525],[136.704603,-36.057377],[136.704479,-36.057217],[136.704382,-36.057092],[136.704336,-36.056984],[136.704339,-36.056941]]}},{"type":"Feature","properties":{"tier":"arterial"},"geometry":{"type":"LineString","coordinates":[[136.704721,-36.061179],[136.704667,-36.061151],[136.704616,-36.061123],[136.704601,-36.061058],[136.704616,-36.060999],[136.704667,-36.060934],[136.704868,-36.060681],[136.704944,-36.060554],[136.705004,-36.060468]]}},{"type":"Feature","properties":{"tier":"arterial"},"geometry":{"type":"LineString","coordinates":[[136.705004,-36.060468],[136.705043,-36.060644],[136.70507,-36.060826],[136.705086,-36.060947],[136.705099,-36.061047],[136.705067,-36.061144],[136.705,-36.061212],[136.704906,-36.061216],[136.704801,-36.061203],[136.704721,-36.061179]]}},{"type":"Feature","properties":{"tier":"arterial"},"geometry":{"type":"LineString","coordinates":[[136.704339,-36.056941],[136.704383,-36.05698],[136.704461,-36.057036],[136.704536,-36.05708],[136.704641,-36.057114],[136.704709,-36.057119],[136.704773,-36.057127],[136.704901,-36.057235],[136.704938,-36.057288],[136.704949,-36.057342],[136.704951,-36.057425],[136.704925,-36.057493],[136.704883,-36.057548],[136.704814,-36.057691]]}}]}
