{"type":"FeatureCollection","features":[{"type":"Feature","properties":{"tier":"regional"},"geometry":{"type":"LineString","coordinates":[[137.00002,-26.576683],[136.98668,-26.57674],[136.949044,-26.576981],[136.94885,-26.576934],[136.948627,-26.576807],[136.948362,-26.576596],[136.947962,-26.576191],[136.947587,-26.575617],[136.947367,-26.575155],[136.947244,-26.574715],[136.94692,-26.57307],[136.946278,-26.569961],[136.946173,-26.569308],[136.945833,-26.566849],[136.9455,-26.56477],[136.945234,-26.563683],[136.94513,-26.563275],[136.945076,-26.562891],[136.945004,-26.56261],[136.944859,-26.562284],[136.944717,-26.56203],[136.944414,-26.561627],[136.943859,-26.561034],[136.942724,-26.559923],[136.941895,-26.559076],[136.941262,-26.558371],[136.940782,-26.557591],[136.94048,-26.5572],[136.939924,-26.556265],[136.937205,-26.55198],[136.937038,-26.55179],[136.936804,-26.551627],[136.936043,-26.551149],[136.935772,-26.550948],[136.93561,-26.55078],[136.9353,-26.550204],[136.935096,-26.54965],[136.93486,-26.54857],[136.934736,-26.548061],[136.934195,-26.546569],[136.93396,-26.54597],[136.933511,-26.54476],[136.933116,-26.543689],[136.930745,-26.536452],[136.930251,-26.535075],[136.93001,-26.534722],[136.929734,-26.534348],[136.929385,-26.533969],[136.928881,-26.533273],[136.928321,-26.532543],[136.928042,-26.532095],[136.927722,-26.531418],[136.927376,-26.530542],[136.92722,-26.53003],[136.926982,-26.528488],[136.926751,-26.527418],[136.926411,-26.526772],[136.92611,-26.526314],[136.925695,-26.525858],[136.92531,-26.52548],[136.924871,-26.525078],[136.924635,-26.524845],[136.924415,-26.524509],[136.923847,-26.52377],[136.923581,-26.523426],[136.923294,-26.522908],[136.923042,-26.522366],[136.922077,-26.52034],[136.921253,-26.518463],[136.92113,-26.51828],[136.920955,-26.518099],[136.920604,-26.51789],[136.920329,-26.517802],[136.919952,-26.5177],[136.919236,-26.51752],[136.916737,-26.516941],[136.916192,-26.51681],[136.915945,-26.516697],[136.915789,-26.51662],[136.915661,-26.516519],[136.915483,-26.516322],[136.91392,-26.51383],[136.91276,-26.51153],[136.91156,-26.5081],[136.910913,-26.505356],[136.91008,-26.50398],[136.909444,-26.502068],[136.909213,-26.49998]]}}]}
