{"type":"FeatureCollection","features":[{"type":"Feature","properties":{"tier":"arterial"},"geometry":{"type":"LineString","coordinates":[[137.487288,-34.498299],[137.487367,-34.498272],[137.487438,-34.498246],[137.487504,-34.498217],[137.487576,-34.498178],[137.487644,-34.49814],[137.487752,-34.498072],[137.488217,-34.497755],[137.489347,-34.496996],[137.490037,-34.496524],[137.49572,-34.492721],[137.495918,-34.492589],[137.50002,-34.489848]]}},{"type":"Feature","properties":{"tier":"regional"},"geometry":{"type":"LineString","coordinates":[[137.489347,-34.496996],[137.487921,-34.496214],[137.486844,-34.495632],[137.485751,-34.495032],[137.484682,-34.494433]]}},{"type":"Feature","properties":{"tier":"arterial"},"geometry":{"type":"LineString","coordinates":[[137.487288,-34.498299],[137.487312,-34.498376],[137.487338,-34.498446],[137.487375,-34.498519],[137.487444,-34.498644],[137.487489,-34.498713],[137.487553,-34.498801],[137.487623,-34.498882],[137.487695,-34.498952],[137.487805,-34.499051],[137.488355,-34.499566],[137.488824,-34.50002]]}},{"type":"Feature","properties":{"tier":"regional"},"geometry":{"type":"LineString","coordinates":[[137.484682,-34.494433],[137.48465,-34.494485],[137.4846,-34.494555],[137.484499,-34.494684],[137.484099,-34.495183],[137.483704,-34.495669],[137.48328,-34.496199],[137.483181,-34.496322]]}},{"type":"Feature","properties":{"tier":"arterial"},"geometry":{"type":"LineString","coordinates":[[137.487288,-34.498299],[137.487202,-34.498339],[137.487131,-34.498354],[137.487059,-34.498361],[137.486985,-34.498362],[137.486927,-34.498359],[137.48687,-34.498355],[137.4868,-34.498348],[137.486712,-34.498332],[137.48662,-34.498311],[137.486516,-34.498282],[137.486413,-34.49825],[137.486327,-34.498221],[137.486263,-34.498196],[137.486203,-34.49817],[137.485235,-34.497636],[137.484146,-34.497037],[137.483495,-34.496679],[137.483077,-34.496449]]}},{"type":"Feature","properties":{"tier":"arterial"},"geometry":{"type":"LineString","coordinates":[[137.483181,-34.496322],[137.483347,-34.49641],[137.484251,-34.496905],[137.48534,-34.497502],[137.486332,-34.498046],[137.486376,-34.498072],[137.486421,-34.498098],[137.486483,-34.498132],[137.486547,-34.498167],[137.486608,-34.498197],[137.486673,-34.498223],[137.48673,-34.498242],[137.486801,-34.498261],[137.486895,-34.498282],[137.486984,-34.498294],[137.487094,-34.4983],[137.487199,-34.498302],[137.487288,-34.498299]]}},{"type":"Feature","properties":{"tier":"regional"},"geometry":{"type":"LineString","coordinates":[[137.492952,-34.324153],[137.493087,-34.324136],[137.493195,-34.324134],[137.493616,-34.32414],[137.493719,-34.324141],[137.494242,-34.324146],[137.494645,-34.324151],[137.494902,-34.324154]]}},{"type":"Feature","properties":{"tier":"regional"},"geometry":{"type":"LineString","coordinates":[[137.494902,-34.324154],[137.496321,-34.324163],[137.496624,-34.324165],[137.497479,-34.324165],[137.498343,-34.324168],[137.498729,-34.324096],[137.499118,-34.323994],[137.50002,-34.323549]]}},{"type":"Feature","properties":{"tier":"regional"},"geometry":{"type":"LineString","coordinates":[[137.497859,-34.328977],[137.497522,-34.328663],[137.495573,-34.32689],[137.495341,-34.326685],[137.495247,-34.326629],[137.495153,-34.326588],[137.494921,-34.326563]]}},{"type":"Feature","properties":{"tier":"regional"},"geometry":{"type":"LineString","coordinates":[[137.4816,-34.498388],[137.481592,-34.498453],[137.481588,-34.498546],[137.48159,-34.498639],[137.481591,-34.498691],[137.481601,-34.498936],[137.481603,-34.499032],[137.481599,-34.499139],[137.481588,-34.499266],[137.48157,-34.499445],[137.481562,-34.499554],[137.481554,-34.499618],[137.481546,-34.499685],[137.481524,-34.499807],[137.481483,-34.499982],[137.481474,-34.50002]]}},{"type":"Feature","properties":{"tier":"regional"},"geometry":{"type":"LineString","coordinates":[[137.494921,-34.326563],[137.494903,-34.325664],[137.494902,-34.324154]]}},{"type":"Feature","properties":{"tier":"regional"},"geometry":{"type":"LineString","coordinates":[[137.483077,-34.496449],[137.482903,-34.496659],[137.482775,-34.496818],[137.482757,-34.496841],[137.482621,-34.497008],[137.482527,-34.497125],[137.482154,-34.497586],[137.481919,-34.497876],[137.481757,-34.498086],[137.481702,-34.498165],[137.481663,-34.498226],[137.481635,-34.498278],[137.481615,-34.498331],[137.4816,-34.498388]]}},{"type":"Feature","properties":{"tier":"arterial"},"geometry":{"type":"LineString","coordinates":[[137.483181,-34.496322],[137.483077,-34.496449]]}}]}
