{"type":"FeatureCollection","features":[{"type":"Feature","properties":{"tier":"high"},"geometry":{"type":"LineString","coordinates":[[137.087532,-31.488137],[137.088827,-31.489691],[137.089407,-31.490386],[137.089418,-31.4904],[137.091541,-31.492957],[137.094402,-31.496389],[137.095521,-31.497731],[137.097419,-31.50002]]}},{"type":"Feature","properties":{"tier":"high"},"geometry":{"type":"LineString","coordinates":[[137.087532,-31.488137],[137.0846,-31.484608],[137.083801,-31.483642],[137.083357,-31.483122],[137.083038,-31.482776],[137.082699,-31.482453],[137.082449,-31.482238],[137.082149,-31.482],[137.081696,-31.481667],[137.081305,-31.481418],[137.080878,-31.48118],[137.080376,-31.480928],[137.079814,-31.480675],[137.078037,-31.479988],[137.074836,-31.478726],[137.067832,-31.475977],[137.060783,-31.473185],[137.058304,-31.472232],[137.055674,-31.471186],[137.050559,-31.469171],[137.049828,-31.468873],[137.049133,-31.468565],[137.048451,-31.468225],[137.048001,-31.467984],[137.047571,-31.467732],[137.04721,-31.467502],[137.04686,-31.46726],[137.046414,-31.46694],[137.046003,-31.466629],[137.045574,-31.466273],[137.045169,-31.465906],[137.044515,-31.465278],[137.043259,-31.464083],[137.041998,-31.462863],[137.040818,-31.461727],[137.039606,-31.460571],[137.038311,-31.459324],[137.037042,-31.458119],[137.035749,-31.456864],[137.034476,-31.455641],[137.032025,-31.453292],[137.030978,-31.452289],[137.030439,-31.451823],[137.029895,-31.451394],[137.029536,-31.451131],[137.02917,-31.45088],[137.028855,-31.450676],[137.028554,-31.450496],[137.028199,-31.450295],[137.027789,-31.450073],[137.02749,-31.449915],[137.027181,-31.449764],[137.026855,-31.449608],[137.026519,-31.449462],[137.026173,-31.449318],[137.02582,-31.449184],[137.025123,-31.448946],[137.020801,-31.447636],[137.019536,-31.447252],[137.018491,-31.446932],[137.014962,-31.44585],[137.013886,-31.445533],[137.013346,-31.44535],[137.012724,-31.445111],[137.012112,-31.444847],[137.011381,-31.444492],[137.009608,-31.443579],[137.006793,-31.442183],[137.004235,-31.440869],[137.002901,-31.440187],[137.002279,-31.439858],[137.001654,-31.439473],[137.000682,-31.438823],[137.000233,-31.438482],[136.99998,-31.438264]]}},{"type":"Feature","properties":{"tier":"regional"},"geometry":{"type":"LineString","coordinates":[[137.474128,-31.276545],[137.474573,-31.276702],[137.474879,-31.276842],[137.475133,-31.277012],[137.475299,-31.277174],[137.475688,-31.277725],[137.476398,-31.278798],[137.477406,-31.280724],[137.478812,-31.283511],[137.480593,-31.287436],[137.480925,-31.288242],[137.481033,-31.28871],[137.481129,-31.290214],[137.481483,-31.291268],[137.48203,-31.292396],[137.482502,-31.293422],[137.483447,-31.295174],[137.484466,-31.296393],[137.485442,-31.297291],[137.487717,-31.298813],[137.488779,-31.299446],[137.489047,-31.299556],[137.489508,-31.299666],[137.495538,-31.300087],[137.496085,-31.30017],[137.496525,-31.300335],[137.497072,-31.300821],[137.497287,-31.301389],[137.49763,-31.303149],[137.498435,-31.305322],[137.498692,-31.306101],[137.49881,-31.30677],[137.498928,-31.307384],[137.498971,-31.308631],[137.49917,-31.309906],[137.499403,-31.310982],[137.499535,-31.311436],[137.50002,-31.31269]]}},{"type":"Feature","properties":{"tier":"regional"},"geometry":{"type":"LineString","coordinates":[[137.50002,-31.32968],[137.499921,-31.330092],[137.499752,-31.331407],[137.499459,-31.333471],[137.499339,-31.334248],[137.499221,-31.335794],[137.499194,-31.336417],[137.499368,-31.337984],[137.499508,-31.338252],[137.499808,-31.338507],[137.50002,-31.338617]]}},{"type":"Feature","properties":{"tier":"regional"},"geometry":{"type":"LineString","coordinates":[[137.50002,-31.421688],[137.499819,-31.424141],[137.499905,-31.426045],[137.498703,-31.429615],[137.49866,-31.430165],[137.499218,-31.433497],[137.498746,-31.437781],[137.498724,-31.440033],[137.497995,-31.442175],[137.498102,-31.444646],[137.497866,-31.44633],[137.497008,-31.448142],[137.496386,-31.44979],[137.495978,-31.451712],[137.495077,-31.453067],[137.494905,-31.454439],[137.494519,-31.4553],[137.49469,-31.457643],[137.494808,-31.458375],[137.494412,-31.458805],[137.492877,-31.459427],[137.492545,-31.459784],[137.492405,-31.460297],[137.492609,-31.46112],[137.493274,-31.462466],[137.493714,-31.463985],[137.49366,-31.464616],[137.49307,-31.465184],[137.492212,-31.465422],[137.488564,-31.465916],[137.488049,-31.466053],[137.487363,-31.466456],[137.486676,-31.466968],[137.485689,-31.46792],[137.484777,-31.468844],[137.484294,-31.46932],[137.484123,-31.470107],[137.483479,-31.470775],[137.482663,-31.471388],[137.482116,-31.472221],[137.481355,-31.473328],[137.481183,-31.473895],[137.480915,-31.476274],[137.480743,-31.477354],[137.480829,-31.479038],[137.480807,-31.479504],[137.480598,-31.479911],[137.480298,-31.480291],[137.479895,-31.480584],[137.477428,-31.4816],[137.477192,-31.481901],[137.477181,-31.483155],[137.477224,-31.483841],[137.477642,-31.485076],[137.4779,-31.485378],[137.478318,-31.485451],[137.479359,-31.485552],[137.479831,-31.485717],[137.480267,-31.485995]]}},{"type":"Feature","properties":{"tier":"regional"},"geometry":{"type":"LineString","coordinates":[[137.487779,-31.250772],[137.488363,-31.251239]]}},{"type":"Feature","properties":{"tier":"regional"},"geometry":{"type":"LineString","coordinates":[[137.488302,-31.251335],[137.488363,-31.251239],[137.488451,-31.251169],[137.48856,-31.251127],[137.488678,-31.251116],[137.488795,-31.251138],[137.488898,-31.25119],[137.488976,-31.251267],[137.489023,-31.251361],[137.489032,-31.251463],[137.489003,-31.251562],[137.48894,-31.251648],[137.48884,-31.251717],[137.488719,-31.251753],[137.488591,-31.251752],[137.488471,-31.251715],[137.488372,-31.251645],[137.488307,-31.251551],[137.488283,-31.251443],[137.488302,-31.251335]]}},{"type":"Feature","properties":{"tier":"regional"},"geometry":{"type":"LineString","coordinates":[[137.487286,-31.250495],[137.48733,-31.25042],[137.4874,-31.250361],[137.487487,-31.250324],[137.487584,-31.250312],[137.487681,-31.250327],[137.487773,-31.250372],[137.487842,-31.25044],[137.487879,-31.250525],[137.487881,-31.250616],[137.487846,-31.250701],[137.487779,-31.250772],[137.487707,-31.250812],[137.487624,-31.250833],[137.487537,-31.250834],[137.487453,-31.250813],[137.48738,-31.250774],[137.487322,-31.250718],[137.487285,-31.250651],[137.487272,-31.250578],[137.487286,-31.250495]]}},{"type":"Feature","properties":{"tier":"regional"},"geometry":{"type":"LineString","coordinates":[[137.489315,-31.241029],[137.489396,-31.24149],[137.489401,-31.241774],[137.489358,-31.24199],[137.48909,-31.243247],[137.48889,-31.244183],[137.488635,-31.245556],[137.488537,-31.24598],[137.488331,-31.246877],[137.488308,-31.246992],[137.487766,-31.249724],[137.487681,-31.250327]]}},{"type":"Feature","properties":{"tier":"regional"},"geometry":{"type":"LineString","coordinates":[[137.489573,-31.240757],[137.490809,-31.240607],[137.492472,-31.240584],[137.492998,-31.240592]]}},{"type":"Feature","properties":{"tier":"regional"},"geometry":{"type":"LineString","coordinates":[[137.488968,-31.240718],[137.489016,-31.240632],[137.489126,-31.240577],[137.489203,-31.24055],[137.489296,-31.240539],[137.489384,-31.240541],[137.489494,-31.240602],[137.489561,-31.240696],[137.489573,-31.240757],[137.489586,-31.240821],[137.489542,-31.240906],[137.489479,-31.240977],[137.489372,-31.24102],[137.489315,-31.241029],[137.489254,-31.241038],[137.489121,-31.241011],[137.489038,-31.240941],[137.48898,-31.240865],[137.488971,-31.240809],[137.488967,-31.240779],[137.488968,-31.240718]]}},{"type":"Feature","properties":{"tier":"regional"},"geometry":{"type":"LineString","coordinates":[[137.453942,-31.296675],[137.45387,-31.296583],[137.453712,-31.296361],[137.453502,-31.296063],[137.452548,-31.294688],[137.451838,-31.293361],[137.451308,-31.292208],[137.451004,-31.291501],[137.450974,-31.291391],[137.451019,-31.291341],[137.451184,-31.291252],[137.452211,-31.290951],[137.453514,-31.290586],[137.45444,-31.290347],[137.455573,-31.290035],[137.455915,-31.289894],[137.456289,-31.289708],[137.456923,-31.289355],[137.457717,-31.28885],[137.463969,-31.284795],[137.465113,-31.284049],[137.466179,-31.283333],[137.466479,-31.283149],[137.468994,-31.281539],[137.469311,-31.281343],[137.470204,-31.280722],[137.470352,-31.280602],[137.470495,-31.280477],[137.470681,-31.28031],[137.47151,-31.279483],[137.472255,-31.278734],[137.473012,-31.277958],[137.473478,-31.277478],[137.473733,-31.277177],[137.473995,-31.276787],[137.474128,-31.276545],[137.47418,-31.276414],[137.474346,-31.27594],[137.474423,-31.275611],[137.474473,-31.275335],[137.474507,-31.274906],[137.47451,-31.274477],[137.474445,-31.27376],[137.474332,-31.27243],[137.474155,-31.270692],[137.47415,-31.270335],[137.47422,-31.269537],[137.474332,-31.268735],[137.474381,-31.26309],[137.474418,-31.261746],[137.474365,-31.260962],[137.474542,-31.258706],[137.474692,-31.257422],[137.474692,-31.256248],[137.474874,-31.255368],[137.475518,-31.25313],[137.475979,-31.251488],[137.476301,-31.250718],[137.47819,-31.247223],[137.478402,-31.246896],[137.478818,-31.246137],[137.479198,-31.24548],[137.479466,-31.245196],[137.481065,-31.243517],[137.482856,-31.242114],[137.483501,-31.241724],[137.483928,-31.241588],[137.484798,-31.241481],[137.486096,-31.241382],[137.486483,-31.241325],[137.487405,-31.241123],[137.488232,-31.240967],[137.488847,-31.240844],[137.488971,-31.240809]]}},{"type":"Feature","properties":{"tier":"regional"},"geometry":{"type":"LineString","coordinates":[[137.453942,-31.296675],[137.453417,-31.296952],[137.452698,-31.297355],[137.451834,-31.297947],[137.451196,-31.298437],[137.450946,-31.298712],[137.450855,-31.29888],[137.450675,-31.299283],[137.450531,-31.299753],[137.450466,-31.299838],[137.449761,-31.300282],[137.449125,-31.300695],[137.448915,-31.300848],[137.448708,-31.300998],[137.448535,-31.301095],[137.448449,-31.30116],[137.448357,-31.301421],[137.448287,-31.301695],[137.448346,-31.301782],[137.448425,-31.301822],[137.448522,-31.301841],[137.448607,-31.30182],[137.44865,-31.301774],[137.448677,-31.301724],[137.448841,-31.301087],[137.448859,-31.300997],[137.448915,-31.300848]]}},{"type":"Feature","properties":{"tier":"regional"},"geometry":{"type":"LineString","coordinates":[[137.484114,-31.50002],[137.48438,-31.498251],[137.484419,-31.497792],[137.484382,-31.497342],[137.484334,-31.497119],[137.484198,-31.496678],[137.483127,-31.494175],[137.482968,-31.49372],[137.482913,-31.493493],[137.482842,-31.493038],[137.482826,-31.492366],[137.482805,-31.492143],[137.482708,-31.491682],[137.482535,-31.49098],[137.482462,-31.490748],[137.482156,-31.489969],[137.482024,-31.489632],[137.482018,-31.489607],[137.481803,-31.488721],[137.481673,-31.488288],[137.481493,-31.487866],[137.481264,-31.487466],[137.481112,-31.487233],[137.480775,-31.486717],[137.480267,-31.485995]]}}]}
