{"type":"FeatureCollection","features":[{"type":"Feature","properties":{"tier":"arterial"},"geometry":{"type":"LineString","coordinates":[[137.441307,-35.014728],[137.441079,-35.014696],[137.440635,-35.014586],[137.440356,-35.014507],[137.440017,-35.014352],[137.439666,-35.014155],[137.439178,-35.013768],[137.434241,-35.009855],[137.433968,-35.009662],[137.433668,-35.009473],[137.432951,-35.009177],[137.432253,-35.009022],[137.424861,-35.007607],[137.424218,-35.007441],[137.424036,-35.007372],[137.423703,-35.007212],[137.413585,-35.000822],[137.413308,-35.000618],[137.413076,-35.000413],[137.412686,-34.99998]]}},{"type":"Feature","properties":{"tier":"arterial"},"geometry":{"type":"LineString","coordinates":[[137.030239,-34.99998],[137.025629,-35.014874],[137.025493,-35.015175],[137.02536,-35.015396],[137.025171,-35.015668],[137.019988,-35.021951],[137.017233,-35.02531],[137.016965,-35.025656],[137.016808,-35.025879],[137.016626,-35.026258],[137.016265,-35.027077],[137.015849,-35.028091],[137.0157,-35.028474],[137.015613,-35.029044],[137.01415,-35.043645],[137.01412,-35.043856],[137.013973,-35.044911],[137.013888,-35.045367],[137.013749,-35.045822],[137.013558,-35.046254],[137.013312,-35.046676],[137.012263,-35.048088],[137.011344,-35.049332],[137.011049,-35.049671],[137.01068,-35.050007],[137.00927,-35.051125],[137.008854,-35.051513],[137.008529,-35.051884],[137.006426,-35.054989],[137.00368,-35.059578],[137.00134,-35.063747],[137.000275,-35.065528],[137.000125,-35.065742],[136.99998,-35.065928]]}},{"type":"Feature","properties":{"tier":"regional"},"geometry":{"type":"LineString","coordinates":[[137.002371,-35.216811],[137.004219,-35.216507],[137.006825,-35.216255],[137.010946,-35.215869],[137.014058,-35.215578],[137.030695,-35.214018],[137.036947,-35.213432],[137.037927,-35.213424],[137.038833,-35.213623],[137.044661,-35.215813],[137.051993,-35.218628],[137.053758,-35.219178],[137.054383,-35.219321],[137.056626,-35.219834],[137.060904,-35.220887],[137.06562,-35.221551],[137.067105,-35.221734],[137.069515,-35.221787],[137.069711,-35.221789],[137.074129,-35.221826],[137.07511,-35.221612],[137.08345,-35.218918],[137.084403,-35.218743],[137.08516,-35.21885],[137.086906,-35.219407],[137.087709,-35.219468],[137.089988,-35.219147],[137.092604,-35.219124],[137.099898,-35.221833],[137.100916,-35.222375],[137.103256,-35.224675],[137.105418,-35.226999],[137.106567,-35.227761],[137.108743,-35.22944],[137.109369,-35.229837],[137.110172,-35.229982],[137.114328,-35.22931],[137.11883,-35.229188],[137.120446,-35.229631],[137.122501,-35.230096],[137.124613,-35.23006],[137.124724,-35.230058],[137.127853,-35.229943],[137.129216,-35.229631],[137.132896,-35.228563],[137.133868,-35.228448],[137.134839,-35.228563],[137.13568,-35.228944],[137.137641,-35.229997],[137.13865,-35.230249],[137.141293,-35.230752],[137.145515,-35.231591],[137.148148,-35.232064],[137.149251,-35.232095],[137.1545,-35.231431],[137.155508,-35.231149],[137.156144,-35.230783],[137.159123,-35.228791],[137.161337,-35.227838],[137.16285,-35.226686],[137.163438,-35.22632],[137.165951,-35.224916],[137.182744,-35.215042],[137.183743,-35.21434],[137.188744,-35.209849],[137.188951,-35.209634],[137.189104,-35.209461],[137.189224,-35.209308],[137.189364,-35.209084],[137.189509,-35.208821],[137.191293,-35.205447],[137.192002,-35.204118],[137.192835,-35.202525],[137.195437,-35.19922],[137.19648,-35.197896],[137.196517,-35.197857],[137.19876,-35.195276],[137.199468,-35.194429],[137.200439,-35.19324],[137.201396,-35.192054],[137.202131,-35.191144],[137.202416,-35.190758],[137.202841,-35.190185],[137.203719,-35.186304],[137.206619,-35.183237],[137.208776,-35.180841],[137.210066,-35.179096],[137.210325,-35.178869],[137.211143,-35.178358],[137.214296,-35.176644],[137.215603,-35.175868],[137.216788,-35.175049],[137.218386,-35.173911],[137.219007,-35.173462],[137.219716,-35.173073],[137.220763,-35.17262],[137.225228,-35.17079],[137.228608,-35.169322],[137.229743,-35.168336],[137.23066,-35.167173],[137.23291,-35.165401],[137.235298,-35.164402],[137.237737,-35.162992],[137.241004,-35.162095],[137.24463,-35.161258],[137.246698,-35.160196],[137.249608,-35.158602],[137.25139,-35.158039],[137.255418,-35.156936],[137.259854,-35.156342],[137.263641,-35.155371],[137.269748,-35.153408],[137.271013,-35.152487],[137.272633,-35.152043],[137.276094,-35.151633],[137.278327,-35.15056],[137.278628,-35.15042],[137.278992,-35.150284],[137.279293,-35.150183],[137.279604,-35.150104],[137.279899,-35.150069],[137.280244,-35.150039],[137.280969,-35.150065],[137.281675,-35.150105],[137.281916,-35.150098],[137.282192,-35.150065],[137.282557,-35.14999],[137.283059,-35.149859],[137.284177,-35.149558],[137.284507,-35.149436],[137.286651,-35.148379],[137.289499,-35.147443],[137.291136,-35.146894],[137.294221,-35.144824],[137.297521,-35.143247],[137.300198,-35.141948],[137.302575,-35.141201],[137.304158,-35.140952],[137.308341,-35.138646],[137.311816,-35.13678],[137.315278,-35.133999],[137.317201,-35.133096],[137.319221,-35.132154],[137.323127,-35.130976],[137.324783,-35.130367],[137.325949,-35.129762],[137.326379,-35.129535],[137.326627,-35.12948],[137.326762,-35.12945],[137.329157,-35.12903],[137.331168,-35.127947],[137.333967,-35.126303],[137.335632,-35.125355],[137.343956,-35.122846],[137.347389,-35.121747],[137.350087,-35.120896],[137.352131,-35.120238],[137.354094,-35.119588],[137.354398,-35.119498],[137.35466,-35.119426],[137.357731,-35.11886],[137.362508,-35.117965],[137.367031,-35.117431],[137.370796,-35.117162],[137.37463,-35.115999],[137.381518,-35.113335],[137.385002,-35.111938],[137.38783,-35.110776],[137.392113,-35.109083],[137.395092,-35.107901],[137.397471,-35.107358],[137.397849,-35.10724],[137.398134,-35.107115],[137.401076,-35.105593],[137.4032,-35.104541],[137.404348,-35.103949],[137.405587,-35.103251],[137.407211,-35.102383],[137.408819,-35.101206],[137.411043,-35.09956],[137.411349,-35.099362],[137.411644,-35.099213],[137.412084,-35.099081],[137.414761,-35.098287],[137.41637,-35.097804],[137.41961,-35.096707],[137.420044,-35.096544],[137.42042,-35.096369],[137.423244,-35.094881],[137.423585,-35.094752],[137.423848,-35.094655],[137.424181,-35.094558],[137.424484,-35.094484],[137.424835,-35.094414],[137.425259,-35.094348],[137.428397,-35.09395],[137.432345,-35.093538],[137.438829,-35.092933],[137.443055,-35.092442],[137.446196,-35.092138],[137.447435,-35.092006],[137.448079,-35.091936],[137.449104,-35.091782],[137.451904,-35.091277],[137.452153,-35.091244],[137.452395,-35.091227],[137.45266,-35.091236],[137.4556,-35.091529],[137.457837,-35.091704],[137.458568,-35.091708],[137.459715,-35.091529]]}},{"type":"Feature","properties":{"tier":"arterial"},"geometry":{"type":"LineString","coordinates":[[137.322374,-34.99998],[137.32239,-35.013309],[137.322292,-35.013856],[137.322175,-35.014221],[137.322014,-35.014606],[137.321845,-35.014896],[137.321554,-35.015288],[137.321287,-35.015588],[137.320969,-35.015889],[137.320612,-35.01616],[137.320168,-35.016422],[137.31958,-35.016653],[137.319081,-35.016837],[137.318545,-35.016995],[137.304067,-35.021085],[137.30292,-35.021419],[137.302384,-35.0216],[137.301917,-35.021776],[137.301381,-35.022014],[137.30082,-35.022307],[137.300406,-35.022547],[137.286102,-35.031903],[137.278618,-35.036805],[137.27667,-35.03808],[137.259496,-35.049379],[137.252339,-35.054082],[137.251195,-35.0548],[137.250375,-35.055229],[137.248674,-35.055961],[137.24627,-35.056961],[137.242377,-35.058592],[137.237424,-35.060671],[137.22951,-35.06395],[137.227469,-35.064749],[137.224515,-35.065944],[137.223504,-35.066369],[137.222316,-35.0669],[137.221575,-35.067255],[137.220798,-35.067607],[137.219427,-35.068193],[137.215242,-35.069939],[137.190292,-35.080389],[137.164583,-35.091118],[137.16405,-35.091359],[137.163695,-35.091585],[137.163364,-35.091838],[137.155093,-35.098044],[137.148018,-35.103304],[137.143738,-35.106534],[137.142697,-35.107388],[137.140794,-35.108868],[137.134849,-35.113221],[137.129214,-35.117346],[137.122909,-35.121962],[137.115242,-35.127658],[137.113968,-35.128615],[137.113648,-35.128892],[137.112934,-35.129555],[137.112434,-35.129968],[137.110407,-35.131464],[137.107233,-35.133802],[137.106503,-35.13428],[137.105403,-35.13497],[137.104947,-35.135271],[137.10197,-35.137506],[137.097328,-35.140945],[137.095871,-35.142015],[137.092139,-35.144784],[137.091164,-35.145511],[137.089171,-35.146997],[137.084686,-35.15031],[137.078307,-35.155036],[137.072183,-35.159593],[137.070213,-35.161034],[137.069868,-35.161264],[137.06963,-35.1614],[137.069325,-35.161541],[137.068656,-35.161817],[137.068269,-35.161991],[137.068033,-35.162109],[137.06768,-35.16231],[137.05778,-35.168442],[137.053218,-35.171265],[137.053194,-35.171279],[137.043918,-35.177019],[137.037883,-35.180719],[137.037359,-35.181055],[137.037022,-35.181316],[137.036727,-35.181576],[137.020547,-35.197405],[137.015787,-35.202061],[137.011782,-35.206488],[137.010807,-35.207566],[137.010739,-35.207642],[137.003129,-35.216055],[137.002701,-35.216513],[137.002371,-35.216811],[137.00101,-35.217778],[136.99998,-35.218497]]}},{"type":"Feature","properties":{"tier":"regional"},"geometry":{"type":"LineString","coordinates":[[137.459715,-35.091529],[137.460426,-35.091299],[137.461181,-35.090895],[137.464947,-35.088505],[137.468709,-35.086017],[137.472511,-35.083554],[137.474083,-35.082449],[137.479047,-35.0805],[137.485893,-35.080058],[137.486328,-35.080011],[137.488938,-35.079417],[137.497838,-35.077504],[137.50002,-35.077009]]}},{"type":"Feature","properties":{"tier":"regional"},"geometry":{"type":"LineString","coordinates":[[137.250507,-34.99998],[137.2505,-35.017499],[137.250375,-35.055229]]}},{"type":"Feature","properties":{"tier":"arterial"},"geometry":{"type":"LineString","coordinates":[[137.50002,-35.018234],[137.499651,-35.017913],[137.498998,-35.017475],[137.498763,-35.017357],[137.498374,-35.017164],[137.497868,-35.016985],[137.497429,-35.016857],[137.49682,-35.016726],[137.496304,-35.016667],[137.492881,-35.016631],[137.484545,-35.016033],[137.483408,-35.015831],[137.48226,-35.015462],[137.477979,-35.013309],[137.477651,-35.013213],[137.477329,-35.01314],[137.476998,-35.013093],[137.476659,-35.013072],[137.476168,-35.013111],[137.475654,-35.013165],[137.47457,-35.013312],[137.473671,-35.013412],[137.472494,-35.013493],[137.465287,-35.01374],[137.449209,-35.014573],[137.445438,-35.014768],[137.443482,-35.01477],[137.442494,-35.014771],[137.441976,-35.014767],[137.441636,-35.014762],[137.441307,-35.014728]]}}]}
