{"type":"FeatureCollection","features":[{"type":"Feature","properties":{"tier":"arterial"},"geometry":{"type":"LineString","coordinates":[[137.50002,-29.616853],[137.48668,-29.614706],[137.473235,-29.612649],[137.464313,-29.611311],[137.459394,-29.610539]]}},{"type":"Feature","properties":{"tier":"arterial"},"geometry":{"type":"LineString","coordinates":[[137.378856,-29.594505],[137.374222,-29.597199],[137.372626,-29.598042],[137.371861,-29.598206],[137.370841,-29.598309],[137.36733,-29.598504],[137.366246,-29.598548],[137.365683,-29.598716],[137.364736,-29.599135],[137.36302,-29.600229],[137.36102,-29.601507],[137.356504,-29.604358],[137.355074,-29.605331],[137.354433,-29.605967],[137.353812,-29.60689],[137.353404,-29.607813],[137.353158,-29.608747],[137.352841,-29.610295],[137.352427,-29.612231],[137.351915,-29.613345],[137.350155,-29.614988],[137.348058,-29.616969],[137.345708,-29.619253],[137.343851,-29.621009],[137.341747,-29.623062],[137.340524,-29.624148],[137.338079,-29.625852],[137.335287,-29.627817],[137.333223,-29.62883],[137.32919,-29.630568],[137.325468,-29.632402],[137.322238,-29.633989],[137.321187,-29.634915],[137.320332,-29.636018],[137.319523,-29.637334],[137.31919,-29.638357]]}},{"type":"Feature","properties":{"tier":"regional"},"geometry":{"type":"LineString","coordinates":[[137.305461,-29.543192],[137.305463,-29.543381],[137.305396,-29.543571],[137.304703,-29.544508],[137.304461,-29.544855],[137.303745,-29.545883],[137.302259,-29.547806],[137.3014,-29.548916],[137.300718,-29.549795],[137.300205,-29.550791],[137.298264,-29.553004],[137.298144,-29.553227],[137.298048,-29.553442],[137.297917,-29.553599],[137.297694,-29.553699],[137.297471,-29.553796],[137.297303,-29.553894],[137.29716,-29.554031],[137.296861,-29.554445],[137.295435,-29.556332],[137.28818,-29.565598],[137.282302,-29.573074],[137.281913,-29.573565],[137.28186,-29.573691],[137.28186,-29.573849],[137.281938,-29.574032],[137.282113,-29.57417],[137.284107,-29.575599],[137.28879,-29.579024],[137.294222,-29.582997],[137.294508,-29.583178],[137.294723,-29.583297],[137.294946,-29.583393],[137.295322,-29.583466],[137.299897,-29.58438],[137.300216,-29.584458],[137.300492,-29.584601],[137.300756,-29.584801],[137.302641,-29.587007],[137.30777,-29.594252],[137.307909,-29.594438],[137.308103,-29.594639],[137.308364,-29.59485],[137.309964,-29.595826],[137.312204,-29.597286],[137.314773,-29.598876],[137.315943,-29.599615],[137.316353,-29.59987],[137.316859,-29.600171],[137.316955,-29.600239],[137.317013,-29.600289],[137.317073,-29.600353],[137.317113,-29.600403],[137.317142,-29.600447],[137.317184,-29.600522],[137.317216,-29.600595],[137.317246,-29.600702],[137.317258,-29.6009],[137.31798,-29.613543],[137.318008,-29.613998],[137.318017,-29.614153],[137.318753,-29.628878],[137.319042,-29.6356],[137.31919,-29.638357]]}},{"type":"Feature","properties":{"tier":"arterial"},"geometry":{"type":"LineString","coordinates":[[137.31919,-29.638357],[137.319269,-29.639445],[137.319284,-29.640445],[137.319187,-29.641058],[137.318876,-29.641723],[137.318503,-29.642277],[137.318029,-29.642807],[137.315835,-29.644939],[137.312055,-29.648415],[137.306631,-29.653579],[137.29898,-29.660823],[137.296665,-29.66301],[137.296082,-29.663619],[137.295532,-29.664375],[137.292314,-29.669496],[137.289543,-29.673692],[137.281186,-29.686746],[137.276298,-29.694252],[137.275693,-29.695201],[137.274913,-29.696151],[137.273543,-29.697571],[137.273081,-29.698088],[137.272673,-29.698743],[137.270527,-29.702429],[137.268611,-29.705847],[137.268001,-29.706697],[137.266848,-29.708136],[137.265841,-29.709434],[137.265168,-29.710468],[137.264495,-29.711682],[137.26261,-29.715163],[137.261628,-29.716942],[137.260807,-29.718235],[137.255921,-29.725753],[137.248801,-29.73677],[137.248759,-29.736836],[137.248144,-29.737856],[137.247824,-29.738457],[137.247726,-29.738685],[137.246126,-29.743887],[137.243203,-29.753747],[137.239946,-29.764381],[137.237937,-29.771024],[137.23526,-29.779894],[137.232069,-29.790525],[137.230364,-29.796173],[137.228834,-29.801833],[137.228336,-29.803477],[137.227773,-29.804752],[137.226558,-29.808628],[137.225343,-29.812577],[137.224907,-29.813778],[137.223234,-29.816895],[137.221142,-29.820704],[137.220746,-29.821424],[137.214083,-29.833686],[137.210471,-29.840316],[137.209067,-29.842801],[137.208617,-29.843675],[137.206971,-29.847741],[137.20532,-29.851805],[137.203633,-29.856021],[137.202896,-29.857854],[137.200157,-29.864735],[137.199328,-29.866849],[137.197467,-29.871499],[137.195343,-29.876765],[137.19446,-29.878999],[137.193736,-29.880844],[137.193323,-29.881623],[137.192225,-29.883228],[137.186891,-29.891271],[137.186185,-29.892348],[137.183704,-29.896936],[137.182505,-29.899008],[137.181239,-29.90111],[137.180789,-29.901856],[137.18025,-29.902605],[137.179115,-29.903951],[137.17687,-29.90659],[137.175937,-29.907783],[137.174977,-29.909154],[137.174465,-29.909967],[137.170484,-29.915936],[137.169483,-29.917422],[137.167858,-29.919877],[137.16527,-29.92374],[137.164366,-29.925103],[137.163384,-29.926639],[137.162888,-29.92729],[137.161815,-29.928473],[137.155716,-29.934831],[137.154602,-29.935925],[137.153951,-29.936602],[137.153543,-29.937081],[137.153259,-29.937506],[137.152856,-29.938264],[137.150059,-29.943298],[137.148535,-29.945917],[137.147677,-29.947154],[137.146687,-29.948564],[137.145579,-29.950089],[137.144338,-29.951755],[137.143707,-29.952453],[137.142103,-29.954103],[137.13778,-29.958578],[137.136159,-29.960291],[137.129628,-29.967004],[137.127885,-29.968821],[137.127383,-29.969446],[137.126766,-29.970276],[137.12586,-29.971417],[137.124889,-29.972716],[137.122209,-29.975873],[137.12027,-29.978313],[137.120085,-29.978568],[137.116561,-29.98251],[137.114236,-29.985147],[137.113039,-29.986535],[137.111757,-29.988426],[137.110941,-29.989406],[137.105845,-29.994257],[137.105008,-29.995153],[137.104493,-29.995878],[137.104118,-29.996626],[137.103801,-29.99769],[137.103673,-29.998721],[137.103801,-29.999925],[137.103834,-30.00002]]}},{"type":"Feature","properties":{"tier":"arterial"},"geometry":{"type":"LineString","coordinates":[[137.322238,-29.633989],[137.319042,-29.6356]]}},{"type":"Feature","properties":{"tier":"arterial"},"geometry":{"type":"LineString","coordinates":[[137.378362,-29.591737],[137.369881,-29.584978],[137.369397,-29.584592],[137.368297,-29.583717],[137.366245,-29.582081],[137.361664,-29.57843],[137.356764,-29.574498],[137.353666,-29.572398],[137.350511,-29.570373],[137.349364,-29.569614],[137.348613,-29.569118],[137.347829,-29.568545],[137.346679,-29.567705],[137.346035,-29.567211],[137.345686,-29.566942],[137.345267,-29.56662],[137.345122,-29.566508],[137.344867,-29.566312],[137.344676,-29.566165],[137.344218,-29.565849],[137.343368,-29.56526],[137.343004,-29.565061],[137.342425,-29.564745],[137.342006,-29.564515],[137.340058,-29.56345],[137.339479,-29.563132],[137.335672,-29.561019],[137.334941,-29.560612],[137.33268,-29.55936],[137.330741,-29.558285],[137.329709,-29.557676],[137.329153,-29.557347],[137.325388,-29.554922],[137.320635,-29.551804],[137.320197,-29.551556],[137.310924,-29.546293],[137.30551,-29.54322],[137.305461,-29.543192],[137.304618,-29.542713],[137.300612,-29.540446],[137.294436,-29.536882],[137.291633,-29.534847],[137.287561,-29.531891],[137.287202,-29.53163],[137.283489,-29.528934],[137.28277,-29.528517],[137.281859,-29.527989],[137.280483,-29.527585],[137.279715,-29.52736],[137.279633,-29.527336],[137.277263,-29.526655],[137.273659,-29.525621],[137.267447,-29.523838],[137.267316,-29.5238],[137.266151,-29.52344],[137.264987,-29.522832],[137.260419,-29.520355],[137.259371,-29.519848],[137.254045,-29.518108],[137.252513,-29.517608],[137.251567,-29.517391],[137.251336,-29.517347],[137.250806,-29.517247],[137.244799,-29.516786],[137.244064,-29.51673],[137.240966,-29.516414],[137.240909,-29.516404],[137.240644,-29.516358],[137.239951,-29.516206],[137.238955,-29.515903],[137.233997,-29.513725],[137.216649,-29.506224],[137.216041,-29.505961],[137.215704,-29.50581],[137.208487,-29.502588],[137.20496,-29.500839],[137.203778,-29.500093],[137.203639,-29.49998]]}},{"type":"Feature","properties":{"tier":"arterial"},"geometry":{"type":"LineString","coordinates":[[137.380702,-29.59337],[137.380681,-29.593356],[137.379994,-29.59288],[137.3785,-29.591846],[137.378362,-29.591737]]}},{"type":"Feature","properties":{"tier":"arterial"},"geometry":{"type":"LineString","coordinates":[[137.380702,-29.59337],[137.380178,-29.593731],[137.378856,-29.594505]]}},{"type":"Feature","properties":{"tier":"arterial"},"geometry":{"type":"LineString","coordinates":[[137.383972,-29.59555],[137.382222,-29.594421],[137.380702,-29.59337]]}},{"type":"Feature","properties":{"tier":"arterial"},"geometry":{"type":"LineString","coordinates":[[137.384264,-29.595738],[137.383972,-29.59555]]}},{"type":"Feature","properties":{"tier":"arterial"},"geometry":{"type":"LineString","coordinates":[[137.457973,-29.610316],[137.453906,-29.609678],[137.451214,-29.609106],[137.449862,-29.608884],[137.448513,-29.608758],[137.445731,-29.608527],[137.444368,-29.608491],[137.44313,-29.608467],[137.442025,-29.608324],[137.440673,-29.608109],[137.438618,-29.60775],[137.432488,-29.60631],[137.427301,-29.605135],[137.426272,-29.60492],[137.42586,-29.60491],[137.42539,-29.604943],[137.423559,-29.605189],[137.422579,-29.605203],[137.422023,-29.605143],[137.421098,-29.604959],[137.419597,-29.604513],[137.418804,-29.604232],[137.41819,-29.604014],[137.413412,-29.601678],[137.41252,-29.601284],[137.41099,-29.600774],[137.410275,-29.600418],[137.409078,-29.599417],[137.408263,-29.598955],[137.407347,-29.598614],[137.405989,-29.59833],[137.403729,-29.598242],[137.40303,-29.598234],[137.402393,-29.598226],[137.401542,-29.598274],[137.39978,-29.598468],[137.393152,-29.599197],[137.392484,-29.599284],[137.391817,-29.599292],[137.391185,-29.599165],[137.3905,-29.598926],[137.390142,-29.59876],[137.3891,-29.598294],[137.386199,-29.596985],[137.384264,-29.595738]]}},{"type":"Feature","properties":{"tier":"arterial"},"geometry":{"type":"LineString","coordinates":[[137.459394,-29.610539],[137.458337,-29.610373],[137.457973,-29.610316]]}}]}
