{"type":"FeatureCollection","features":[{"type":"Feature","properties":{"tier":"arterial"},"geometry":{"type":"LineString","coordinates":[[137.039908,-29.489804],[137.039233,-29.488697],[137.03549,-29.48256],[137.030505,-29.474385],[137.027999,-29.470277],[137.02749,-29.469516],[137.02724,-29.469238],[137.026959,-29.468974],[137.026452,-29.468567],[137.026133,-29.468364],[137.025819,-29.468234],[137.025352,-29.468091],[137.024872,-29.467979],[137.023713,-29.46777],[137.021778,-29.467394],[137.017489,-29.466562],[137.011552,-29.465301],[137.007655,-29.464392],[137.003589,-29.463533],[137.00334,-29.46348],[136.99998,-29.462776]]}},{"type":"Feature","properties":{"tier":"arterial"},"geometry":{"type":"LineString","coordinates":[[137.040273,-29.490411],[137.040104,-29.490125],[137.039908,-29.489804]]}},{"type":"Feature","properties":{"tier":"arterial"},"geometry":{"type":"LineString","coordinates":[[137.072778,-29.489885],[137.069364,-29.490344],[137.058309,-29.491785],[137.056554,-29.491987],[137.054445,-29.492146],[137.053005,-29.492237],[137.047965,-29.492541],[137.046121,-29.492681],[137.045669,-29.492701],[137.04371,-29.492787],[137.042946,-29.492763],[137.042162,-29.492549],[137.041502,-29.492155],[137.041095,-29.491764],[137.041048,-29.491719],[137.040722,-29.491169],[137.040273,-29.490411]]}},{"type":"Feature","properties":{"tier":"arterial"},"geometry":{"type":"LineString","coordinates":[[137.075317,-29.489541],[137.074983,-29.489589],[137.072778,-29.489885]]}},{"type":"Feature","properties":{"tier":"arterial"},"geometry":{"type":"LineString","coordinates":[[137.203688,-29.50002],[137.202966,-29.499436],[137.202201,-29.498856],[137.200714,-29.497845],[137.198798,-29.496885],[137.197256,-29.496454],[137.194442,-29.49585],[137.193331,-29.495475],[137.189879,-29.494084],[137.188483,-29.493456],[137.181493,-29.489044],[137.179576,-29.487794],[137.179536,-29.487769],[137.178264,-29.486978],[137.173068,-29.483632],[137.172966,-29.483569],[137.170841,-29.482253],[137.17005,-29.481888],[137.169798,-29.481772],[137.1687,-29.481401],[137.167644,-29.48115],[137.166628,-29.481011],[137.165567,-29.480947],[137.16451,-29.480946],[137.154065,-29.480988],[137.151084,-29.480937],[137.134071,-29.480082],[137.117056,-29.479265],[137.116134,-29.479243],[137.115202,-29.479275],[137.113815,-29.479347],[137.087698,-29.480701],[137.085036,-29.480807],[137.084299,-29.480852],[137.083958,-29.48089],[137.083551,-29.480974],[137.083253,-29.481079],[137.082987,-29.4812],[137.082802,-29.481315],[137.082566,-29.481478],[137.082352,-29.481665],[137.082129,-29.481933],[137.0818,-29.482431],[137.079097,-29.486982],[137.078262,-29.488152],[137.078022,-29.48837],[137.077772,-29.488596],[137.077228,-29.489012],[137.076601,-29.48927],[137.075954,-29.489449],[137.075317,-29.489541]]}}]}
