{"type":"FeatureCollection","features":[{"type":"Feature","properties":{"tier":"arterial"},"geometry":{"type":"LineString","coordinates":[[137.488783,-34.49998],[137.488942,-34.500134],[137.490026,-34.501184],[137.493449,-34.504486],[137.495369,-34.506342],[137.495672,-34.506641],[137.499021,-34.509854],[137.50002,-34.510811]]}},{"type":"Feature","properties":{"tier":"arterial"},"geometry":{"type":"LineString","coordinates":[[137.401033,-34.990547],[137.401042,-34.989392],[137.40104,-34.988049],[137.40104,-34.987478]]}},{"type":"Feature","properties":{"tier":"regional"},"geometry":{"type":"LineString","coordinates":[[137.366536,-34.954952],[137.385287,-34.96076],[137.385577,-34.960925]]}},{"type":"Feature","properties":{"tier":"arterial"},"geometry":{"type":"LineString","coordinates":[[137.049935,-34.910357],[137.05038,-34.907252],[137.050411,-34.906784]]}},{"type":"Feature","properties":{"tier":"arterial"},"geometry":{"type":"LineString","coordinates":[[137.412722,-35.00002],[137.410338,-34.997379]]}},{"type":"Feature","properties":{"tier":"arterial"},"geometry":{"type":"LineString","coordinates":[[137.049935,-34.910357],[137.049776,-34.911561],[137.049753,-34.911752],[137.049706,-34.911887],[137.049557,-34.912098],[137.044547,-34.916808],[137.040853,-34.920281],[137.040533,-34.920687],[137.040285,-34.921063],[137.040108,-34.921414],[137.040074,-34.921483],[137.039918,-34.921906],[137.039804,-34.922333],[137.039759,-34.922647],[137.039744,-34.922909],[137.039767,-34.930194],[137.039787,-34.937281],[137.039781,-34.937416],[137.039759,-34.937565],[137.036816,-34.951684],[137.032925,-34.970131],[137.032523,-34.971996],[137.032456,-34.972426],[137.032435,-34.97275],[137.032451,-34.973098],[137.034319,-34.988354],[137.034316,-34.988712],[137.03426,-34.989114],[137.034207,-34.989405],[137.034142,-34.989622],[137.034022,-34.989933],[137.033857,-34.990219],[137.033371,-34.990983],[137.032932,-34.991663],[137.032731,-34.992021],[137.032527,-34.992457],[137.030785,-34.998217],[137.030227,-35.00002]]}},{"type":"Feature","properties":{"tier":"regional"},"geometry":{"type":"LineString","coordinates":[[137.363092,-34.953884],[137.36093,-34.953217],[137.358838,-34.952547]]}},{"type":"Feature","properties":{"tier":"arterial"},"geometry":{"type":"LineString","coordinates":[[137.326529,-34.984982],[137.326507,-34.985099],[137.326472,-34.985234],[137.326242,-34.985594],[137.324981,-34.987202],[137.324706,-34.987748],[137.322613,-34.992798],[137.322489,-34.993155],[137.322411,-34.993429],[137.322379,-34.993734],[137.322366,-34.994272],[137.322368,-34.994775],[137.322374,-35.00002]]}},{"type":"Feature","properties":{"tier":"arterial"},"geometry":{"type":"LineString","coordinates":[[137.401033,-34.990547],[137.399238,-34.990135],[137.398742,-34.990021]]}},{"type":"Feature","properties":{"tier":"arterial"},"geometry":{"type":"LineString","coordinates":[[137.325832,-34.984982],[137.296518,-34.984986],[137.293018,-34.984978],[137.265176,-34.984913],[137.250514,-34.984907],[137.224458,-34.984964],[137.21524,-34.984984],[137.179781,-34.985061],[137.169752,-34.985083],[137.16316,-34.985118],[137.162831,-34.985145],[137.157596,-34.985754],[137.130418,-34.989146]]}},{"type":"Feature","properties":{"tier":"regional"},"geometry":{"type":"LineString","coordinates":[[137.358838,-34.952547],[137.358626,-34.95229],[137.358387,-34.952004],[137.358132,-34.951698],[137.357875,-34.951345],[137.35774,-34.951147],[137.357612,-34.950958],[137.357475,-34.950758],[137.357316,-34.950526],[137.357072,-34.950158],[137.356889,-34.949929],[137.356614,-34.949601],[137.356414,-34.949398],[137.356298,-34.94929],[137.35611,-34.949116],[137.355922,-34.94894],[137.355686,-34.948748],[137.355324,-34.948495],[137.355144,-34.948373],[137.354827,-34.948157],[137.354598,-34.947986],[137.354355,-34.947812],[137.354017,-34.947555],[137.353776,-34.947384],[137.353435,-34.947137],[137.353195,-34.946945],[137.353025,-34.946798],[137.352858,-34.946665],[137.352646,-34.946472],[137.35256,-34.946375],[137.352462,-34.94627],[137.352204,-34.94595],[137.352112,-34.945843],[137.351807,-34.945389],[137.351745,-34.94527],[137.3517,-34.945152],[137.351623,-34.945033],[137.351575,-34.944915],[137.351517,-34.944797],[137.351431,-34.944571],[137.35138,-34.944424],[137.351282,-34.943909],[137.351228,-34.943403],[137.351223,-34.942909],[137.351238,-34.94275],[137.351303,-34.942247],[137.351346,-34.941985],[137.351458,-34.941512],[137.351545,-34.940972],[137.351732,-34.940072],[137.351786,-34.939798],[137.351793,-34.939693]]}},{"type":"Feature","properties":{"tier":"regional"},"geometry":{"type":"LineString","coordinates":[[137.360897,-34.959526],[137.360897,-34.959838],[137.360899,-34.960768],[137.360904,-34.965273],[137.360899,-34.969575],[137.360974,-34.970309],[137.361108,-34.970859],[137.361446,-34.971545],[137.36195,-34.972191],[137.362514,-34.972718],[137.364713,-34.974692],[137.365743,-34.975496],[137.367084,-34.976393],[137.367706,-34.976872],[137.36805,-34.977228],[137.368484,-34.977791],[137.368876,-34.978485],[137.369112,-34.979096],[137.3693,-34.979997],[137.369316,-34.980753],[137.369278,-34.984952]]}},{"type":"Feature","properties":{"tier":"arterial"},"geometry":{"type":"LineString","coordinates":[[137.385616,-34.984981],[137.38528,-34.984942],[137.384885,-34.984929],[137.383832,-34.984934]]}},{"type":"Feature","properties":{"tier":"arterial"},"geometry":{"type":"LineString","coordinates":[[137.127947,-34.988873],[137.127549,-34.988712],[137.127036,-34.988437],[137.126514,-34.988068],[137.125775,-34.987268],[137.124437,-34.985743],[137.113958,-34.97363],[137.111831,-34.971166],[137.111456,-34.97073],[137.111301,-34.970545],[137.111147,-34.970349],[137.111023,-34.970178],[137.110952,-34.970081],[137.110849,-34.969939],[137.110723,-34.96973],[137.110291,-34.969021],[137.099572,-34.951586],[137.092647,-34.940306],[137.083881,-34.92603],[137.08374,-34.925828],[137.083425,-34.925379]]}},{"type":"Feature","properties":{"tier":"regional"},"geometry":{"type":"LineString","coordinates":[[137.384996,-34.961024],[137.385577,-34.960925],[137.393363,-34.959572],[137.397339,-34.958902],[137.399895,-34.958422],[137.400495,-34.958317],[137.400886,-34.95822],[137.401018,-34.958172],[137.40112,-34.958123],[137.401516,-34.957743],[137.401593,-34.957667],[137.401666,-34.957604],[137.401787,-34.957544],[137.401933,-34.957513],[137.402096,-34.957514],[137.402322,-34.957576],[137.402467,-34.957656]]}},{"type":"Feature","properties":{"tier":"regional"},"geometry":{"type":"LineString","coordinates":[[137.346483,-34.931042],[137.346206,-34.930895],[137.34586,-34.930653],[137.345227,-34.93016],[137.344817,-34.929841],[137.344667,-34.929747],[137.344493,-34.929692],[137.344321,-34.929667],[137.344079,-34.929696],[137.343856,-34.929735],[137.342747,-34.930011],[137.342235,-34.930137],[137.342025,-34.930188],[137.341615,-34.930279],[137.34144,-34.930311],[137.341059,-34.930383],[137.340566,-34.930455],[137.334463,-34.931235],[137.331795,-34.931576],[137.331235,-34.931658],[137.331167,-34.931669],[137.330856,-34.931695],[137.330796,-34.931691],[137.330658,-34.931682],[137.3304,-34.931629],[137.3298,-34.931453],[137.32951,-34.931396],[137.329234,-34.931361],[137.329059,-34.931339],[137.328775,-34.931325],[137.328565,-34.931326],[137.327956,-34.931327],[137.32686,-34.93133],[137.326581,-34.931343],[137.325433,-34.931528],[137.324129,-34.931734],[137.32394,-34.931751],[137.323689,-34.931774],[137.322294,-34.931763],[137.322159,-34.931762],[137.32083,-34.931752],[137.32031,-34.931717],[137.319886,-34.931664],[137.317075,-34.931149],[137.316651,-34.931048],[137.312521,-34.929835],[137.310799,-34.929329],[137.31052,-34.929206],[137.310214,-34.92903],[137.309999,-34.928861],[137.309951,-34.928823],[137.305853,-34.9257],[137.305456,-34.925436],[137.30493,-34.925137],[137.303428,-34.924354],[137.303069,-34.924152],[137.302757,-34.923932],[137.302371,-34.923585],[137.301572,-34.922797],[137.301498,-34.922684],[137.3014,-34.922534],[137.301239,-34.922117],[137.300773,-34.92091],[137.300354,-34.919846],[137.300183,-34.919494],[137.300005,-34.919217],[137.299582,-34.918777],[137.296594,-34.916134],[137.296267,-34.915711],[137.295607,-34.914264],[137.295424,-34.913908],[137.294941,-34.913107],[137.294781,-34.912782],[137.294722,-34.912434],[137.294727,-34.911977],[137.294775,-34.911523],[137.294866,-34.910938],[137.294893,-34.910512],[137.29485,-34.910142],[137.294673,-34.909715],[137.2944,-34.909333],[137.294212,-34.909139],[137.293881,-34.908745],[137.29381,-34.90866],[137.293504,-34.908136],[137.29124,-34.902901],[137.291009,-34.902553],[137.290747,-34.902232],[137.289234,-34.900437],[137.289008,-34.900217],[137.288751,-34.900063],[137.284824,-34.897947],[137.284588,-34.897863],[137.28259,-34.897252],[137.281396,-34.896887],[137.280333,-34.896562],[137.278907,-34.896125],[137.278559,-34.895993],[137.278226,-34.895817],[137.277962,-34.895646],[137.277834,-34.895562],[137.277309,-34.895162],[137.276912,-34.894911],[137.276499,-34.89474],[137.274739,-34.894343],[137.274251,-34.894278],[137.273897,-34.89426],[137.273452,-34.894286],[137.272991,-34.894414],[137.272202,-34.894585],[137.270668,-34.895043],[137.269997,-34.895285],[137.269589,-34.895452],[137.269227,-34.895627],[137.26806,-34.896191],[137.267604,-34.896363],[137.266624,-34.896578],[137.264836,-34.89697],[137.264306,-34.897115],[137.260491,-34.898157],[137.259906,-34.898316],[137.258984,-34.898514],[137.257331,-34.89884],[137.256983,-34.89888],[137.256532,-34.898871],[137.255937,-34.898801],[137.255411,-34.898708],[137.253576,-34.898277],[137.25297,-34.89807],[137.252582,-34.897921],[137.252375,-34.897841],[137.251903,-34.89774],[137.250733,-34.897591],[137.250597,-34.89762],[137.250497,-34.897692],[137.250486,-34.89778]]}},{"type":"Feature","properties":{"tier":"regional"},"geometry":{"type":"LineString","coordinates":[[137.250486,-34.89778],[137.250489,-34.912093],[137.250519,-34.914405],[137.250534,-34.948186],[137.250436,-34.970332],[137.250514,-34.984907],[137.250507,-35.00002]]}},{"type":"Feature","properties":{"tier":"regional"},"geometry":{"type":"LineString","coordinates":[[137.50002,-34.512259],[137.499656,-34.512258],[137.498161,-34.512269],[137.496203,-34.512267],[137.495279,-34.512268],[137.493565,-34.512263],[137.492427,-34.512258],[137.491725,-34.51226],[137.491155,-34.512261],[137.490721,-34.512257],[137.490443,-34.512253],[137.490265,-34.512251],[137.490112,-34.512252],[137.489873,-34.512263],[137.489641,-34.512269],[137.4894,-34.512272],[137.488441,-34.512272],[137.48563,-34.512274],[137.484966,-34.512263],[137.484359,-34.512256],[137.484105,-34.512257],[137.483762,-34.512262],[137.483389,-34.512274],[137.483083,-34.512279],[137.482772,-34.512278],[137.482468,-34.51228],[137.482304,-34.512278],[137.48212,-34.512273],[137.481867,-34.512263],[137.481458,-34.512246],[137.481109,-34.512233],[137.480959,-34.512231],[137.480817,-34.512234],[137.480599,-34.51224],[137.480252,-34.512249],[137.479918,-34.512253],[137.479772,-34.512253]]}},{"type":"Feature","properties":{"tier":"regional"},"geometry":{"type":"LineString","coordinates":[[137.479772,-34.512253],[137.478266,-34.512247],[137.477586,-34.512239],[137.477319,-34.512241],[137.477271,-34.512243],[137.477221,-34.51225],[137.477178,-34.51226],[137.477095,-34.512282]]}},{"type":"Feature","properties":{"tier":"regional"},"geometry":{"type":"LineString","coordinates":[[137.496179,-34.674405],[137.50002,-34.674407]]}},{"type":"Feature","properties":{"tier":"regional"},"geometry":{"type":"LineString","coordinates":[[137.496391,-34.675924],[137.496947,-34.6792]]}},{"type":"Feature","properties":{"tier":"regional"},"geometry":{"type":"LineString","coordinates":[[137.479095,-34.750477],[137.47947,-34.750488],[137.480154,-34.75049],[137.481157,-34.750494],[137.482566,-34.750499],[137.486032,-34.750506]]}},{"type":"Feature","properties":{"tier":"regional"},"geometry":{"type":"LineString","coordinates":[[137.485662,-34.733316],[137.485579,-34.733274],[137.485464,-34.733241],[137.4853,-34.733215],[137.485069,-34.733199],[137.481962,-34.733003],[137.480837,-34.73293],[137.480393,-34.732906],[137.480276,-34.732886],[137.480197,-34.732859],[137.480076,-34.732791]]}},{"type":"Feature","properties":{"tier":"regional"},"geometry":{"type":"LineString","coordinates":[[137.485662,-34.733316],[137.485751,-34.7334],[137.485823,-34.733521],[137.485995,-34.733856],[137.488851,-34.739558],[137.494336,-34.750497]]}},{"type":"Feature","properties":{"tier":"regional"},"geometry":{"type":"LineString","coordinates":[[137.496179,-34.674405],[137.496391,-34.675924]]}},{"type":"Feature","properties":{"tier":"arterial"},"geometry":{"type":"LineString","coordinates":[[137.050411,-34.906784],[137.050421,-34.906688],[137.05042,-34.906643],[137.05037,-34.906529],[137.050023,-34.906239],[137.049876,-34.906087],[137.049134,-34.905288],[137.04897,-34.905114],[137.048656,-34.904887],[137.048268,-34.904695],[137.048213,-34.904656],[137.048168,-34.904602]]}},{"type":"Feature","properties":{"tier":"regional"},"geometry":{"type":"LineString","coordinates":[[137.486032,-34.750506],[137.491377,-34.750511],[137.494336,-34.750497]]}},{"type":"Feature","properties":{"tier":"arterial"},"geometry":{"type":"LineString","coordinates":[[137.407446,-34.994729],[137.406657,-34.994403],[137.405095,-34.993734],[137.404851,-34.993584],[137.404602,-34.993393],[137.402939,-34.991958],[137.402792,-34.991835],[137.402289,-34.991387],[137.401762,-34.991009],[137.401181,-34.990615],[137.401033,-34.990547]]}},{"type":"Feature","properties":{"tier":"arterial"},"geometry":{"type":"LineString","coordinates":[[137.401023,-34.984944],[137.400923,-34.984944],[137.385823,-34.984941]]}},{"type":"Feature","properties":{"tier":"arterial"},"geometry":{"type":"LineString","coordinates":[[137.401041,-34.98167],[137.401045,-34.978184],[137.401045,-34.977306],[137.401057,-34.965057],[137.401013,-34.960682],[137.401069,-34.960141],[137.4011,-34.959991],[137.401132,-34.959839],[137.401247,-34.959414],[137.401424,-34.959016],[137.401646,-34.958643],[137.401886,-34.9583],[137.402176,-34.957965],[137.402467,-34.957656],[137.402957,-34.957271],[137.403775,-34.956788],[137.406269,-34.955442],[137.408037,-34.954487],[137.42187,-34.947091],[137.433354,-34.940945],[137.441435,-34.936612],[137.442342,-34.936124],[137.443124,-34.935676],[137.443833,-34.935175],[137.444104,-34.934953],[137.444641,-34.934431],[137.451725,-34.926571],[137.452067,-34.926152],[137.452275,-34.925839],[137.452602,-34.925224],[137.452676,-34.925021],[137.452739,-34.924848],[137.452845,-34.924488],[137.452936,-34.924151],[137.453747,-34.919439],[137.453745,-34.918926],[137.453582,-34.91802],[137.453362,-34.9172],[137.453156,-34.916432],[137.452995,-34.9159],[137.452449,-34.914069],[137.452381,-34.913658],[137.452357,-34.913468],[137.452332,-34.91306],[137.452315,-34.912546],[137.452361,-34.912],[137.452514,-34.911343],[137.452835,-34.910445],[137.457653,-34.899502],[137.457808,-34.899082],[137.45846,-34.897535],[137.459051,-34.896134],[137.460531,-34.892387],[137.460812,-34.891793],[137.461191,-34.891296],[137.461326,-34.891163]]}},{"type":"Feature","properties":{"tier":"arterial"},"geometry":{"type":"LineString","coordinates":[[137.499321,-34.861889],[137.499948,-34.861339],[137.50002,-34.861291]]}},{"type":"Feature","properties":{"tier":"arterial"},"geometry":{"type":"LineString","coordinates":[[137.495687,-34.865049],[137.496766,-34.864205],[137.496923,-34.864082],[137.497486,-34.86365],[137.49821,-34.862957],[137.498961,-34.862236],[137.499063,-34.862137]]}},{"type":"Feature","properties":{"tier":"arterial"},"geometry":{"type":"LineString","coordinates":[[137.083425,-34.925379],[137.082999,-34.925324],[137.081941,-34.925228],[137.081816,-34.925213],[137.081679,-34.92519],[137.081603,-34.925174],[137.081522,-34.925156],[137.081466,-34.925135],[137.081444,-34.925126],[137.081378,-34.9251],[137.081275,-34.925047],[137.081033,-34.924932],[137.079505,-34.924211],[137.077708,-34.923364],[137.062243,-34.916076],[137.0619,-34.915914],[137.061283,-34.915624],[137.054617,-34.912457],[137.050572,-34.910555],[137.050339,-34.910445],[137.050274,-34.910417],[137.05022,-34.910399],[137.050154,-34.910381],[137.050076,-34.910367],[137.05002,-34.91036],[137.049935,-34.910357]]}},{"type":"Feature","properties":{"tier":"arterial"},"geometry":{"type":"LineString","coordinates":[[137.130418,-34.989146],[137.129703,-34.989179],[137.129013,-34.989146],[137.128144,-34.988957],[137.127947,-34.988873]]}},{"type":"Feature","properties":{"tier":"regional"},"geometry":{"type":"LineString","coordinates":[[137.481484,-34.49998],[137.481483,-34.499982],[137.481439,-34.500162],[137.481384,-34.500396],[137.48134,-34.500626],[137.48129,-34.500875],[137.481227,-34.50117],[137.481183,-34.501396],[137.48116,-34.501528],[137.481149,-34.501603],[137.481144,-34.501661],[137.48114,-34.501727],[137.48114,-34.501839],[137.481144,-34.502179],[137.481145,-34.503109],[137.481145,-34.503776],[137.481132,-34.504412],[137.481132,-34.504625],[137.481136,-34.504765],[137.481147,-34.504971],[137.481183,-34.505458],[137.481251,-34.506334],[137.481287,-34.506769],[137.481305,-34.507026],[137.481314,-34.507143],[137.481318,-34.507237],[137.481318,-34.507277],[137.481314,-34.507321],[137.481308,-34.507365],[137.481295,-34.507415],[137.481278,-34.507462],[137.481257,-34.507511],[137.48123,-34.507555],[137.481205,-34.507586],[137.481152,-34.50764],[137.481094,-34.507691],[137.481019,-34.507753],[137.480943,-34.507814],[137.48022,-34.50839],[137.478969,-34.509382],[137.478184,-34.510011],[137.477514,-34.510543],[137.477382,-34.51065],[137.477292,-34.510727],[137.47722,-34.5108],[137.477163,-34.510868],[137.477118,-34.510939],[137.477079,-34.511009],[137.477044,-34.51109],[137.477019,-34.511184],[137.477005,-34.511271],[137.476989,-34.511446],[137.476977,-34.511632],[137.476972,-34.511825],[137.476973,-34.511878],[137.476978,-34.511934],[137.476992,-34.511999],[137.477016,-34.512076],[137.477095,-34.512282]]}},{"type":"Feature","properties":{"tier":"regional"},"geometry":{"type":"LineString","coordinates":[[137.494336,-34.750497],[137.495734,-34.750488],[137.497791,-34.750492],[137.50002,-34.750494]]}},{"type":"Feature","properties":{"tier":"arterial"},"geometry":{"type":"LineString","coordinates":[[137.369278,-34.984952],[137.360884,-34.984949],[137.339323,-34.984957],[137.330536,-34.98496],[137.326529,-34.984982]]}},{"type":"Feature","properties":{"tier":"arterial"},"geometry":{"type":"LineString","coordinates":[[137.461326,-34.891163],[137.461748,-34.890746],[137.462483,-34.890176],[137.473169,-34.882088],[137.475999,-34.879965],[137.481519,-34.875789],[137.482037,-34.875397],[137.489255,-34.869922],[137.491285,-34.868389],[137.492416,-34.867534],[137.494547,-34.865914]]}},{"type":"Feature","properties":{"tier":"arterial"},"geometry":{"type":"LineString","coordinates":[[137.326529,-34.984982],[137.325832,-34.984982]]}},{"type":"Feature","properties":{"tier":"arterial"},"geometry":{"type":"LineString","coordinates":[[137.383832,-34.984934],[137.380732,-34.98491],[137.369278,-34.984952]]}},{"type":"Feature","properties":{"tier":"arterial"},"geometry":{"type":"LineString","coordinates":[[137.394756,-34.988446],[137.386407,-34.985174],[137.386088,-34.98508],[137.385759,-34.985008],[137.385616,-34.984981]]}},{"type":"Feature","properties":{"tier":"arterial"},"geometry":{"type":"LineString","coordinates":[[137.398742,-34.990021],[137.395294,-34.98866],[137.394756,-34.988446]]}},{"type":"Feature","properties":{"tier":"arterial"},"geometry":{"type":"LineString","coordinates":[[137.494547,-34.865914],[137.495484,-34.865202],[137.495687,-34.865049]]}},{"type":"Feature","properties":{"tier":"arterial"},"geometry":{"type":"LineString","coordinates":[[137.499063,-34.862137],[137.499321,-34.861889]]}},{"type":"Feature","properties":{"tier":"arterial"},"geometry":{"type":"LineString","coordinates":[[137.40104,-34.987478],[137.401023,-34.984944]]}},{"type":"Feature","properties":{"tier":"regional"},"geometry":{"type":"LineString","coordinates":[[137.351793,-34.939693],[137.351805,-34.939527],[137.351805,-34.939261],[137.351777,-34.939049],[137.351714,-34.938794],[137.351499,-34.938241],[137.351303,-34.937792],[137.351166,-34.937431],[137.351029,-34.93706],[137.35101,-34.936983],[137.350937,-34.936684],[137.350925,-34.936453],[137.350914,-34.936104],[137.350872,-34.935811],[137.350863,-34.935728],[137.350766,-34.935527],[137.350619,-34.935231],[137.350305,-34.934742],[137.350021,-34.934309],[137.349783,-34.934021],[137.349573,-34.933847],[137.349109,-34.933515],[137.348256,-34.932966],[137.347916,-34.932724],[137.347747,-34.932614],[137.347601,-34.932466],[137.347436,-34.932237],[137.347255,-34.931945],[137.346995,-34.931569],[137.3468,-34.931298],[137.346681,-34.931173],[137.346483,-34.931042]]}},{"type":"Feature","properties":{"tier":"arterial"},"geometry":{"type":"LineString","coordinates":[[137.408211,-34.995161],[137.407872,-34.994943],[137.407446,-34.994729]]}},{"type":"Feature","properties":{"tier":"arterial"},"geometry":{"type":"LineString","coordinates":[[137.410338,-34.997379],[137.408696,-34.995574],[137.408211,-34.995161]]}},{"type":"Feature","properties":{"tier":"arterial"},"geometry":{"type":"LineString","coordinates":[[137.401023,-34.984944],[137.401041,-34.98167]]}},{"type":"Feature","properties":{"tier":"regional"},"geometry":{"type":"LineString","coordinates":[[137.358838,-34.952547],[137.359957,-34.953777],[137.360148,-34.953995],[137.360477,-34.954493],[137.36069,-34.954989],[137.360829,-34.955419],[137.360891,-34.956085],[137.360888,-34.956466]]}},{"type":"Feature","properties":{"tier":"regional"},"geometry":{"type":"LineString","coordinates":[[137.360888,-34.956466],[137.360898,-34.957495],[137.360897,-34.959526]]}},{"type":"Feature","properties":{"tier":"regional"},"geometry":{"type":"LineString","coordinates":[[137.366536,-34.954952],[137.363092,-34.953884]]}},{"type":"Feature","properties":{"tier":"arterial"},"geometry":{"type":"LineString","coordinates":[[137.385823,-34.984941],[137.385616,-34.984981]]}}]}
