{"type":"FeatureCollection","features":[{"type":"Feature","properties":{"tier":"high"},"geometry":{"type":"LineString","coordinates":[[137.097386,-31.49998],[137.098088,-31.500827],[137.100763,-31.504035],[137.103764,-31.507626],[137.105283,-31.509469],[137.106834,-31.511317],[137.110339,-31.515545],[137.111093,-31.516432],[137.11168,-31.517121],[137.111998,-31.517473],[137.112426,-31.517891],[137.112976,-31.518344],[137.113373,-31.518632],[137.113862,-31.51895],[137.114795,-31.519529],[137.116009,-31.520315],[137.117367,-31.521186],[137.117849,-31.52152],[137.117917,-31.521574],[137.118308,-31.521888],[137.118665,-31.522212],[137.118994,-31.522537],[137.119313,-31.522893],[137.119522,-31.523154],[137.119761,-31.523481],[137.120095,-31.524005],[137.120522,-31.524747],[137.122542,-31.528328],[137.12437,-31.531574],[137.126476,-31.535307],[137.126752,-31.535807],[137.127005,-31.536309],[137.127117,-31.53656],[137.12724,-31.536867],[137.127347,-31.537181],[137.127438,-31.537497],[137.127535,-31.537928],[137.127614,-31.538409],[137.127649,-31.538731],[137.127669,-31.539053],[137.127673,-31.539659],[137.127637,-31.542126],[137.127614,-31.543545],[137.127581,-31.544204],[137.127542,-31.544533],[137.127493,-31.544856],[137.127411,-31.545232],[137.127311,-31.545598],[137.12719,-31.545974],[137.12703,-31.546381],[137.126843,-31.54679],[137.126604,-31.547231],[137.126166,-31.547901],[137.125672,-31.548609],[137.125456,-31.548939],[137.125286,-31.549231],[137.125075,-31.549623],[137.124901,-31.550007],[137.12472,-31.550469],[137.124587,-31.5509],[137.124428,-31.551606],[137.12438,-31.55192],[137.124338,-31.55234],[137.124326,-31.552635],[137.124325,-31.55293],[137.124336,-31.553231],[137.124352,-31.553473],[137.124387,-31.553784],[137.124437,-31.554094],[137.124506,-31.554439],[137.124609,-31.554831],[137.124794,-31.555373],[137.124921,-31.555685],[137.125266,-31.556393],[137.125662,-31.557154],[137.126756,-31.559209],[137.12846,-31.562417],[137.131645,-31.568418],[137.137466,-31.579385],[137.138529,-31.581401],[137.138888,-31.582142],[137.139008,-31.582416],[137.139414,-31.583407],[137.139628,-31.584027],[137.139837,-31.584698],[137.14002,-31.585384],[137.140197,-31.586179],[137.140339,-31.586976],[137.140582,-31.588576],[137.141461,-31.594385],[137.142369,-31.600364],[137.144168,-31.612256],[137.1443,-31.613122],[137.145554,-31.621368],[137.146958,-31.630605],[137.147053,-31.631194],[137.147165,-31.631774],[137.147265,-31.632254],[137.147387,-31.632787],[137.147631,-31.633728],[137.147802,-31.634312],[137.147993,-31.634926],[137.148887,-31.6375],[137.150057,-31.640855]]}},{"type":"Feature","properties":{"tier":"high"},"geometry":{"type":"LineString","coordinates":[[137.150057,-31.640855],[137.150756,-31.642863],[137.15153,-31.645078],[137.151927,-31.646216],[137.152666,-31.648322],[137.153521,-31.650773],[137.154523,-31.653637],[137.155027,-31.655084],[137.155455,-31.656208],[137.155805,-31.657017],[137.156198,-31.657828],[137.156641,-31.658646],[137.157096,-31.659416],[137.159431,-31.662972],[137.161496,-31.666113],[137.161544,-31.666188],[137.163777,-31.669582],[137.165905,-31.672813],[137.167383,-31.675064],[137.16776,-31.67563],[137.168132,-31.676157],[137.168557,-31.676698],[137.169008,-31.677231],[137.169367,-31.677611],[137.169781,-31.678023],[137.170297,-31.67851],[137.170768,-31.678921],[137.171682,-31.679632],[137.172375,-31.680118],[137.173198,-31.680633],[137.173899,-31.681025],[137.174722,-31.681431],[137.175519,-31.681777],[137.176092,-31.682007],[137.176618,-31.682201],[137.177218,-31.682397],[137.177819,-31.682579],[137.178738,-31.682808],[137.17967,-31.683007],[137.181112,-31.683235],[137.184253,-31.683695],[137.188329,-31.684313],[137.189328,-31.684495],[137.190194,-31.68469],[137.190932,-31.684872],[137.191721,-31.685087],[137.192564,-31.685346],[137.193398,-31.685621],[137.19393,-31.685812],[137.194452,-31.686011],[137.194965,-31.686221],[137.195426,-31.68642],[137.196106,-31.68673],[137.196773,-31.687052],[137.197486,-31.687419],[137.198285,-31.687863],[137.198866,-31.688205],[137.199485,-31.688591],[137.200195,-31.689058],[137.200833,-31.689516],[137.201502,-31.690021],[137.202281,-31.690656],[137.202862,-31.691166],[137.203762,-31.692013],[137.204091,-31.692345],[137.204449,-31.692725],[137.205074,-31.693412],[137.206562,-31.695054],[137.207388,-31.695939],[137.207685,-31.696238],[137.207979,-31.696523],[137.208604,-31.697082],[137.209229,-31.697595],[137.209618,-31.697894],[137.21001,-31.698175],[137.210403,-31.698445],[137.210807,-31.698708],[137.211586,-31.699184],[137.212499,-31.699696],[137.213271,-31.700082],[137.214106,-31.70046],[137.215212,-31.700893],[137.216042,-31.701175],[137.218448,-31.701894],[137.220249,-31.702432],[137.22084,-31.702653],[137.221522,-31.702957],[137.222087,-31.703242],[137.222342,-31.703381],[137.223232,-31.703913],[137.223832,-31.704335],[137.224427,-31.704796],[137.22492,-31.705236],[137.22538,-31.705693],[137.225836,-31.706218],[137.226251,-31.706745],[137.226589,-31.707237],[137.226914,-31.707773],[137.227184,-31.708281],[137.227437,-31.708832],[137.227663,-31.709433],[137.227793,-31.709833],[137.227904,-31.710241],[137.228028,-31.710803],[137.228131,-31.711544],[137.228251,-31.712702],[137.228352,-31.713363],[137.228476,-31.71398],[137.228684,-31.714752],[137.228842,-31.715246],[137.229022,-31.71574],[137.229325,-31.716438],[137.229619,-31.717002],[137.230051,-31.717759],[137.230408,-31.718297],[137.230631,-31.71861],[137.231356,-31.719504],[137.232841,-31.721255],[137.23602,-31.725005],[137.237328,-31.726548],[137.241646,-31.731642],[137.243461,-31.733774],[137.244383,-31.734804],[137.245333,-31.735812],[137.24651,-31.736997],[137.247187,-31.737643],[137.247907,-31.738319],[137.249269,-31.739518],[137.250819,-31.740855],[137.252549,-31.742359],[137.254285,-31.74385],[137.259204,-31.748107],[137.267588,-31.755342],[137.275884,-31.762502],[137.282816,-31.768449],[137.286145,-31.771321],[137.288718,-31.773543],[137.290012,-31.774654],[137.291162,-31.775652],[137.291635,-31.776082],[137.292092,-31.776538],[137.292544,-31.777017],[137.292942,-31.777471],[137.293313,-31.777929],[137.293655,-31.778379],[137.294003,-31.778873],[137.294377,-31.779447],[137.294727,-31.780048],[137.297133,-31.784318],[137.301836,-31.792662],[137.306667,-31.801236],[137.310571,-31.80815],[137.313498,-31.813347],[137.316271,-31.818264],[137.320892,-31.826462],[137.327543,-31.838251],[137.328374,-31.839724],[137.33001,-31.842622],[137.332499,-31.847039],[137.334737,-31.851006]]}},{"type":"Feature","properties":{"tier":"high"},"geometry":{"type":"LineString","coordinates":[[137.334737,-31.851006],[137.341362,-31.862744],[137.347969,-31.874434],[137.348743,-31.875803],[137.357541,-31.891383],[137.357785,-31.891812],[137.366201,-31.906705],[137.372863,-31.918486],[137.373703,-31.919972],[137.374039,-31.920616],[137.374347,-31.921279],[137.374558,-31.921773],[137.374752,-31.922271],[137.374905,-31.922695],[137.375132,-31.923399],[137.375339,-31.924168],[137.375493,-31.924853],[137.375666,-31.925738],[137.375867,-31.926728],[137.375965,-31.927192],[137.376084,-31.927664],[137.376246,-31.928212],[137.376427,-31.928746],[137.376629,-31.929267],[137.376848,-31.92979],[137.377235,-31.930585],[137.377614,-31.931255],[137.378733,-31.932962],[137.389158,-31.948674],[137.399601,-31.964392],[137.405017,-31.972547],[137.407635,-31.976475],[137.410229,-31.980437],[137.420617,-31.996399],[137.421168,-31.997245],[137.422976,-32.00002]]}},{"type":"Feature","properties":{"tier":"regional"},"geometry":{"type":"LineString","coordinates":[[137.357541,-31.891383],[137.357638,-31.891285],[137.358025,-31.890806],[137.358268,-31.890456],[137.359095,-31.88908],[137.360994,-31.886065],[137.3619,-31.884416],[137.362116,-31.883994],[137.362376,-31.883464],[137.362704,-31.88282],[137.363334,-31.881468],[137.364018,-31.87989],[137.365968,-31.875632],[137.366575,-31.874222],[137.369289,-31.868296],[137.370138,-31.866355],[137.370508,-31.86561],[137.37214,-31.861991],[137.373046,-31.860041],[137.373825,-31.858293],[137.374454,-31.856979],[137.375579,-31.854495],[137.376205,-31.85316],[137.377615,-31.850045],[137.378079,-31.848967],[137.378285,-31.84857],[137.378408,-31.848381],[137.378695,-31.848027],[137.380461,-31.846196],[137.383456,-31.843155],[137.385195,-31.841483],[137.385518,-31.841133],[137.385653,-31.840953],[137.385857,-31.840573],[137.386011,-31.84016],[137.386661,-31.838157],[137.386823,-31.837854],[137.386936,-31.837713],[137.38722,-31.837457],[137.392777,-31.833164],[137.395421,-31.831148],[137.396299,-31.830471],[137.397157,-31.829834],[137.397542,-31.829503],[137.397867,-31.829144],[137.398326,-31.828565],[137.399656,-31.826964],[137.400163,-31.826405],[137.402317,-31.824222],[137.404253,-31.822218],[137.407979,-31.818438],[137.408472,-31.817909],[137.408821,-31.817565],[137.409003,-31.817402],[137.411259,-31.815564],[137.413174,-31.813952],[137.415841,-31.81164],[137.416646,-31.811],[137.417222,-31.810517],[137.41757,-31.810178],[137.417878,-31.809826],[137.418135,-31.809461],[137.418235,-31.809273],[137.418311,-31.809083],[137.418363,-31.808889],[137.418407,-31.808479],[137.418404,-31.807326],[137.41843,-31.805022],[137.418345,-31.799404],[137.41835,-31.797203],[137.418315,-31.794541],[137.418286,-31.793538],[137.418306,-31.79337],[137.418355,-31.793217],[137.418429,-31.793081],[137.418626,-31.792835],[137.418702,-31.792702],[137.418752,-31.792565],[137.418766,-31.792426],[137.41875,-31.792275],[137.418688,-31.791933],[137.418631,-31.791726],[137.418169,-31.790415],[137.418028,-31.78993],[137.417724,-31.788768],[137.416889,-31.785572],[137.416494,-31.783969],[137.415328,-31.779487],[137.414819,-31.77761],[137.413737,-31.773804],[137.413002,-31.771029],[137.412852,-31.770294],[137.412746,-31.769592],[137.412525,-31.767841],[137.41253,-31.767435],[137.412682,-31.766041],[137.412836,-31.765221],[137.412969,-31.76482],[137.413055,-31.764619],[137.413595,-31.763535],[137.41442,-31.761799],[137.414628,-31.76141],[137.414746,-31.761224],[137.414868,-31.761039],[137.415457,-31.76026],[137.41602,-31.759559],[137.416383,-31.759108],[137.416946,-31.758381],[137.420132,-31.754453],[137.421102,-31.75311],[137.421215,-31.752931],[137.421305,-31.75275],[137.421366,-31.752564],[137.4214,-31.752374],[137.421411,-31.752179],[137.421351,-31.751042],[137.42134,-31.748115],[137.421251,-31.742539],[137.421197,-31.742177],[137.421098,-31.741845],[137.420648,-31.740888],[137.420632,-31.740782],[137.420638,-31.740686],[137.420699,-31.740529],[137.420807,-31.7404],[137.421148,-31.740123],[137.421369,-31.739884],[137.421483,-31.739746],[137.422007,-31.738992],[137.422461,-31.738419],[137.42271,-31.73817],[137.423111,-31.737872],[137.423325,-31.737673],[137.423402,-31.737564],[137.423507,-31.737343],[137.423578,-31.737027],[137.423644,-31.736849],[137.423699,-31.736781],[137.423842,-31.736686],[137.423924,-31.736657],[137.424089,-31.736629],[137.424319,-31.736629],[137.424429,-31.736629],[137.424898,-31.736681],[137.425718,-31.736771],[137.426767,-31.736911],[137.427194,-31.736939],[137.42763,-31.736935],[137.427847,-31.736911],[137.428056,-31.736873],[137.428446,-31.736753],[137.428626,-31.736667],[137.429,-31.736445],[137.429397,-31.736196],[137.429754,-31.735933],[137.430051,-31.735634],[137.430323,-31.7353],[137.430443,-31.735128],[137.430636,-31.734771],[137.4308,-31.734383],[137.431535,-31.73234],[137.431755,-31.731506],[137.431893,-31.731151],[137.431978,-31.73098],[137.432202,-31.730643],[137.432469,-31.730294],[137.433245,-31.729384],[137.433812,-31.728544],[137.433916,-31.728413],[137.433979,-31.728345],[137.434045,-31.728274],[137.434699,-31.727659],[137.435281,-31.72715],[137.435803,-31.726694],[137.436452,-31.726023],[137.436767,-31.725669],[137.437061,-31.725286],[137.437484,-31.72469],[137.43846,-31.723485],[137.43911,-31.722615],[137.439843,-31.721635],[137.439991,-31.721459],[137.440585,-31.720868],[137.440622,-31.720831],[137.440756,-31.720666],[137.440987,-31.720297],[137.441319,-31.719653],[137.441449,-31.719435],[137.441751,-31.71903],[137.442103,-31.71866],[137.442485,-31.718302],[137.442902,-31.717955],[137.44309,-31.717799],[137.444301,-31.716914],[137.44447,-31.716767],[137.444744,-31.716441],[137.444952,-31.71608],[137.445428,-31.714991],[137.445737,-31.714375],[137.445897,-31.714055],[137.446269,-31.713399],[137.447014,-31.712203],[137.447294,-31.711641],[137.447666,-31.710769],[137.448047,-31.710074],[137.448604,-31.709208],[137.449136,-31.708442],[137.450912,-31.706218],[137.451528,-31.705402],[137.451775,-31.705009],[137.452207,-31.704211],[137.45333,-31.702369],[137.453845,-31.701413],[137.454357,-31.700587],[137.45497,-31.699505],[137.455177,-31.699191],[137.455431,-31.698852],[137.456413,-31.697677],[137.456563,-31.697473],[137.456692,-31.697262],[137.457137,-31.696399],[137.457256,-31.6962],[137.457895,-31.695278],[137.458277,-31.694666],[137.458492,-31.69427],[137.458964,-31.693322],[137.459781,-31.692089],[137.460005,-31.691675],[137.460362,-31.690856],[137.460558,-31.690484],[137.460671,-31.690314],[137.461219,-31.689595],[137.46139,-31.68929],[137.461882,-31.688299],[137.462081,-31.68794],[137.462389,-31.687452],[137.462895,-31.686752],[137.463074,-31.686406],[137.463322,-31.68582],[137.463753,-31.685031],[137.464067,-31.684549],[137.464716,-31.683636],[137.465335,-31.682607],[137.465842,-31.68185],[137.466062,-31.681471],[137.466386,-31.680782],[137.46648,-31.680646],[137.466588,-31.680525],[137.466714,-31.680418],[137.467025,-31.680221],[137.467897,-31.679763],[137.468346,-31.679557],[137.468779,-31.679389],[137.469161,-31.679186],[137.469328,-31.67906],[137.469475,-31.678927],[137.469704,-31.678653],[137.469787,-31.678515],[137.469903,-31.678188],[137.470012,-31.677602],[137.470037,-31.677253],[137.470005,-31.67688],[137.469925,-31.676318],[137.469925,-31.676138],[137.469951,-31.675963],[137.470004,-31.675792],[137.470082,-31.67562],[137.470294,-31.675268],[137.470529,-31.674944],[137.470634,-31.674766],[137.471054,-31.673915],[137.471314,-31.673496],[137.471615,-31.673125],[137.472178,-31.672495],[137.472424,-31.672172],[137.473241,-31.670919],[137.474415,-31.668956],[137.47507,-31.668115],[137.47548,-31.667522],[137.475683,-31.667156],[137.475764,-31.666974],[137.476169,-31.665863],[137.476238,-31.665714],[137.476323,-31.665586],[137.476525,-31.665376],[137.476662,-31.665291],[137.476828,-31.665219],[137.477011,-31.665163],[137.477418,-31.665105],[137.477648,-31.665094],[137.478385,-31.665102],[137.478626,-31.665078],[137.479082,-31.66499],[137.479867,-31.66479],[137.480178,-31.664675],[137.480524,-31.664456],[137.480896,-31.664193],[137.481059,-31.664049],[137.481199,-31.663896],[137.481305,-31.66373],[137.481377,-31.663557],[137.481417,-31.66338],[137.481428,-31.663009],[137.481386,-31.662274],[137.481433,-31.661537],[137.481502,-31.661086],[137.481681,-31.660172],[137.481931,-31.659171],[137.482001,-31.658979],[137.482205,-31.658631],[137.482614,-31.658134],[137.482874,-31.65778],[137.483019,-31.657615],[137.483177,-31.657465],[137.483349,-31.657329],[137.483934,-31.656951],[137.484121,-31.656812],[137.484845,-31.656188],[137.485681,-31.655579],[137.486069,-31.655278],[137.487521,-31.653972],[137.487702,-31.653822],[137.488078,-31.653558],[137.488275,-31.653444],[137.489114,-31.653023],[137.489861,-31.652604],[137.490073,-31.652513],[137.49051,-31.652383],[137.491215,-31.652237],[137.491647,-31.652096],[137.491839,-31.652003],[137.492017,-31.651892],[137.492186,-31.651767],[137.49234,-31.65163],[137.493768,-31.650069],[137.494091,-31.649797],[137.494765,-31.649393],[137.4949,-31.64928],[137.495003,-31.649155],[137.495071,-31.64902],[137.495109,-31.64888],[137.495111,-31.648737],[137.494967,-31.648163],[137.494962,-31.647896],[137.494987,-31.647774],[137.495036,-31.647663],[137.495185,-31.647476],[137.495289,-31.647401],[137.495574,-31.647264],[137.496705,-31.646833],[137.50002,-31.645652]]}},{"type":"Feature","properties":{"tier":"regional"},"geometry":{"type":"LineString","coordinates":[[137.50002,-31.576034],[137.499474,-31.575148],[137.49812,-31.57301],[137.49736,-31.571867],[137.496871,-31.57122],[137.496181,-31.570375],[137.496134,-31.570324],[137.495816,-31.569976],[137.494912,-31.569105],[137.494097,-31.56832],[137.492974,-31.56726],[137.492317,-31.566557],[137.492164,-31.566364],[137.492014,-31.566175],[137.491086,-31.564917],[137.490802,-31.564504],[137.490681,-31.564304],[137.490483,-31.563914],[137.490199,-31.563225],[137.489808,-31.562247],[137.489364,-31.561479],[137.489149,-31.561227],[137.488897,-31.561026],[137.48872,-31.560921],[137.488269,-31.560747],[137.487996,-31.560612],[137.487786,-31.560473],[137.487381,-31.560147],[137.4849,-31.555017],[137.484659,-31.554555],[137.483902,-31.553217],[137.483373,-31.552117],[137.483143,-31.551701],[137.483014,-31.551496],[137.481862,-31.549872],[137.481621,-31.549471],[137.481429,-31.549056],[137.481214,-31.548375],[137.481043,-31.547645],[137.480869,-31.546424],[137.48072,-31.545706],[137.479484,-31.5413],[137.478412,-31.537323],[137.478317,-31.53691],[137.478276,-31.536481],[137.478272,-31.53603],[137.478138,-31.534882],[137.478036,-31.533253],[137.478033,-31.533035],[137.47806,-31.532612],[137.478147,-31.531744],[137.478139,-31.53108],[137.478194,-31.528203],[137.47824,-31.527755],[137.478405,-31.526785],[137.478677,-31.525543],[137.478762,-31.525069],[137.478779,-31.524836],[137.478759,-31.52413],[137.478776,-31.523889],[137.478948,-31.522927],[137.479126,-31.522168],[137.479222,-31.521667],[137.479261,-31.521299],[137.479286,-31.520803],[137.479286,-31.520296],[137.479252,-31.519544],[137.47928,-31.51854],[137.479334,-31.518053],[137.479495,-31.517086],[137.479539,-31.516605],[137.479626,-31.51614],[137.479767,-31.515685],[137.479928,-31.515233],[137.480023,-31.515016],[137.480251,-31.514609],[137.481532,-31.512783],[137.482743,-31.511234],[137.482934,-31.510989],[137.483069,-31.510796],[137.483181,-31.510597],[137.483271,-31.510397],[137.483416,-31.509975],[137.483675,-31.508851],[137.483715,-31.508636],[137.483759,-31.508233],[137.483767,-31.5077],[137.483748,-31.507397],[137.483697,-31.50714],[137.483655,-31.507027],[137.483476,-31.506702],[137.483425,-31.506574],[137.483394,-31.506425],[137.483385,-31.506259],[137.483468,-31.505203],[137.483493,-31.504255],[137.483525,-31.504029],[137.483712,-31.503362],[137.483812,-31.502906],[137.483884,-31.502193],[137.483897,-31.501715],[137.483932,-31.501234],[137.48412,-31.49998]]}}]}
