{"type":"FeatureCollection","features":[{"type":"Feature","properties":{"tier":"regional"},"geometry":{"type":"LineString","coordinates":[[137.376244,-26.42777],[137.370579,-26.427786],[137.37037,-26.427839],[137.370212,-26.427923],[137.370078,-26.428058],[137.370011,-26.428192],[137.369992,-26.428287],[137.370107,-26.43184],[137.375984,-26.446859],[137.380776,-26.459389],[137.385505,-26.471331],[137.38575,-26.47397],[137.386403,-26.474662],[137.387917,-26.475344],[137.388604,-26.475761],[137.388643,-26.47726],[137.389983,-26.481418],[137.39049,-26.48392],[137.39109,-26.48572],[137.39538,-26.49653],[137.396747,-26.50002]]}},{"type":"Feature","properties":{"tier":"regional"},"geometry":{"type":"LineString","coordinates":[[137.50002,-26.426834],[137.47418,-26.42703],[137.45147,-26.42727],[137.43912,-26.42733],[137.42783,-26.42748],[137.376244,-26.42777]]}},{"type":"Feature","properties":{"tier":"regional"},"geometry":{"type":"LineString","coordinates":[[136.99998,-26.109209],[137.000793,-26.108759],[137.00293,-26.108292],[137.003159,-26.108208],[137.004044,-26.107605],[137.004303,-26.107498],[137.004837,-26.10754],[137.005249,-26.107841],[137.005386,-26.107878],[137.006226,-26.107714],[137.006714,-26.107548],[137.007721,-26.107317],[137.010239,-26.106825],[137.011047,-26.106712],[137.012863,-26.106318],[137.013382,-26.10627],[137.013596,-26.106174],[137.01413,-26.105768],[137.015091,-26.105282],[137.015381,-26.105345],[137.015549,-26.105291],[137.015656,-26.10531],[137.016434,-26.105833],[137.016647,-26.105921],[137.017029,-26.105947],[137.017426,-26.105837],[137.017746,-26.105585],[137.018051,-26.105249],[137.018585,-26.105062],[137.01889,-26.104977],[137.019196,-26.1049],[137.02005,-26.104818],[137.020279,-26.104712],[137.021149,-26.104494],[137.023651,-26.103981],[137.023895,-26.103819],[137.024307,-26.103439],[137.024414,-26.103445],[137.024902,-26.103724],[137.025482,-26.103666],[137.02919,-26.102907],[137.029358,-26.102839],[137.029724,-26.102581],[137.03006,-26.102571],[137.030304,-26.102451],[137.031158,-26.102514],[137.031631,-26.102364],[137.031998,-26.102314],[137.032303,-26.102142],[137.033279,-26.101889],[137.033508,-26.101822],[137.034256,-26.10137],[137.034637,-26.10148],[137.034912,-26.101425],[137.035217,-26.101622],[137.035507,-26.101652],[137.035843,-26.101522],[137.037109,-26.101229],[137.039551,-26.100788],[137.041992,-26.10026],[137.042297,-26.100182],[137.042587,-26.10004],[137.042847,-26.100092],[137.043472,-26.100035],[137.044006,-26.099918],[137.044464,-26.099741],[137.046173,-26.099361],[137.046387,-26.099363],[137.049164,-26.098749],[137.049698,-26.098669],[137.050491,-26.098461],[137.050659,-26.098459],[137.050949,-26.098534],[137.051178,-26.098394],[137.051788,-26.098358],[137.053085,-26.09778],[137.053238,-26.097578],[137.053391,-26.097582],[137.053833,-26.097729],[137.055222,-26.097519],[137.055557,-26.097383],[137.055878,-26.097374],[137.058029,-26.096891],[137.058868,-26.09676],[137.07132,-26.094139],[137.071762,-26.094053],[137.072144,-26.094051],[137.072693,-26.093872],[137.076019,-26.093159],[137.076477,-26.093111],[137.076584,-26.093058],[137.076813,-26.09276],[137.076965,-26.09268],[137.078522,-26.092216],[137.082184,-26.091133],[137.08284,-26.091208],[137.083176,-26.091518],[137.083374,-26.091591],[137.083557,-26.091593],[137.084473,-26.091379],[137.084824,-26.091181],[137.085342,-26.091131],[137.085571,-26.091022],[137.086182,-26.091057],[137.088989,-26.090427],[137.092758,-26.089605],[137.095963,-26.088636],[137.097092,-26.088167],[137.097549,-26.08824],[137.097961,-26.088125],[137.098343,-26.088072],[137.098877,-26.088133],[137.099197,-26.088219],[137.099365,-26.088203],[137.101257,-26.087463],[137.101608,-26.087492],[137.101913,-26.087336],[137.102142,-26.087322],[137.1026,-26.087379],[137.102966,-26.087486],[137.103348,-26.087454],[137.103897,-26.087313],[137.10434,-26.087257],[137.106201,-26.086872],[137.107742,-26.086496],[137.109573,-26.086176],[137.109772,-26.086119],[137.110168,-26.08588],[137.110794,-26.085632],[137.111481,-26.085474],[137.111694,-26.085222],[137.111862,-26.085135],[137.113632,-26.084599],[137.113831,-26.08456],[137.11412,-26.084576],[137.115677,-26.084757],[137.115814,-26.084707],[137.116409,-26.084709],[137.117523,-26.084436],[137.118973,-26.084145],[137.119202,-26.084051],[137.119659,-26.084007],[137.127396,-26.082357],[137.127792,-26.082237],[137.143448,-26.078911],[137.143753,-26.078823],[137.144073,-26.07864],[137.144409,-26.078676],[137.144867,-26.078596],[137.151749,-26.077091],[137.152252,-26.076946],[137.153198,-26.076777],[137.153717,-26.076689],[137.157425,-26.075716],[137.159256,-26.075148],[137.161804,-26.074026],[137.162369,-26.073914],[137.164536,-26.073626],[137.166122,-26.073521],[137.168533,-26.073053],[137.170776,-26.072735],[137.172241,-26.072578],[137.17569,-26.072046],[137.177475,-26.071985],[137.178604,-26.072002],[137.18045,-26.071856],[137.1822,-26.071784],[137.182938,-26.071754],[137.18335,-26.071682],[137.183441,-26.071634],[137.183533,-26.071657],[137.183609,-26.071672],[137.185547,-26.071594],[137.185623,-26.071587],[137.187424,-26.071583],[137.188583,-26.071444],[137.189224,-26.071455],[137.190292,-26.071383],[137.19252,-26.071335],[137.192734,-26.071251],[137.192932,-26.071312],[137.193161,-26.07131],[137.194901,-26.071238],[137.195648,-26.071148],[137.195999,-26.071198],[137.196838,-26.07119],[137.19928,-26.071043],[137.199936,-26.07106],[137.202774,-26.070927],[137.203232,-26.070955],[137.206345,-26.070807],[137.20665,-26.070757],[137.207291,-26.070786],[137.20816,-26.070717],[137.210342,-26.070654],[137.210678,-26.070726],[137.212296,-26.070585],[137.212723,-26.070559],[137.212875,-26.070589],[137.213593,-26.070469],[137.21701,-26.070114],[137.22226,-26.069702],[137.222687,-26.069588],[137.223022,-26.069626],[137.225449,-26.069374],[137.229446,-26.069048],[137.231995,-26.068775],[137.233032,-26.068737],[137.23381,-26.068581],[137.235275,-26.068506],[137.239731,-26.068092],[137.240601,-26.068148],[137.240921,-26.068039],[137.241257,-26.067991],[137.242264,-26.067917],[137.244781,-26.067616],[137.245224,-26.067629],[137.248459,-26.067358],[137.248917,-26.067226],[137.249298,-26.067251],[137.251068,-26.067129],[137.252487,-26.06698],[137.253006,-26.066875],[137.255173,-26.066742],[137.258087,-26.066477]]}},{"type":"Feature","properties":{"tier":"regional"},"geometry":{"type":"LineString","coordinates":[[137.258087,-26.066477],[137.258987,-26.066347],[137.259705,-26.066322],[137.260345,-26.066183],[137.260635,-26.066195],[137.261536,-26.066118],[137.261826,-26.066069],[137.261978,-26.065981],[137.262161,-26.065943],[137.262634,-26.066021],[137.265167,-26.065763],[137.265686,-26.065773],[137.265808,-26.06572],[137.268219,-26.065464],[137.26944,-26.065388],[137.270737,-26.065243],[137.272018,-26.06514],[137.272659,-26.065172],[137.273209,-26.065041],[137.274048,-26.064932],[137.275589,-26.064747],[137.27832,-26.064522],[137.278625,-26.064449],[137.279495,-26.064453],[137.283768,-26.064001],[137.284134,-26.063992],[137.284515,-26.064222],[137.284882,-26.064102],[137.286163,-26.064039],[137.287415,-26.063881],[137.288315,-26.063894],[137.289093,-26.063765],[137.290039,-26.063688],[137.290436,-26.063728],[137.290741,-26.063641],[137.291504,-26.063545],[137.293015,-26.063427],[137.293945,-26.063265],[137.294281,-26.063074],[137.294403,-26.06308],[137.294861,-26.063257],[137.295242,-26.063248],[137.295517,-26.063173],[137.296097,-26.063158],[137.298615,-26.062918],[137.299042,-26.062788],[137.299561,-26.062817],[137.30249,-26.062515],[137.303009,-26.062571],[137.303329,-26.062445],[137.305573,-26.062214],[137.306488,-26.062002],[137.307022,-26.062078],[137.313309,-26.061483],[137.313751,-26.061226],[137.314148,-26.061275],[137.314438,-26.061367],[137.31459,-26.061363],[137.318085,-26.061024],[137.318481,-26.060913],[137.31871,-26.060955],[137.320374,-26.060766],[137.321106,-26.060755],[137.322922,-26.060532],[137.324707,-26.060394],[137.32695,-26.060135],[137.327805,-26.060095],[137.32901,-26.059948],[137.330994,-26.059793],[137.331299,-26.059723],[137.331543,-26.059742],[137.331848,-26.059668],[137.332077,-26.05969],[137.332565,-26.059574],[137.33284,-26.059603],[137.335129,-26.059431],[137.336075,-26.059299],[137.336472,-26.059153],[137.33699,-26.059229],[137.338272,-26.05913],[137.338577,-26.059124],[137.33989,-26.058939],[137.340286,-26.058931],[137.340576,-26.058836],[137.340897,-26.058876],[137.34285,-26.058651],[137.343445,-26.058643],[137.343887,-26.058533],[137.344452,-26.058556],[137.344681,-26.05851],[137.345139,-26.058519],[137.345566,-26.058424],[137.346024,-26.058428],[137.34671,-26.058304],[137.346985,-26.058338],[137.347351,-26.058311],[137.347885,-26.058174],[137.348236,-26.058174],[137.349396,-26.058033],[137.349838,-26.05802],[137.352142,-26.057774],[137.35231,-26.057724],[137.352753,-26.05776],[137.353165,-26.057648],[137.353516,-26.057634],[137.353699,-26.057585],[137.355408,-26.057465],[137.355972,-26.057388],[137.356354,-26.057236],[137.35701,-26.057293],[137.35881,-26.057098],[137.359085,-26.057018],[137.360138,-26.056978],[137.361313,-26.056829],[137.361679,-26.056843],[137.361908,-26.05673],[137.362274,-26.056747],[137.362976,-26.056646],[137.363342,-26.056702],[137.363693,-26.056589],[137.365234,-26.056461],[137.365555,-26.056383],[137.365829,-26.056393],[137.366272,-26.056314],[137.368393,-26.05612],[137.36969,-26.056042],[137.370789,-26.055902],[137.371841,-26.055828],[137.372192,-26.05575],[137.372452,-26.055786],[137.374512,-26.055536],[137.374847,-26.055555],[137.375107,-26.0555],[137.37532,-26.055536],[137.3759,-26.055431],[137.37677,-26.055357],[137.378174,-26.055162],[137.383041,-26.054672],[137.383911,-26.054543],[137.384537,-26.054518],[137.387894,-26.054153],[137.388626,-26.05411],[137.389664,-26.053995],[137.390152,-26.053875],[137.390396,-26.053896],[137.391571,-26.053823],[137.392166,-26.05369],[137.394409,-26.053452],[137.394684,-26.053299],[137.395096,-26.05335],[137.395752,-26.053276],[137.396423,-26.053276],[137.396713,-26.053169],[137.398148,-26.053078],[137.398392,-26.052971],[137.398636,-26.052979],[137.401825,-26.052608],[137.402069,-26.052612],[137.402725,-26.052502],[137.403915,-26.052393],[137.404373,-26.052282],[137.404785,-26.052286],[137.408356,-26.051825],[137.409256,-26.051779],[137.409546,-26.05184],[137.41008,-26.051836],[137.41066,-26.051619],[137.412125,-26.051416],[137.412811,-26.051365],[137.413773,-26.051203],[137.414429,-26.050938],[137.414749,-26.051033],[137.415176,-26.050964],[137.415451,-26.050972],[137.416367,-26.050879],[137.416916,-26.050777],[137.417297,-26.05081],[137.417679,-26.050787],[137.418045,-26.050844],[137.418808,-26.050682],[137.419571,-26.050669],[137.42067,-26.050549],[137.421326,-26.050541],[137.421799,-26.050415],[137.422409,-26.050501],[137.423416,-26.050377],[137.426727,-26.050211],[137.427567,-26.050081],[137.427658,-26.050068],[137.428162,-26.050066],[137.428436,-26.050129],[137.42894,-26.049976],[137.429276,-26.049934],[137.430496,-26.049835],[137.431107,-26.049841],[137.431534,-26.049784],[137.432343,-26.049482],[137.433014,-26.049612],[137.433578,-26.049622],[137.434387,-26.049566],[137.434662,-26.049604],[137.435608,-26.049448],[137.437454,-26.049379],[137.437836,-26.049244],[137.43808,-26.049301],[137.438705,-26.049278],[137.439072,-26.049311],[137.439728,-26.049053],[137.440201,-26.049164],[137.44072,-26.049128],[137.44165,-26.049162],[137.442047,-26.049019],[137.442352,-26.049053],[137.44278,-26.048925],[137.443085,-26.048954],[137.443848,-26.048819],[137.444321,-26.048872],[137.446045,-26.048735],[137.448486,-26.048349],[137.448822,-26.048332],[137.45015,-26.04809],[137.450455,-26.048098],[137.450943,-26.047869],[137.451355,-26.047882],[137.451599,-26.047951],[137.451843,-26.04796],[137.454407,-26.047701],[137.454651,-26.047709],[137.455597,-26.04752],[137.456238,-26.047558],[137.456924,-26.047499],[137.457916,-26.047327],[137.458694,-26.047377],[137.460464,-26.047297],[137.460739,-26.047167],[137.461456,-26.047031],[137.461884,-26.04705],[137.462769,-26.046928],[137.463181,-26.046953],[137.463806,-26.04689],[137.464752,-26.046717],[137.465515,-26.046722],[137.465805,-26.046801],[137.466583,-26.046556],[137.468689,-26.046436],[137.469711,-26.04631],[137.471085,-26.046215],[137.471344,-26.04611],[137.471954,-26.046133],[137.474319,-26.045927],[137.475616,-26.045771],[137.478088,-26.045614],[137.478699,-26.045527],[137.483597,-26.04508],[137.483871,-26.044979],[137.484467,-26.04501],[137.489548,-26.044518],[137.490082,-26.044521],[137.490936,-26.044378],[137.492737,-26.044262],[137.496613,-26.043888],[137.497216,-26.043857],[137.498412,-26.043756],[137.498672,-26.043741],[137.50002,-26.043626]]}}]}
