{"type":"FeatureCollection","features":[{"type":"Feature","properties":{"tier":"arterial"},"geometry":{"type":"LineString","coordinates":[[137.10382,-29.99998],[137.10452,-30.002057],[137.104998,-30.003483],[137.105244,-30.004654],[137.105277,-30.005936],[137.105148,-30.006874],[137.104787,-30.008483],[137.104467,-30.009234],[137.103839,-30.010284],[137.10261,-30.011859],[137.099891,-30.015603],[137.097112,-30.019337],[137.092396,-30.026057],[137.086968,-30.033452],[137.07817,-30.045651],[137.074571,-30.051446],[137.0722,-30.054692],[137.070885,-30.056893],[137.068686,-30.060932],[137.067618,-30.062515],[137.064791,-30.065242],[137.058349,-30.070229],[137.057246,-30.071016],[137.056621,-30.071481],[137.056159,-30.071876],[137.055878,-30.072128],[137.055593,-30.072555],[137.055322,-30.072979],[137.052499,-30.078612],[137.051305,-30.081159],[137.050702,-30.082641],[137.04965,-30.085416],[137.048938,-30.087397],[137.048627,-30.088215],[137.047933,-30.089541],[137.047367,-30.090604],[137.04707,-30.091286],[137.046931,-30.091654],[137.046834,-30.092081],[137.046239,-30.097069],[137.045504,-30.103243],[137.045098,-30.106686],[137.044571,-30.111443],[137.043531,-30.119366],[137.043449,-30.120101],[137.043364,-30.120679],[137.043323,-30.120937],[137.043226,-30.121264],[137.042897,-30.121965],[137.041499,-30.124491],[137.038516,-30.1296],[137.037367,-30.131546],[137.036212,-30.13351],[137.034803,-30.135879],[137.029888,-30.144277],[137.022764,-30.156356],[137.01848,-30.163683],[137.012513,-30.173913],[137.009396,-30.179266],[137.007719,-30.182113],[137.005574,-30.185714],[136.99998,-30.195231]]}},{"type":"Feature","properties":{"tier":"regional"},"geometry":{"type":"LineString","coordinates":[[137.192266,-30.386],[137.191759,-30.38596],[137.188749,-30.387332],[137.18795,-30.387612],[137.187401,-30.387621],[137.186551,-30.387443],[137.186126,-30.38747],[137.185685,-30.387723],[137.185409,-30.38813],[137.184909,-30.388483],[137.184686,-30.388843],[137.184444,-30.389515],[137.184336,-30.38975],[137.184062,-30.389821],[137.183696,-30.389684],[137.183531,-30.389612],[137.183042,-30.389141],[137.182779,-30.389057],[137.182032,-30.389088],[137.181707,-30.389159],[137.181398,-30.38939],[137.181145,-30.389532],[137.180717,-30.389586],[137.180475,-30.389688],[137.180382,-30.389861],[137.180393,-30.390968],[137.180354,-30.391257],[137.180092,-30.391509],[137.179232,-30.391962],[137.178007,-30.393307],[137.175601,-30.396338],[137.173181,-30.400839],[137.171972,-30.403002],[137.17063,-30.407126],[137.170557,-30.407692],[137.170149,-30.409037],[137.168691,-30.413387],[137.167875,-30.417272],[137.167788,-30.417599],[137.166971,-30.418844],[137.166125,-30.420553],[137.165849,-30.421069],[137.165645,-30.421521],[137.165747,-30.42533],[137.165566,-30.42631],[137.164458,-30.428635],[137.163666,-30.429311]]}},{"type":"Feature","properties":{"tier":"arterial"},"geometry":{"type":"LineString","coordinates":[[137.009056,-30.50002],[137.011248,-30.49792],[137.01378,-30.495482],[137.014768,-30.494578],[137.015688,-30.493859],[137.01661,-30.493193],[137.017787,-30.492482],[137.018637,-30.492004],[137.019617,-30.491534],[137.021318,-30.490711],[137.032052,-30.485614],[137.047807,-30.478107],[137.066796,-30.469094],[137.06892,-30.4681],[137.069712,-30.467786],[137.070269,-30.467599],[137.070883,-30.46744],[137.071359,-30.467326],[137.071918,-30.467229],[137.072573,-30.467149],[137.073036,-30.467112],[137.073534,-30.467094],[137.074119,-30.467098],[137.07479,-30.467149],[137.075449,-30.467212],[137.101026,-30.470457],[137.112867,-30.471962],[137.115446,-30.472285],[137.116561,-30.472393],[137.117171,-30.472437],[137.118532,-30.472504],[137.120114,-30.472513],[137.121258,-30.472472],[137.122886,-30.472363],[137.124336,-30.47219],[137.125679,-30.471998],[137.127395,-30.471641],[137.129199,-30.471196],[137.134176,-30.469924],[137.137076,-30.46921],[137.137682,-30.4691],[137.138151,-30.469039],[137.138875,-30.468996],[137.139521,-30.468998],[137.140404,-30.469042],[137.141326,-30.46917],[137.14217,-30.469367],[137.142853,-30.469565],[137.143867,-30.469975],[137.145034,-30.470504],[137.146045,-30.470852],[137.146769,-30.471044],[137.147606,-30.471208],[137.148516,-30.471288],[137.149595,-30.471304],[137.150403,-30.471286],[137.152296,-30.470918],[137.153331,-30.470555],[137.154598,-30.469992],[137.156601,-30.46859],[137.15895,-30.466079],[137.159578,-30.465108],[137.159902,-30.464431],[137.160282,-30.463422],[137.160405,-30.463014],[137.160526,-30.462717]]}},{"type":"Feature","properties":{"tier":"arterial"},"geometry":{"type":"LineString","coordinates":[[137.161623,-30.45984],[137.161666,-30.459592],[137.161803,-30.458744],[137.161798,-30.457143],[137.161797,-30.456661],[137.161758,-30.454625],[137.161892,-30.453536],[137.161944,-30.453116],[137.162284,-30.452023],[137.162301,-30.451965],[137.162622,-30.451452],[137.163086,-30.450713],[137.163216,-30.450505],[137.163511,-30.450079],[137.164259,-30.448998],[137.164289,-30.448955],[137.164625,-30.448615],[137.164942,-30.44839],[137.165377,-30.448135],[137.165445,-30.448095],[137.16563,-30.448],[137.165886,-30.447866],[137.165991,-30.447812],[137.166072,-30.44777],[137.16632,-30.447689],[137.166648,-30.447638],[137.166884,-30.447631],[137.167185,-30.447684],[137.167835,-30.448066],[137.169006,-30.448755],[137.169195,-30.448821],[137.169421,-30.4489],[137.169558,-30.448927],[137.169638,-30.448939],[137.170247,-30.449027],[137.17065,-30.449],[137.17083,-30.448952]]}},{"type":"Feature","properties":{"tier":"arterial"},"geometry":{"type":"LineString","coordinates":[[137.172198,-30.448335],[137.173664,-30.447595],[137.174564,-30.447151],[137.175502,-30.446894]]}},{"type":"Feature","properties":{"tier":"arterial"},"geometry":{"type":"LineString","coordinates":[[137.163666,-30.429311],[137.163015,-30.429867],[137.162781,-30.430307],[137.163117,-30.431086],[137.163612,-30.431778],[137.163962,-30.432532],[137.163875,-30.433601],[137.16316,-30.43673],[137.163,-30.437258],[137.162665,-30.438163],[137.162767,-30.439294],[137.163321,-30.440551],[137.16438,-30.441787],[137.164782,-30.442256],[137.165679,-30.443302],[137.165818,-30.443464],[137.166261,-30.443974]]}},{"type":"Feature","properties":{"tier":"arterial"},"geometry":{"type":"LineString","coordinates":[[137.166261,-30.443974],[137.166698,-30.444469],[137.166989,-30.444878],[137.167108,-30.445259],[137.167134,-30.445545],[137.167134,-30.445856],[137.167134,-30.445888],[137.167142,-30.446157],[137.167264,-30.44649],[137.167465,-30.446914],[137.167478,-30.446966],[137.167502,-30.447067],[137.167487,-30.447183],[137.167417,-30.447343],[137.167185,-30.447684]]}},{"type":"Feature","properties":{"tier":"arterial"},"geometry":{"type":"LineString","coordinates":[[137.17083,-30.448952],[137.171337,-30.44871],[137.171614,-30.448597],[137.171921,-30.448474],[137.172198,-30.448335]]}},{"type":"Feature","properties":{"tier":"arterial"},"geometry":{"type":"LineString","coordinates":[[137.160526,-30.462717],[137.160983,-30.461618],[137.161353,-30.460665],[137.161623,-30.45984]]}}]}
