{"type":"FeatureCollection","features":[{"type":"Feature","properties":{"tier":"regional"},"geometry":{"type":"LineString","coordinates":[[136.99998,-33.664895],[137.002298,-33.667082],[137.00297,-33.667765],[137.003346,-33.668244],[137.004902,-33.670268],[137.005991,-33.671671],[137.006312,-33.672026],[137.006694,-33.672321],[137.010377,-33.674788],[137.013645,-33.676944],[137.020846,-33.681295],[137.022384,-33.682224],[137.022926,-33.682569],[137.023471,-33.682956],[137.03058,-33.688059],[137.031285,-33.688834],[137.031677,-33.689415],[137.032038,-33.690158],[137.032259,-33.690771],[137.032408,-33.691335]]}},{"type":"Feature","properties":{"tier":"high"},"geometry":{"type":"LineString","coordinates":[[137.049868,-33.49998],[137.049818,-33.506083],[137.049802,-33.506872],[137.049801,-33.507163],[137.049791,-33.507352],[137.049775,-33.507528],[137.049757,-33.507664],[137.049736,-33.5078],[137.049701,-33.507981],[137.049654,-33.508179],[137.049584,-33.508421],[137.049542,-33.508547],[137.04947,-33.508739],[137.049407,-33.50889],[137.049348,-33.50902],[137.049276,-33.509166],[137.049182,-33.509343],[137.049084,-33.509509],[137.049006,-33.509633],[137.048917,-33.509765],[137.048844,-33.509867],[137.048796,-33.509931],[137.048712,-33.51004],[137.048603,-33.510173],[137.048462,-33.510334],[137.048379,-33.510424],[137.048327,-33.510477],[137.048242,-33.510563],[137.048091,-33.510706],[137.047918,-33.510858],[137.047373,-33.511339],[137.046391,-33.512203],[137.03443,-33.522666],[137.024063,-33.531704],[137.019744,-33.535455],[137.019138,-33.536026],[137.018657,-33.536511],[137.018229,-33.537044],[137.017942,-33.537558],[137.017709,-33.538093],[137.01756,-33.538573],[137.017471,-33.539085],[137.017428,-33.539415],[137.017438,-33.545836],[137.017439,-33.546594],[137.01744,-33.547218],[137.017446,-33.551288],[137.017464,-33.552794],[137.017424,-33.553327],[137.017358,-33.553793],[137.017175,-33.554341],[137.016878,-33.554969],[137.016314,-33.555791],[137.010736,-33.564189],[137.003792,-33.574651],[137.000997,-33.580491],[136.99998,-33.582638]]}},{"type":"Feature","properties":{"tier":"regional"},"geometry":{"type":"LineString","coordinates":[[137.035857,-33.704164],[137.036129,-33.705159],[137.035834,-33.706228],[137.035872,-33.70635],[137.035971,-33.706463],[137.036166,-33.706687]]}},{"type":"Feature","properties":{"tier":"regional"},"geometry":{"type":"LineString","coordinates":[[137.032408,-33.691335],[137.035466,-33.70271],[137.035492,-33.702806],[137.035604,-33.703222],[137.035857,-33.704164]]}}]}
