{"type":"FeatureCollection","features":[{"type":"Feature","properties":{"tier":"regional"},"geometry":{"type":"LineString","coordinates":[[137.97274,-25.853764],[137.972915,-25.854068],[137.973108,-25.854488],[137.97328,-25.854833],[137.9735,-25.85521],[137.97418,-25.85598],[137.97496,-25.85714],[137.97539,-25.85853],[137.97577,-25.86096],[137.9759,-25.86132],[137.97637,-25.86192],[137.97674,-25.86263],[137.97665,-25.863],[137.97633,-25.86362],[137.97635,-25.86424],[137.97699,-25.86551],[137.97734,-25.86699],[137.97757,-25.86765],[137.97787,-25.86817],[137.97856,-25.86879],[137.97895,-25.86939],[137.97929,-25.86999],[137.97938,-25.87034],[137.97991,-25.87349],[137.98021,-25.87413],[137.98066,-25.87473],[137.98133,-25.87649],[137.98159,-25.87754],[137.98161,-25.87789],[137.98135,-25.87915],[137.98141,-25.88036],[137.98172,-25.88134],[137.98221,-25.88239],[137.98247,-25.88336],[137.98272,-25.88398],[137.98352,-25.88568],[137.9836,-25.88673],[137.98382,-25.88772],[137.98395,-25.88913],[137.98431,-25.89051],[137.98519,-25.89257],[137.98611,-25.89441],[137.98616,-25.89512],[137.98646,-25.89598],[137.98751,-25.89746],[137.9892,-25.90008],[137.98938,-25.90044],[137.99,-25.90241],[137.99126,-25.90475],[137.99225,-25.90602],[137.99296,-25.90701],[137.99313,-25.90737],[137.99414,-25.9111],[137.99399,-25.91179],[137.9939,-25.91274],[137.99401,-25.91377],[137.99425,-25.91452],[137.99504,-25.91585],[137.99571,-25.91653],[137.99613,-25.91707],[137.99656,-25.91793],[137.99665,-25.91855],[137.99678,-25.91885],[137.99716,-25.91937],[137.99747,-25.91997],[137.99755,-25.92029],[137.99753,-25.92055],[137.99766,-25.92085],[137.99888,-25.92276],[137.9997,-25.92374],[138.00002,-25.924328]]}}]}
