{"type":"FeatureCollection","features":[{"type":"Feature","properties":{"tier":"regional"},"geometry":{"type":"LineString","coordinates":[[137.760636,-32.495491],[137.760936,-32.495308],[137.760973,-32.495286],[137.762151,-32.494616],[137.762399,-32.494474]]}},{"type":"Feature","properties":{"tier":"regional"},"geometry":{"type":"LineString","coordinates":[[137.762399,-32.494474],[137.762048,-32.494017],[137.762005,-32.493961],[137.761577,-32.493411],[137.760836,-32.492514],[137.760713,-32.492377],[137.760225,-32.491768],[137.760173,-32.491569]]}},{"type":"Feature","properties":{"tier":"regional"},"geometry":{"type":"LineString","coordinates":[[137.761295,-32.490541],[137.760274,-32.491372],[137.760173,-32.491569]]}},{"type":"Feature","properties":{"tier":"regional"},"geometry":{"type":"LineString","coordinates":[[137.765726,-32.48799],[137.765901,-32.487889],[137.766062,-32.487797],[137.766123,-32.487761],[137.767024,-32.487244],[137.768936,-32.486145],[137.76929,-32.485986],[137.770618,-32.485234],[137.770881,-32.485079],[137.770965,-32.485029],[137.77124,-32.48487],[137.77178,-32.484547],[137.771915,-32.484475],[137.772542,-32.48412],[137.773132,-32.483773],[137.773317,-32.483672],[137.775199,-32.482616],[137.776283,-32.481998],[137.776829,-32.481685],[137.778505,-32.480748],[137.778804,-32.480555],[137.779007,-32.48032]]}},{"type":"Feature","properties":{"tier":"regional"},"geometry":{"type":"LineString","coordinates":[[137.760581,-32.482359],[137.760918,-32.482683],[137.761117,-32.482897],[137.761144,-32.482926],[137.7613,-32.483117],[137.76135,-32.483139],[137.761436,-32.483129]]}},{"type":"Feature","properties":{"tier":"regional"},"geometry":{"type":"LineString","coordinates":[[137.763511,-32.490773],[137.763926,-32.490542],[137.76399,-32.490506],[137.764135,-32.490425],[137.764243,-32.490367],[137.764923,-32.490001],[137.765357,-32.489735],[137.765855,-32.489439],[137.766047,-32.489325]]}},{"type":"Feature","properties":{"tier":"regional"},"geometry":{"type":"LineString","coordinates":[[137.762094,-32.491563],[137.762637,-32.491266],[137.762828,-32.491159],[137.763026,-32.491047],[137.763511,-32.490773]]}},{"type":"Feature","properties":{"tier":"regional"},"geometry":{"type":"LineString","coordinates":[[137.767068,-32.491829],[137.767125,-32.491919],[137.767228,-32.492081],[137.767299,-32.492257],[137.767469,-32.49265],[137.767784,-32.493378],[137.76815,-32.494317]]}},{"type":"Feature","properties":{"tier":"regional"},"geometry":{"type":"LineString","coordinates":[[137.766348,-32.492224],[137.766335,-32.492164],[137.766201,-32.491568],[137.76584,-32.491091],[137.765804,-32.491044],[137.76578,-32.491014],[137.765377,-32.490523],[137.764953,-32.490037],[137.764923,-32.490001],[137.764893,-32.489963],[137.764864,-32.489926],[137.764122,-32.488964],[137.76409,-32.488922]]}},{"type":"Feature","properties":{"tier":"regional"},"geometry":{"type":"LineString","coordinates":[[137.783194,-32.472111],[137.783055,-32.472368],[137.782121,-32.474233],[137.78164,-32.475175],[137.779097,-32.480146],[137.779007,-32.48032]]}},{"type":"Feature","properties":{"tier":"regional"},"geometry":{"type":"LineString","coordinates":[[137.768033,-32.491281],[137.768143,-32.491219]]}},{"type":"Feature","properties":{"tier":"regional"},"geometry":{"type":"LineString","coordinates":[[137.744791,-32.492998],[137.744341,-32.491391],[137.744189,-32.490848],[137.743853,-32.489649],[137.743525,-32.48848],[137.743484,-32.488334],[137.743181,-32.487257],[137.743003,-32.486619],[137.742938,-32.486393],[137.742757,-32.48576],[137.742733,-32.485677],[137.742626,-32.485303],[137.742559,-32.485071],[137.742371,-32.484407],[137.742279,-32.484094],[137.741992,-32.483032]]}},{"type":"Feature","properties":{"tier":"regional"},"geometry":{"type":"LineString","coordinates":[[137.749543,-32.474251],[137.750428,-32.47361]]}},{"type":"Feature","properties":{"tier":"regional"},"geometry":{"type":"LineString","coordinates":[[137.774282,-32.487711],[137.775103,-32.487251],[137.775444,-32.487069],[137.77674,-32.486376],[137.778243,-32.485489],[137.778643,-32.485265],[137.781608,-32.483601]]}},{"type":"Feature","properties":{"tier":"regional"},"geometry":{"type":"LineString","coordinates":[[137.774628,-32.493237],[137.774573,-32.493338],[137.774491,-32.493532]]}},{"type":"Feature","properties":{"tier":"regional"},"geometry":{"type":"LineString","coordinates":[[137.77409,-32.493263],[137.774014,-32.493164],[137.773416,-32.49234],[137.773376,-32.492294],[137.773323,-32.492233],[137.772798,-32.491577],[137.77253,-32.49124],[137.772233,-32.490868],[137.77169,-32.490188],[137.771154,-32.489515],[137.771123,-32.489477]]}},{"type":"Feature","properties":{"tier":"regional"},"geometry":{"type":"LineString","coordinates":[[137.77409,-32.493263],[137.774172,-32.493311],[137.774221,-32.49336],[137.774325,-32.493444]]}},{"type":"Feature","properties":{"tier":"regional"},"geometry":{"type":"LineString","coordinates":[[137.774027,-32.493777],[137.772823,-32.49445],[137.772537,-32.494613],[137.771355,-32.495285],[137.77128,-32.495327]]}},{"type":"Feature","properties":{"tier":"regional"},"geometry":{"type":"LineString","coordinates":[[137.774432,-32.493463],[137.774469,-32.493493],[137.774491,-32.493532],[137.774497,-32.493572],[137.774487,-32.493611],[137.774465,-32.493643],[137.774433,-32.493669],[137.774394,-32.493685],[137.77435,-32.493691],[137.774305,-32.493685],[137.774266,-32.49367],[137.774234,-32.493645],[137.774213,-32.493613],[137.774202,-32.493578],[137.774203,-32.493552],[137.77421,-32.493527],[137.774227,-32.493496],[137.774254,-32.493471],[137.774287,-32.493454],[137.774325,-32.493444],[137.774356,-32.493442],[137.774385,-32.493446],[137.774432,-32.493463]]}},{"type":"Feature","properties":{"tier":"regional"},"geometry":{"type":"LineString","coordinates":[[137.774305,-32.493685],[137.774178,-32.493735],[137.774027,-32.493777]]}},{"type":"Feature","properties":{"tier":"regional"},"geometry":{"type":"LineString","coordinates":[[137.774487,-32.493611],[137.774691,-32.49375],[137.77481,-32.493875],[137.774897,-32.493967],[137.775338,-32.494525],[137.776059,-32.495439],[137.776744,-32.496307],[137.777328,-32.497052],[137.777815,-32.497669],[137.77868,-32.498764],[137.77889,-32.499067],[137.779013,-32.499193],[137.779766,-32.499671]]}},{"type":"Feature","properties":{"tier":"regional"},"geometry":{"type":"LineString","coordinates":[[137.774385,-32.493446],[137.774457,-32.493376],[137.774628,-32.493237]]}},{"type":"Feature","properties":{"tier":"regional"},"geometry":{"type":"LineString","coordinates":[[137.774027,-32.493777],[137.774116,-32.493685],[137.774202,-32.493578]]}},{"type":"Feature","properties":{"tier":"regional"},"geometry":{"type":"LineString","coordinates":[[137.77421,-32.493527],[137.774167,-32.493414],[137.77413,-32.493344],[137.77409,-32.493263]]}},{"type":"Feature","properties":{"tier":"regional"},"geometry":{"type":"LineString","coordinates":[[137.779766,-32.499671],[137.779166,-32.499448],[137.778933,-32.499346],[137.778805,-32.499257],[137.77877,-32.499208],[137.778701,-32.499181],[137.778479,-32.498882],[137.777613,-32.497796],[137.777098,-32.497136],[137.776544,-32.496412],[137.77604,-32.495789],[137.775844,-32.495547],[137.775261,-32.494801],[137.774689,-32.494072],[137.774449,-32.493757],[137.77435,-32.493691]]}},{"type":"Feature","properties":{"tier":"high"},"geometry":{"type":"LineString","coordinates":[[137.753803,-32.480482],[137.753483,-32.480415],[137.753294,-32.480381],[137.753053,-32.480329],[137.752969,-32.480298],[137.752922,-32.480257]]}},{"type":"Feature","properties":{"tier":"high"},"geometry":{"type":"LineString","coordinates":[[137.752697,-32.479793],[137.752983,-32.480048],[137.753172,-32.480154],[137.753317,-32.480198],[137.753728,-32.480288]]}},{"type":"Feature","properties":{"tier":"high"},"geometry":{"type":"LineString","coordinates":[[137.752237,-32.480327],[137.752487,-32.480238],[137.75262,-32.480156],[137.752694,-32.480063],[137.752715,-32.479947],[137.752697,-32.479793]]}},{"type":"Feature","properties":{"tier":"high"},"geometry":{"type":"LineString","coordinates":[[137.752922,-32.480257],[137.752864,-32.480319],[137.752763,-32.480351],[137.75243,-32.480408],[137.752137,-32.480473],[137.751735,-32.48063]]}},{"type":"Feature","properties":{"tier":"regional"},"geometry":{"type":"LineString","coordinates":[[137.748142,-32.475245],[137.749543,-32.474251]]}},{"type":"Feature","properties":{"tier":"regional"},"geometry":{"type":"LineString","coordinates":[[137.754738,-32.480794],[137.754857,-32.48072],[137.755054,-32.480598],[137.756382,-32.479774],[137.756821,-32.479501],[137.757762,-32.478917],[137.759037,-32.478125],[137.759882,-32.477601],[137.760222,-32.477389]]}},{"type":"Feature","properties":{"tier":"regional"},"geometry":{"type":"LineString","coordinates":[[137.759882,-32.477601],[137.758532,-32.475921],[137.758001,-32.475291],[137.757489,-32.474696],[137.757135,-32.474265],[137.756839,-32.47382],[137.756499,-32.473511],[137.756432,-32.473424],[137.755767,-32.472959],[137.755216,-32.472546],[137.755047,-32.472431],[137.754425,-32.47205],[137.754011,-32.471827],[137.753212,-32.471466]]}},{"type":"Feature","properties":{"tier":"regional"},"geometry":{"type":"LineString","coordinates":[[137.744189,-32.490848],[137.744468,-32.490795],[137.744673,-32.490696],[137.744825,-32.490582],[137.745093,-32.490382],[137.746112,-32.489619],[137.746842,-32.489081],[137.747833,-32.488354],[137.748288,-32.488022],[137.748477,-32.487884],[137.749337,-32.487278],[137.749716,-32.487002],[137.750234,-32.486601],[137.75049,-32.486297],[137.750607,-32.486079],[137.750709,-32.485763],[137.750818,-32.485469],[137.750962,-32.485088],[137.751105,-32.484744],[137.75131,-32.48445],[137.751497,-32.48428],[137.751711,-32.484155]]}},{"type":"Feature","properties":{"tier":"regional"},"geometry":{"type":"LineString","coordinates":[[137.756359,-32.47723],[137.757047,-32.478058],[137.757762,-32.478917],[137.758692,-32.480069],[137.759586,-32.481114],[137.760581,-32.482359]]}},{"type":"Feature","properties":{"tier":"regional"},"geometry":{"type":"LineString","coordinates":[[137.757489,-32.474696],[137.75731,-32.474867],[137.757166,-32.474931],[137.756968,-32.474983],[137.756697,-32.475023],[137.756314,-32.475066],[137.756054,-32.475124],[137.755922,-32.475174],[137.755701,-32.475257],[137.755277,-32.475459],[137.75473,-32.47584],[137.754681,-32.475876],[137.75378,-32.476549],[137.753525,-32.476734],[137.753248,-32.47694],[137.75294,-32.477183],[137.752466,-32.477539],[137.751995,-32.477923],[137.751471,-32.478324]]}},{"type":"Feature","properties":{"tier":"regional"},"geometry":{"type":"LineString","coordinates":[[137.753799,-32.468456],[137.753786,-32.468336],[137.753768,-32.46813],[137.753535,-32.467334],[137.753225,-32.466808],[137.753071,-32.466607],[137.752821,-32.466334],[137.752578,-32.466082]]}},{"type":"Feature","properties":{"tier":"regional"},"geometry":{"type":"LineString","coordinates":[[137.753799,-32.468456],[137.753885,-32.468949],[137.753815,-32.46951]]}},{"type":"Feature","properties":{"tier":"regional"},"geometry":{"type":"LineString","coordinates":[[137.753799,-32.486555],[137.755039,-32.485496],[137.755137,-32.485405],[137.75531,-32.48528],[137.755511,-32.485128],[137.756317,-32.484725],[137.757219,-32.484296],[137.757345,-32.484232],[137.75826,-32.483769],[137.758693,-32.483501],[137.758769,-32.483452]]}},{"type":"Feature","properties":{"tier":"regional"},"geometry":{"type":"LineString","coordinates":[[137.751711,-32.484155],[137.753201,-32.483253],[137.753859,-32.482885],[137.754378,-32.482596],[137.755323,-32.482061],[137.756004,-32.481631],[137.756102,-32.481573]]}},{"type":"Feature","properties":{"tier":"regional"},"geometry":{"type":"LineString","coordinates":[[137.758859,-32.483398],[137.758919,-32.483364],[137.759726,-32.482909],[137.760581,-32.482359],[137.761871,-32.48154]]}},{"type":"Feature","properties":{"tier":"regional"},"geometry":{"type":"LineString","coordinates":[[137.783952,-32.486521],[137.781508,-32.487616],[137.781286,-32.487727],[137.780358,-32.48819],[137.779471,-32.488643],[137.778484,-32.489118],[137.778313,-32.489203],[137.777728,-32.489841],[137.77768,-32.489893],[137.777378,-32.490223],[137.77712,-32.490505],[137.776769,-32.490888],[137.776713,-32.490947],[137.776422,-32.491267],[137.77544,-32.492339],[137.77505,-32.492764],[137.774628,-32.493237]]}},{"type":"Feature","properties":{"tier":"regional"},"geometry":{"type":"LineString","coordinates":[[137.794191,-32.481514],[137.791316,-32.482383],[137.788612,-32.483795]]}},{"type":"Feature","properties":{"tier":"regional"},"geometry":{"type":"LineString","coordinates":[[137.771123,-32.489477],[137.771091,-32.489435],[137.770753,-32.488996],[137.770333,-32.488462],[137.770013,-32.488098],[137.769898,-32.487963],[137.769479,-32.487431],[137.769193,-32.487091],[137.769047,-32.486914],[137.769012,-32.486828],[137.769019,-32.486739],[137.7692,-32.486375],[137.769336,-32.486112],[137.76929,-32.485986]]}},{"type":"Feature","properties":{"tier":"regional"},"geometry":{"type":"LineString","coordinates":[[137.786997,-32.496653],[137.786218,-32.496549],[137.7852,-32.496414],[137.784836,-32.496428],[137.784314,-32.496576],[137.783068,-32.497285],[137.781857,-32.497966],[137.781208,-32.498338],[137.781065,-32.498457],[137.780936,-32.498585],[137.78082,-32.498778],[137.780678,-32.499047],[137.780365,-32.499651],[137.780263,-32.499848]]}},{"type":"Feature","properties":{"tier":"regional"},"geometry":{"type":"LineString","coordinates":[[137.780727,-32.50002],[137.780263,-32.499848],[137.779961,-32.499741],[137.779766,-32.499671]]}},{"type":"Feature","properties":{"tier":"regional"},"geometry":{"type":"LineString","coordinates":[[137.778484,-32.489118],[137.778965,-32.489736],[137.780201,-32.491326],[137.780537,-32.491759],[137.780891,-32.492216],[137.781264,-32.492674],[137.781407,-32.492842],[137.781626,-32.493131],[137.782028,-32.493662],[137.782279,-32.493994],[137.783752,-32.495892],[137.784314,-32.496576]]}},{"type":"Feature","properties":{"tier":"regional"},"geometry":{"type":"LineString","coordinates":[[137.7717,-32.498772],[137.771607,-32.498879]]}},{"type":"Feature","properties":{"tier":"regional"},"geometry":{"type":"LineString","coordinates":[[137.773318,-32.50002],[137.772505,-32.499463],[137.771607,-32.498879],[137.771107,-32.498564],[137.770519,-32.498159],[137.769694,-32.497619],[137.768944,-32.497108],[137.768836,-32.496969],[137.768788,-32.496868],[137.768775,-32.496749]]}},{"type":"Feature","properties":{"tier":"regional"},"geometry":{"type":"LineString","coordinates":[[137.768775,-32.496749],[137.768929,-32.49692],[137.76904,-32.497039],[137.769793,-32.497517],[137.770613,-32.498053],[137.771202,-32.498459],[137.7717,-32.498772],[137.772601,-32.499358],[137.773571,-32.50002]]}},{"type":"Feature","properties":{"tier":"regional"},"geometry":{"type":"LineString","coordinates":[[137.769793,-32.497517],[137.769694,-32.497619]]}},{"type":"Feature","properties":{"tier":"regional"},"geometry":{"type":"LineString","coordinates":[[137.771202,-32.498459],[137.771107,-32.498564]]}},{"type":"Feature","properties":{"tier":"regional"},"geometry":{"type":"LineString","coordinates":[[137.750324,-32.401251],[137.750247,-32.401208],[137.749917,-32.401062],[137.749729,-32.401005],[137.749411,-32.400986],[137.749154,-32.401015],[137.74628,-32.401686],[137.745888,-32.40171],[137.745485,-32.401681],[137.745154,-32.401637],[137.744777,-32.401564],[137.742134,-32.400433],[137.741769,-32.400388],[137.74138,-32.400394],[137.741005,-32.400447],[137.740671,-32.40063],[137.740374,-32.400897],[137.740012,-32.401241],[137.736445,-32.404425],[137.734735,-32.405977],[137.733759,-32.406825],[137.733172,-32.4073],[137.732703,-32.407691],[137.731836,-32.4082],[137.728251,-32.409976],[137.725835,-32.411147],[137.724049,-32.412039],[137.723533,-32.412444],[137.722974,-32.412931],[137.722657,-32.413215],[137.722477,-32.413503],[137.72226,-32.413871],[137.721046,-32.417014],[137.72035,-32.418809],[137.720056,-32.419585],[137.719895,-32.420005],[137.71981,-32.420361],[137.719727,-32.420924],[137.719672,-32.421573],[137.719687,-32.435169],[137.719017,-32.439659],[137.718926,-32.443176],[137.71957,-32.444941],[137.719762,-32.445515],[137.719942,-32.446858],[137.719994,-32.447263],[137.72022,-32.449028],[137.720339,-32.449931],[137.720572,-32.451705]]}},{"type":"Feature","properties":{"tier":"regional"},"geometry":{"type":"LineString","coordinates":[[137.763817,-32.493666],[137.763394,-32.493147],[137.763002,-32.492665],[137.762972,-32.492629],[137.762515,-32.492091],[137.762125,-32.491601],[137.762094,-32.491563],[137.761522,-32.490834],[137.761319,-32.490572],[137.761295,-32.490541]]}},{"type":"Feature","properties":{"tier":"high"},"geometry":{"type":"LineString","coordinates":[[137.729163,-32.483351],[137.728839,-32.483391],[137.728381,-32.483462],[137.72799,-32.483535],[137.727546,-32.483633],[137.727197,-32.483721],[137.726901,-32.483804],[137.726719,-32.483859],[137.726317,-32.483991],[137.725939,-32.484128],[137.725507,-32.484302],[137.725211,-32.484432],[137.724989,-32.484535],[137.724833,-32.484612]]}},{"type":"Feature","properties":{"tier":"high"},"geometry":{"type":"LineString","coordinates":[[137.746836,-32.48285],[137.746068,-32.482968],[137.745459,-32.483011],[137.744147,-32.483029],[137.741992,-32.483032],[137.740329,-32.483053],[137.739809,-32.483059],[137.739396,-32.48307],[137.737779,-32.483111]]}},{"type":"Feature","properties":{"tier":"high"},"geometry":{"type":"LineString","coordinates":[[137.752148,-32.478991],[137.752388,-32.479277],[137.752697,-32.479793]]}},{"type":"Feature","properties":{"tier":"regional"},"geometry":{"type":"LineString","coordinates":[[137.75049,-32.486297],[137.750331,-32.486256],[137.750015,-32.486193],[137.748213,-32.486236],[137.746964,-32.486273],[137.746269,-32.486293],[137.74524,-32.486323],[137.742938,-32.486393]]}},{"type":"Feature","properties":{"tier":"high"},"geometry":{"type":"LineString","coordinates":[[137.49998,-32.19438],[137.505883,-32.200571]]}},{"type":"Feature","properties":{"tier":"high"},"geometry":{"type":"LineString","coordinates":[[137.505883,-32.200571],[137.508765,-32.203607],[137.509198,-32.204067],[137.517519,-32.212859],[137.518966,-32.214383],[137.519723,-32.21519],[137.523055,-32.218703],[137.525166,-32.220931],[137.526406,-32.222208],[137.532066,-32.227989],[137.545324,-32.241553],[137.545931,-32.242174],[137.546723,-32.242991],[137.548357,-32.244671],[137.549833,-32.246263],[137.551025,-32.247636],[137.551847,-32.248638],[137.552637,-32.249658],[137.553342,-32.250602],[137.554022,-32.251553],[137.554679,-32.252527],[137.555329,-32.253524],[137.555984,-32.254585],[137.556568,-32.255584],[137.558038,-32.258223],[137.559114,-32.260145],[137.561638,-32.264661],[137.564118,-32.269098],[137.570001,-32.279624],[137.576082,-32.290504],[137.578447,-32.294734],[137.580951,-32.299207],[137.581349,-32.299929],[137.581732,-32.300653],[137.582156,-32.301494],[137.582564,-32.30233],[137.58266,-32.302536],[137.583156,-32.303623],[137.583626,-32.304721],[137.584624,-32.307117],[137.586037,-32.310496],[137.587024,-32.31285],[137.588299,-32.315888],[137.589683,-32.319195],[137.590883,-32.322051],[137.592955,-32.327016],[137.593811,-32.329051],[137.596799,-32.33618],[137.599518,-32.342678],[137.602325,-32.349368],[137.603143,-32.351315],[137.603429,-32.351958],[137.60371,-32.352543],[137.60402,-32.353134],[137.604348,-32.353715],[137.604691,-32.354278],[137.60505,-32.354835],[137.605384,-32.355322],[137.605743,-32.355806],[137.60605,-32.356202],[137.606342,-32.356563],[137.606953,-32.357273],[137.607431,-32.357788],[137.607948,-32.358309],[137.608443,-32.358782],[137.609139,-32.359409],[137.610082,-32.360229],[137.611112,-32.361134],[137.617598,-32.366812],[137.624188,-32.372578],[137.630347,-32.377969],[137.633151,-32.380454],[137.634053,-32.381317],[137.637291,-32.384466],[137.641554,-32.388609],[137.644669,-32.391644],[137.648007,-32.394885],[137.650357,-32.397165],[137.652757,-32.399492],[137.657731,-32.404336],[137.660309,-32.40684],[137.662808,-32.409265],[137.665734,-32.412104],[137.667343,-32.413673],[137.668854,-32.415134],[137.670411,-32.416648],[137.671218,-32.417426],[137.67199,-32.418138],[137.672929,-32.41894],[137.673444,-32.419356],[137.673958,-32.41975],[137.674423,-32.420089],[137.675347,-32.420732],[137.676263,-32.421321],[137.677961,-32.42235],[137.68258,-32.425144],[137.687091,-32.427853],[137.689238,-32.429148],[137.689718,-32.429446],[137.690146,-32.429734],[137.690541,-32.430018],[137.690923,-32.43031],[137.691395,-32.430697],[137.691842,-32.431101],[137.692273,-32.431517],[137.692683,-32.431943],[137.693079,-32.432392],[137.693453,-32.432858],[137.694069,-32.433724],[137.694644,-32.434653],[137.69598,-32.436834],[137.696396,-32.437505],[137.696884,-32.43829],[137.697163,-32.438694],[137.697539,-32.439192],[137.69791,-32.439651],[137.698346,-32.440144],[137.698755,-32.44057],[137.699167,-32.44095],[137.699538,-32.441275],[137.699906,-32.441586],[137.700333,-32.441915],[137.700809,-32.44225],[137.7013,-32.442579],[137.701898,-32.442928],[137.70229,-32.443162],[137.703844,-32.444128],[137.707973,-32.446666],[137.710165,-32.447995],[137.710885,-32.448426],[137.711673,-32.448864],[137.712357,-32.44923],[137.71305,-32.44959],[137.713868,-32.449989],[137.714744,-32.450399],[137.716602,-32.45121],[137.718894,-32.45217],[137.720558,-32.452901],[137.723495,-32.454154],[137.726218,-32.455297],[137.727113,-32.455683],[137.727994,-32.456087],[137.728505,-32.456345],[137.728995,-32.456616],[137.729673,-32.457012],[137.730233,-32.457374],[137.731062,-32.457963],[137.731785,-32.458527],[137.732106,-32.458788],[137.732399,-32.459054],[137.732714,-32.459356],[137.733021,-32.459661],[137.734131,-32.460823],[137.736251,-32.463013],[137.736377,-32.463153]]}},{"type":"Feature","properties":{"tier":"high"},"geometry":{"type":"LineString","coordinates":[[137.736547,-32.463332],[137.7368,-32.463646],[137.739121,-32.466031]]}},{"type":"Feature","properties":{"tier":"high"},"geometry":{"type":"LineString","coordinates":[[137.736377,-32.463153],[137.736547,-32.463332]]}},{"type":"Feature","properties":{"tier":"high"},"geometry":{"type":"LineString","coordinates":[[137.767272,-32.490301],[137.766732,-32.489598]]}},{"type":"Feature","properties":{"tier":"high"},"geometry":{"type":"LineString","coordinates":[[137.766806,-32.489494],[137.767377,-32.490235]]}},{"type":"Feature","properties":{"tier":"high"},"geometry":{"type":"LineString","coordinates":[[137.765098,-32.487401],[137.765368,-32.487634],[137.765617,-32.487874],[137.765835,-32.488111]]}},{"type":"Feature","properties":{"tier":"high"},"geometry":{"type":"LineString","coordinates":[[137.766732,-32.489598],[137.766554,-32.489351]]}},{"type":"Feature","properties":{"tier":"high"},"geometry":{"type":"LineString","coordinates":[[137.765722,-32.488197],[137.765488,-32.487951],[137.765133,-32.487609]]}},{"type":"Feature","properties":{"tier":"high"},"geometry":{"type":"LineString","coordinates":[[137.765835,-32.488111],[137.766097,-32.488433],[137.766426,-32.488954],[137.766473,-32.48902]]}},{"type":"Feature","properties":{"tier":"high"},"geometry":{"type":"LineString","coordinates":[[137.761027,-32.485399],[137.760718,-32.485208],[137.760421,-32.485008],[137.760189,-32.48485],[137.759932,-32.484658],[137.759683,-32.484458],[137.759594,-32.484378],[137.759355,-32.484133],[137.759136,-32.48388],[137.759023,-32.483748],[137.758836,-32.483531],[137.758769,-32.483452]]}},{"type":"Feature","properties":{"tier":"high"},"geometry":{"type":"LineString","coordinates":[[137.765133,-32.487609],[137.764871,-32.487397],[137.764731,-32.487289]]}},{"type":"Feature","properties":{"tier":"high"},"geometry":{"type":"LineString","coordinates":[[137.749228,-32.48193],[137.749634,-32.481678],[137.749827,-32.481558],[137.750621,-32.481079],[137.751159,-32.48077],[137.751655,-32.480521],[137.751944,-32.48041],[137.752237,-32.480327]]}},{"type":"Feature","properties":{"tier":"high"},"geometry":{"type":"LineString","coordinates":[[137.753803,-32.480482],[137.753426,-32.480439],[137.752913,-32.48044],[137.752645,-32.480455],[137.752331,-32.480492],[137.751735,-32.48063]]}},{"type":"Feature","properties":{"tier":"high"},"geometry":{"type":"LineString","coordinates":[[137.754738,-32.480794],[137.754392,-32.480657],[137.754128,-32.480574],[137.753958,-32.480524],[137.753803,-32.480482]]}},{"type":"Feature","properties":{"tier":"high"},"geometry":{"type":"LineString","coordinates":[[137.753728,-32.480288],[137.753974,-32.480353],[137.754197,-32.480423],[137.754531,-32.480554],[137.754857,-32.48072]]}},{"type":"Feature","properties":{"tier":"high"},"geometry":{"type":"LineString","coordinates":[[137.749228,-32.48193],[137.74904,-32.48203],[137.748708,-32.482205],[137.747712,-32.482609],[137.746836,-32.48285]]}},{"type":"Feature","properties":{"tier":"high"},"geometry":{"type":"LineString","coordinates":[[137.77128,-32.495327],[137.771725,-32.495625],[137.772403,-32.496079],[137.77264,-32.496235],[137.772871,-32.496388],[137.773424,-32.496758],[137.776848,-32.49905],[137.777746,-32.499651],[137.77777,-32.499666],[137.778063,-32.499858],[137.778175,-32.499937],[137.778289,-32.50002]]}},{"type":"Feature","properties":{"tier":"high"},"geometry":{"type":"LineString","coordinates":[[137.778142,-32.50002],[137.778113,-32.499998],[137.778003,-32.499926],[137.777741,-32.499749],[137.776786,-32.499137],[137.774269,-32.497435],[137.773742,-32.497084],[137.772842,-32.496484],[137.772346,-32.496148],[137.771324,-32.495443],[137.771308,-32.495431],[137.771203,-32.495371]]}},{"type":"Feature","properties":{"tier":"high"},"geometry":{"type":"LineString","coordinates":[[137.724833,-32.484612],[137.724627,-32.4847],[137.724377,-32.484831],[137.72412,-32.48497],[137.723864,-32.485117],[137.723617,-32.485262],[137.723439,-32.48538],[137.723262,-32.48549],[137.722995,-32.485666],[137.722704,-32.485871],[137.721393,-32.486781],[137.719901,-32.487832],[137.718946,-32.488495],[137.718133,-32.489047],[137.70238,-32.50002]]}},{"type":"Feature","properties":{"tier":"regional"},"geometry":{"type":"LineString","coordinates":[[137.762674,-32.489728],[137.763154,-32.490327],[137.763489,-32.490746],[137.763511,-32.490773]]}},{"type":"Feature","properties":{"tier":"regional"},"geometry":{"type":"LineString","coordinates":[[137.763511,-32.490773],[137.763532,-32.490799],[137.764353,-32.491798],[137.764382,-32.491833],[137.764405,-32.49186],[137.764805,-32.492332],[137.765208,-32.492807],[137.765246,-32.492852]]}},{"type":"Feature","properties":{"tier":"regional"},"geometry":{"type":"LineString","coordinates":[[137.765726,-32.48799],[137.765486,-32.488135],[137.764966,-32.488429],[137.76439,-32.488755],[137.76409,-32.488922],[137.763415,-32.489307],[137.763109,-32.48948],[137.762674,-32.489728],[137.761823,-32.490222],[137.761331,-32.490508],[137.761295,-32.490541]]}},{"type":"Feature","properties":{"tier":"regional"},"geometry":{"type":"LineString","coordinates":[[137.766494,-32.49214],[137.766733,-32.492001]]}},{"type":"Feature","properties":{"tier":"regional"},"geometry":{"type":"LineString","coordinates":[[137.766733,-32.492001],[137.766803,-32.491927],[137.766919,-32.491866],[137.767068,-32.491829]]}},{"type":"Feature","properties":{"tier":"regional"},"geometry":{"type":"LineString","coordinates":[[137.767068,-32.491829],[137.766958,-32.491936],[137.766848,-32.491985]]}},{"type":"Feature","properties":{"tier":"regional"},"geometry":{"type":"LineString","coordinates":[[137.767068,-32.491829],[137.767375,-32.491655],[137.767949,-32.491329],[137.768033,-32.491281]]}},{"type":"Feature","properties":{"tier":"regional"},"geometry":{"type":"LineString","coordinates":[[137.801787,-32.50002],[137.801597,-32.499878],[137.801172,-32.499416],[137.800876,-32.498719],[137.800784,-32.497997],[137.800662,-32.495629],[137.800748,-32.495407],[137.802014,-32.494208],[137.802073,-32.494095],[137.802068,-32.494079],[137.802028,-32.493948],[137.800714,-32.492555],[137.799197,-32.489676],[137.799129,-32.489531],[137.798548,-32.488299],[137.796723,-32.484157],[137.794191,-32.481514]]}},{"type":"Feature","properties":{"tier":"regional"},"geometry":{"type":"LineString","coordinates":[[137.762399,-32.494474],[137.762966,-32.494162],[137.763415,-32.493895],[137.763817,-32.493666]]}},{"type":"Feature","properties":{"tier":"regional"},"geometry":{"type":"LineString","coordinates":[[137.743387,-32.50002],[137.743988,-32.49868],[137.745625,-32.495075],[137.745826,-32.494659],[137.745876,-32.494557],[137.746155,-32.494091],[137.746552,-32.493463],[137.747044,-32.492807],[137.747549,-32.49217],[137.748064,-32.491573],[137.749149,-32.490397],[137.749717,-32.489804],[137.750526,-32.489115],[137.752777,-32.487422],[137.753799,-32.486555]]}},{"type":"Feature","properties":{"tier":"high"},"geometry":{"type":"LineString","coordinates":[[137.743293,-32.470393],[137.746104,-32.473321]]}},{"type":"Feature","properties":{"tier":"arterial"},"geometry":{"type":"LineString","coordinates":[[137.97307,-32.405958],[137.973213,-32.405728],[137.973327,-32.405405],[137.973383,-32.405163],[137.973374,-32.404871],[137.973198,-32.404277],[137.973103,-32.403912],[137.97309,-32.403591],[137.973223,-32.403033],[137.973519,-32.402625],[137.973955,-32.402074],[137.97443,-32.401642],[137.974936,-32.401426],[137.975408,-32.401353],[137.976283,-32.401387],[137.976944,-32.401226],[137.977373,-32.400959],[137.977894,-32.400251],[137.978332,-32.399733],[137.979545,-32.398725],[137.980012,-32.398148]]}},{"type":"Feature","properties":{"tier":"arterial"},"geometry":{"type":"LineString","coordinates":[[137.975831,-32.449734],[137.975868,-32.449539],[137.975924,-32.449337]]}},{"type":"Feature","properties":{"tier":"arterial"},"geometry":{"type":"LineString","coordinates":[[137.975777,-32.450104],[137.975831,-32.449734]]}},{"type":"Feature","properties":{"tier":"arterial"},"geometry":{"type":"LineString","coordinates":[[137.976944,-32.43634],[137.976735,-32.436157],[137.976592,-32.436011],[137.976489,-32.435895],[137.976414,-32.435759],[137.97637,-32.435602],[137.976375,-32.435486],[137.976405,-32.435376],[137.976458,-32.435267],[137.976556,-32.435134],[137.9767,-32.435015],[137.976831,-32.434938],[137.976979,-32.434866],[137.97707,-32.434791],[137.977167,-32.434692],[137.977223,-32.434576],[137.977256,-32.434468],[137.977252,-32.434343],[137.977217,-32.434221],[137.977151,-32.434104],[137.976988,-32.433837],[137.97672,-32.433363]]}},{"type":"Feature","properties":{"tier":"high"},"geometry":{"type":"LineString","coordinates":[[137.764731,-32.487289],[137.764546,-32.487181],[137.764407,-32.487106],[137.764114,-32.486942],[137.761027,-32.485399]]}},{"type":"Feature","properties":{"tier":"high"},"geometry":{"type":"LineString","coordinates":[[137.752922,-32.480257],[137.753249,-32.480254],[137.753728,-32.480288]]}},{"type":"Feature","properties":{"tier":"high"},"geometry":{"type":"LineString","coordinates":[[137.752697,-32.479793],[137.752922,-32.480257]]}},{"type":"Feature","properties":{"tier":"high"},"geometry":{"type":"LineString","coordinates":[[137.770961,-32.495238],[137.770709,-32.495054],[137.77057,-32.494944],[137.770241,-32.494667],[137.769877,-32.494282],[137.769546,-32.493794],[137.76917,-32.493078],[137.76896,-32.492692],[137.768796,-32.492401],[137.768494,-32.491903],[137.768093,-32.491359],[137.768033,-32.491281]]}},{"type":"Feature","properties":{"tier":"high"},"geometry":{"type":"LineString","coordinates":[[137.771203,-32.495371],[137.77108,-32.495309],[137.770961,-32.495238]]}},{"type":"Feature","properties":{"tier":"regional"},"geometry":{"type":"LineString","coordinates":[[137.77128,-32.495327],[137.771203,-32.495371]]}},{"type":"Feature","properties":{"tier":"high"},"geometry":{"type":"LineString","coordinates":[[137.770997,-32.495141],[137.771172,-32.495256],[137.77128,-32.495327]]}},{"type":"Feature","properties":{"tier":"high"},"geometry":{"type":"LineString","coordinates":[[137.767377,-32.490235],[137.767684,-32.490659],[137.767898,-32.490919],[137.768053,-32.49111],[137.768054,-32.491111],[137.768143,-32.491219]]}},{"type":"Feature","properties":{"tier":"regional"},"geometry":{"type":"LineString","coordinates":[[137.763817,-32.493666],[137.764402,-32.493333],[137.764426,-32.493319],[137.764595,-32.493223],[137.764857,-32.493073],[137.765246,-32.492852],[137.76557,-32.492667],[137.766348,-32.492224]]}},{"type":"Feature","properties":{"tier":"arterial"},"geometry":{"type":"LineString","coordinates":[[137.965793,-32.468537],[137.966341,-32.468133],[137.966758,-32.467672],[137.968926,-32.46453],[137.969242,-32.463968],[137.96941,-32.463448],[137.969449,-32.46285],[137.96944,-32.461629],[137.969437,-32.461248],[137.969535,-32.460465],[137.969761,-32.459801],[137.970152,-32.459044],[137.970607,-32.45816],[137.97089,-32.457644],[137.971038,-32.4574],[137.971223,-32.457131],[137.971387,-32.456925],[137.971566,-32.45672],[137.971829,-32.456469],[137.972108,-32.456247],[137.972456,-32.456007],[137.972869,-32.455754],[137.973222,-32.455556],[137.973465,-32.455396],[137.973696,-32.45523],[137.97376,-32.455174],[137.973883,-32.455068],[137.974095,-32.454853],[137.974268,-32.454664],[137.97449,-32.454374],[137.974709,-32.454063],[137.975062,-32.4535]]}},{"type":"Feature","properties":{"tier":"high"},"geometry":{"type":"LineString","coordinates":[[137.751735,-32.48063],[137.751322,-32.480828],[137.751178,-32.480904],[137.749876,-32.481607],[137.749228,-32.48193]]}},{"type":"Feature","properties":{"tier":"regional"},"geometry":{"type":"LineString","coordinates":[[137.766473,-32.48902],[137.766466,-32.489105]]}},{"type":"Feature","properties":{"tier":"high"},"geometry":{"type":"LineString","coordinates":[[137.766473,-32.48902],[137.766568,-32.489156]]}},{"type":"Feature","properties":{"tier":"high"},"geometry":{"type":"LineString","coordinates":[[137.752237,-32.480327],[137.752655,-32.480267],[137.752922,-32.480257]]}},{"type":"Feature","properties":{"tier":"high"},"geometry":{"type":"LineString","coordinates":[[137.758287,-32.48284],[137.758121,-32.482675],[137.75803,-32.482594],[137.757686,-32.482328],[137.757316,-32.482154],[137.756399,-32.481822],[137.756222,-32.481739],[137.756004,-32.481631],[137.75501,-32.480955],[137.754738,-32.480794]]}},{"type":"Feature","properties":{"tier":"high"},"geometry":{"type":"LineString","coordinates":[[137.754857,-32.48072],[137.755064,-32.48085],[137.755674,-32.481271],[137.756102,-32.481573],[137.756246,-32.481637],[137.75648,-32.481736],[137.757106,-32.481961],[137.757535,-32.482135],[137.757694,-32.482215],[137.757861,-32.482317],[137.757959,-32.482398],[137.758215,-32.482628],[137.758516,-32.482985]]}},{"type":"Feature","properties":{"tier":"high"},"geometry":{"type":"LineString","coordinates":[[137.746104,-32.473321],[137.747073,-32.474249],[137.748029,-32.475139],[137.748142,-32.475245],[137.748234,-32.475331],[137.749204,-32.476228],[137.750087,-32.477045],[137.751471,-32.478324],[137.752104,-32.47894],[137.752148,-32.478991]]}},{"type":"Feature","properties":{"tier":"high"},"geometry":{"type":"LineString","coordinates":[[137.737779,-32.483111],[137.735484,-32.483185],[137.734017,-32.483195],[137.733942,-32.483196]]}},{"type":"Feature","properties":{"tier":"high"},"geometry":{"type":"LineString","coordinates":[[137.733942,-32.483196],[137.732122,-32.483209],[137.731052,-32.48323],[137.730301,-32.48325],[137.729943,-32.483266],[137.729589,-32.483299],[137.729163,-32.483351]]}},{"type":"Feature","properties":{"tier":"arterial"},"geometry":{"type":"LineString","coordinates":[[137.882683,-32.50002],[137.884152,-32.499586],[137.885101,-32.499299],[137.885924,-32.498989],[137.886789,-32.498537],[137.890146,-32.496427],[137.893204,-32.494531],[137.893841,-32.49413],[137.899687,-32.49046],[137.900439,-32.490006],[137.901462,-32.489552],[137.905126,-32.488241],[137.905847,-32.487976],[137.910247,-32.486363],[137.91095,-32.485994],[137.911567,-32.485587],[137.914096,-32.483547],[137.916406,-32.481767],[137.916867,-32.481428],[137.9174,-32.481129],[137.921133,-32.47919],[137.924357,-32.477525],[137.925012,-32.477216],[137.925598,-32.477052],[137.926332,-32.477024],[137.927008,-32.477123],[137.928882,-32.477424],[137.929616,-32.477469],[137.930322,-32.477382],[137.930906,-32.477069],[137.934917,-32.474374],[137.935289,-32.474083],[137.93551,-32.473763],[137.93563,-32.473387],[137.9359,-32.471939],[137.935927,-32.471809],[137.936093,-32.471367],[137.936478,-32.470934]]}},{"type":"Feature","properties":{"tier":"arterial"},"geometry":{"type":"LineString","coordinates":[[137.975062,-32.4535],[137.97559,-32.452629],[137.975719,-32.452398],[137.975801,-32.452234],[137.97586,-32.452033],[137.975888,-32.451862],[137.975901,-32.451733],[137.975889,-32.451562],[137.975861,-32.451343],[137.975829,-32.451162],[137.975804,-32.451003],[137.975786,-32.450857],[137.975766,-32.450652],[137.975761,-32.450498],[137.975755,-32.450328],[137.975777,-32.450104]]}},{"type":"Feature","properties":{"tier":"arterial"},"geometry":{"type":"LineString","coordinates":[[137.942895,-32.472839],[137.943925,-32.472783],[137.944532,-32.472801],[137.945125,-32.47293],[137.945665,-32.473196],[137.946963,-32.473977],[137.947546,-32.474297],[137.948161,-32.474553],[137.948898,-32.474747],[137.949625,-32.474837],[137.949952,-32.47484],[137.95048,-32.474844],[137.954915,-32.474746],[137.955658,-32.474666],[137.956493,-32.474499],[137.957956,-32.473999],[137.958608,-32.473679],[137.95932,-32.473175]]}},{"type":"Feature","properties":{"tier":"arterial"},"geometry":{"type":"LineString","coordinates":[[137.988514,-32.379002],[137.988682,-32.378447],[137.989068,-32.376226],[137.989353,-32.375494],[137.990702,-32.372991],[137.991044,-32.372383],[137.99148,-32.37178],[137.99203,-32.371231],[137.994609,-32.368966],[137.99555,-32.368139],[137.996319,-32.367358],[138.00002,-32.362821]]}},{"type":"Feature","properties":{"tier":"arterial"},"geometry":{"type":"LineString","coordinates":[[137.962059,-32.470673],[137.962699,-32.470233],[137.963349,-32.469802],[137.964587,-32.469149],[137.965793,-32.468537]]}},{"type":"Feature","properties":{"tier":"arterial"},"geometry":{"type":"LineString","coordinates":[[137.981445,-32.395568],[137.983138,-32.393129],[137.983825,-32.392347],[137.984067,-32.392072],[137.98476,-32.391298]]}},{"type":"Feature","properties":{"tier":"high"},"geometry":{"type":"LineString","coordinates":[[137.739121,-32.466031],[137.742495,-32.469554],[137.743293,-32.470393]]}},{"type":"Feature","properties":{"tier":"arterial"},"geometry":{"type":"LineString","coordinates":[[137.95932,-32.473175],[137.961243,-32.471313],[137.962059,-32.470673]]}},{"type":"Feature","properties":{"tier":"arterial"},"geometry":{"type":"LineString","coordinates":[[137.940001,-32.47207],[137.940292,-32.472315],[137.940426,-32.472428],[137.940725,-32.472601],[137.941068,-32.472734],[137.941319,-32.472805],[137.941565,-32.472845],[137.942016,-32.472894],[137.942895,-32.472839]]}},{"type":"Feature","properties":{"tier":"arterial"},"geometry":{"type":"LineString","coordinates":[[137.93885,-32.470966],[137.9394,-32.471494],[137.940001,-32.47207]]}},{"type":"Feature","properties":{"tier":"arterial"},"geometry":{"type":"LineString","coordinates":[[137.936478,-32.470934],[137.936912,-32.470633],[137.937327,-32.470413],[137.937756,-32.47035],[137.938136,-32.470411],[137.938531,-32.470659],[137.93885,-32.470966]]}},{"type":"Feature","properties":{"tier":"arterial"},"geometry":{"type":"LineString","coordinates":[[137.987525,-32.383513],[137.987369,-32.382298],[137.987327,-32.381599],[137.987433,-32.380941],[137.987738,-32.380179],[137.988514,-32.379002]]}},{"type":"Feature","properties":{"tier":"arterial"},"geometry":{"type":"LineString","coordinates":[[137.98476,-32.391298],[137.985203,-32.390486],[137.985672,-32.389021],[137.985988,-32.388425],[137.986804,-32.387401],[137.987153,-32.386839],[137.987367,-32.386186],[137.987601,-32.384736],[137.987636,-32.384216],[137.987525,-32.383513]]}},{"type":"Feature","properties":{"tier":"arterial"},"geometry":{"type":"LineString","coordinates":[[137.97143,-32.422796],[137.971143,-32.422535],[137.970719,-32.421839],[137.970516,-32.421229],[137.970497,-32.420602],[137.97058,-32.42002]]}},{"type":"Feature","properties":{"tier":"arterial"},"geometry":{"type":"LineString","coordinates":[[137.974245,-32.430562],[137.97379,-32.42726],[137.973763,-32.425751],[137.973633,-32.425144],[137.973388,-32.424656],[137.972911,-32.424156],[137.9728,-32.42404],[137.97143,-32.422796]]}},{"type":"Feature","properties":{"tier":"arterial"},"geometry":{"type":"LineString","coordinates":[[137.976249,-32.432719],[137.974719,-32.431564],[137.974577,-32.43139],[137.974409,-32.431185],[137.974245,-32.430562]]}},{"type":"Feature","properties":{"tier":"arterial"},"geometry":{"type":"LineString","coordinates":[[137.97672,-32.433363],[137.976475,-32.432983],[137.976249,-32.432719]]}},{"type":"Feature","properties":{"tier":"arterial"},"geometry":{"type":"LineString","coordinates":[[137.977577,-32.438626],[137.977571,-32.438409],[137.977596,-32.438181],[137.977673,-32.437883],[137.977708,-32.437662],[137.977717,-32.437443],[137.977697,-32.437254],[137.977647,-32.437074],[137.977548,-32.436872],[137.977438,-32.436728],[137.97725,-32.436576],[137.976944,-32.43634]]}},{"type":"Feature","properties":{"tier":"arterial"},"geometry":{"type":"LineString","coordinates":[[137.97754,-32.440936],[137.977556,-32.440689],[137.977602,-32.440207],[137.977646,-32.439665],[137.977647,-32.439347],[137.97762,-32.438995],[137.977577,-32.438626]]}},{"type":"Feature","properties":{"tier":"arterial"},"geometry":{"type":"LineString","coordinates":[[137.977603,-32.443692],[137.977799,-32.443219],[137.977891,-32.442977],[137.977944,-32.442786],[137.977964,-32.442631],[137.977963,-32.442467],[137.977936,-32.442282],[137.977882,-32.442087],[137.977805,-32.441854],[137.977679,-32.441563],[137.977596,-32.441345],[137.977553,-32.441137],[137.97754,-32.440936]]}},{"type":"Feature","properties":{"tier":"arterial"},"geometry":{"type":"LineString","coordinates":[[137.975994,-32.449127],[137.976085,-32.448839],[137.97623,-32.448452],[137.976313,-32.448228],[137.976405,-32.447972],[137.976455,-32.447798],[137.976498,-32.447612],[137.976539,-32.447409],[137.976587,-32.447123],[137.976654,-32.446639],[137.976713,-32.446209],[137.976753,-32.446023],[137.976789,-32.445877],[137.976828,-32.445743],[137.977121,-32.445014],[137.977341,-32.444367],[137.977442,-32.444081],[137.977603,-32.443692]]}},{"type":"Feature","properties":{"tier":"arterial"},"geometry":{"type":"LineString","coordinates":[[137.975924,-32.449337],[137.975994,-32.449127]]}},{"type":"Feature","properties":{"tier":"arterial"},"geometry":{"type":"LineString","coordinates":[[137.980012,-32.398148],[137.980907,-32.396345],[137.981445,-32.395568]]}},{"type":"Feature","properties":{"tier":"arterial"},"geometry":{"type":"LineString","coordinates":[[137.972191,-32.408874],[137.972223,-32.408254],[137.97223,-32.407563],[137.972356,-32.406987],[137.972712,-32.406407],[137.97307,-32.405958]]}},{"type":"Feature","properties":{"tier":"arterial"},"geometry":{"type":"LineString","coordinates":[[137.97058,-32.42002],[137.970993,-32.417111],[137.970941,-32.41319],[137.970934,-32.412653],[137.970997,-32.412001],[137.971151,-32.411448],[137.971414,-32.410788],[137.972062,-32.409479],[137.972191,-32.408874]]}},{"type":"Feature","properties":{"tier":"regional"},"geometry":{"type":"LineString","coordinates":[[137.786022,-32.467497],[137.784197,-32.470306],[137.783194,-32.472111]]}},{"type":"Feature","properties":{"tier":"regional"},"geometry":{"type":"LineString","coordinates":[[137.788612,-32.483795],[137.786954,-32.48507],[137.786928,-32.48509],[137.784389,-32.486314],[137.783952,-32.486521]]}},{"type":"Feature","properties":{"tier":"regional"},"geometry":{"type":"LineString","coordinates":[[137.760713,-32.492377],[137.761372,-32.491993],[137.761739,-32.491779],[137.762094,-32.491563]]}},{"type":"Feature","properties":{"tier":"regional"},"geometry":{"type":"LineString","coordinates":[[137.791098,-32.459032],[137.793115,-32.456958],[137.793826,-32.456153],[137.793956,-32.455894],[137.794154,-32.45517],[137.794451,-32.453525],[137.794516,-32.452802],[137.794473,-32.452452],[137.794412,-32.45225],[137.793961,-32.450987],[137.793596,-32.449938],[137.793208,-32.449229],[137.792059,-32.447303],[137.79076,-32.445152],[137.790323,-32.444402],[137.790065,-32.443797],[137.789951,-32.44342],[137.789941,-32.443129],[137.789949,-32.442578],[137.790102,-32.441873],[137.790329,-32.44145],[137.790647,-32.440978],[137.792037,-32.439481],[137.794186,-32.437217],[137.796866,-32.434428],[137.798854,-32.432349],[137.799507,-32.431598],[137.799685,-32.431385],[137.800132,-32.430388],[137.800897,-32.428589],[137.800987,-32.428238],[137.801199,-32.427541],[137.801241,-32.427223],[137.801262,-32.42706],[137.801258,-32.426804],[137.801183,-32.426467],[137.800994,-32.426062],[137.800617,-32.425564],[137.79997,-32.424858],[137.799307,-32.424203],[137.78856,-32.415384]]}},{"type":"Feature","properties":{"tier":"regional"},"geometry":{"type":"LineString","coordinates":[[137.78856,-32.415384],[137.776807,-32.405796],[137.776149,-32.405186],[137.774958,-32.403792],[137.774402,-32.403065],[137.774104,-32.402627],[137.773921,-32.40241],[137.773609,-32.402218],[137.773417,-32.402105],[137.772915,-32.401889],[137.772288,-32.401744],[137.771982,-32.401708],[137.771674,-32.401719],[137.768169,-32.402873],[137.767882,-32.402945],[137.767638,-32.402965],[137.767321,-32.402932],[137.767106,-32.402884],[137.766872,-32.402697],[137.766661,-32.402458],[137.766074,-32.401537],[137.765553,-32.400892],[137.765079,-32.400455],[137.764639,-32.400262],[137.764352,-32.400192],[137.764079,-32.400181],[137.763577,-32.400257],[137.762611,-32.400598],[137.761807,-32.400976],[137.761109,-32.401308],[137.760344,-32.401742],[137.759449,-32.40232],[137.756727,-32.404255],[137.756192,-32.404593],[137.755953,-32.404703],[137.755805,-32.404758],[137.75567,-32.404785],[137.755526,-32.404786],[137.755389,-32.404772],[137.755273,-32.40474],[137.755164,-32.404698],[137.755022,-32.404628],[137.754794,-32.404498],[137.754566,-32.404348],[137.754043,-32.403957],[137.752873,-32.403061],[137.75068,-32.401461],[137.750324,-32.401251]]}},{"type":"Feature","properties":{"tier":"high"},"geometry":{"type":"LineString","coordinates":[[137.761108,-32.485292],[137.763858,-32.486658],[137.764541,-32.487014],[137.764834,-32.487199],[137.764939,-32.487274],[137.765098,-32.487401]]}},{"type":"Feature","properties":{"tier":"high"},"geometry":{"type":"LineString","coordinates":[[137.758859,-32.483398],[137.759241,-32.483847],[137.759484,-32.4841],[137.759743,-32.484347],[137.759799,-32.484402],[137.760036,-32.484582],[137.760297,-32.48478],[137.760531,-32.484946],[137.760819,-32.485135],[137.761108,-32.485292]]}},{"type":"Feature","properties":{"tier":"high"},"geometry":{"type":"LineString","coordinates":[[137.766047,-32.489325],[137.766229,-32.489112],[137.766271,-32.488959]]}},{"type":"Feature","properties":{"tier":"high"},"geometry":{"type":"LineString","coordinates":[[137.766047,-32.489325],[137.766278,-32.489171],[137.766378,-32.489106]]}},{"type":"Feature","properties":{"tier":"regional"},"geometry":{"type":"LineString","coordinates":[[137.766419,-32.489163],[137.766316,-32.489224],[137.766047,-32.489325]]}},{"type":"Feature","properties":{"tier":"regional"},"geometry":{"type":"LineString","coordinates":[[137.766554,-32.489351],[137.766467,-32.489313],[137.766378,-32.489289],[137.766227,-32.489295],[137.766047,-32.489325]]}},{"type":"Feature","properties":{"tier":"high"},"geometry":{"type":"LineString","coordinates":[[137.758769,-32.483452],[137.758287,-32.48284]]}},{"type":"Feature","properties":{"tier":"high"},"geometry":{"type":"LineString","coordinates":[[137.758516,-32.482985],[137.758785,-32.483313],[137.758859,-32.483398]]}},{"type":"Feature","properties":{"tier":"regional"},"geometry":{"type":"LineString","coordinates":[[137.758769,-32.483452],[137.758859,-32.483398]]}},{"type":"Feature","properties":{"tier":"regional"},"geometry":{"type":"LineString","coordinates":[[137.768143,-32.491219],[137.768221,-32.491172],[137.769493,-32.49044],[137.771123,-32.489477],[137.772739,-32.48862],[137.774282,-32.487711]]}},{"type":"Feature","properties":{"tier":"high"},"geometry":{"type":"LineString","coordinates":[[137.768143,-32.491219],[137.768581,-32.491772],[137.768838,-32.492164],[137.769144,-32.492678],[137.769674,-32.493732],[137.770003,-32.494213],[137.77036,-32.494624],[137.77066,-32.494887],[137.770997,-32.495141]]}},{"type":"Feature","properties":{"tier":"high"},"geometry":{"type":"LineString","coordinates":[[137.768033,-32.491281],[137.767797,-32.490978],[137.767272,-32.490301]]}},{"type":"Feature","properties":{"tier":"regional"},"geometry":{"type":"LineString","coordinates":[[137.766848,-32.491985],[137.766733,-32.492001]]}},{"type":"Feature","properties":{"tier":"regional"},"geometry":{"type":"LineString","coordinates":[[137.766348,-32.492224],[137.766494,-32.49214]]}},{"type":"Feature","properties":{"tier":"regional"},"geometry":{"type":"LineString","coordinates":[[137.745625,-32.495075],[137.745458,-32.495028],[137.745381,-32.49497],[137.745345,-32.494915],[137.745284,-32.494756],[137.744791,-32.492998]]}},{"type":"Feature","properties":{"tier":"regional"},"geometry":{"type":"LineString","coordinates":[[137.753721,-32.469503],[137.753786,-32.469048],[137.753802,-32.468813],[137.753799,-32.468456]]}},{"type":"Feature","properties":{"tier":"regional"},"geometry":{"type":"LineString","coordinates":[[137.753815,-32.46951],[137.753744,-32.469748],[137.753644,-32.47013]]}},{"type":"Feature","properties":{"tier":"regional"},"geometry":{"type":"LineString","coordinates":[[137.753529,-32.470092],[137.753721,-32.469503]]}},{"type":"Feature","properties":{"tier":"regional"},"geometry":{"type":"LineString","coordinates":[[137.753644,-32.47013],[137.753565,-32.470457],[137.753444,-32.470914],[137.753343,-32.471231],[137.753212,-32.471466]]}},{"type":"Feature","properties":{"tier":"regional"},"geometry":{"type":"LineString","coordinates":[[137.753212,-32.471466],[137.753086,-32.471403]]}},{"type":"Feature","properties":{"tier":"regional"},"geometry":{"type":"LineString","coordinates":[[137.753212,-32.471466],[137.752937,-32.471841],[137.752653,-32.472108],[137.75192,-32.472655]]}},{"type":"Feature","properties":{"tier":"regional"},"geometry":{"type":"LineString","coordinates":[[137.753086,-32.471403],[137.753245,-32.471125],[137.753529,-32.470092]]}},{"type":"Feature","properties":{"tier":"regional"},"geometry":{"type":"LineString","coordinates":[[137.751836,-32.472581],[137.752566,-32.472034],[137.752861,-32.471754],[137.753086,-32.471403]]}},{"type":"Feature","properties":{"tier":"regional"},"geometry":{"type":"LineString","coordinates":[[137.75192,-32.472655],[137.751182,-32.473193]]}},{"type":"Feature","properties":{"tier":"regional"},"geometry":{"type":"LineString","coordinates":[[137.751182,-32.473193],[137.750729,-32.473517],[137.750512,-32.473683]]}},{"type":"Feature","properties":{"tier":"regional"},"geometry":{"type":"LineString","coordinates":[[137.751099,-32.473115],[137.751836,-32.472581]]}},{"type":"Feature","properties":{"tier":"regional"},"geometry":{"type":"LineString","coordinates":[[137.750512,-32.473683],[137.74962,-32.474327]]}},{"type":"Feature","properties":{"tier":"regional"},"geometry":{"type":"LineString","coordinates":[[137.750428,-32.47361],[137.750879,-32.473268],[137.751099,-32.473115]]}},{"type":"Feature","properties":{"tier":"regional"},"geometry":{"type":"LineString","coordinates":[[137.74962,-32.474327],[137.748856,-32.474896],[137.748792,-32.474944],[137.748234,-32.475331]]}},{"type":"Feature","properties":{"tier":"regional"},"geometry":{"type":"LineString","coordinates":[[137.766466,-32.489105],[137.766419,-32.489163]]}},{"type":"Feature","properties":{"tier":"high"},"geometry":{"type":"LineString","coordinates":[[137.766466,-32.489105],[137.766568,-32.489156]]}},{"type":"Feature","properties":{"tier":"high"},"geometry":{"type":"LineString","coordinates":[[137.766568,-32.489156],[137.766806,-32.489494]]}},{"type":"Feature","properties":{"tier":"high"},"geometry":{"type":"LineString","coordinates":[[137.766378,-32.489106],[137.766466,-32.489105]]}},{"type":"Feature","properties":{"tier":"high"},"geometry":{"type":"LineString","coordinates":[[137.766378,-32.489106],[137.766357,-32.489078],[137.766271,-32.488959]]}},{"type":"Feature","properties":{"tier":"high"},"geometry":{"type":"LineString","coordinates":[[137.766419,-32.489163],[137.766378,-32.489106]]}},{"type":"Feature","properties":{"tier":"high"},"geometry":{"type":"LineString","coordinates":[[137.766554,-32.489351],[137.766448,-32.489204],[137.766419,-32.489163]]}},{"type":"Feature","properties":{"tier":"high"},"geometry":{"type":"LineString","coordinates":[[137.766271,-32.488959],[137.765722,-32.488197]]}},{"type":"Feature","properties":{"tier":"regional"},"geometry":{"type":"LineString","coordinates":[[137.768775,-32.496749],[137.769832,-32.496147],[137.769897,-32.49611],[137.771111,-32.495419],[137.771203,-32.495371]]}},{"type":"Feature","properties":{"tier":"regional"},"geometry":{"type":"LineString","coordinates":[[137.786022,-32.467497],[137.786541,-32.466618],[137.78769,-32.464486],[137.789164,-32.461621],[137.789575,-32.460835],[137.789987,-32.460233],[137.791098,-32.459032]]}},{"type":"Feature","properties":{"tier":"regional"},"geometry":{"type":"LineString","coordinates":[[137.720572,-32.451705],[137.720673,-32.452475],[137.720672,-32.452631],[137.720638,-32.452779],[137.720558,-32.452901]]}},{"type":"Feature","properties":{"tier":"regional"},"geometry":{"type":"LineString","coordinates":[[137.76815,-32.494317],[137.768283,-32.494656],[137.768296,-32.494689],[137.768625,-32.495492],[137.76864,-32.496322],[137.768775,-32.496749]]}}]}
