{"type":"FeatureCollection","features":[{"type":"Feature","properties":{"tier":"regional"},"geometry":{"type":"LineString","coordinates":[[138.00002,-26.56237],[137.999978,-26.56231],[137.999761,-26.562042],[137.999635,-26.561814],[137.999514,-26.561538],[137.999407,-26.561226],[137.999249,-26.560554],[137.999171,-26.559976],[137.999093,-26.559614],[137.998978,-26.559124],[137.998863,-26.558851],[137.998704,-26.558465],[137.998342,-26.557716],[137.997897,-26.55684],[137.997637,-26.556327],[137.997532,-26.556099],[137.997411,-26.555775],[137.99731,-26.555235],[137.997242,-26.554705],[137.997237,-26.553992],[137.997194,-26.553565],[137.99709,-26.553095],[137.99693,-26.55262],[137.996819,-26.552205],[137.99677,-26.551809],[137.996765,-26.551269],[137.99682,-26.55056],[137.996846,-26.550154],[137.996867,-26.54977],[137.996803,-26.549487],[137.996685,-26.549148],[137.99648,-26.54863],[137.996301,-26.548028],[137.996135,-26.547284],[137.996006,-26.546775],[137.995907,-26.545878],[137.995891,-26.545703],[137.99585,-26.545544],[137.995765,-26.5454],[137.995652,-26.545271],[137.995472,-26.545184],[137.99529,-26.545134],[137.995137,-26.545132],[137.994888,-26.545175],[137.99374,-26.545487],[137.989579,-26.546542],[137.987418,-26.547065],[137.986954,-26.547195],[137.985422,-26.547596],[137.980141,-26.548942],[137.97672,-26.54981],[137.972716,-26.550773],[137.971764,-26.551032],[137.97145,-26.551173],[137.971171,-26.551353],[137.970962,-26.551574],[137.970828,-26.55184],[137.970772,-26.552003],[137.970769,-26.552131],[137.970823,-26.552337],[137.971257,-26.554559],[137.971357,-26.555012],[137.971456,-26.555312],[137.971697,-26.555787],[137.971976,-26.556404],[137.97218,-26.556932],[137.97245,-26.55762],[137.972767,-26.558369],[137.973186,-26.559443],[137.973403,-26.560206],[137.97352,-26.56082],[137.973628,-26.561346],[137.973698,-26.561562],[137.973789,-26.561727],[137.973945,-26.561955],[137.974176,-26.56219],[137.97448,-26.5625],[137.975385,-26.563402],[137.976359,-26.56441],[137.976549,-26.564652],[137.976611,-26.564798],[137.976697,-26.565064],[137.97749,-26.56743],[137.9786,-26.57106],[137.978682,-26.571316],[137.978706,-26.571751],[137.97869,-26.572185],[137.978636,-26.572667],[137.978609,-26.572878],[137.97859,-26.573317],[137.97856,-26.57363],[137.978472,-26.573965],[137.978301,-26.574514],[137.978287,-26.574694],[137.978352,-26.574893],[137.978561,-26.575334],[137.97938,-26.57694],[137.980063,-26.578405],[137.980551,-26.5797],[137.981072,-26.581859],[137.981275,-26.582857],[137.981367,-26.583428],[137.981484,-26.58445],[137.981629,-26.585416],[137.982075,-26.587868],[137.98223,-26.589165],[137.982348,-26.589966],[137.982399,-26.590403],[137.982426,-26.590974],[137.98245,-26.591501],[137.982501,-26.591914],[137.982549,-26.592178],[137.982684,-26.592535],[137.982893,-26.593],[137.98304,-26.593319],[137.983169,-26.593614],[137.983188,-26.593837],[137.983169,-26.594156],[137.983182,-26.594336],[137.983303,-26.594708],[137.983512,-26.595226],[137.983697,-26.595855],[137.98374,-26.596099],[137.983751,-26.596531],[137.983791,-26.597027],[137.98386,-26.59762],[137.983979,-26.598267],[137.984041,-26.598898],[137.983992,-26.599289],[137.983888,-26.599773],[137.983864,-26.600363],[137.983907,-26.600925],[137.983904,-26.60179],[137.984065,-26.602495],[137.984196,-26.603177],[137.984379,-26.604208],[137.984534,-26.605006],[137.984607,-26.605249],[137.984778,-26.60545],[137.984969,-26.605615],[137.985167,-26.605863],[137.98536,-26.606201],[137.985545,-26.606575],[137.985926,-26.607961],[137.98695,-26.61157],[137.987235,-26.612678],[137.987758,-26.613925],[137.987959,-26.6145],[137.98809,-26.61498],[137.98845,-26.61627],[137.988692,-26.617337],[137.98886,-26.61811],[137.988885,-26.618572],[137.9889,-26.62054],[137.988973,-26.621008],[137.989172,-26.621761],[137.98929,-26.622159],[137.98947,-26.622613],[137.989746,-26.623083],[137.990143,-26.62361],[137.99111,-26.62524],[137.991889,-26.626531],[137.992187,-26.626986],[137.992321,-26.627269],[137.992431,-26.627624],[137.992492,-26.627938],[137.992562,-26.628276],[137.992637,-26.628947],[137.99261,-26.629175],[137.992519,-26.629348],[137.992342,-26.629513],[137.992052,-26.629648],[137.991546,-26.62971],[137.988635,-26.629866],[137.985071,-26.630122],[137.980452,-26.630393],[137.979296,-26.630468],[137.965659,-26.631228],[137.95987,-26.63159],[137.955993,-26.631813],[137.943231,-26.632666],[137.92902,-26.63358],[137.917428,-26.634314],[137.913515,-26.634541],[137.912675,-26.634589],[137.912418,-26.634556],[137.912139,-26.634467],[137.911809,-26.634328],[137.911286,-26.634071],[137.910605,-26.633613],[137.91033,-26.63337],[137.910084,-26.63311],[137.909955,-26.632832],[137.909832,-26.632489],[137.909644,-26.631837],[137.909381,-26.630696],[137.90595,-26.6153],[137.90342,-26.60455],[137.901941,-26.598413],[137.901386,-26.596478],[137.900611,-26.5936],[137.900409,-26.592933],[137.900203,-26.5926],[137.899943,-26.592341],[137.899648,-26.592187],[137.899471,-26.592131],[137.899278,-26.592079],[137.899074,-26.592059],[137.898834,-26.592049],[137.898286,-26.592094],[137.896834,-26.592178],[137.891722,-26.592566],[137.888541,-26.592823],[137.887288,-26.592926],[137.882404,-26.59331],[137.878981,-26.593595],[137.86121,-26.595],[137.85496,-26.59556],[137.85003,-26.5959],[137.8455,-26.59629],[137.8201,-26.59829],[137.81752,-26.59846],[137.815469,-26.598629],[137.814522,-26.598692],[137.812728,-26.598879],[137.811741,-26.598932],[137.810832,-26.598992],[137.810059,-26.599011],[137.809155,-26.598927],[137.807353,-26.5988],[137.805958,-26.598651],[137.8046,-26.59854],[137.79458,-26.59769],[137.79246,-26.59745],[137.78905,-26.59719],[137.78407,-26.59672],[137.76855,-26.59539],[137.763871,-26.59497],[137.76322,-26.594929],[137.762649,-26.594893],[137.762139,-26.594835],[137.761798,-26.594823],[137.761431,-26.594845],[137.760994,-26.594912],[137.760519,-26.594998],[137.758582,-26.595356],[137.757493,-26.595538],[137.75668,-26.595667],[137.756329,-26.595703],[137.755865,-26.595739],[137.75561,-26.59573],[137.755377,-26.595691],[137.754975,-26.595591],[137.754554,-26.595456],[137.754229,-26.595312],[137.753861,-26.595104],[137.75356,-26.59492],[137.753212,-26.594677],[137.752445,-26.594231],[137.751877,-26.593847],[137.751362,-26.593437],[137.75098,-26.59309],[137.749776,-26.592077],[137.749294,-26.591616],[137.749119,-26.591389],[137.7489,-26.59103],[137.748623,-26.590386],[137.74817,-26.58919],[137.74738,-26.58702],[137.74617,-26.58447],[137.746075,-26.584274],[137.745925,-26.584023],[137.74563,-26.583692],[137.745394,-26.583478],[137.745185,-26.583361],[137.744973,-26.583265],[137.744804,-26.583212],[137.744495,-26.583161],[137.744195,-26.58313],[137.74365,-26.583075],[137.72948,-26.58196],[137.727068,-26.581787],[137.72627,-26.581704],[137.725779,-26.581643],[137.725504,-26.581593],[137.725289,-26.581508],[137.725111,-26.581395],[137.72491,-26.58123],[137.724693,-26.581024],[137.724483,-26.580854],[137.724014,-26.580496],[137.7237,-26.58018],[137.723292,-26.579729],[137.722788,-26.57916],[137.72231,-26.5787],[137.721729,-26.578153],[137.721353,-26.577733],[137.720978,-26.57721],[137.72068,-26.5767],[137.719926,-26.575231],[137.71967,-26.57466],[137.7189,-26.57267],[137.718649,-26.571791],[137.718223,-26.570906],[137.717936,-26.570287],[137.717807,-26.569913],[137.717598,-26.569157],[137.717099,-26.567255],[137.716807,-26.566067],[137.716748,-26.565664],[137.716764,-26.565225],[137.716796,-26.564762],[137.716866,-26.564018],[137.716863,-26.563678],[137.716844,-26.563356],[137.71675,-26.562785],[137.71635,-26.56059],[137.71604,-26.558825],[137.715793,-26.557212],[137.71573,-26.55662],[137.71564,-26.556075],[137.715538,-26.555885],[137.715396,-26.555619],[137.715216,-26.555326],[137.715093,-26.554993],[137.715152,-26.55459],[137.715133,-26.554192],[137.715055,-26.553777],[137.715037,-26.553637],[137.715104,-26.553323],[137.715173,-26.5531],[137.715203,-26.552826],[137.715181,-26.552658],[137.715074,-26.552459],[137.714876,-26.5522],[137.714626,-26.551975],[137.714302,-26.551567],[137.714052,-26.551168],[137.713366,-26.54989],[137.713076,-26.549184],[137.712545,-26.547457],[137.71206,-26.54621],[137.71181,-26.545691],[137.71163,-26.545141],[137.711593,-26.544966],[137.711585,-26.544788],[137.71158,-26.5443],[137.71163,-26.54162],[137.711585,-26.539243],[137.7115,-26.53778],[137.711365,-26.536112],[137.711247,-26.535257],[137.711096,-26.534413],[137.71092,-26.5337],[137.70944,-26.5272],[137.70693,-26.51707],[137.706783,-26.516572],[137.706671,-26.516272],[137.706545,-26.516034],[137.706282,-26.515586],[137.705912,-26.514928],[137.705582,-26.514326],[137.705217,-26.51369],[137.704978,-26.51319],[137.70482,-26.512833],[137.70474,-26.51256],[137.70427,-26.51072],[137.704013,-26.510061],[137.703795,-26.509487],[137.703374,-26.508616],[137.703221,-26.508181],[137.703066,-26.507876],[137.702854,-26.507528],[137.702685,-26.507188],[137.702377,-26.506448],[137.702079,-26.505776],[137.702039,-26.505536],[137.701993,-26.505409],[137.701894,-26.505274],[137.701784,-26.505181],[137.701631,-26.505027],[137.70147,-26.504754],[137.701191,-26.504297],[137.70096,-26.503832],[137.700563,-26.502963],[137.70041,-26.5025],[137.700306,-26.502168],[137.700263,-26.501715],[137.700274,-26.501189],[137.700319,-26.50062],[137.700389,-26.500003],[137.700394,-26.49998]]}}]}
