{"type":"FeatureCollection","features":[{"type":"Feature","properties":{"tier":"arterial"},"geometry":{"type":"LineString","coordinates":[[137.596298,-34.72982],[137.596299,-34.729984],[137.596311,-34.731721],[137.596308,-34.733618],[137.596315,-34.735691],[137.596295,-34.738105],[137.596297,-34.739903],[137.596291,-34.741409],[137.596291,-34.741526],[137.5963,-34.742575],[137.596298,-34.742844],[137.596297,-34.743156],[137.596282,-34.743642],[137.596219,-34.744164],[137.596107,-34.744697],[137.595731,-34.746391],[137.595652,-34.746757],[137.595609,-34.746954],[137.595551,-34.747223],[137.59543,-34.747914],[137.595456,-34.748274],[137.595516,-34.748605],[137.595553,-34.748704],[137.595702,-34.749094],[137.595765,-34.749261],[137.596168,-34.750256],[137.596313,-34.750569]]}},{"type":"Feature","properties":{"tier":"arterial"},"geometry":{"type":"LineString","coordinates":[[137.597471,-34.767368],[137.597385,-34.76773],[137.597202,-34.768113]]}},{"type":"Feature","properties":{"tier":"arterial"},"geometry":{"type":"LineString","coordinates":[[137.596298,-34.72982],[137.596301,-34.729002],[137.596303,-34.728578],[137.596302,-34.726602],[137.596302,-34.726546],[137.596309,-34.725777],[137.596336,-34.723032],[137.596511,-34.71758],[137.59654,-34.716081],[137.596565,-34.714614],[137.596566,-34.712351],[137.596571,-34.709473],[137.596558,-34.708194],[137.596569,-34.707934],[137.596604,-34.707665],[137.596636,-34.707447],[137.596684,-34.707233],[137.596754,-34.706907],[137.596832,-34.706528],[137.597105,-34.705332],[137.597272,-34.704605],[137.597414,-34.703992],[137.597674,-34.702872],[137.598012,-34.701257],[137.598063,-34.700951],[137.598084,-34.700755],[137.598095,-34.700556],[137.598106,-34.700358],[137.598103,-34.700139],[137.598114,-34.698863],[137.598114,-34.697868],[137.598122,-34.695273],[137.598127,-34.692964],[137.598127,-34.690818],[137.598124,-34.689958],[137.598114,-34.689135],[137.598119,-34.687441],[137.598111,-34.686502],[137.598087,-34.685478],[137.598039,-34.684887],[137.598004,-34.684481],[137.597969,-34.684045],[137.597939,-34.683628],[137.597913,-34.682721],[137.59791,-34.68039],[137.597921,-34.67775],[137.597921,-34.677147],[137.597921,-34.675628],[137.597915,-34.673905],[137.597918,-34.672456],[137.597918,-34.670986],[137.597923,-34.669941],[137.597918,-34.663473],[137.597918,-34.661553],[137.597918,-34.659954],[137.597921,-34.656397],[137.597921,-34.654487],[137.597926,-34.65215],[137.597923,-34.64999],[137.597921,-34.648971],[137.597923,-34.647088],[137.597931,-34.645484],[137.597934,-34.644449],[137.597929,-34.642936],[137.597923,-34.641221],[137.597923,-34.640252],[137.597923,-34.639085],[137.597939,-34.637183],[137.597985,-34.635605],[137.59806,-34.633376],[137.59809,-34.632413],[137.598114,-34.630844],[137.598132,-34.629238],[137.598108,-34.628381],[137.598087,-34.627849],[137.598049,-34.627267],[137.598031,-34.625991],[137.598023,-34.62406],[137.598028,-34.621954],[137.598025,-34.619502],[137.598025,-34.617281],[137.598028,-34.616317],[137.59802,-34.614701],[137.598025,-34.612897],[137.598023,-34.611484],[137.59802,-34.609787],[137.598017,-34.607396],[137.59802,-34.605217],[137.598023,-34.602179],[137.598023,-34.600097],[137.598036,-34.598318],[137.598036,-34.597443],[137.598049,-34.597117],[137.598055,-34.596832],[137.598065,-34.596454],[137.598135,-34.595465],[137.598159,-34.594878],[137.598178,-34.593911],[137.598186,-34.59291],[137.598199,-34.591071],[137.598202,-34.589422],[137.598199,-34.586244],[137.598175,-34.581322],[137.598167,-34.578453],[137.598175,-34.576771],[137.598178,-34.576104],[137.598175,-34.575483],[137.598181,-34.573745],[137.598192,-34.570434],[137.598202,-34.567305],[137.598218,-34.564932],[137.598225,-34.562886],[137.59824,-34.558993],[137.598234,-34.557215],[137.598234,-34.555865],[137.598229,-34.553888],[137.598232,-34.551522],[137.598229,-34.549565],[137.598226,-34.54745],[137.598237,-34.54631],[137.598234,-34.544874],[137.598251,-34.542446],[137.598299,-34.540418],[137.598352,-34.538721],[137.598371,-34.537992],[137.598393,-34.537539],[137.59843,-34.537],[137.598672,-34.534106],[137.598744,-34.533282],[137.599002,-34.530464],[137.599256,-34.528372],[137.599356,-34.527738],[137.599428,-34.527353],[137.599498,-34.527053],[137.599549,-34.526836],[137.599608,-34.526608],[137.599683,-34.526381],[137.6002,-34.524993],[137.600756,-34.523559],[137.600839,-34.523342],[137.601265,-34.522158],[137.601802,-34.520721],[137.602443,-34.519002],[137.602915,-34.517731],[137.60395,-34.514989],[137.60431,-34.514036],[137.6045,-34.513572],[137.604632,-34.513291],[137.604741,-34.513081],[137.604889,-34.512816],[137.605138,-34.512405],[137.605421,-34.511971],[137.605758,-34.511441],[137.606206,-34.510763],[137.607209,-34.509207],[137.608931,-34.506528],[137.609068,-34.506327],[137.609234,-34.506104],[137.609417,-34.505911],[137.609588,-34.505734],[137.61009,-34.505259],[137.610336,-34.505038],[137.610648,-34.504797],[137.610838,-34.504658],[137.611106,-34.504472],[137.614553,-34.502271],[137.616404,-34.501157],[137.61841,-34.49998]]}},{"type":"Feature","properties":{"tier":"arterial"},"geometry":{"type":"LineString","coordinates":[[137.49998,-34.510773],[137.501462,-34.512192],[137.502434,-34.513142],[137.504585,-34.515216],[137.509373,-34.519814],[137.515392,-34.525616],[137.517647,-34.527743],[137.521237,-34.531179],[137.522881,-34.532765],[137.525165,-34.534916],[137.525972,-34.535774],[137.526087,-34.535936],[137.526572,-34.536617],[137.5344,-34.548782],[137.534872,-34.549647],[137.535079,-34.550167],[137.535282,-34.551088],[137.536156,-34.556145],[137.536456,-34.556912],[137.53664,-34.557223],[137.536997,-34.557873],[137.537813,-34.559195],[137.538329,-34.560206],[137.538748,-34.561276],[137.539906,-34.564353],[137.540278,-34.56507],[137.540793,-34.565671],[137.542017,-34.566742],[137.54282,-34.567346],[137.544754,-34.568874],[137.545592,-34.569597],[137.546423,-34.570564],[137.547434,-34.571865],[137.550302,-34.575685],[137.555581,-34.582681],[137.557154,-34.58576],[137.557362,-34.58622],[137.557555,-34.586625],[137.55765,-34.586796],[137.557875,-34.587226],[137.558211,-34.587674],[137.56958,-34.600941],[137.583465,-34.617175],[137.583647,-34.617369],[137.587405,-34.620323],[137.596865,-34.627605],[137.598108,-34.628381]]}},{"type":"Feature","properties":{"tier":"arterial"},"geometry":{"type":"LineString","coordinates":[[137.838196,-34.766568],[137.839427,-34.760773],[137.839683,-34.759565],[137.8411,-34.752522],[137.841427,-34.75164],[137.84188,-34.750467],[137.842,-34.750076],[137.842229,-34.748672],[137.842444,-34.747496],[137.842775,-34.745715],[137.843107,-34.743844],[137.843142,-34.743637],[137.843472,-34.741937],[137.846776,-34.723457],[137.847111,-34.721564],[137.850252,-34.703772],[137.850709,-34.701195],[137.852757,-34.690004],[137.853533,-34.685709],[137.855215,-34.676399],[137.855482,-34.675138],[137.855954,-34.674057],[137.859462,-34.669164],[137.859934,-34.668501],[137.860733,-34.667307],[137.861265,-34.66623],[137.861474,-34.665242],[137.861506,-34.662334],[137.861447,-34.659153],[137.861447,-34.656214],[137.861415,-34.648714],[137.8614,-34.645165],[137.861329,-34.635168],[137.861317,-34.629821],[137.861323,-34.627967],[137.861328,-34.627725],[137.861343,-34.627486],[137.861366,-34.627259],[137.861419,-34.627004],[137.863727,-34.618755],[137.865284,-34.613053],[137.865295,-34.613015],[137.865765,-34.611502],[137.868549,-34.60132],[137.870872,-34.59285],[137.871855,-34.589346],[137.872169,-34.588256]]}},{"type":"Feature","properties":{"tier":"arterial"},"geometry":{"type":"LineString","coordinates":[[137.694334,-34.69623],[137.695477,-34.694929],[137.696083,-34.694347],[137.696904,-34.693632],[137.697381,-34.693235],[137.7085,-34.684092],[137.718042,-34.676217],[137.74212,-34.656343]]}},{"type":"Feature","properties":{"tier":"arterial"},"geometry":{"type":"LineString","coordinates":[[137.793099,-34.894262],[137.793183,-34.893795],[137.794003,-34.889253],[137.795222,-34.882377],[137.79567,-34.879933],[137.795789,-34.879037],[137.795952,-34.878191],[137.796013,-34.877837],[137.796212,-34.876694],[137.796841,-34.873429],[137.796921,-34.873015],[137.797496,-34.869878],[137.797605,-34.869249],[137.797744,-34.868488],[137.797897,-34.867616],[137.798021,-34.867179],[137.798147,-34.866833],[137.798418,-34.866287],[137.798957,-34.865464],[137.799711,-34.864434],[137.800627,-34.863169],[137.807274,-34.853991],[137.810334,-34.849742],[137.812859,-34.846234],[137.813165,-34.845808],[137.815306,-34.842832],[137.816206,-34.841596],[137.816498,-34.841193],[137.816732,-34.84094],[137.818749,-34.839159],[137.820178,-34.837895],[137.821182,-34.837012],[137.821447,-34.836759],[137.821962,-34.836105],[137.822214,-34.83565],[137.822437,-34.835185],[137.822554,-34.834791],[137.822697,-34.83419],[137.822778,-34.833402],[137.822822,-34.83299],[137.822987,-34.831048],[137.823231,-34.827997],[137.823239,-34.827451],[137.823185,-34.826977],[137.823091,-34.826499],[137.823029,-34.826181],[137.822869,-34.825366],[137.822525,-34.823463],[137.822466,-34.82304],[137.822445,-34.822602],[137.822456,-34.822191],[137.822557,-34.821594],[137.822917,-34.820537],[137.823949,-34.817435],[137.827831,-34.805487],[137.827915,-34.805227],[137.82808,-34.804719],[137.831379,-34.794653],[137.83201,-34.792733],[137.834528,-34.784983],[137.834571,-34.784862],[137.834682,-34.784452],[137.835682,-34.779513],[137.836583,-34.774999],[137.838196,-34.766568]]}},{"type":"Feature","properties":{"tier":"arterial"},"geometry":{"type":"LineString","coordinates":[[137.792329,-34.895879],[137.792071,-34.896245],[137.790381,-34.898351],[137.788945,-34.900081],[137.785667,-34.904076],[137.784157,-34.905903],[137.783367,-34.90686],[137.782384,-34.908049],[137.779498,-34.911497],[137.778044,-34.913264],[137.776639,-34.91497],[137.774443,-34.91766],[137.76952,-34.923691],[137.768844,-34.924394],[137.768363,-34.924822],[137.765517,-34.926676],[137.754483,-34.93376],[137.745349,-34.93974]]}},{"type":"Feature","properties":{"tier":"arterial"},"geometry":{"type":"LineString","coordinates":[[137.743381,-34.941027],[137.743414,-34.941124],[137.743387,-34.941359],[137.743059,-34.942646],[137.740999,-34.950857],[137.740745,-34.951947],[137.740426,-34.95322],[137.739999,-34.954816],[137.739742,-34.955922],[137.739492,-34.956762],[137.739382,-34.957199],[137.73681,-34.96735],[137.73494,-34.974807],[137.733326,-34.981221],[137.731913,-34.986744],[137.731771,-34.987295],[137.731022,-34.990198],[137.730416,-34.992578],[137.729848,-34.994661],[137.729421,-34.996234],[137.729235,-34.996937],[137.729182,-34.997273],[137.729155,-34.997706],[137.729188,-35.00002]]}},{"type":"Feature","properties":{"tier":"regional"},"geometry":{"type":"LineString","coordinates":[[137.743059,-34.942646],[137.743509,-34.942884],[137.743781,-34.943067],[137.743982,-34.943278],[137.744114,-34.943433],[137.744214,-34.943587],[137.744351,-34.943954],[137.744522,-34.944589],[137.744712,-34.945228],[137.745651,-34.948869],[137.747841,-34.95716],[137.751632,-34.971511],[137.751685,-34.971709],[137.752539,-34.974878],[137.75357,-34.978822],[137.753653,-34.979162],[137.754107,-34.980862],[137.754541,-34.982646],[137.754714,-34.983195],[137.754941,-34.983638],[137.755181,-34.983946],[137.75543,-34.984228],[137.755806,-34.984522]]}},{"type":"Feature","properties":{"tier":"regional"},"geometry":{"type":"LineString","coordinates":[[137.759438,-34.988091],[137.759441,-34.988414],[137.759423,-34.988608],[137.759375,-34.988831],[137.759272,-34.989127],[137.759176,-34.989361],[137.758994,-34.989728],[137.758229,-34.991359],[137.757921,-34.992015],[137.757499,-34.99297],[137.756927,-34.994188],[137.756839,-34.994395],[137.756766,-34.994595],[137.756666,-34.994973],[137.756639,-34.995073],[137.756573,-34.995372],[137.75655,-34.995525],[137.756537,-34.995612],[137.756513,-34.995892],[137.756511,-34.996037]]}},{"type":"Feature","properties":{"tier":"arterial"},"geometry":{"type":"LineString","coordinates":[[137.559131,-34.909246],[137.559085,-34.908877],[137.558728,-34.904367],[137.558445,-34.901221],[137.558128,-34.896589],[137.558165,-34.896023],[137.558188,-34.895568],[137.558703,-34.892773],[137.560599,-34.8836],[137.562179,-34.87596],[137.562376,-34.875411],[137.562633,-34.874792],[137.562805,-34.874326],[137.563509,-34.872876],[137.56847,-34.86239],[137.569397,-34.860444],[137.56963,-34.859955],[137.571432,-34.856173],[137.572488,-34.853885],[137.572921,-34.852926],[137.575187,-34.848161],[137.575809,-34.846805],[137.576474,-34.844481],[137.57759,-34.840765],[137.578706,-34.836732],[137.579701,-34.833254],[137.579727,-34.833168],[137.580677,-34.829868],[137.581337,-34.827598],[137.581354,-34.827539],[137.581772,-34.8261],[137.582071,-34.824893],[137.582203,-34.82436],[137.58229,-34.824017],[137.582433,-34.823449],[137.582779,-34.822081],[137.582895,-34.821567],[137.583335,-34.819751],[137.583715,-34.818411],[137.585533,-34.81233],[137.58605,-34.810589],[137.586133,-34.810309],[137.586666,-34.80851],[137.588236,-34.803253],[137.588307,-34.803013],[137.589006,-34.800637],[137.590958,-34.79383],[137.591245,-34.792892]]}},{"type":"Feature","properties":{"tier":"arterial"},"geometry":{"type":"LineString","coordinates":[[137.709458,-34.697425],[137.708523,-34.697421],[137.706164,-34.69756],[137.705343,-34.697633]]}},{"type":"Feature","properties":{"tier":"arterial"},"geometry":{"type":"LineString","coordinates":[[137.597608,-34.767065],[137.597943,-34.767108],[137.598281,-34.767165],[137.598554,-34.767143],[137.598801,-34.767073],[137.600378,-34.766403],[137.600784,-34.766205],[137.601449,-34.765896],[137.602002,-34.765605],[137.602564,-34.765281],[137.602835,-34.765118],[137.603209,-34.764893]]}},{"type":"Feature","properties":{"tier":"regional"},"geometry":{"type":"LineString","coordinates":[[137.585712,-34.761456],[137.590153,-34.76351],[137.591841,-34.76429],[137.592533,-34.76462],[137.593373,-34.765021],[137.594448,-34.76551],[137.594671,-34.76559],[137.594853,-34.765623],[137.595165,-34.765638],[137.596447,-34.765632],[137.597797,-34.765629]]}},{"type":"Feature","properties":{"tier":"regional"},"geometry":{"type":"LineString","coordinates":[[137.564537,-34.752931],[137.567249,-34.753499],[137.567749,-34.753603],[137.569082,-34.753863],[137.570453,-34.754144],[137.570932,-34.754258],[137.571361,-34.754389],[137.571914,-34.754578],[137.572509,-34.754837],[137.573083,-34.755149],[137.57599,-34.756804],[137.577226,-34.757459],[137.578522,-34.758064],[137.581958,-34.759668],[137.582714,-34.760021],[137.58317,-34.760234],[137.585712,-34.761456]]}},{"type":"Feature","properties":{"tier":"arterial"},"geometry":{"type":"LineString","coordinates":[[137.742366,-34.941681],[137.73553,-34.946115],[137.735114,-34.946427],[137.734778,-34.946706],[137.734449,-34.947049],[137.724079,-34.958442],[137.721811,-34.960934],[137.720484,-34.96239],[137.720268,-34.962622],[137.720113,-34.962783],[137.719993,-34.962898],[137.719928,-34.962958],[137.71984,-34.963035],[137.719006,-34.96369],[137.718168,-34.964337],[137.704188,-34.975148],[137.690179,-34.985956],[137.688524,-34.987252],[137.688308,-34.987402],[137.677023,-34.996126],[137.676483,-34.99655],[137.676198,-34.996821],[137.675867,-34.9972],[137.675761,-34.997353],[137.675594,-34.997594],[137.675451,-34.997874],[137.674467,-35.00002]]}},{"type":"Feature","properties":{"tier":"regional"},"geometry":{"type":"LineString","coordinates":[[137.87664,-34.663275],[137.874459,-34.662739],[137.87345,-34.662446],[137.866197,-34.66047],[137.864368,-34.659942],[137.863751,-34.659764],[137.861447,-34.659153]]}},{"type":"Feature","properties":{"tier":"regional"},"geometry":{"type":"LineString","coordinates":[[137.84188,-34.750467],[137.83671,-34.7505],[137.79568,-34.750532],[137.764188,-34.750521],[137.744331,-34.750515]]}},{"type":"Feature","properties":{"tier":"arterial"},"geometry":{"type":"LineString","coordinates":[[137.838196,-34.766568],[137.849644,-34.76652],[137.851988,-34.766533],[137.852497,-34.766621],[137.853053,-34.766811],[137.853506,-34.767004]]}},{"type":"Feature","properties":{"tier":"arterial"},"geometry":{"type":"LineString","coordinates":[[137.861278,-34.777268],[137.861211,-34.77734],[137.860566,-34.778025],[137.860238,-34.77837],[137.859608,-34.779034],[137.85906,-34.779614],[137.857604,-34.781093],[137.857532,-34.781161],[137.856751,-34.781988],[137.856283,-34.782484],[137.856173,-34.782579],[137.855642,-34.783157],[137.854986,-34.78384],[137.854351,-34.784506],[137.854061,-34.784728],[137.853617,-34.784992],[137.853333,-34.78512],[137.853074,-34.785219]]}},{"type":"Feature","properties":{"tier":"regional"},"geometry":{"type":"LineString","coordinates":[[137.879519,-34.662721],[137.879598,-34.662729],[137.879658,-34.662743],[137.879695,-34.662754],[137.879728,-34.662772],[137.879757,-34.662793],[137.879784,-34.662818],[137.879806,-34.662843],[137.879822,-34.662868],[137.879837,-34.6629],[137.879846,-34.662933],[137.879851,-34.662977],[137.879854,-34.663025]]}},{"type":"Feature","properties":{"tier":"arterial"},"geometry":{"type":"LineString","coordinates":[[137.879872,-34.523589],[137.87986,-34.523204],[137.87984,-34.521792],[137.879816,-34.520871],[137.879793,-34.519904],[137.879782,-34.519339],[137.879772,-34.518905],[137.87977,-34.518301],[137.879759,-34.517647],[137.87974,-34.517016],[137.879714,-34.516363],[137.879694,-34.515557],[137.879684,-34.514858],[137.879657,-34.514129],[137.879634,-34.513567],[137.879608,-34.512118],[137.879609,-34.511671],[137.879636,-34.511217],[137.879719,-34.510806],[137.879808,-34.510499],[137.879962,-34.510067],[137.88025,-34.509395],[137.880476,-34.508828],[137.88063,-34.508304],[137.880721,-34.50778],[137.880752,-34.507254],[137.880723,-34.506835],[137.880648,-34.505672],[137.880602,-34.505115],[137.880578,-34.504779],[137.880556,-34.504492],[137.88055,-34.503876],[137.8806,-34.503347],[137.880726,-34.502789],[137.880899,-34.502245],[137.881102,-34.501791],[137.881379,-34.50131],[137.881715,-34.500882],[137.88215,-34.500434],[137.88252,-34.500126],[137.882719,-34.49998]]}},{"type":"Feature","properties":{"tier":"arterial"},"geometry":{"type":"LineString","coordinates":[[137.597608,-34.767065],[137.597471,-34.767368]]}},{"type":"Feature","properties":{"tier":"arterial"},"geometry":{"type":"LineString","coordinates":[[137.593776,-34.774949],[137.59387,-34.774633]]}},{"type":"Feature","properties":{"tier":"arterial"},"geometry":{"type":"LineString","coordinates":[[137.591411,-34.781654],[137.591415,-34.781118],[137.591439,-34.780573],[137.591482,-34.780073],[137.591508,-34.779919],[137.591539,-34.779737],[137.591582,-34.779556],[137.591636,-34.779394],[137.591837,-34.77894],[137.591979,-34.778619],[137.592471,-34.777608]]}},{"type":"Feature","properties":{"tier":"arterial"},"geometry":{"type":"LineString","coordinates":[[137.559131,-34.909246],[137.559356,-34.910409],[137.561025,-34.917909],[137.561382,-34.919486],[137.5616,-34.920593],[137.56169,-34.921422],[137.561926,-34.926803],[137.561962,-34.927434],[137.562034,-34.927925],[137.562108,-34.928211],[137.562173,-34.928399],[137.56433,-34.933507],[137.564501,-34.933875],[137.564642,-34.934093],[137.564789,-34.934288],[137.565016,-34.934526],[137.565136,-34.934625],[137.565331,-34.934767],[137.565539,-34.93491],[137.567577,-34.936147],[137.567892,-34.936347],[137.56804,-34.936455],[137.568246,-34.936618],[137.568451,-34.936825],[137.574433,-34.944621],[137.574909,-34.945236],[137.575154,-34.945569],[137.575232,-34.945684],[137.575269,-34.945749],[137.575311,-34.945817],[137.575339,-34.945875],[137.575382,-34.945953],[137.575414,-34.946036],[137.575446,-34.946113],[137.575461,-34.946154],[137.575479,-34.946221],[137.5755,-34.946291],[137.575511,-34.946342],[137.575542,-34.946461],[137.575559,-34.946564],[137.57557,-34.946656],[137.575587,-34.946804],[137.575606,-34.94723],[137.575634,-34.948254],[137.576188,-34.963799],[137.5762,-34.964041],[137.576238,-34.964268],[137.576312,-34.964581],[137.576438,-34.964958],[137.576638,-34.96542],[137.57675,-34.965668],[137.578321,-34.96915],[137.57855,-34.969688],[137.578653,-34.969975],[137.578704,-34.970168],[137.578752,-34.970427],[137.578815,-34.971046],[137.579338,-34.979523],[137.579397,-34.979932],[137.579489,-34.980238],[137.579613,-34.980505],[137.579715,-34.980679],[137.581121,-34.982604],[137.581279,-34.982785],[137.581538,-34.983027],[137.581959,-34.983379],[137.58334,-34.984501],[137.583625,-34.984711],[137.583877,-34.984874],[137.584128,-34.985011],[137.584482,-34.985164],[137.584942,-34.985316],[137.58554,-34.985422],[137.588141,-34.985812],[137.588641,-34.985921],[137.588919,-34.986002],[137.589241,-34.986127],[137.589601,-34.986331],[137.589843,-34.986486],[137.590093,-34.986685],[137.590282,-34.986873],[137.591062,-34.987793],[137.599248,-34.997284],[137.59948,-34.997604],[137.599643,-34.997889],[137.600547,-34.999832],[137.600635,-35.00002]]}},{"type":"Feature","properties":{"tier":"regional"},"geometry":{"type":"LineString","coordinates":[[137.590134,-34.777583],[137.590077,-34.775524],[137.590067,-34.773837],[137.590098,-34.772992],[137.590115,-34.772144],[137.590112,-34.771983],[137.590102,-34.771179],[137.590087,-34.770188]]}},{"type":"Feature","properties":{"tier":"regional"},"geometry":{"type":"LineString","coordinates":[[137.585701,-34.770162],[137.588993,-34.770193],[137.590087,-34.770188],[137.592544,-34.770193]]}},{"type":"Feature","properties":{"tier":"arterial"},"geometry":{"type":"LineString","coordinates":[[137.598681,-34.772224],[137.59852,-34.77225],[137.59716,-34.771802],[137.59564,-34.771315]]}},{"type":"Feature","properties":{"tier":"regional"},"geometry":{"type":"LineString","coordinates":[[137.592544,-34.770193],[137.592657,-34.770166],[137.594062,-34.770611],[137.595529,-34.771105]]}},{"type":"Feature","properties":{"tier":"arterial"},"geometry":{"type":"LineString","coordinates":[[137.598681,-34.772224],[137.599341,-34.772466],[137.599915,-34.772629],[137.600392,-34.772726],[137.600913,-34.772801],[137.606336,-34.77314],[137.606867,-34.773198],[137.607213,-34.77326],[137.607569,-34.773364],[137.607834,-34.773467],[137.608111,-34.773612],[137.608941,-34.774047],[137.610023,-34.774613],[137.610681,-34.77486],[137.61444,-34.775981],[137.61487,-34.776078],[137.617015,-34.776436],[137.617383,-34.776519],[137.617742,-34.776619],[137.618133,-34.776763],[137.635648,-34.784321],[137.636032,-34.784518],[137.636498,-34.784789],[137.637734,-34.785501],[137.63845,-34.785861],[137.639015,-34.786059],[137.639703,-34.786214],[137.647352,-34.787396],[137.649648,-34.787742],[137.651352,-34.788035],[137.651695,-34.788111],[137.652022,-34.78822],[137.652426,-34.788392],[137.652742,-34.788543],[137.656783,-34.790555],[137.670324,-34.797327],[137.67403,-34.799409],[137.674387,-34.799609],[137.678028,-34.801653],[137.678508,-34.801907],[137.678721,-34.802001],[137.679105,-34.802136],[137.679978,-34.802377],[137.68287,-34.803176],[137.687525,-34.804468],[137.688716,-34.804814],[137.689156,-34.804987],[137.689458,-34.805158],[137.689724,-34.805332],[137.689943,-34.805537],[137.693982,-34.809401],[137.694285,-34.809662],[137.694608,-34.809886],[137.697034,-34.811325],[137.704866,-34.815861],[137.705213,-34.816104],[137.70545,-34.816331],[137.705705,-34.816599],[137.707348,-34.818853],[137.707833,-34.819609],[137.707966,-34.819889],[137.708062,-34.820189],[137.708289,-34.82119],[137.708501,-34.822086],[137.708559,-34.82233],[137.708729,-34.822802],[137.709029,-34.823286],[137.709535,-34.823809],[137.709851,-34.824058],[137.710211,-34.824303],[137.710566,-34.824455],[137.710961,-34.824622],[137.711353,-34.824761],[137.712343,-34.82515],[137.713945,-34.825718],[137.714265,-34.825872],[137.714573,-34.826053],[137.717486,-34.828024],[137.720359,-34.829982],[137.721842,-34.830931],[137.72335,-34.831886],[137.724369,-34.832526],[137.724784,-34.832783],[137.724959,-34.832888],[137.725063,-34.832948],[137.725192,-34.833016],[137.725293,-34.833065],[137.725382,-34.833108],[137.725514,-34.833163],[137.725751,-34.833251],[137.726075,-34.833364],[137.726437,-34.83349],[137.726928,-34.83366],[137.727231,-34.833765],[137.727361,-34.833814],[137.727518,-34.833877],[137.727724,-34.833968],[137.727884,-34.834046],[137.728011,-34.834115],[137.728397,-34.834331],[137.728955,-34.834648],[137.730254,-34.835387],[137.731487,-34.836093],[137.733094,-34.837008],[137.742831,-34.842554],[137.760594,-34.852671],[137.761125,-34.853026],[137.761362,-34.853235],[137.761613,-34.853441],[137.762308,-34.854221],[137.764479,-34.857163],[137.764552,-34.857262],[137.764668,-34.857417],[137.77252,-34.867924],[137.776674,-34.873482],[137.77938,-34.877139],[137.782269,-34.881068],[137.792478,-34.89471],[137.792694,-34.894934],[137.792804,-34.895026]]}},{"type":"Feature","properties":{"tier":"arterial"},"geometry":{"type":"LineString","coordinates":[[137.790308,-34.908346],[137.7921,-34.908465],[137.793746,-34.9085],[137.795484,-34.908491]]}},{"type":"Feature","properties":{"tier":"arterial"},"geometry":{"type":"LineString","coordinates":[[137.789888,-34.908319],[137.787196,-34.908144],[137.785839,-34.908078],[137.785196,-34.908043],[137.783157,-34.908048],[137.782384,-34.908049]]}},{"type":"Feature","properties":{"tier":"arterial"},"geometry":{"type":"LineString","coordinates":[[137.794795,-34.907279],[137.794803,-34.907134],[137.794632,-34.90545],[137.79446,-34.904043],[137.794422,-34.903757],[137.794257,-34.902511],[137.794174,-34.901895],[137.794074,-34.901152],[137.793755,-34.898989],[137.793237,-34.895824],[137.793103,-34.895564],[137.792924,-34.895379],[137.792751,-34.89519]]}},{"type":"Feature","properties":{"tier":"regional"},"geometry":{"type":"LineString","coordinates":[[137.501462,-34.512192],[137.501372,-34.512209],[137.501275,-34.512223],[137.501173,-34.512235],[137.501047,-34.512248],[137.500881,-34.512257],[137.500744,-34.512259],[137.500524,-34.512261],[137.49998,-34.512259]]}},{"type":"Feature","properties":{"tier":"arterial"},"geometry":{"type":"LineString","coordinates":[[137.710749,-34.700535],[137.710475,-34.699964]]}},{"type":"Feature","properties":{"tier":"arterial"},"geometry":{"type":"LineString","coordinates":[[137.857696,-34.77273],[137.858072,-34.773913],[137.858191,-34.774208],[137.858546,-34.774807],[137.859432,-34.775867],[137.859795,-34.77618],[137.859985,-34.776338],[137.860099,-34.776431],[137.860237,-34.776544],[137.860368,-34.77665],[137.860534,-34.776772],[137.860794,-34.776971],[137.861278,-34.777268]]}},{"type":"Feature","properties":{"tier":"arterial"},"geometry":{"type":"LineString","coordinates":[[137.853074,-34.785219],[137.852792,-34.785312],[137.852568,-34.78536],[137.849356,-34.785998],[137.847237,-34.786419],[137.846744,-34.786432],[137.846191,-34.786382],[137.843381,-34.785713],[137.842559,-34.785563],[137.841746,-34.785465],[137.834571,-34.784862],[137.820366,-34.783627],[137.820072,-34.783588],[137.819913,-34.783549],[137.819763,-34.783512],[137.819247,-34.78335],[137.807264,-34.77934],[137.787497,-34.772774],[137.772303,-34.767691],[137.767649,-34.766091],[137.767071,-34.765829],[137.766507,-34.765544],[137.766119,-34.765275],[137.765826,-34.765022],[137.765511,-34.764628],[137.765293,-34.764281],[137.765003,-34.763796],[137.764855,-34.763602],[137.764697,-34.763438],[137.764681,-34.76342],[137.764409,-34.76317],[137.764173,-34.763003],[137.763981,-34.762885],[137.763194,-34.762504],[137.7505,-34.757059],[137.75018,-34.756884],[137.749911,-34.7567],[137.749618,-34.756463],[137.747219,-34.754451],[137.747057,-34.754306],[137.746929,-34.754159],[137.746743,-34.753939],[137.745067,-34.75159],[137.745014,-34.751495],[137.74463,-34.750912],[137.744331,-34.750515]]}},{"type":"Feature","properties":{"tier":"arterial"},"geometry":{"type":"LineString","coordinates":[[137.745067,-34.75159],[137.744902,-34.751445],[137.744733,-34.75131],[137.744513,-34.751149],[137.744316,-34.751021],[137.744106,-34.750909],[137.743876,-34.75081],[137.743618,-34.750715],[137.743302,-34.750629],[137.743032,-34.750572]]}},{"type":"Feature","properties":{"tier":"regional"},"geometry":{"type":"LineString","coordinates":[[137.708493,-34.692795],[137.708499,-34.690749],[137.708504,-34.68939],[137.7085,-34.687086],[137.7085,-34.684634],[137.7085,-34.684092]]}},{"type":"Feature","properties":{"tier":"regional"},"geometry":{"type":"LineString","coordinates":[[137.590153,-34.76351],[137.590106,-34.763676],[137.590114,-34.765875],[137.590087,-34.770188]]}},{"type":"Feature","properties":{"tier":"regional"},"geometry":{"type":"LineString","coordinates":[[137.49998,-34.674407],[137.524882,-34.674426]]}},{"type":"Feature","properties":{"tier":"regional"},"geometry":{"type":"LineString","coordinates":[[137.556333,-34.750564],[137.555916,-34.749754],[137.555807,-34.749571],[137.555675,-34.749382],[137.555512,-34.749154],[137.55532,-34.748928],[137.555091,-34.748693],[137.553948,-34.747655],[137.551642,-34.745496],[137.550145,-34.744155],[137.54964,-34.743671],[137.549364,-34.743406],[137.546564,-34.740837],[137.544,-34.738474],[137.541656,-34.736322],[137.539204,-34.734074],[137.536753,-34.731817],[137.534218,-34.72949],[137.531372,-34.726884],[137.528652,-34.724388],[137.525965,-34.721919],[137.523267,-34.719441],[137.52114,-34.717492],[137.520938,-34.71732],[137.520726,-34.717115],[137.520518,-34.716884],[137.520284,-34.716586],[137.520111,-34.716316],[137.519995,-34.716097],[137.519903,-34.715901],[137.519857,-34.715768],[137.519811,-34.715615],[137.519766,-34.715475],[137.519662,-34.714957],[137.519648,-34.71437],[137.519715,-34.711649],[137.51978,-34.708574],[137.519788,-34.708243],[137.519812,-34.707908],[137.519858,-34.707601],[137.519949,-34.707156],[137.5206,-34.704333],[137.521274,-34.70142],[137.521925,-34.698485],[137.522671,-34.695281],[137.523317,-34.69241],[137.523991,-34.689439],[137.524473,-34.687384],[137.52468,-34.686413],[137.524779,-34.685988],[137.524833,-34.685738],[137.524865,-34.685562],[137.524858,-34.685425],[137.524887,-34.684095],[137.5249,-34.681706],[137.524892,-34.679369],[137.524892,-34.677101],[137.524882,-34.674426]]}},{"type":"Feature","properties":{"tier":"regional"},"geometry":{"type":"LineString","coordinates":[[137.863376,-34.750463],[137.844634,-34.750488],[137.84188,-34.750467]]}},{"type":"Feature","properties":{"tier":"arterial"},"geometry":{"type":"LineString","coordinates":[[137.656047,-34.656395],[137.656287,-34.656117]]}},{"type":"Feature","properties":{"tier":"arterial"},"geometry":{"type":"LineString","coordinates":[[137.656816,-34.655834],[137.656812,-34.65615],[137.656798,-34.656211],[137.656748,-34.656259],[137.656645,-34.656361]]}},{"type":"Feature","properties":{"tier":"regional"},"geometry":{"type":"LineString","coordinates":[[137.744331,-34.750515],[137.743189,-34.750534],[137.743032,-34.750572],[137.742757,-34.750536],[137.742553,-34.750525],[137.728093,-34.750549],[137.714686,-34.750575],[137.695556,-34.750575],[137.68852,-34.750561],[137.678809,-34.750563],[137.65682,-34.750568],[137.649056,-34.750569],[137.634343,-34.750573],[137.631906,-34.750573],[137.626148,-34.750574],[137.625972,-34.750566],[137.625837,-34.750518],[137.625721,-34.750422]]}},{"type":"Feature","properties":{"tier":"regional"},"geometry":{"type":"LineString","coordinates":[[137.757145,-35.00002],[137.757075,-34.99967],[137.756882,-34.998734],[137.756767,-34.998123],[137.756564,-34.997148]]}},{"type":"Feature","properties":{"tier":"arterial"},"geometry":{"type":"LineString","coordinates":[[137.744331,-34.750515],[137.742356,-34.747678],[137.738666,-34.742378],[137.72887,-34.728418],[137.728606,-34.728061],[137.728335,-34.727784],[137.723804,-34.723368],[137.722562,-34.722146],[137.722223,-34.721743],[137.722015,-34.72141],[137.715343,-34.710618],[137.715163,-34.71026],[137.714998,-34.709786],[137.714725,-34.709004],[137.71441,-34.708062],[137.714255,-34.707702],[137.712504,-34.704122],[137.710749,-34.700535]]}},{"type":"Feature","properties":{"tier":"arterial"},"geometry":{"type":"LineString","coordinates":[[137.694334,-34.69623],[137.692127,-34.695105],[137.691149,-34.694618],[137.689998,-34.694055],[137.688092,-34.693074],[137.687496,-34.692736],[137.686938,-34.692369],[137.686415,-34.691953],[137.685888,-34.691487],[137.685298,-34.690876],[137.68422,-34.689612],[137.681194,-34.686035],[137.680524,-34.684534],[137.679742,-34.682832],[137.679539,-34.68249],[137.678681,-34.681452],[137.672328,-34.674283],[137.669023,-34.670507],[137.663648,-34.664269],[137.657625,-34.657425],[137.657235,-34.65698],[137.656894,-34.656591],[137.656645,-34.656361],[137.656436,-34.656204],[137.656287,-34.656117],[137.65588,-34.655876],[137.654449,-34.655081],[137.649523,-34.652151],[137.643618,-34.648564],[137.642656,-34.648091],[137.641214,-34.647491],[137.640375,-34.647178],[137.638299,-34.646406],[137.636717,-34.645817],[137.633913,-34.645249],[137.633129,-34.64509],[137.628065,-34.643981],[137.624091,-34.643183],[137.622829,-34.642887],[137.620229,-34.641785],[137.612993,-34.63889],[137.610787,-34.637746],[137.608908,-34.636772],[137.607466,-34.635712],[137.603243,-34.632379],[137.59956,-34.629472],[137.598309,-34.628493],[137.59824,-34.628452],[137.598108,-34.628381]]}},{"type":"Feature","properties":{"tier":"regional"},"geometry":{"type":"LineString","coordinates":[[137.519222,-34.750497],[137.522392,-34.750512],[137.523932,-34.750515],[137.52523,-34.750517],[137.526767,-34.750519],[137.526835,-34.750519],[137.527529,-34.75052],[137.528304,-34.750521],[137.529291,-34.750523],[137.532161,-34.750521],[137.537496,-34.75053],[137.542882,-34.750532],[137.551058,-34.750536],[137.55122,-34.750536],[137.551717,-34.75054],[137.556333,-34.750564]]}},{"type":"Feature","properties":{"tier":"regional"},"geometry":{"type":"LineString","coordinates":[[137.595458,-34.771253],[137.593993,-34.770765],[137.592592,-34.770298],[137.592544,-34.770193]]}},{"type":"Feature","properties":{"tier":"arterial"},"geometry":{"type":"LineString","coordinates":[[137.595711,-34.771167],[137.59723,-34.771659],[137.598617,-34.772127],[137.598681,-34.772224]]}},{"type":"Feature","properties":{"tier":"regional"},"geometry":{"type":"LineString","coordinates":[[137.880173,-34.66264],[137.879742,-34.662694],[137.879519,-34.662721]]}},{"type":"Feature","properties":{"tier":"regional"},"geometry":{"type":"LineString","coordinates":[[137.879519,-34.662721],[137.878761,-34.662874],[137.878127,-34.663011],[137.877869,-34.663066],[137.877673,-34.663108],[137.876998,-34.663243],[137.876831,-34.663277],[137.876716,-34.663284],[137.87664,-34.663275]]}},{"type":"Feature","properties":{"tier":"regional"},"geometry":{"type":"LineString","coordinates":[[137.708523,-34.697421],[137.708521,-34.696012],[137.708516,-34.693201],[137.708493,-34.692795]]}},{"type":"Feature","properties":{"tier":"arterial"},"geometry":{"type":"LineString","coordinates":[[137.710475,-34.699964],[137.710036,-34.699044],[137.709466,-34.697869],[137.709458,-34.697425]]}},{"type":"Feature","properties":{"tier":"arterial"},"geometry":{"type":"LineString","coordinates":[[137.593983,-34.77463],[137.593776,-34.774949]]}},{"type":"Feature","properties":{"tier":"arterial"},"geometry":{"type":"LineString","coordinates":[[137.596914,-34.751646],[137.597263,-34.75223],[137.597556,-34.752816],[137.597659,-34.753018],[137.597736,-34.753298],[137.59779,-34.753603],[137.597798,-34.75396],[137.597799,-34.754621],[137.597777,-34.755484],[137.597757,-34.756478]]}},{"type":"Feature","properties":{"tier":"arterial"},"geometry":{"type":"LineString","coordinates":[[137.592471,-34.777608],[137.592937,-34.776662],[137.593542,-34.775435],[137.593607,-34.775303]]}},{"type":"Feature","properties":{"tier":"arterial"},"geometry":{"type":"LineString","coordinates":[[137.59564,-34.771315],[137.595438,-34.771738],[137.595306,-34.772015],[137.595167,-34.772306],[137.59491,-34.772843],[137.594563,-34.773568],[137.594485,-34.773721],[137.594168,-34.774344],[137.593983,-34.77463]]}},{"type":"Feature","properties":{"tier":"arterial"},"geometry":{"type":"LineString","coordinates":[[137.59387,-34.774633],[137.593998,-34.774288],[137.594299,-34.773663],[137.594444,-34.773363],[137.594724,-34.772782],[137.594983,-34.772242],[137.59512,-34.771957],[137.595257,-34.771671],[137.595458,-34.771253]]}},{"type":"Feature","properties":{"tier":"arterial"},"geometry":{"type":"LineString","coordinates":[[137.597009,-34.768047],[137.597256,-34.76765],[137.597471,-34.767368]]}},{"type":"Feature","properties":{"tier":"arterial"},"geometry":{"type":"LineString","coordinates":[[137.873957,-34.583235],[137.874227,-34.582513],[137.874734,-34.581262]]}},{"type":"Feature","properties":{"tier":"arterial"},"geometry":{"type":"LineString","coordinates":[[137.49998,-34.861318],[137.50063,-34.860877],[137.503592,-34.858991],[137.503953,-34.858748],[137.50603,-34.857193],[137.507025,-34.856441],[137.508342,-34.855431],[137.511102,-34.85335],[137.513136,-34.851791],[137.517771,-34.84827],[137.527697,-34.840729],[137.52826,-34.840302],[137.532964,-34.836733],[137.533262,-34.836522],[137.537112,-34.833712],[137.53747,-34.833433],[137.539427,-34.832002],[137.540201,-34.831427],[137.541779,-34.830256],[137.545708,-34.827273],[137.549439,-34.824419],[137.550103,-34.823926],[137.550583,-34.823598],[137.550906,-34.823421],[137.551395,-34.823166],[137.552451,-34.822664],[137.55405,-34.821872],[137.554462,-34.821611],[137.554767,-34.821377],[137.554965,-34.821173],[137.555132,-34.820971],[137.555309,-34.820711],[137.556013,-34.819626],[137.556341,-34.819194],[137.556687,-34.818803],[137.556917,-34.818583],[137.55722,-34.818305],[137.557562,-34.818063],[137.557923,-34.817806],[137.559005,-34.816984],[137.559567,-34.816534],[137.560804,-34.815598],[137.562827,-34.81406],[137.56502,-34.8124],[137.571606,-34.8074],[137.571713,-34.807325],[137.572946,-34.806391],[137.574532,-34.805176],[137.577895,-34.802598],[137.581951,-34.799525],[137.583705,-34.798235],[137.585853,-34.796593],[137.590241,-34.793209]]}},{"type":"Feature","properties":{"tier":"arterial"},"geometry":{"type":"LineString","coordinates":[[137.625721,-34.750422],[137.628214,-34.748472],[137.629113,-34.747765],[137.630873,-34.746379],[137.632401,-34.744891],[137.638393,-34.739043],[137.639077,-34.738375],[137.639311,-34.738146],[137.639954,-34.737519],[137.640015,-34.737462],[137.640705,-34.736813],[137.647422,-34.730238],[137.648621,-34.729076],[137.649114,-34.728618],[137.655082,-34.723614],[137.656375,-34.722527],[137.656789,-34.722212],[137.657276,-34.721872],[137.657335,-34.72183],[137.66399,-34.717155],[137.666546,-34.715359],[137.681118,-34.705056],[137.687312,-34.700681],[137.688934,-34.699556],[137.689675,-34.699111],[137.690385,-34.698798],[137.691094,-34.698493],[137.691933,-34.698176],[137.692566,-34.697803],[137.693223,-34.697305],[137.693751,-34.696811],[137.694334,-34.69623]]}},{"type":"Feature","properties":{"tier":"arterial"},"geometry":{"type":"LineString","coordinates":[[137.590241,-34.793209],[137.590429,-34.793077],[137.59061,-34.792978],[137.590803,-34.792924],[137.591013,-34.792895],[137.591176,-34.792884],[137.591245,-34.792892]]}},{"type":"Feature","properties":{"tier":"arterial"},"geometry":{"type":"LineString","coordinates":[[137.593607,-34.775303],[137.593776,-34.774949]]}},{"type":"Feature","properties":{"tier":"arterial"},"geometry":{"type":"LineString","coordinates":[[137.603209,-34.764893],[137.605316,-34.763623],[137.60554,-34.763485],[137.60587,-34.763282],[137.607087,-34.762534]]}},{"type":"Feature","properties":{"tier":"arterial"},"geometry":{"type":"LineString","coordinates":[[137.880068,-34.570751],[137.880403,-34.570017],[137.880572,-34.569646],[137.880635,-34.56953],[137.880778,-34.569268],[137.88086,-34.568968],[137.880888,-34.568656],[137.880865,-34.56834],[137.880795,-34.568056],[137.880792,-34.568042],[137.880667,-34.567764],[137.88048,-34.567469],[137.880268,-34.567234],[137.880164,-34.567144],[137.880122,-34.567109],[137.879996,-34.567008],[137.87985,-34.566922],[137.879315,-34.566605],[137.879306,-34.5666],[137.87835,-34.566038]]}},{"type":"Feature","properties":{"tier":"arterial"},"geometry":{"type":"LineString","coordinates":[[137.874734,-34.581262],[137.875059,-34.580445],[137.875122,-34.580302],[137.875166,-34.580204],[137.875281,-34.579952],[137.875428,-34.579689],[137.875537,-34.579503],[137.875936,-34.578824],[137.876708,-34.577538],[137.877011,-34.577033],[137.877083,-34.576905],[137.877642,-34.575946],[137.877722,-34.575794],[137.878,-34.575195],[137.878035,-34.57512],[137.878161,-34.574852],[137.878175,-34.574822],[137.878285,-34.574586],[137.878521,-34.574081],[137.878624,-34.573858],[137.878736,-34.573619],[137.87878,-34.573524],[137.878866,-34.573338],[137.879495,-34.571985],[137.880068,-34.570751]]}},{"type":"Feature","properties":{"tier":"regional"},"geometry":{"type":"LineString","coordinates":[[137.755806,-34.984522],[137.756042,-34.984697],[137.756234,-34.984827],[137.758229,-34.986173],[137.758468,-34.986352],[137.758724,-34.986598],[137.758888,-34.986778],[137.759074,-34.987034],[137.759186,-34.987245],[137.759302,-34.987476],[137.759382,-34.987747],[137.759418,-34.987912],[137.759438,-34.988091]]}},{"type":"Feature","properties":{"tier":"arterial"},"geometry":{"type":"LineString","coordinates":[[137.795533,-34.907406],[137.795542,-34.908353],[137.795484,-34.908491]]}},{"type":"Feature","properties":{"tier":"arterial"},"geometry":{"type":"LineString","coordinates":[[137.795484,-34.908491],[137.795437,-34.908353],[137.79542,-34.907402]]}},{"type":"Feature","properties":{"tier":"regional"},"geometry":{"type":"LineString","coordinates":[[137.49998,-34.750494],[137.501273,-34.750494],[137.504897,-34.750526],[137.508115,-34.750509],[137.512723,-34.750508],[137.519222,-34.750497]]}},{"type":"Feature","properties":{"tier":"arterial"},"geometry":{"type":"LineString","coordinates":[[137.607087,-34.762534],[137.608337,-34.761748],[137.60863,-34.761569],[137.610531,-34.760412],[137.610603,-34.760368],[137.611225,-34.76007],[137.611413,-34.75998],[137.611702,-34.759834],[137.612192,-34.759586],[137.613579,-34.758922],[137.615328,-34.758104],[137.616244,-34.757675],[137.617306,-34.757072],[137.617671,-34.756812],[137.618918,-34.75584],[137.624416,-34.751465],[137.62543,-34.750627],[137.625721,-34.750422]]}},{"type":"Feature","properties":{"tier":"arterial"},"geometry":{"type":"LineString","coordinates":[[137.705343,-34.697633],[137.702601,-34.697982],[137.701908,-34.698047],[137.701145,-34.698053],[137.700457,-34.698022],[137.69967,-34.69795],[137.699013,-34.697841],[137.697836,-34.697552],[137.696836,-34.69726],[137.695964,-34.696983],[137.695432,-34.696749],[137.694334,-34.69623]]}},{"type":"Feature","properties":{"tier":"arterial"},"geometry":{"type":"LineString","coordinates":[[137.879991,-34.530626],[137.879995,-34.530333],[137.879982,-34.529343]]}},{"type":"Feature","properties":{"tier":"arterial"},"geometry":{"type":"LineString","coordinates":[[137.595711,-34.771167],[137.59564,-34.771315]]}},{"type":"Feature","properties":{"tier":"arterial"},"geometry":{"type":"LineString","coordinates":[[137.595458,-34.771253],[137.595529,-34.771105]]}},{"type":"Feature","properties":{"tier":"arterial"},"geometry":{"type":"LineString","coordinates":[[137.597202,-34.768113],[137.59646,-34.769668],[137.595766,-34.771057],[137.595711,-34.771167]]}},{"type":"Feature","properties":{"tier":"regional"},"geometry":{"type":"LineString","coordinates":[[137.59564,-34.771315],[137.595458,-34.771253]]}},{"type":"Feature","properties":{"tier":"arterial"},"geometry":{"type":"LineString","coordinates":[[137.595529,-34.771105],[137.595711,-34.771167]]}},{"type":"Feature","properties":{"tier":"arterial"},"geometry":{"type":"LineString","coordinates":[[137.595529,-34.771105],[137.595581,-34.770997],[137.596253,-34.769602],[137.597009,-34.768047]]}},{"type":"Feature","properties":{"tier":"arterial"},"geometry":{"type":"LineString","coordinates":[[137.591245,-34.792892],[137.591292,-34.792685],[137.591313,-34.792453],[137.591314,-34.792378],[137.591354,-34.79065],[137.59134,-34.787829],[137.591341,-34.787717],[137.591387,-34.78457],[137.591392,-34.783961],[137.591411,-34.781654]]}},{"type":"Feature","properties":{"tier":"arterial"},"geometry":{"type":"LineString","coordinates":[[137.597757,-34.756478],[137.59776,-34.756976],[137.597763,-34.759633],[137.597773,-34.760618],[137.597783,-34.761484],[137.59778,-34.762838],[137.597797,-34.765629],[137.597799,-34.766235],[137.597739,-34.766601],[137.597608,-34.767065]]}},{"type":"Feature","properties":{"tier":"arterial"},"geometry":{"type":"LineString","coordinates":[[137.596313,-34.750569],[137.596495,-34.750921],[137.596914,-34.751646]]}},{"type":"Feature","properties":{"tier":"arterial"},"geometry":{"type":"LineString","coordinates":[[137.872169,-34.588256],[137.872472,-34.587205]]}},{"type":"Feature","properties":{"tier":"arterial"},"geometry":{"type":"LineString","coordinates":[[137.872472,-34.587205],[137.872674,-34.586491],[137.87278,-34.586128],[137.872956,-34.585616],[137.873523,-34.584261],[137.873957,-34.583235]]}},{"type":"Feature","properties":{"tier":"arterial"},"geometry":{"type":"LineString","coordinates":[[137.742367,-34.656134],[137.744395,-34.654458],[137.746541,-34.652622],[137.748463,-34.651048],[137.749105,-34.650567],[137.749852,-34.650108],[137.751004,-34.649586],[137.75212,-34.649021],[137.753886,-34.648175],[137.756268,-34.647034],[137.756761,-34.646798],[137.760581,-34.645002],[137.761498,-34.64456],[137.76226,-34.644132],[137.76285,-34.643713],[137.763258,-34.643334],[137.763621,-34.642878],[137.764371,-34.641978],[137.764937,-34.641299],[137.76654,-34.639347],[137.768633,-34.636819],[137.769773,-34.635436],[137.772887,-34.631659],[137.774447,-34.629682],[137.775819,-34.627934],[137.776894,-34.626566],[137.784149,-34.617831],[137.787974,-34.613158],[137.788145,-34.612949],[137.788233,-34.612842],[137.788433,-34.612598],[137.79744,-34.601705],[137.802246,-34.595846],[137.804886,-34.592596],[137.806173,-34.591019],[137.806704,-34.590485],[137.80753,-34.589765],[137.810196,-34.587694],[137.810749,-34.58719],[137.811698,-34.586157],[137.813334,-34.584385],[137.814536,-34.583083],[137.816188,-34.581281],[137.819073,-34.578188],[137.826669,-34.569919],[137.829252,-34.567264],[137.833349,-34.563281],[137.834291,-34.562471]]}},{"type":"Feature","properties":{"tier":"arterial"},"geometry":{"type":"LineString","coordinates":[[137.74212,-34.656343],[137.742367,-34.656134]]}},{"type":"Feature","properties":{"tier":"arterial"},"geometry":{"type":"LineString","coordinates":[[137.794795,-34.907279],[137.79542,-34.907402],[137.795533,-34.907406]]}},{"type":"Feature","properties":{"tier":"regional"},"geometry":{"type":"LineString","coordinates":[[137.590134,-34.777583],[137.592105,-34.777591],[137.592296,-34.777591],[137.592471,-34.777608]]}},{"type":"Feature","properties":{"tier":"arterial"},"geometry":{"type":"LineString","coordinates":[[137.743381,-34.941027],[137.742749,-34.941433],[137.742366,-34.941681]]}},{"type":"Feature","properties":{"tier":"arterial"},"geometry":{"type":"LineString","coordinates":[[137.745349,-34.93974],[137.74463,-34.940211],[137.743842,-34.940726],[137.743479,-34.940963],[137.743381,-34.941027]]}},{"type":"Feature","properties":{"tier":"arterial"},"geometry":{"type":"LineString","coordinates":[[137.792651,-34.895382],[137.792329,-34.895879]]}},{"type":"Feature","properties":{"tier":"arterial"},"geometry":{"type":"LineString","coordinates":[[137.792651,-34.895382],[137.792751,-34.89519],[137.792804,-34.895026],[137.793099,-34.894262]]}},{"type":"Feature","properties":{"tier":"arterial"},"geometry":{"type":"LineString","coordinates":[[137.834291,-34.562471],[137.834789,-34.562136],[137.835519,-34.56169],[137.836215,-34.5613],[137.836902,-34.56097],[137.837485,-34.560725],[137.838636,-34.560341],[137.839778,-34.560055],[137.840781,-34.559864],[137.841488,-34.559745],[137.842214,-34.559651],[137.842551,-34.559599],[137.842909,-34.559551],[137.843637,-34.559401],[137.844143,-34.559228],[137.844891,-34.558938],[137.845566,-34.558553],[137.846052,-34.558198],[137.846673,-34.557773],[137.847597,-34.557255],[137.84847,-34.556923],[137.849224,-34.556743],[137.850083,-34.556636],[137.850594,-34.556628],[137.851218,-34.556671],[137.851889,-34.556713]]}},{"type":"Feature","properties":{"tier":"arterial"},"geometry":{"type":"LineString","coordinates":[[137.875338,-34.562699],[137.875459,-34.562678],[137.875532,-34.562639],[137.875593,-34.562591],[137.87585,-34.562374]]}},{"type":"Feature","properties":{"tier":"arterial"},"geometry":{"type":"LineString","coordinates":[[137.875196,-34.562706],[137.875338,-34.562699],[137.875539,-34.562731],[137.875608,-34.562734],[137.875902,-34.562689]]}},{"type":"Feature","properties":{"tier":"arterial"},"geometry":{"type":"LineString","coordinates":[[137.875939,-34.562812],[137.875615,-34.562816],[137.875546,-34.562812],[137.875319,-34.562773],[137.875196,-34.562706]]}},{"type":"Feature","properties":{"tier":"arterial"},"geometry":{"type":"LineString","coordinates":[[137.851889,-34.556713],[137.852154,-34.556781],[137.857964,-34.558293],[137.862255,-34.559416],[137.864769,-34.560045],[137.869962,-34.561374],[137.875196,-34.562706]]}},{"type":"Feature","properties":{"tier":"arterial"},"geometry":{"type":"LineString","coordinates":[[137.853506,-34.767004],[137.853924,-34.767286],[137.85424,-34.76761],[137.854558,-34.768012],[137.854769,-34.768442],[137.85484,-34.768685],[137.854917,-34.769075],[137.854944,-34.769269],[137.855115,-34.77049],[137.855271,-34.771127],[137.855346,-34.771473],[137.855571,-34.771808],[137.855866,-34.772054],[137.856338,-34.772253],[137.856816,-34.772411],[137.857103,-34.772522],[137.85729,-34.772587],[137.857696,-34.77273]]}},{"type":"Feature","properties":{"tier":"regional"},"geometry":{"type":"LineString","coordinates":[[137.756511,-34.996037],[137.756506,-34.996483],[137.756564,-34.997148]]}},{"type":"Feature","properties":{"tier":"arterial"},"geometry":{"type":"LineString","coordinates":[[137.790308,-34.908346],[137.789888,-34.908319]]}},{"type":"Feature","properties":{"tier":"arterial"},"geometry":{"type":"LineString","coordinates":[[137.87835,-34.566038],[137.877866,-34.565681],[137.877457,-34.565323],[137.877236,-34.565104],[137.877078,-34.564931],[137.876851,-34.564652],[137.876688,-34.564432],[137.876383,-34.563999],[137.876126,-34.56355],[137.875939,-34.562812],[137.875902,-34.562689],[137.87585,-34.562374],[137.875779,-34.561878],[137.875754,-34.56114],[137.875796,-34.559812],[137.8759,-34.558147]]}},{"type":"Feature","properties":{"tier":"arterial"},"geometry":{"type":"LineString","coordinates":[[137.8759,-34.558147],[137.876264,-34.556846],[137.876543,-34.556112],[137.876597,-34.556002],[137.876779,-34.555633],[137.876921,-34.55537],[137.877189,-34.554946],[137.877361,-34.554707],[137.877541,-34.554458],[137.877713,-34.55423],[137.8779,-34.554007],[137.878217,-34.553663],[137.878509,-34.553364],[137.878828,-34.55304],[137.87911,-34.552746],[137.879485,-34.552335],[137.88,-34.551743],[137.880355,-34.551303],[137.880754,-34.550784],[137.881148,-34.550245],[137.881478,-34.549766],[137.88187,-34.549141],[137.88231,-34.548389],[137.882626,-34.547786],[137.882999,-34.547042],[137.883254,-34.546454],[137.88349,-34.545847],[137.883713,-34.545248],[137.883849,-34.544782],[137.883935,-34.544488],[137.884004,-34.54424],[137.88404,-34.544108],[137.884185,-34.543597],[137.884295,-34.543094],[137.884405,-34.542502],[137.884515,-34.541863],[137.884582,-34.541282],[137.884625,-34.540754],[137.884673,-34.53989],[137.884692,-34.539316],[137.884684,-34.538841],[137.884673,-34.538008],[137.884627,-34.53725],[137.884574,-34.536759],[137.88445,-34.536013],[137.884338,-34.535376],[137.884316,-34.535284],[137.884214,-34.534844],[137.884059,-34.534247],[137.883898,-34.533712],[137.883707,-34.533142],[137.883538,-34.532654],[137.88334,-34.532124],[137.883133,-34.531642],[137.883043,-34.53145],[137.882836,-34.531008],[137.882522,-34.530383],[137.882221,-34.529834],[137.881999,-34.529454],[137.881744,-34.529037],[137.881403,-34.528502],[137.881073,-34.528022],[137.880754,-34.527521],[137.880537,-34.527136],[137.880419,-34.526896],[137.880156,-34.526188],[137.880049,-34.525824],[137.880006,-34.525605],[137.879958,-34.525289],[137.879917,-34.525026],[137.879904,-34.524807],[137.879883,-34.524288],[137.879874,-34.523824],[137.879872,-34.523589]]}},{"type":"Feature","properties":{"tier":"arterial"},"geometry":{"type":"LineString","coordinates":[[137.879982,-34.529343],[137.879968,-34.528149],[137.879904,-34.526896],[137.879781,-34.526306],[137.879702,-34.525787],[137.879692,-34.525084],[137.879697,-34.524485],[137.879703,-34.524109],[137.879748,-34.523866],[137.879872,-34.523589]]}},{"type":"Feature","properties":{"tier":"regional"},"geometry":{"type":"LineString","coordinates":[[137.564537,-34.752931],[137.563952,-34.752823],[137.563532,-34.752765],[137.563203,-34.752746],[137.562873,-34.75275],[137.56159,-34.75283],[137.560609,-34.752903],[137.56,-34.752921],[137.55957,-34.752886],[137.559083,-34.752791],[137.558719,-34.752691],[137.55843,-34.752583],[137.558144,-34.752438],[137.557822,-34.752274],[137.557684,-34.752173],[137.557461,-34.752023],[137.55724,-34.75183],[137.556972,-34.751548],[137.556734,-34.751228],[137.556557,-34.750944],[137.556363,-34.750605],[137.556333,-34.750564]]}}]}
