{"type":"FeatureCollection","features":[{"type":"Feature","properties":{"tier":"regional"},"geometry":{"type":"LineString","coordinates":[[137.77462,-32.500731],[137.774528,-32.500849],[137.774547,-32.501041],[137.7746,-32.501577],[137.774609,-32.501678],[137.774684,-32.502204],[137.774763,-32.502744],[137.774834,-32.503266],[137.774852,-32.503395],[137.774942,-32.504143],[137.775013,-32.504777],[137.775162,-32.505865],[137.775167,-32.506007],[137.775322,-32.507239],[137.775377,-32.507561],[137.775448,-32.508209],[137.775458,-32.508294],[137.775494,-32.508591],[137.775546,-32.508996],[137.775566,-32.509072],[137.775723,-32.509177],[137.77578,-32.509308]]}},{"type":"Feature","properties":{"tier":"high"},"geometry":{"type":"LineString","coordinates":[[137.509291,-32.724699],[137.51063,-32.726859],[137.510698,-32.72694],[137.512002,-32.728585],[137.513331,-32.730104],[137.515773,-32.732708],[137.516681,-32.733751],[137.517609,-32.735074],[137.519026,-32.737642],[137.519812,-32.739579],[137.523571,-32.750609],[137.526201,-32.758325],[137.534873,-32.783767],[137.535659,-32.785898],[137.53606,-32.787295],[137.536397,-32.788555],[137.536961,-32.790996],[137.543215,-32.817622],[137.545767,-32.828482],[137.550581,-32.849291],[137.552679,-32.85731],[137.554606,-32.865524],[137.55514,-32.867781],[137.555242,-32.868313],[137.555318,-32.868803],[137.555394,-32.869383],[137.555456,-32.870028],[137.555449,-32.870665],[137.555425,-32.871344],[137.555347,-32.871967],[137.555232,-32.872723],[137.555109,-32.873285],[137.554934,-32.873988],[137.554689,-32.874771],[137.554442,-32.875561],[137.554303,-32.876122],[137.554193,-32.876852],[137.554135,-32.877444],[137.554106,-32.877977],[137.554085,-32.878663],[137.554159,-32.879779],[137.554355,-32.881045],[137.554735,-32.882332],[137.555115,-32.883417],[137.555915,-32.884878],[137.556945,-32.886463],[137.558079,-32.887761],[137.558763,-32.888651],[137.559143,-32.889189],[137.559621,-32.889973],[137.560066,-32.890958],[137.560498,-32.892096],[137.560967,-32.893773],[137.561426,-32.895692],[137.565933,-32.914901],[137.566277,-32.916341],[137.569049,-32.928173],[137.570511,-32.933517],[137.571743,-32.938802],[137.573611,-32.946704],[137.576918,-32.961372],[137.580793,-32.977842],[137.581132,-32.979285],[137.58193,-32.982675],[137.582075,-32.983686],[137.582043,-32.984833],[137.579747,-32.991604],[137.578487,-32.995136],[137.57783,-32.996968],[137.577325,-32.998376]]}},{"type":"Feature","properties":{"tier":"arterial"},"geometry":{"type":"LineString","coordinates":[[137.571743,-32.938802],[137.572507,-32.938428],[137.576339,-32.936759],[137.588781,-32.931372],[137.589849,-32.930945],[137.591707,-32.93032],[137.59277,-32.929919],[137.61204,-32.921535],[137.61994,-32.918098],[137.622489,-32.916752],[137.627395,-32.914012],[137.630118,-32.912812],[137.631644,-32.912504],[137.633093,-32.912374],[137.634618,-32.912407],[137.63597,-32.912602],[137.63906,-32.913639],[137.640335,-32.914417],[137.64201,-32.915838],[137.656482,-32.928149],[137.663086,-32.93372],[137.671198,-32.94056],[137.684487,-32.951766],[137.687017,-32.953856],[137.688272,-32.954894],[137.690243,-32.956389],[137.690493,-32.956579],[137.693525,-32.958086],[137.695035,-32.958682],[137.69677,-32.959237],[137.710966,-32.961506],[137.71844,-32.962575],[137.726784,-32.96392],[137.73026,-32.965071],[137.733312,-32.966545],[137.73673,-32.969121],[137.740825,-32.973334],[137.741598,-32.97395],[137.743877,-32.975473],[137.745286,-32.976137],[137.749284,-32.977806],[137.752954,-32.979783],[137.754398,-32.980523],[137.75442,-32.980534],[137.755403,-32.980962],[137.755814,-32.98112],[137.757121,-32.981524],[137.757649,-32.981664],[137.758589,-32.981882],[137.758785,-32.981918],[137.758944,-32.981948],[137.759055,-32.981968],[137.759506,-32.982034],[137.762428,-32.982274],[137.762555,-32.982284],[137.763767,-32.982442],[137.76448,-32.982534],[137.765978,-32.982935]]}},{"type":"Feature","properties":{"tier":"regional"},"geometry":{"type":"LineString","coordinates":[[137.981939,-32.850714],[137.982262,-32.850678],[137.982511,-32.850662],[137.983302,-32.850574],[137.986192,-32.850259],[137.990422,-32.849734],[137.995126,-32.84915],[137.999023,-32.848659],[138.00002,-32.848559]]}},{"type":"Feature","properties":{"tier":"arterial"},"geometry":{"type":"LineString","coordinates":[[137.822737,-32.520607],[137.823262,-32.520309],[137.824243,-32.519762]]}},{"type":"Feature","properties":{"tier":"regional"},"geometry":{"type":"LineString","coordinates":[[137.77728,-32.502502],[137.777336,-32.502536],[137.778217,-32.502921],[137.778979,-32.503228],[137.778995,-32.503233],[137.779081,-32.503259],[137.779622,-32.503426],[137.77983,-32.503515],[137.779885,-32.503558],[137.779986,-32.503636]]}},{"type":"Feature","properties":{"tier":"regional"},"geometry":{"type":"LineString","coordinates":[[137.836944,-32.509067],[137.836905,-32.508586],[137.83689,-32.508428],[137.836707,-32.506487],[137.836636,-32.505731],[137.83653,-32.504733],[137.836516,-32.504523],[137.836242,-32.503714],[137.835996,-32.503125],[137.835845,-32.502837],[137.835562,-32.502399],[137.835157,-32.501862],[137.834883,-32.501543],[137.833998,-32.501025],[137.832987,-32.500725],[137.831862,-32.500669],[137.831621,-32.50068],[137.830142,-32.500808],[137.829958,-32.500801],[137.829864,-32.500713],[137.829837,-32.500593],[137.829821,-32.500462]]}},{"type":"Feature","properties":{"tier":"regional"},"geometry":{"type":"LineString","coordinates":[[137.779986,-32.503636],[137.780074,-32.503773],[137.780099,-32.503894],[137.780091,-32.504265],[137.779993,-32.504539],[137.77968,-32.505208],[137.779133,-32.50628],[137.778801,-32.506782],[137.778597,-32.507152],[137.777957,-32.508553],[137.777812,-32.508826],[137.777742,-32.508967],[137.777551,-32.509352],[137.777344,-32.509755],[137.777241,-32.509963],[137.777033,-32.510353],[137.776864,-32.510679],[137.77642,-32.511534]]}},{"type":"Feature","properties":{"tier":"regional"},"geometry":{"type":"LineString","coordinates":[[137.785903,-32.505542],[137.785785,-32.505766],[137.785454,-32.506418],[137.785008,-32.506794],[137.784596,-32.506852],[137.784165,-32.506993],[137.784037,-32.507047],[137.783723,-32.507236],[137.783566,-32.507346],[137.783372,-32.507526],[137.783193,-32.507828],[137.782943,-32.508302],[137.782785,-32.508601],[137.782536,-32.509101],[137.782104,-32.509925],[137.781986,-32.51014],[137.781563,-32.510978],[137.781319,-32.511432],[137.78113,-32.511796],[137.780691,-32.512642],[137.780263,-32.513466],[137.779897,-32.514171],[137.779875,-32.514213]]}},{"type":"Feature","properties":{"tier":"regional"},"geometry":{"type":"LineString","coordinates":[[137.775013,-32.504777],[137.775671,-32.505017],[137.776714,-32.505397],[137.776855,-32.505449],[137.777516,-32.50569],[137.778306,-32.505978],[137.779037,-32.506245],[137.779133,-32.50628]]}},{"type":"Feature","properties":{"tier":"regional"},"geometry":{"type":"LineString","coordinates":[[137.779986,-32.503636],[137.77991,-32.503675]]}},{"type":"Feature","properties":{"tier":"regional"},"geometry":{"type":"LineString","coordinates":[[138.00002,-32.60777],[137.999837,-32.607634],[137.99285,-32.602314],[137.992274,-32.601903],[137.991809,-32.60162],[137.991265,-32.601357],[137.990593,-32.601],[137.987512,-32.599267],[137.986768,-32.598896],[137.980397,-32.595882],[137.976491,-32.594021],[137.971946,-32.591843],[137.968256,-32.590056],[137.967216,-32.589544],[137.966223,-32.589011],[137.963747,-32.587601],[137.962518,-32.586901],[137.957764,-32.584183],[137.95377,-32.58187],[137.94928,-32.57924],[137.944462,-32.576407],[137.939452,-32.573433],[137.934747,-32.570614],[137.929393,-32.567417],[137.92459,-32.564598],[137.922977,-32.56365]]}},{"type":"Feature","properties":{"tier":"arterial"},"geometry":{"type":"LineString","coordinates":[[137.821698,-32.5206],[137.822023,-32.520704],[137.822186,-32.520722],[137.822377,-32.520714],[137.822555,-32.520673],[137.822737,-32.520607]]}},{"type":"Feature","properties":{"tier":"high"},"geometry":{"type":"LineString","coordinates":[[137.78156,-32.50351],[137.781288,-32.503175]]}},{"type":"Feature","properties":{"tier":"regional"},"geometry":{"type":"LineString","coordinates":[[137.826718,-32.51838],[137.826787,-32.51842],[137.830387,-32.520517],[137.831684,-32.521269],[137.831715,-32.521287],[137.832745,-32.521904],[137.833574,-32.522235],[137.833904,-32.522352],[137.834565,-32.522527],[137.835368,-32.522685],[137.83593,-32.522789],[137.836989,-32.522984],[137.837347,-32.523052],[137.838872,-32.523344],[137.840317,-32.52362],[137.841056,-32.523761],[137.841795,-32.523916],[137.842281,-32.524049],[137.842903,-32.524264],[137.843386,-32.524448],[137.843753,-32.5246],[137.84408,-32.524773]]}},{"type":"Feature","properties":{"tier":"arterial"},"geometry":{"type":"LineString","coordinates":[[137.822737,-32.520607],[137.82256,-32.520744],[137.82252,-32.520803],[137.822502,-32.520892],[137.822523,-32.520978],[137.822568,-32.521044],[137.822653,-32.521121],[137.82291,-32.521345]]}},{"type":"Feature","properties":{"tier":"regional"},"geometry":{"type":"LineString","coordinates":[[137.783566,-32.507346],[137.783052,-32.507087],[137.782573,-32.506882],[137.781144,-32.506303],[137.780894,-32.506149],[137.780658,-32.505976],[137.780472,-32.505818],[137.780089,-32.505396],[137.779971,-32.505327],[137.77968,-32.505208],[137.779583,-32.505175]]}},{"type":"Feature","properties":{"tier":"regional"},"geometry":{"type":"LineString","coordinates":[[137.623952,-32.579028],[137.624342,-32.578737],[137.624536,-32.578592],[137.626034,-32.577507],[137.62697,-32.576828],[137.627385,-32.576558],[137.627897,-32.576325],[137.628387,-32.576198],[137.630259,-32.57585],[137.630708,-32.575736],[137.630878,-32.575677],[137.63103,-32.575625],[137.631571,-32.575375],[137.632038,-32.575151]]}},{"type":"Feature","properties":{"tier":"regional"},"geometry":{"type":"LineString","coordinates":[[137.996712,-32.61274],[137.996756,-32.612536],[137.997262,-32.61193],[137.9986,-32.61007],[137.999296,-32.609142],[137.999493,-32.608981],[137.999813,-32.60882],[138.00002,-32.608721]]}},{"type":"Feature","properties":{"tier":"regional"},"geometry":{"type":"LineString","coordinates":[[137.785036,-32.501578],[137.784962,-32.501601],[137.784881,-32.501591],[137.783877,-32.50117],[137.781164,-32.500181],[137.780619,-32.49998]]}},{"type":"Feature","properties":{"tier":"regional"},"geometry":{"type":"LineString","coordinates":[[137.776334,-32.511511],[137.776474,-32.511248],[137.776556,-32.511081],[137.776781,-32.510649],[137.776953,-32.510311],[137.777154,-32.509929],[137.777253,-32.509722],[137.777464,-32.509321],[137.777646,-32.508944],[137.777765,-32.508717],[137.777873,-32.508517],[137.778502,-32.507117],[137.778705,-32.506746],[137.779037,-32.506245],[137.779583,-32.505175],[137.779862,-32.504626],[137.779993,-32.504242],[137.780026,-32.503896],[137.780007,-32.503802],[137.779967,-32.503736],[137.77991,-32.503675]]}},{"type":"Feature","properties":{"tier":"regional"},"geometry":{"type":"LineString","coordinates":[[137.77991,-32.503675],[137.779833,-32.503613],[137.779735,-32.503553],[137.779552,-32.503486],[137.779286,-32.503394],[137.778842,-32.503239],[137.778159,-32.503001],[137.777619,-32.502785],[137.777268,-32.502619],[137.777161,-32.502563]]}},{"type":"Feature","properties":{"tier":"regional"},"geometry":{"type":"LineString","coordinates":[[137.774528,-32.500849],[137.773259,-32.49998]]}},{"type":"Feature","properties":{"tier":"regional"},"geometry":{"type":"LineString","coordinates":[[137.773512,-32.49998],[137.774339,-32.500544],[137.77462,-32.500731]]}},{"type":"Feature","properties":{"tier":"arterial"},"geometry":{"type":"LineString","coordinates":[[137.765978,-32.982935],[137.767849,-32.983557],[137.771612,-32.984998],[137.771728,-32.985043],[137.772334,-32.985284],[137.772952,-32.985531],[137.773978,-32.985907],[137.774606,-32.98615],[137.774881,-32.98627],[137.775029,-32.986334],[137.775335,-32.98651],[137.775534,-32.98664],[137.775705,-32.98678],[137.775828,-32.9869],[137.775861,-32.986933],[137.776038,-32.987117],[137.776059,-32.987143],[137.77622,-32.987342],[137.776333,-32.987513],[137.776424,-32.987671],[137.776521,-32.987869],[137.776607,-32.988107],[137.776676,-32.988301],[137.776746,-32.988472],[137.776761,-32.988505],[137.776816,-32.988625],[137.776891,-32.988751],[137.776955,-32.988872],[137.77704,-32.988983],[137.777116,-32.989084],[137.777234,-32.989237],[137.777433,-32.989435],[137.777669,-32.989637],[137.778001,-32.989898],[137.778346,-32.990222],[137.778586,-32.990447],[137.778715,-32.990595],[137.778908,-32.990829],[137.779332,-32.991378],[137.780104,-32.992377],[137.780517,-32.992931],[137.780571,-32.993004],[137.780692,-32.993166],[137.780768,-32.993267],[137.780847,-32.993373]]}},{"type":"Feature","properties":{"tier":"high"},"geometry":{"type":"LineString","coordinates":[[137.805049,-32.511554],[137.804704,-32.511488],[137.803866,-32.511337],[137.803381,-32.511249],[137.802898,-32.511152],[137.800773,-32.510726],[137.800004,-32.510576],[137.799982,-32.510571],[137.798626,-32.510309],[137.798077,-32.510184],[137.797781,-32.510107],[137.79742,-32.509981],[137.794905,-32.509066],[137.791569,-32.507847],[137.78861,-32.506801],[137.788329,-32.506693],[137.787582,-32.506407],[137.787198,-32.506261]]}},{"type":"Feature","properties":{"tier":"high"},"geometry":{"type":"LineString","coordinates":[[137.818532,-32.518696],[137.818666,-32.518777],[137.819007,-32.518987],[137.819811,-32.519444],[137.820975,-32.520162],[137.821698,-32.5206]]}},{"type":"Feature","properties":{"tier":"high"},"geometry":{"type":"LineString","coordinates":[[137.800066,-32.510362],[137.802997,-32.510928],[137.803452,-32.511019],[137.8051,-32.511319],[137.805632,-32.511423],[137.808121,-32.511926],[137.809171,-32.512157],[137.809627,-32.512295]]}},{"type":"Feature","properties":{"tier":"high"},"geometry":{"type":"LineString","coordinates":[[137.973929,-32.819582],[137.970381,-32.81462],[137.965785,-32.808204],[137.964682,-32.806653],[137.964277,-32.806087],[137.964027,-32.80574],[137.963549,-32.804987],[137.963047,-32.804168],[137.962576,-32.80334],[137.962201,-32.802647],[137.961922,-32.802096],[137.961482,-32.801153],[137.961112,-32.800281],[137.960904,-32.799765],[137.960544,-32.798782],[137.959817,-32.796764],[137.9581,-32.791958],[137.956375,-32.78714],[137.956017,-32.786159],[137.955379,-32.784353],[137.955162,-32.783678],[137.95489,-32.782725],[137.954659,-32.781768],[137.954476,-32.780902],[137.954318,-32.780057],[137.954206,-32.779261],[137.954117,-32.778514],[137.954078,-32.778106],[137.954038,-32.77755],[137.954006,-32.777046],[137.953985,-32.77643],[137.953978,-32.775642],[137.953992,-32.774835],[137.954031,-32.773991],[137.95406,-32.773323],[137.954078,-32.772823],[137.954082,-32.772355],[137.954072,-32.771661],[137.954052,-32.771053],[137.954024,-32.770596],[137.953987,-32.770111],[137.953936,-32.769579],[137.953877,-32.769038],[137.953813,-32.768559],[137.953694,-32.7678],[137.953546,-32.767012],[137.95336,-32.76615],[137.953146,-32.765313],[137.952921,-32.764532],[137.952673,-32.763738],[137.952183,-32.762393],[137.951788,-32.761431],[137.951186,-32.760127],[137.948169,-32.753693],[137.945131,-32.74723],[137.944311,-32.745468],[137.943751,-32.744282],[137.943433,-32.743575],[137.943142,-32.742851],[137.942815,-32.742001],[137.942515,-32.741117],[137.942229,-32.740203],[137.942005,-32.739317],[137.94185,-32.73865],[137.941712,-32.737963],[137.94155,-32.737033],[137.941402,-32.735987],[137.940968,-32.732845],[137.940563,-32.729931],[137.940441,-32.729035],[137.940359,-32.728437],[137.940126,-32.726742],[137.940011,-32.725697],[137.939929,-32.724748],[137.939872,-32.723838],[137.939838,-32.72316],[137.939807,-32.722224],[137.939798,-32.721331],[137.939806,-32.720359],[137.939845,-32.71916],[137.939888,-32.718355],[137.939972,-32.717221],[137.940096,-32.716029],[137.940302,-32.714474],[137.940555,-32.712959],[137.940834,-32.71156],[137.941171,-32.710015],[137.941501,-32.708489],[137.941699,-32.707526],[137.941773,-32.707128],[137.941915,-32.706294],[137.942042,-32.705412],[137.94212,-32.704785],[137.942138,-32.704619],[137.942186,-32.704152],[137.942271,-32.703156],[137.942285,-32.702936],[137.942321,-32.702377],[137.942347,-32.701631],[137.942358,-32.700857],[137.942353,-32.700071],[137.942338,-32.699273],[137.942298,-32.698493],[137.942243,-32.697643],[137.942159,-32.696736],[137.942099,-32.696222],[137.942002,-32.69549],[137.941874,-32.694668],[137.941846,-32.694506],[137.941729,-32.693823],[137.941587,-32.693104],[137.941428,-32.692383],[137.941255,-32.691658],[137.941096,-32.691043],[137.940894,-32.690345],[137.94065,-32.68952],[137.940487,-32.689008],[137.940328,-32.688533],[137.939431,-32.685976],[137.939089,-32.684993],[137.938358,-32.682913],[137.93763,-32.680987],[137.936959,-32.679321],[137.936233,-32.6776],[137.93293,-32.669762],[137.930847,-32.664822],[137.929937,-32.662656],[137.92965,-32.661921],[137.929327,-32.661093],[137.928707,-32.659423],[137.928264,-32.658168],[137.92795,-32.657224],[137.927288,-32.65511],[137.926743,-32.653184],[137.926033,-32.650517],[137.925571,-32.648793]]}},{"type":"Feature","properties":{"tier":"high"},"geometry":{"type":"LineString","coordinates":[[137.818069,-32.518519],[137.817833,-32.518376],[137.816936,-32.517842],[137.816336,-32.517428],[137.816038,-32.5172],[137.815705,-32.516939],[137.815335,-32.516615]]}},{"type":"Feature","properties":{"tier":"high"},"geometry":{"type":"LineString","coordinates":[[137.818457,-32.518757],[137.818069,-32.518519]]}},{"type":"Feature","properties":{"tier":"high"},"geometry":{"type":"LineString","coordinates":[[137.994907,-32.993331],[137.995378,-32.993518],[137.995699,-32.993652]]}},{"type":"Feature","properties":{"tier":"high"},"geometry":{"type":"LineString","coordinates":[[137.818136,-32.518452],[137.81821,-32.518498],[137.818532,-32.518696]]}},{"type":"Feature","properties":{"tier":"high"},"geometry":{"type":"LineString","coordinates":[[137.787198,-32.506261],[137.786925,-32.506161],[137.785785,-32.505766],[137.784856,-32.505413],[137.783738,-32.505012]]}},{"type":"Feature","properties":{"tier":"high"},"geometry":{"type":"LineString","coordinates":[[137.783738,-32.505012],[137.784211,-32.505121],[137.784444,-32.505156],[137.784776,-32.505214],[137.785432,-32.505403],[137.785903,-32.505542],[137.787304,-32.506069]]}},{"type":"Feature","properties":{"tier":"high"},"geometry":{"type":"LineString","coordinates":[[137.783738,-32.505012],[137.783529,-32.504933],[137.78325,-32.504816],[137.783051,-32.504719],[137.782864,-32.504614],[137.782683,-32.504507],[137.782514,-32.504393],[137.782225,-32.504173],[137.782069,-32.504044],[137.781884,-32.503868],[137.78173,-32.50371],[137.78156,-32.50351]]}},{"type":"Feature","properties":{"tier":"high"},"geometry":{"type":"LineString","coordinates":[[137.829482,-32.52571],[137.828021,-32.524832],[137.826994,-32.524208],[137.826339,-32.523784],[137.824322,-32.522557]]}},{"type":"Feature","properties":{"tier":"arterial"},"geometry":{"type":"LineString","coordinates":[[137.917073,-32.627339],[137.916494,-32.627442],[137.916376,-32.627463],[137.916095,-32.627513]]}},{"type":"Feature","properties":{"tier":"high"},"geometry":{"type":"LineString","coordinates":[[137.778234,-32.49998],[137.77865,-32.500284],[137.778748,-32.500358],[137.779122,-32.500669],[137.779319,-32.500835],[137.779607,-32.501111],[137.779931,-32.501438],[137.780013,-32.501537],[137.780479,-32.502102],[137.781288,-32.503175]]}},{"type":"Feature","properties":{"tier":"high"},"geometry":{"type":"LineString","coordinates":[[137.781288,-32.503175],[137.780501,-32.502259],[137.780009,-32.501659],[137.779941,-32.501586],[137.779859,-32.501483],[137.779337,-32.500975],[137.779234,-32.50088],[137.779058,-32.500733],[137.77865,-32.500394],[137.778168,-32.500039],[137.778113,-32.499998],[137.778086,-32.49998]]}},{"type":"Feature","properties":{"tier":"high"},"geometry":{"type":"LineString","coordinates":[[137.702438,-32.49998],[137.665634,-32.525616],[137.640504,-32.543101],[137.639239,-32.543981],[137.636666,-32.545769],[137.635642,-32.546606],[137.635019,-32.547227],[137.63434,-32.548044],[137.633735,-32.548892],[137.633229,-32.549855],[137.632795,-32.550916],[137.632058,-32.552856],[137.627431,-32.565202],[137.625022,-32.571704],[137.623247,-32.576343],[137.622676,-32.577912],[137.622345,-32.578647]]}},{"type":"Feature","properties":{"tier":"high"},"geometry":{"type":"LineString","coordinates":[[137.567644,-32.620294],[137.565553,-32.621797],[137.564527,-32.622589],[137.563329,-32.62364],[137.561927,-32.625096],[137.560588,-32.626193],[137.559061,-32.627173],[137.558323,-32.627591],[137.557403,-32.628112]]}},{"type":"Feature","properties":{"tier":"high"},"geometry":{"type":"LineString","coordinates":[[137.568271,-32.618406],[137.568966,-32.618536],[137.569281,-32.618554],[137.569694,-32.618508],[137.570019,-32.618431],[137.570251,-32.618343],[137.57113,-32.617806]]}},{"type":"Feature","properties":{"tier":"arterial"},"geometry":{"type":"LineString","coordinates":[[137.845257,-32.517427],[137.846845,-32.517305],[137.848708,-32.517131]]}},{"type":"Feature","properties":{"tier":"regional"},"geometry":{"type":"LineString","coordinates":[[137.998484,-33.00002],[137.996527,-32.996896],[137.994914,-32.99467],[137.994561,-32.994281],[137.994156,-32.993925],[137.993578,-32.993569],[137.990869,-32.992046],[137.990356,-32.991758],[137.989991,-32.991504],[137.989747,-32.991318],[137.989638,-32.991206],[137.989602,-32.991145],[137.989576,-32.99108],[137.989559,-32.991014],[137.989555,-32.990949],[137.989564,-32.99086],[137.989583,-32.990801],[137.989641,-32.990694]]}},{"type":"Feature","properties":{"tier":"regional"},"geometry":{"type":"LineString","coordinates":[[137.836944,-32.509067],[137.836934,-32.509384],[137.836885,-32.509653],[137.836098,-32.512574],[137.835692,-32.514055],[137.835189,-32.516099],[137.834852,-32.517359]]}},{"type":"Feature","properties":{"tier":"regional"},"geometry":{"type":"LineString","coordinates":[[137.829821,-32.500462],[137.829811,-32.50036],[137.829792,-32.500221],[137.829706,-32.500144],[137.829559,-32.500122],[137.826108,-32.500329],[137.820054,-32.500696],[137.815483,-32.50098],[137.81308,-32.501119],[137.812555,-32.50113],[137.812435,-32.501121],[137.812098,-32.501096],[137.809662,-32.501121],[137.806039,-32.501419],[137.804628,-32.501509],[137.803953,-32.5014],[137.803262,-32.501119],[137.801733,-32.49998]]}},{"type":"Feature","properties":{"tier":"high"},"geometry":{"type":"LineString","coordinates":[[137.809627,-32.512295],[137.810046,-32.512436],[137.810865,-32.512755],[137.811697,-32.513165],[137.81224,-32.513492],[137.812755,-32.513834],[137.813225,-32.51417],[137.813997,-32.514845],[137.815545,-32.516487]]}},{"type":"Feature","properties":{"tier":"arterial"},"geometry":{"type":"LineString","coordinates":[[137.831269,-32.517164],[137.834852,-32.517359],[137.836683,-32.517446],[137.837235,-32.517477],[137.837322,-32.517488],[137.837723,-32.517541],[137.838063,-32.517631],[137.838209,-32.517675],[137.838634,-32.517802],[137.83893,-32.51787],[137.839237,-32.517904],[137.839539,-32.517904],[137.839585,-32.5179],[137.840097,-32.517864],[137.840831,-32.517797],[137.841173,-32.517767],[137.841365,-32.517753],[137.841536,-32.517741],[137.842242,-32.517681],[137.843491,-32.517575],[137.845257,-32.517427]]}},{"type":"Feature","properties":{"tier":"regional"},"geometry":{"type":"LineString","coordinates":[[137.638085,-32.568722],[137.638368,-32.568529]]}},{"type":"Feature","properties":{"tier":"regional"},"geometry":{"type":"LineString","coordinates":[[137.645543,-32.56326],[137.646157,-32.562812],[137.647052,-32.562159],[137.651425,-32.559044],[137.65483,-32.556488],[137.655216,-32.556213],[137.655414,-32.55602],[137.65561,-32.555814],[137.655797,-32.555503],[137.656242,-32.554761],[137.656588,-32.55433],[137.657028,-32.553975],[137.657635,-32.553686],[137.658699,-32.553265],[137.659348,-32.552968],[137.661717,-32.551489],[137.662229,-32.551122],[137.665763,-32.548542],[137.671161,-32.544621],[137.672544,-32.543582],[137.673014,-32.543266],[137.67346,-32.543022],[137.6788,-32.540272],[137.683576,-32.537811],[137.692636,-32.533085],[137.693436,-32.532654],[137.699774,-32.529247],[137.706324,-32.525694],[137.7083,-32.524638],[137.708609,-32.52446],[137.709346,-32.524038],[137.709723,-32.523756],[137.710365,-32.523362],[137.710806,-32.523138],[137.711658,-32.522807],[137.711947,-32.522694],[137.712868,-32.522198],[137.719419,-32.518669],[137.726361,-32.514876],[137.727483,-32.514207],[137.730282,-32.512872],[137.734288,-32.510974],[137.736724,-32.509831],[137.737216,-32.509593],[137.737677,-32.50934],[137.738147,-32.508989],[137.738575,-32.508568],[137.739021,-32.507982],[137.739472,-32.507143],[137.740143,-32.505854],[137.74047,-32.505225],[137.741044,-32.504104],[137.741562,-32.503236],[137.742566,-32.501669],[137.742785,-32.501307],[137.743165,-32.500516],[137.743405,-32.49998]]}},{"type":"Feature","properties":{"tier":"regional"},"geometry":{"type":"LineString","coordinates":[[137.84408,-32.524773],[137.84449,-32.52502],[137.844627,-32.525122],[137.845078,-32.525479],[137.84555,-32.525877],[137.846002,-32.526324],[137.846304,-32.526661],[137.846421,-32.526788]]}},{"type":"Feature","properties":{"tier":"high"},"geometry":{"type":"LineString","coordinates":[[137.506914,-32.705286],[137.505308,-32.70692],[137.505221,-32.707031],[137.504969,-32.707354],[137.504607,-32.707918],[137.504374,-32.7084],[137.504193,-32.708926],[137.504038,-32.709453],[137.503944,-32.709956],[137.503887,-32.710532],[137.503894,-32.711152],[137.503957,-32.711779],[137.504094,-32.712493],[137.504304,-32.713112],[137.507637,-32.720849],[137.508451,-32.722887],[137.509125,-32.724341],[137.509291,-32.724699]]}},{"type":"Feature","properties":{"tier":"high"},"geometry":{"type":"LineString","coordinates":[[137.507847,-32.704333],[137.506914,-32.705286]]}},{"type":"Feature","properties":{"tier":"regional"},"geometry":{"type":"LineString","coordinates":[[137.846421,-32.526788],[137.846847,-32.527264],[137.84729,-32.528168],[137.848921,-32.531714],[137.849307,-32.532595],[137.850938,-32.535417],[137.852354,-32.537829],[137.85326,-32.539388],[137.852861,-32.540058]]}},{"type":"Feature","properties":{"tier":"high"},"geometry":{"type":"LineString","coordinates":[[137.815335,-32.516615],[137.815142,-32.516436],[137.813691,-32.514944],[137.813028,-32.514414],[137.812734,-32.514191],[137.812282,-32.513868],[137.81165,-32.513478],[137.811475,-32.51337],[137.810708,-32.512999],[137.809995,-32.512701],[137.809767,-32.512623],[137.809309,-32.512467],[137.809084,-32.5124],[137.808594,-32.512282],[137.808058,-32.512161],[137.80585,-32.511716],[137.805049,-32.511554]]}},{"type":"Feature","properties":{"tier":"high"},"geometry":{"type":"LineString","coordinates":[[137.815871,-32.516792],[137.815934,-32.516856],[137.816286,-32.517162],[137.816722,-32.517511],[137.817073,-32.517768],[137.817642,-32.518148],[137.818136,-32.518452]]}},{"type":"Feature","properties":{"tier":"arterial"},"geometry":{"type":"LineString","coordinates":[[137.848708,-32.517131],[137.849298,-32.517035],[137.849863,-32.516837],[137.850436,-32.516542]]}},{"type":"Feature","properties":{"tier":"high"},"geometry":{"type":"LineString","coordinates":[[137.7952,-32.5089],[137.797582,-32.509788],[137.798094,-32.509944],[137.798449,-32.510027],[137.800066,-32.510362]]}},{"type":"Feature","properties":{"tier":"high"},"geometry":{"type":"LineString","coordinates":[[137.787304,-32.506069],[137.78772,-32.506229],[137.788717,-32.506572],[137.791698,-32.50764],[137.7952,-32.5089]]}},{"type":"Feature","properties":{"tier":"high"},"geometry":{"type":"LineString","coordinates":[[137.995699,-32.993652],[137.99669,-32.994055],[137.997742,-32.994489],[137.998321,-32.994721],[137.998787,-32.994918],[137.999183,-32.995096],[137.999573,-32.995293],[137.99991,-32.995458],[138.00002,-32.995513]]}},{"type":"Feature","properties":{"tier":"high"},"geometry":{"type":"LineString","coordinates":[[137.981557,-32.843834],[137.981527,-32.843214]]}},{"type":"Feature","properties":{"tier":"high"},"geometry":{"type":"LineString","coordinates":[[137.994907,-32.993331],[137.993788,-32.992889],[137.992679,-32.992434],[137.992256,-32.99225],[137.991869,-32.992065],[137.991488,-32.991867],[137.991131,-32.991669],[137.990363,-32.991206],[137.990144,-32.991059],[137.989641,-32.990694],[137.989294,-32.990418],[137.988856,-32.990048],[137.988377,-32.989597],[137.988078,-32.989288],[137.987787,-32.98897],[137.987503,-32.988634],[137.987318,-32.988399],[137.987139,-32.988157],[137.986791,-32.987662],[137.986529,-32.987239],[137.986419,-32.987046],[137.98629,-32.9868],[137.986146,-32.986523],[137.985996,-32.986206],[137.985868,-32.985931],[137.985736,-32.985619],[137.985628,-32.985318],[137.985446,-32.984744],[137.984874,-32.982772]]}},{"type":"Feature","properties":{"tier":"high"},"geometry":{"type":"LineString","coordinates":[[137.840299,-32.532358],[137.839826,-32.532067]]}},{"type":"Feature","properties":{"tier":"high"},"geometry":{"type":"LineString","coordinates":[[137.839826,-32.532067],[137.837341,-32.53054],[137.833283,-32.528051],[137.832047,-32.527293],[137.830431,-32.526288],[137.829482,-32.52571]]}},{"type":"Feature","properties":{"tier":"high"},"geometry":{"type":"LineString","coordinates":[[137.822194,-32.520909],[137.82291,-32.521345]]}},{"type":"Feature","properties":{"tier":"arterial"},"geometry":{"type":"LineString","coordinates":[[137.822656,-32.521443],[137.822277,-32.521106],[137.822208,-32.521023],[137.822183,-32.520985],[137.822176,-32.520944],[137.822194,-32.520909]]}},{"type":"Feature","properties":{"tier":"arterial"},"geometry":{"type":"LineString","coordinates":[[137.822194,-32.520909],[137.822257,-32.520874],[137.822737,-32.520607]]}},{"type":"Feature","properties":{"tier":"arterial"},"geometry":{"type":"LineString","coordinates":[[137.822194,-32.520909],[137.822088,-32.52091],[137.821953,-32.520876],[137.821381,-32.520561]]}},{"type":"Feature","properties":{"tier":"high"},"geometry":{"type":"LineString","coordinates":[[137.815545,-32.516487],[137.815871,-32.516792]]}},{"type":"Feature","properties":{"tier":"arterial"},"geometry":{"type":"LineString","coordinates":[[137.826718,-32.51838],[137.827823,-32.517744],[137.828452,-32.517499],[137.828969,-32.517342],[137.829631,-32.517209],[137.830402,-32.517138],[137.831042,-32.517152],[137.831269,-32.517164]]}},{"type":"Feature","properties":{"tier":"arterial"},"geometry":{"type":"LineString","coordinates":[[137.516902,-33.00002],[137.511912,-32.997695],[137.509755,-32.996702],[137.50971,-32.996681],[137.507112,-32.995476],[137.50582,-32.994877],[137.504256,-32.994161],[137.500391,-32.992391],[137.49998,-32.992202]]}},{"type":"Feature","properties":{"tier":"high"},"geometry":{"type":"LineString","coordinates":[[137.577325,-32.998376],[137.577322,-32.998387],[137.577244,-32.998604],[137.577238,-32.998624]]}},{"type":"Feature","properties":{"tier":"high"},"geometry":{"type":"LineString","coordinates":[[137.577238,-32.998624],[137.57692,-32.999758],[137.57687,-33.00002]]}},{"type":"Feature","properties":{"tier":"high"},"geometry":{"type":"LineString","coordinates":[[137.556989,-32.628346],[137.55644,-32.628657],[137.553865,-32.630053],[137.551209,-32.631588],[137.550173,-32.632332],[137.547229,-32.634448],[137.543662,-32.637067],[137.543132,-32.637484],[137.542554,-32.637983],[137.542237,-32.638284],[137.541971,-32.638557],[137.541676,-32.638896],[137.541334,-32.639312],[137.541065,-32.639666],[137.540844,-32.639984],[137.540592,-32.640402],[137.540359,-32.640828],[137.540192,-32.641148],[137.539982,-32.641565],[137.535792,-32.65044],[137.533566,-32.655208]]}},{"type":"Feature","properties":{"tier":"high"},"geometry":{"type":"LineString","coordinates":[[137.557403,-32.628112],[137.556989,-32.628346]]}},{"type":"Feature","properties":{"tier":"high"},"geometry":{"type":"LineString","coordinates":[[137.569668,-32.61887],[137.569221,-32.618718]]}},{"type":"Feature","properties":{"tier":"high"},"geometry":{"type":"LineString","coordinates":[[137.612309,-32.587749],[137.608339,-32.590647],[137.581489,-32.610237],[137.578692,-32.612278],[137.57726,-32.613322],[137.57511,-32.614892],[137.574879,-32.61506],[137.574555,-32.615296],[137.572894,-32.616508]]}},{"type":"Feature","properties":{"tier":"high"},"geometry":{"type":"LineString","coordinates":[[137.821698,-32.5206],[137.822194,-32.520909]]}},{"type":"Feature","properties":{"tier":"high"},"geometry":{"type":"LineString","coordinates":[[137.981706,-32.846469],[137.981681,-32.846033]]}},{"type":"Feature","properties":{"tier":"high"},"geometry":{"type":"LineString","coordinates":[[137.981681,-32.846033],[137.981591,-32.844435],[137.981557,-32.843834]]}},{"type":"Feature","properties":{"tier":"high"},"geometry":{"type":"LineString","coordinates":[[137.87529,-32.569886],[137.875166,-32.569702]]}},{"type":"Feature","properties":{"tier":"high"},"geometry":{"type":"LineString","coordinates":[[137.875166,-32.569702],[137.871137,-32.563744],[137.867823,-32.55884],[137.866875,-32.557413],[137.865767,-32.555841],[137.864575,-32.554177],[137.863671,-32.55297],[137.863069,-32.552138],[137.862217,-32.550982],[137.861851,-32.550476],[137.86101,-32.549354],[137.860631,-32.548814],[137.859807,-32.547713],[137.859183,-32.546811],[137.858971,-32.546535],[137.857953,-32.54516],[137.856843,-32.543678],[137.856535,-32.54328],[137.856218,-32.542909],[137.855966,-32.542622],[137.8557,-32.542341],[137.855254,-32.5419],[137.854773,-32.541467],[137.85455,-32.541281],[137.854294,-32.541069],[137.854021,-32.540861],[137.853735,-32.540656],[137.853449,-32.54046],[137.853221,-32.540305],[137.852861,-32.540058],[137.852685,-32.539944],[137.85208,-32.539566],[137.848849,-32.537604],[137.845542,-32.53555],[137.840299,-32.532358]]}},{"type":"Feature","properties":{"tier":"high"},"geometry":{"type":"LineString","coordinates":[[137.821381,-32.520561],[137.820904,-32.520225],[137.819885,-32.519614],[137.818908,-32.519024],[137.818457,-32.518757]]}},{"type":"Feature","properties":{"tier":"high"},"geometry":{"type":"LineString","coordinates":[[137.916095,-32.627513],[137.915975,-32.627341],[137.915826,-32.627127],[137.915751,-32.62702],[137.914139,-32.624757],[137.91349,-32.623838],[137.911674,-32.621285],[137.910769,-32.620002],[137.910292,-32.619334],[137.90997,-32.618884],[137.90954,-32.618273],[137.908574,-32.616922],[137.906978,-32.614653],[137.906535,-32.614047],[137.905791,-32.612991],[137.905666,-32.612813],[137.900466,-32.605482],[137.898272,-32.602383],[137.896068,-32.599288],[137.892508,-32.594268],[137.891348,-32.592622],[137.886943,-32.586394],[137.886241,-32.585434],[137.884975,-32.583657]]}},{"type":"Feature","properties":{"tier":"high"},"geometry":{"type":"LineString","coordinates":[[137.822656,-32.521443],[137.821381,-32.520561]]}},{"type":"Feature","properties":{"tier":"high"},"geometry":{"type":"LineString","coordinates":[[137.826287,-32.52346],[137.829482,-32.52571]]}},{"type":"Feature","properties":{"tier":"high"},"geometry":{"type":"LineString","coordinates":[[137.82291,-32.521345],[137.826287,-32.52346]]}},{"type":"Feature","properties":{"tier":"arterial"},"geometry":{"type":"LineString","coordinates":[[137.824243,-32.519762],[137.826493,-32.518505],[137.826718,-32.51838]]}},{"type":"Feature","properties":{"tier":"high"},"geometry":{"type":"LineString","coordinates":[[137.824322,-32.522557],[137.82383,-32.522235]]}},{"type":"Feature","properties":{"tier":"high"},"geometry":{"type":"LineString","coordinates":[[137.569668,-32.61887],[137.568332,-32.61981]]}},{"type":"Feature","properties":{"tier":"high"},"geometry":{"type":"LineString","coordinates":[[137.57113,-32.617806],[137.569668,-32.61887]]}},{"type":"Feature","properties":{"tier":"high"},"geometry":{"type":"LineString","coordinates":[[137.572894,-32.616508],[137.57113,-32.617806]]}},{"type":"Feature","properties":{"tier":"high"},"geometry":{"type":"LineString","coordinates":[[137.568271,-32.618406],[137.568123,-32.618356]]}},{"type":"Feature","properties":{"tier":"arterial"},"geometry":{"type":"LineString","coordinates":[[137.85534,-32.513905],[137.856149,-32.513475],[137.860541,-32.511078]]}},{"type":"Feature","properties":{"tier":"arterial"},"geometry":{"type":"LineString","coordinates":[[137.882444,-32.500091],[137.882819,-32.49998]]}},{"type":"Feature","properties":{"tier":"arterial"},"geometry":{"type":"LineString","coordinates":[[137.918826,-32.627049],[137.917073,-32.627339]]}},{"type":"Feature","properties":{"tier":"arterial"},"geometry":{"type":"LineString","coordinates":[[137.994435,-32.61459],[137.994152,-32.614792],[137.99344,-32.615217],[137.992996,-32.615474],[137.992246,-32.615828],[137.991522,-32.616137],[137.990741,-32.616417],[137.989941,-32.616655],[137.989062,-32.616861],[137.988259,-32.616995],[137.987608,-32.617085],[137.986951,-32.617144],[137.986313,-32.617151],[137.985331,-32.61715],[137.983916,-32.617093],[137.982936,-32.617066],[137.981762,-32.617087],[137.98054,-32.61716],[137.979892,-32.617241],[137.979013,-32.617369],[137.978108,-32.617533],[137.977201,-32.617734],[137.976109,-32.618031],[137.973835,-32.618699],[137.972063,-32.619264],[137.969525,-32.619798],[137.967056,-32.620155],[137.965235,-32.620468],[137.963684,-32.620787],[137.961657,-32.621324],[137.957994,-32.622518],[137.951919,-32.624498],[137.948828,-32.625268],[137.945503,-32.625768],[137.943465,-32.625969],[137.941433,-32.626065],[137.935405,-32.626064],[137.935003,-32.626066],[137.926868,-32.626118],[137.92509,-32.6262],[137.923761,-32.626304]]}},{"type":"Feature","properties":{"tier":"arterial"},"geometry":{"type":"LineString","coordinates":[[138.00002,-32.610403],[137.999417,-32.610698],[137.99884,-32.611039],[137.99834,-32.611414],[137.997718,-32.611871],[137.997114,-32.61238],[137.996712,-32.61274],[137.995636,-32.613706],[137.994788,-32.614318],[137.994435,-32.61459]]}},{"type":"Feature","properties":{"tier":"arterial"},"geometry":{"type":"LineString","coordinates":[[137.850436,-32.516542],[137.853674,-32.514789],[137.85534,-32.513905]]}},{"type":"Feature","properties":{"tier":"arterial"},"geometry":{"type":"LineString","coordinates":[[137.923761,-32.626304],[137.92247,-32.626461],[137.921852,-32.62656],[137.920203,-32.626833],[137.918826,-32.627049]]}},{"type":"Feature","properties":{"tier":"high"},"geometry":{"type":"LineString","coordinates":[[137.568332,-32.61981],[137.569406,-32.618967],[137.569418,-32.61894],[137.569422,-32.618907],[137.569416,-32.618877],[137.569402,-32.618849],[137.569385,-32.618827],[137.56936,-32.618806],[137.569325,-32.618778],[137.569282,-32.618755],[137.569221,-32.618718]]}},{"type":"Feature","properties":{"tier":"arterial"},"geometry":{"type":"LineString","coordinates":[[137.916376,-32.627463],[137.916319,-32.627506],[137.916292,-32.627555],[137.916276,-32.627612],[137.916272,-32.62767],[137.916279,-32.627746],[137.916294,-32.627792]]}},{"type":"Feature","properties":{"tier":"arterial"},"geometry":{"type":"LineString","coordinates":[[137.915826,-32.627127],[137.915935,-32.627222],[137.916021,-32.627293],[137.916136,-32.627358],[137.916256,-32.627399],[137.916342,-32.627422],[137.916409,-32.627437],[137.916494,-32.627442]]}},{"type":"Feature","properties":{"tier":"high"},"geometry":{"type":"LineString","coordinates":[[137.981527,-32.843214],[137.981439,-32.841615],[137.981289,-32.838899],[137.981241,-32.838046],[137.981172,-32.837119],[137.981094,-32.836368],[137.980995,-32.83562],[137.980896,-32.834959],[137.980791,-32.834378],[137.98053,-32.833115],[137.980396,-32.832543],[137.980226,-32.831903],[137.980019,-32.831175],[137.979814,-32.830495],[137.979677,-32.830101],[137.979455,-32.829462],[137.979208,-32.828801],[137.978747,-32.82766],[137.978182,-32.826416],[137.977823,-32.825679],[137.977439,-32.824955],[137.977146,-32.824422],[137.976873,-32.823958],[137.976618,-32.823522],[137.976573,-32.823448],[137.976358,-32.823092],[137.975998,-32.82254],[137.975688,-32.822056],[137.974988,-32.821062],[137.974053,-32.819755]]}},{"type":"Feature","properties":{"tier":"high"},"geometry":{"type":"LineString","coordinates":[[137.974053,-32.819755],[137.973929,-32.819582]]}},{"type":"Feature","properties":{"tier":"high"},"geometry":{"type":"LineString","coordinates":[[137.916294,-32.627792],[137.916095,-32.627513]]}},{"type":"Feature","properties":{"tier":"regional"},"geometry":{"type":"LineString","coordinates":[[137.638368,-32.568529],[137.638865,-32.568163],[137.642443,-32.565524],[137.644846,-32.56377],[137.645377,-32.563382]]}},{"type":"Feature","properties":{"tier":"regional"},"geometry":{"type":"LineString","coordinates":[[137.645377,-32.563382],[137.645543,-32.56326]]}},{"type":"Feature","properties":{"tier":"regional"},"geometry":{"type":"LineString","coordinates":[[137.632479,-32.574941],[137.633484,-32.574461],[137.633687,-32.574341],[137.633832,-32.574257],[137.634199,-32.573985],[137.634656,-32.573501],[137.634951,-32.573091],[137.636268,-32.570437],[137.63664,-32.569867],[137.636952,-32.569538],[137.637556,-32.569103],[137.638085,-32.568722]]}},{"type":"Feature","properties":{"tier":"regional"},"geometry":{"type":"LineString","coordinates":[[137.632038,-32.575151],[137.632479,-32.574941]]}},{"type":"Feature","properties":{"tier":"regional"},"geometry":{"type":"LineString","coordinates":[[137.621569,-32.579974],[137.621886,-32.580045],[137.622132,-32.580064],[137.622439,-32.580006],[137.622775,-32.579883],[137.622866,-32.579819],[137.62324,-32.579559],[137.623735,-32.57919]]}},{"type":"Feature","properties":{"tier":"regional"},"geometry":{"type":"LineString","coordinates":[[137.623735,-32.57919],[137.623952,-32.579028]]}},{"type":"Feature","properties":{"tier":"high"},"geometry":{"type":"LineString","coordinates":[[137.622345,-32.578647],[137.621569,-32.579974],[137.621146,-32.580553],[137.619983,-32.581803],[137.615639,-32.585319],[137.612666,-32.587489]]}},{"type":"Feature","properties":{"tier":"high"},"geometry":{"type":"LineString","coordinates":[[137.612666,-32.587489],[137.612309,-32.587749]]}},{"type":"Feature","properties":{"tier":"high"},"geometry":{"type":"LineString","coordinates":[[137.982181,-32.861787],[137.98216,-32.856735],[137.982148,-32.855544],[137.982114,-32.85436],[137.982013,-32.85194],[137.981939,-32.850714],[137.981787,-32.84792],[137.981762,-32.847557],[137.981744,-32.847174],[137.981706,-32.846469]]}},{"type":"Feature","properties":{"tier":"high"},"geometry":{"type":"LineString","coordinates":[[137.982235,-32.875319],[137.982181,-32.861787]]}},{"type":"Feature","properties":{"tier":"regional"},"geometry":{"type":"LineString","coordinates":[[137.77462,-32.500731],[137.775413,-32.501247],[137.775927,-32.501611],[137.776479,-32.501952],[137.77715,-32.502422],[137.77728,-32.502502]]}},{"type":"Feature","properties":{"tier":"regional"},"geometry":{"type":"LineString","coordinates":[[137.777161,-32.502563],[137.77706,-32.502511],[137.77674,-32.502307],[137.776367,-32.502068],[137.77582,-32.501709],[137.775294,-32.501356],[137.774528,-32.500849]]}},{"type":"Feature","properties":{"tier":"high"},"geometry":{"type":"LineString","coordinates":[[137.533265,-32.655837],[137.532656,-32.657136],[137.524092,-32.675415],[137.515311,-32.694152],[137.514663,-32.695555],[137.513611,-32.697731],[137.513343,-32.698257],[137.513108,-32.69867],[137.512892,-32.699006],[137.512678,-32.699303],[137.512322,-32.699747],[137.511869,-32.700285],[137.511101,-32.701089],[137.507847,-32.704333]]}},{"type":"Feature","properties":{"tier":"high"},"geometry":{"type":"LineString","coordinates":[[137.533566,-32.655208],[137.533265,-32.655837]]}},{"type":"Feature","properties":{"tier":"regional"},"geometry":{"type":"LineString","coordinates":[[137.922977,-32.56365],[137.919813,-32.561792],[137.914611,-32.558743],[137.909761,-32.55591],[137.904118,-32.552625],[137.903024,-32.551993],[137.89838,-32.549312],[137.893594,-32.546526],[137.889961,-32.544421],[137.884815,-32.541419],[137.879352,-32.538215],[137.874953,-32.535624],[137.8724,-32.534154],[137.871927,-32.533895],[137.871441,-32.533712],[137.870494,-32.533442],[137.861358,-32.530886],[137.858543,-32.530074],[137.855933,-32.529321],[137.85102,-32.527941],[137.847437,-32.526927],[137.847141,-32.526874],[137.846801,-32.526811],[137.846421,-32.526788]]}},{"type":"Feature","properties":{"tier":"high"},"geometry":{"type":"LineString","coordinates":[[137.566292,-32.617835],[137.565775,-32.617768],[137.565205,-32.617729],[137.564599,-32.617706],[137.563577,-32.617658],[137.56349,-32.617653],[137.561322,-32.61754],[137.539975,-32.616543],[137.539303,-32.616515],[137.538804,-32.616505],[137.53831,-32.616519],[137.537686,-32.616545],[137.536937,-32.616588],[137.535126,-32.61671],[137.532247,-32.616878],[137.522297,-32.617495],[137.518869,-32.617693],[137.517992,-32.617749],[137.517073,-32.617825],[137.516366,-32.617908],[137.512611,-32.618444],[137.49998,-32.62026]]}},{"type":"Feature","properties":{"tier":"high"},"geometry":{"type":"LineString","coordinates":[[137.569221,-32.618718],[137.568271,-32.618406]]}},{"type":"Feature","properties":{"tier":"high"},"geometry":{"type":"LineString","coordinates":[[137.568123,-32.618356],[137.567246,-32.61806],[137.56708,-32.618015],[137.566794,-32.617937],[137.566292,-32.617835]]}},{"type":"Feature","properties":{"tier":"high"},"geometry":{"type":"LineString","coordinates":[[137.568332,-32.61981],[137.567644,-32.620294]]}},{"type":"Feature","properties":{"tier":"arterial"},"geometry":{"type":"LineString","coordinates":[[137.860541,-32.511078],[137.863357,-32.509554],[137.867445,-32.507348],[137.86781,-32.50716],[137.868226,-32.507013],[137.869975,-32.506298],[137.871526,-32.505665],[137.873952,-32.504685],[137.874378,-32.504511],[137.875362,-32.504108],[137.875415,-32.504086],[137.876133,-32.503731],[137.879559,-32.501703],[137.879753,-32.501583],[137.881101,-32.500743]]}},{"type":"Feature","properties":{"tier":"arterial"},"geometry":{"type":"LineString","coordinates":[[137.881101,-32.500743],[137.882444,-32.500091]]}},{"type":"Feature","properties":{"tier":"high"},"geometry":{"type":"LineString","coordinates":[[137.82383,-32.522235],[137.822656,-32.521443]]}},{"type":"Feature","properties":{"tier":"high"},"geometry":{"type":"LineString","coordinates":[[137.925571,-32.648793],[137.924742,-32.645655],[137.924558,-32.644963],[137.923932,-32.642611],[137.923678,-32.641645],[137.92339,-32.640597],[137.923254,-32.640133],[137.923204,-32.639963],[137.923001,-32.63934],[137.922783,-32.638725],[137.922508,-32.638001],[137.922297,-32.637493],[137.92203,-32.636872],[137.921852,-32.636474],[137.921613,-32.635968],[137.921258,-32.635268],[137.921062,-32.634909]]}},{"type":"Feature","properties":{"tier":"high"},"geometry":{"type":"LineString","coordinates":[[137.921062,-32.634909],[137.920669,-32.634198],[137.920266,-32.63351],[137.919909,-32.632945],[137.919528,-32.632375],[137.91908,-32.631726],[137.918684,-32.631186],[137.918226,-32.630515],[137.91779,-32.629914],[137.917047,-32.628874],[137.916544,-32.628142],[137.916294,-32.627792]]}},{"type":"Feature","properties":{"tier":"high"},"geometry":{"type":"LineString","coordinates":[[137.878161,-32.57402],[137.876629,-32.571842],[137.87529,-32.569886]]}},{"type":"Feature","properties":{"tier":"high"},"geometry":{"type":"LineString","coordinates":[[137.884975,-32.583657],[137.882826,-32.580607],[137.880383,-32.577168],[137.878161,-32.57402]]}},{"type":"Feature","properties":{"tier":"high"},"geometry":{"type":"LineString","coordinates":[[137.982536,-32.971112],[137.982512,-32.965056],[137.982514,-32.964928],[137.982486,-32.957337],[137.982484,-32.956397],[137.982483,-32.956001],[137.982463,-32.949147],[137.982376,-32.924013],[137.982337,-32.9049],[137.982292,-32.891261],[137.98229,-32.88907],[137.982235,-32.875319]]}},{"type":"Feature","properties":{"tier":"high"},"geometry":{"type":"LineString","coordinates":[[137.984874,-32.982772],[137.984435,-32.981227],[137.984104,-32.980052],[137.984045,-32.979858],[137.983471,-32.977859],[137.983198,-32.976825],[137.983072,-32.976294],[137.982964,-32.975769],[137.982866,-32.975232],[137.982789,-32.974747],[137.982708,-32.97414],[137.982619,-32.973294],[137.982571,-32.972634],[137.982551,-32.972282],[137.982536,-32.971112]]}}]}
