{"type":"FeatureCollection","features":[{"type":"Feature","properties":{"tier":"regional"},"geometry":{"type":"LineString","coordinates":[[137.49998,-31.645667],[137.500133,-31.645612],[137.500644,-31.64543],[137.501104,-31.645248],[137.501533,-31.645046],[137.50173,-31.644931],[137.502646,-31.644259],[137.502806,-31.644122],[137.502945,-31.643975],[137.503178,-31.643656],[137.503278,-31.643479],[137.503453,-31.643089],[137.503567,-31.642694],[137.503638,-31.641928],[137.50377,-31.641179],[137.503828,-31.640992],[137.503884,-31.640866],[137.503906,-31.640815],[137.504004,-31.640649],[137.504244,-31.640336],[137.504519,-31.640062],[137.504677,-31.63994],[137.504854,-31.639829],[137.505461,-31.639508],[137.506094,-31.63911],[137.506537,-31.638862],[137.506767,-31.638755],[137.507734,-31.63837],[137.509145,-31.63765],[137.50947,-31.637458],[137.510145,-31.637016],[137.51053,-31.636813],[137.511268,-31.636463],[137.51162,-31.63627],[137.512634,-31.635623],[137.513037,-31.635394],[137.513455,-31.635218],[137.514608,-31.634804],[137.515869,-31.634255],[137.516247,-31.634079],[137.517066,-31.633653],[137.51754,-31.633426],[137.519476,-31.632534],[137.519706,-31.632441],[137.520141,-31.632289],[137.52054,-31.632178],[137.520905,-31.632113],[137.521463,-31.632082],[137.521639,-31.632049],[137.521799,-31.631991],[137.521938,-31.631913],[137.522055,-31.631817],[137.522482,-31.631354],[137.522881,-31.630985],[137.523163,-31.630783],[137.523562,-31.630534],[137.523757,-31.630353],[137.523826,-31.63024],[137.52387,-31.630108],[137.523889,-31.629958],[137.523887,-31.629798],[137.523753,-31.62887],[137.523652,-31.628515],[137.523579,-31.628346],[137.523364,-31.628003],[137.523078,-31.627659],[137.521723,-31.626248],[137.521501,-31.625942],[137.52142,-31.625784],[137.521363,-31.625624],[137.521301,-31.625306],[137.521248,-31.624235],[137.521176,-31.623805],[137.521068,-31.623419],[137.52034,-31.621532],[137.520077,-31.62073],[137.519994,-31.620348],[137.519975,-31.620163],[137.519982,-31.619805],[137.520007,-31.619635],[137.520055,-31.619474],[137.520212,-31.619183],[137.520426,-31.618927],[137.520697,-31.618656],[137.521713,-31.617759],[137.522071,-31.617462],[137.522603,-31.61707],[137.523379,-31.616559],[137.523583,-31.616355],[137.523666,-31.616235],[137.523732,-31.616097],[137.523781,-31.615946],[137.52387,-31.61543],[137.523976,-31.615052],[137.524591,-31.613346],[137.524643,-31.613163],[137.524689,-31.6128],[137.524685,-31.612555],[137.524679,-31.612227],[137.524698,-31.611823],[137.524747,-31.611417],[137.52483,-31.611029],[137.524948,-31.610647],[137.525451,-31.609227],[137.52568,-31.608714],[137.525933,-31.608277],[137.52619,-31.607953],[137.526527,-31.607626],[137.527017,-31.607214],[137.528248,-31.606287],[137.528784,-31.605811],[137.529163,-31.605425],[137.529415,-31.605201],[137.529689,-31.605019],[137.530514,-31.6046],[137.530607,-31.604493],[137.53062,-31.604434],[137.530586,-31.604299],[137.530536,-31.60423],[137.530458,-31.604166],[137.530232,-31.604035],[137.529673,-31.603762],[137.529492,-31.603674],[137.529161,-31.603562],[137.528683,-31.603438],[137.52855,-31.603391],[137.528437,-31.603331],[137.528351,-31.603243],[137.528287,-31.603134],[137.528247,-31.60301],[137.528172,-31.602594],[137.528131,-31.602457],[137.528069,-31.602328],[137.527978,-31.602204],[137.527863,-31.602084],[137.527378,-31.601722],[137.525196,-31.600205],[137.521033,-31.59739],[137.515027,-31.59345],[137.512068,-31.591605],[137.51046,-31.590661]]}},{"type":"Feature","properties":{"tier":"regional"},"geometry":{"type":"LineString","coordinates":[[137.51046,-31.590661],[137.510275,-31.5905],[137.510147,-31.590378],[137.510042,-31.590242],[137.50996,-31.590089],[137.50983,-31.589748],[137.509747,-31.589584],[137.509639,-31.589426],[137.507603,-31.587259],[137.506648,-31.586222],[137.5059,-31.585498],[137.505053,-31.584561],[137.504709,-31.584144],[137.504382,-31.583713],[137.503924,-31.583044],[137.503055,-31.581633],[137.502278,-31.580484],[137.501867,-31.579819],[137.501655,-31.57937],[137.501261,-31.578388],[137.501044,-31.577893],[137.500812,-31.577418],[137.500184,-31.5763],[137.49998,-31.575969]]}}]}
