{"type":"FeatureCollection","features":[{"type":"Feature","properties":{"tier":"arterial"},"geometry":{"type":"LineString","coordinates":[[137.617981,-34.059026],[137.615681,-34.059837],[137.612869,-34.060828],[137.612652,-34.060905],[137.612573,-34.060932],[137.612366,-34.061005],[137.612285,-34.061034],[137.61193,-34.061158],[137.611726,-34.06123]]}},{"type":"Feature","properties":{"tier":"arterial"},"geometry":{"type":"LineString","coordinates":[[137.618342,-34.50002],[137.618598,-34.49987],[137.618753,-34.499769],[137.618914,-34.499647],[137.619024,-34.499563],[137.619132,-34.499466],[137.619268,-34.499324],[137.619952,-34.498597],[137.62147,-34.496937],[137.62327,-34.494958],[137.624735,-34.493369],[137.627865,-34.48994],[137.629863,-34.487749],[137.631507,-34.485996],[137.632376,-34.485045],[137.634256,-34.482932],[137.636016,-34.480842],[137.637845,-34.478722],[137.639707,-34.476556],[137.641981,-34.473922],[137.644154,-34.471379],[137.646351,-34.46882],[137.647745,-34.467188],[137.64822,-34.466633],[137.64852,-34.466277],[137.64859,-34.466176],[137.6487,-34.466001],[137.648773,-34.465864],[137.648845,-34.465709],[137.64892,-34.465517],[137.649105,-34.464968],[137.649529,-34.463812],[137.650353,-34.461504],[137.652581,-34.455218],[137.653127,-34.453673],[137.653468,-34.452731],[137.654266,-34.450494],[137.65446,-34.449948],[137.655565,-34.446832],[137.6569,-34.443064],[137.657979,-34.440021],[137.659745,-34.435029],[137.661344,-34.430501],[137.661567,-34.429811],[137.661655,-34.429341],[137.661905,-34.427788],[137.662168,-34.426133],[137.66235,-34.424932],[137.662589,-34.423421],[137.662771,-34.422275],[137.662951,-34.421085],[137.663058,-34.42035],[137.663273,-34.418971],[137.663592,-34.41692],[137.663672,-34.416376],[137.663737,-34.415971],[137.6639,-34.414942],[137.664246,-34.412747],[137.664431,-34.411599],[137.664705,-34.40986],[137.664861,-34.40889],[137.665319,-34.405951],[137.665781,-34.403041],[137.666134,-34.400762],[137.666522,-34.398193],[137.66655,-34.398009],[137.667038,-34.394928],[137.667516,-34.391836],[137.667781,-34.390222],[137.667824,-34.389944],[137.667875,-34.389698],[137.667929,-34.389426],[137.668009,-34.389085],[137.668363,-34.387801]]}},{"type":"Feature","properties":{"tier":"arterial"},"geometry":{"type":"LineString","coordinates":[[137.49998,-34.489874],[137.513065,-34.481127],[137.513419,-34.480894],[137.528071,-34.471162],[137.528706,-34.470821],[137.529199,-34.470608],[137.542231,-34.465533],[137.557082,-34.459857],[137.566195,-34.45631],[137.56872,-34.455319],[137.568895,-34.45528],[137.570182,-34.454562],[137.582983,-34.445627],[137.589265,-34.441194],[137.592639,-34.438867],[137.595232,-34.437077],[137.59537,-34.436982],[137.603945,-34.430968],[137.605733,-34.429945],[137.612109,-34.425549],[137.632858,-34.411057],[137.633167,-34.410823],[137.639145,-34.405488],[137.648523,-34.397075],[137.656866,-34.389598],[137.66685,-34.380649],[137.66853,-34.379171],[137.669682,-34.378164],[137.670156,-34.377779],[137.670479,-34.37752],[137.671673,-34.376649],[137.671814,-34.376589]]}},{"type":"Feature","properties":{"tier":"arterial"},"geometry":{"type":"LineString","coordinates":[[137.674289,-34.371353],[137.674161,-34.371303],[137.672216,-34.370045]]}},{"type":"Feature","properties":{"tier":"arterial"},"geometry":{"type":"LineString","coordinates":[[137.58969,-34.071415],[137.589588,-34.071502],[137.589171,-34.071834],[137.589086,-34.07192]]}},{"type":"Feature","properties":{"tier":"regional"},"geometry":{"type":"LineString","coordinates":[[137.675094,-34.369798],[137.678595,-34.370988],[137.680073,-34.371481],[137.680455,-34.371467],[137.682041,-34.370879],[137.682748,-34.370617],[137.683953,-34.370182],[137.685553,-34.369604],[137.685748,-34.369534],[137.69768,-34.365228],[137.703937,-34.362395],[137.704116,-34.362314],[137.730964,-34.350112],[137.732929,-34.349212],[137.745181,-34.343589],[137.751006,-34.340935],[137.758816,-34.337329],[137.778343,-34.32839],[137.781035,-34.327185],[137.782626,-34.326409],[137.782874,-34.326244],[137.789973,-34.320943],[137.798848,-34.314302],[137.798968,-34.314246]]}},{"type":"Feature","properties":{"tier":"arterial"},"geometry":{"type":"LineString","coordinates":[[137.850359,-34.016807],[137.844881,-34.017418],[137.843605,-34.017578],[137.842616,-34.017703],[137.835942,-34.018605],[137.834618,-34.018769],[137.831957,-34.018962],[137.827751,-34.019047],[137.825897,-34.019275],[137.824438,-34.019701],[137.82348,-34.020097],[137.818653,-34.022092],[137.811427,-34.025055],[137.811151,-34.025168],[137.807967,-34.026474],[137.805882,-34.027341],[137.804607,-34.027715],[137.804423,-34.027768],[137.803117,-34.027854],[137.801938,-34.027881],[137.799119,-34.027878],[137.794569,-34.027897],[137.793776,-34.027947],[137.793141,-34.028013],[137.789531,-34.028444],[137.788501,-34.02848],[137.782175,-34.028053],[137.779,-34.027816],[137.775309,-34.027569],[137.774508,-34.027567],[137.772631,-34.027754],[137.768914,-34.02816],[137.76222,-34.028906],[137.760818,-34.029045],[137.760325,-34.029128],[137.759416,-34.029354],[137.757252,-34.030022],[137.755838,-34.030463],[137.755345,-34.030623],[137.754689,-34.03088],[137.752439,-34.03188],[137.74995,-34.032643]]}},{"type":"Feature","properties":{"tier":"arterial"},"geometry":{"type":"LineString","coordinates":[[137.592502,-34.069231],[137.592423,-34.069162],[137.592247,-34.069005],[137.592029,-34.068813],[137.591853,-34.068658],[137.591204,-34.068084],[137.590476,-34.067442],[137.589909,-34.06694],[137.589786,-34.066833],[137.588732,-34.065899],[137.588618,-34.065797],[137.58731,-34.064629],[137.586144,-34.063625],[137.585931,-34.06352]]}},{"type":"Feature","properties":{"tier":"regional"},"geometry":{"type":"LineString","coordinates":[[137.55393,-34.075088],[137.554721,-34.074894],[137.555565,-34.07456],[137.556008,-34.074345],[137.556588,-34.074085],[137.557037,-34.07379],[137.557428,-34.073534],[137.557751,-34.073261],[137.558854,-34.072439],[137.559168,-34.072298],[137.560724,-34.071699],[137.565153,-34.070142],[137.565574,-34.070021],[137.56562,-34.070011],[137.566247,-34.069808],[137.567918,-34.069516],[137.568749,-34.069339],[137.571344,-34.068933],[137.574828,-34.068459],[137.578175,-34.068041],[137.579289,-34.067916],[137.579921,-34.067793],[137.58,-34.067768],[137.580234,-34.067696],[137.580572,-34.067579],[137.581047,-34.067329],[137.581417,-34.067049],[137.582368,-34.066295],[137.582925,-34.065866],[137.583065,-34.065769]]}},{"type":"Feature","properties":{"tier":"regional"},"geometry":{"type":"LineString","coordinates":[[137.545136,-34.075462],[137.545324,-34.075496],[137.545795,-34.075579],[137.546537,-34.075709],[137.547119,-34.075797],[137.548021,-34.075844],[137.548199,-34.075829],[137.548279,-34.075823],[137.548519,-34.075791],[137.548909,-34.075739],[137.551068,-34.075453],[137.551174,-34.07544],[137.551599,-34.0754],[137.552616,-34.075258],[137.553424,-34.075156],[137.55393,-34.075088]]}},{"type":"Feature","properties":{"tier":"regional"},"geometry":{"type":"LineString","coordinates":[[137.554678,-34.069841],[137.554526,-34.069856],[137.55441,-34.069948],[137.554113,-34.070412],[137.554016,-34.070623],[137.553832,-34.071123],[137.5536,-34.071657],[137.553568,-34.071729],[137.553231,-34.072424],[137.553042,-34.072688],[137.552854,-34.072951],[137.552565,-34.073313],[137.551661,-34.074396],[137.55163,-34.074433],[137.551394,-34.07482],[137.551197,-34.075375],[137.551174,-34.07544]]}},{"type":"Feature","properties":{"tier":"regional"},"geometry":{"type":"LineString","coordinates":[[137.554678,-34.069841],[137.555611,-34.070356],[137.5567,-34.070962],[137.557732,-34.071536],[137.558133,-34.071749],[137.558884,-34.072147],[137.559168,-34.072298]]}},{"type":"Feature","properties":{"tier":"regional"},"geometry":{"type":"LineString","coordinates":[[137.557732,-34.071536],[137.558167,-34.070711],[137.55863,-34.069716],[137.558922,-34.06899],[137.559274,-34.068038],[137.55947,-34.067642],[137.559866,-34.066953],[137.560303,-34.066219],[137.56056,-34.065788],[137.561118,-34.064851],[137.561578,-34.064079],[137.561872,-34.063586],[137.562028,-34.063319],[137.562497,-34.062513],[137.562999,-34.061695],[137.563378,-34.061047],[137.563488,-34.060845],[137.563685,-34.060302],[137.563762,-34.059998],[137.563883,-34.059512],[137.564039,-34.058869],[137.564136,-34.058472],[137.564175,-34.058311],[137.564264,-34.058004],[137.564329,-34.057777],[137.56456,-34.057133],[137.564724,-34.056675],[137.564993,-34.056084],[137.565058,-34.05594]]}},{"type":"Feature","properties":{"tier":"arterial"},"geometry":{"type":"LineString","coordinates":[[137.565058,-34.05594],[137.566181,-34.056704],[137.566389,-34.056846],[137.56832,-34.058225],[137.568758,-34.05851],[137.569431,-34.059018],[137.569876,-34.059335],[137.570451,-34.059642],[137.570965,-34.059875],[137.571849,-34.060248],[137.572329,-34.060462],[137.573719,-34.061084],[137.574356,-34.061362],[137.575354,-34.061798],[137.576415,-34.06227],[137.578397,-34.063153],[137.578878,-34.063366],[137.579169,-34.063459],[137.579651,-34.063586],[137.580079,-34.063644],[137.580326,-34.06367],[137.581012,-34.06372],[137.582257,-34.063764],[137.582845,-34.063766],[137.5845,-34.063644],[137.585544,-34.063528],[137.58574,-34.063498],[137.585931,-34.06352]]}},{"type":"Feature","properties":{"tier":"arterial"},"geometry":{"type":"LineString","coordinates":[[137.593069,-34.053091],[137.592488,-34.053564],[137.591775,-34.054142],[137.591619,-34.054269],[137.590825,-34.054897],[137.590313,-34.055301],[137.589756,-34.055742],[137.58952,-34.055929],[137.588175,-34.056992],[137.587,-34.057921],[137.586525,-34.058296],[137.586065,-34.058666],[137.585001,-34.059525],[137.584875,-34.059626],[137.584615,-34.059833],[137.584288,-34.060093],[137.583034,-34.061091],[137.582021,-34.06189],[137.581135,-34.062585],[137.580886,-34.06279],[137.580488,-34.063111],[137.580418,-34.063237],[137.580388,-34.063375],[137.580326,-34.06367]]}},{"type":"Feature","properties":{"tier":"regional"},"geometry":{"type":"LineString","coordinates":[[137.899035,-34.037954],[137.899127,-34.037721],[137.899428,-34.037039],[137.899658,-34.036525]]}},{"type":"Feature","properties":{"tier":"regional"},"geometry":{"type":"LineString","coordinates":[[137.900759,-34.038621],[137.900629,-34.039101],[137.900623,-34.039313],[137.900622,-34.039701],[137.900645,-34.041997]]}},{"type":"Feature","properties":{"tier":"arterial"},"geometry":{"type":"LineString","coordinates":[[137.861818,-34.021662],[137.862643,-34.021131],[137.869931,-34.01699],[137.870569,-34.016644],[137.871278,-34.016368],[137.872332,-34.016062],[137.882913,-34.012968],[137.888891,-34.01122],[137.900613,-34.007795],[137.906469,-34.006011],[137.91606,-34.003206],[137.916131,-34.003186],[137.918274,-34.002529],[137.921616,-34.001542],[137.925339,-34.000452],[137.926943,-33.99998]]}},{"type":"Feature","properties":{"tier":"arterial"},"geometry":{"type":"LineString","coordinates":[[137.756445,-34.261615],[137.760638,-34.266251],[137.760859,-34.266617],[137.762741,-34.269744],[137.763512,-34.271051],[137.766432,-34.276004],[137.766624,-34.276272],[137.766926,-34.276695],[137.767677,-34.277457],[137.768471,-34.278043],[137.773856,-34.281216],[137.774629,-34.281837],[137.775273,-34.282457],[137.775938,-34.283326],[137.782434,-34.292086],[137.785444,-34.296144],[137.793276,-34.306744],[137.798968,-34.314246],[137.79901,-34.314301],[137.801515,-34.317715],[137.807867,-34.326345],[137.808556,-34.327375],[137.816394,-34.339098],[137.817966,-34.34145],[137.818147,-34.34172],[137.818365,-34.342046],[137.819003,-34.343001],[137.832607,-34.363196],[137.8337,-34.364775],[137.834163,-34.365445],[137.83452,-34.365898],[137.835039,-34.366419],[137.835751,-34.366995],[137.836096,-34.367272],[137.85093,-34.379188],[137.850975,-34.379224],[137.852134,-34.38034],[137.854443,-34.383188],[137.861236,-34.391303],[137.862052,-34.392226],[137.864292,-34.394864],[137.8647,-34.395279],[137.865085,-34.395689],[137.865553,-34.396098],[137.866136,-34.39663],[137.866703,-34.397039],[137.867379,-34.397443],[137.868207,-34.397864],[137.86906,-34.398265],[137.870068,-34.398634],[137.871046,-34.398937],[137.872049,-34.399158],[137.873255,-34.399323],[137.874395,-34.399402],[137.875814,-34.39939],[137.877244,-34.399269],[137.878721,-34.399071],[137.879862,-34.398928],[137.880823,-34.398886],[137.881678,-34.398967],[137.882663,-34.399116],[137.883574,-34.399369],[137.884765,-34.39974],[137.885918,-34.400087],[137.886453,-34.400239],[137.886857,-34.400337],[137.887229,-34.400425],[137.887555,-34.400503],[137.888259,-34.400655],[137.889418,-34.400909],[137.890606,-34.401188],[137.891882,-34.401518],[137.89321,-34.401895],[137.894597,-34.402389],[137.895579,-34.402776],[137.896317,-34.403084],[137.897071,-34.403465],[137.900065,-34.405017],[137.906488,-34.408468],[137.907961,-34.409233]]}},{"type":"Feature","properties":{"tier":"arterial"},"geometry":{"type":"LineString","coordinates":[[137.913181,-34.416097],[137.913243,-34.41613],[137.913333,-34.416221],[137.913496,-34.416491],[137.915161,-34.419701],[137.915421,-34.420199],[137.915904,-34.421067]]}},{"type":"Feature","properties":{"tier":"regional"},"geometry":{"type":"LineString","coordinates":[[137.919686,-34.421362],[137.919802,-34.421136],[137.919987,-34.420811],[137.920364,-34.420552]]}},{"type":"Feature","properties":{"tier":"arterial"},"geometry":{"type":"LineString","coordinates":[[137.915915,-34.428465],[137.915995,-34.428352],[137.916889,-34.426671],[137.916911,-34.426629],[137.917041,-34.426384],[137.917314,-34.42587],[137.91785,-34.424863],[137.917886,-34.424795],[137.918498,-34.423644]]}},{"type":"Feature","properties":{"tier":"arterial"},"geometry":{"type":"LineString","coordinates":[[137.908729,-34.425772],[137.909658,-34.425784],[137.91127,-34.425799],[137.911766,-34.425806],[137.91375,-34.425716],[137.913973,-34.425704]]}},{"type":"Feature","properties":{"tier":"regional"},"geometry":{"type":"LineString","coordinates":[[137.900613,-34.007795],[137.90045,-34.010567],[137.900573,-34.021575],[137.900612,-34.03049],[137.900635,-34.034088],[137.900611,-34.034322],[137.900515,-34.034641],[137.899658,-34.036525]]}},{"type":"Feature","properties":{"tier":"arterial"},"geometry":{"type":"LineString","coordinates":[[137.565058,-34.05594],[137.564448,-34.055616],[137.563645,-34.055243],[137.563516,-34.055189],[137.563136,-34.055001],[137.562932,-34.054935],[137.562579,-34.054913],[137.562097,-34.054885]]}},{"type":"Feature","properties":{"tier":"regional"},"geometry":{"type":"LineString","coordinates":[[137.563645,-34.055243],[137.563709,-34.05514],[137.563729,-34.055108],[137.5641,-34.054512],[137.564155,-34.054425],[137.564197,-34.054359],[137.565269,-34.052681]]}},{"type":"Feature","properties":{"tier":"regional"},"geometry":{"type":"LineString","coordinates":[[137.587874,-34.062062],[137.589134,-34.063189],[137.589923,-34.063893],[137.590417,-34.064353],[137.591731,-34.065495],[137.592633,-34.066308],[137.592743,-34.066411],[137.592995,-34.066635]]}},{"type":"Feature","properties":{"tier":"regional"},"geometry":{"type":"LineString","coordinates":[[137.586962,-34.062766],[137.587149,-34.062622],[137.587874,-34.062062]]}},{"type":"Feature","properties":{"tier":"arterial"},"geometry":{"type":"LineString","coordinates":[[137.882664,-34.50002],[137.883508,-34.499401],[137.88464,-34.498558],[137.885163,-34.49816],[137.885525,-34.497798],[137.885798,-34.497484],[137.886059,-34.497147],[137.88629,-34.496814],[137.886468,-34.49654],[137.886601,-34.496236],[137.886718,-34.495901],[137.886822,-34.49562],[137.886899,-34.495244],[137.886949,-34.494805],[137.887021,-34.494079],[137.887093,-34.493361],[137.887292,-34.492232],[137.887585,-34.49003],[137.887741,-34.488799],[137.887826,-34.488149],[137.888022,-34.48663],[137.888284,-34.484707],[137.888724,-34.481677],[137.888838,-34.481142],[137.88896,-34.480709],[137.889068,-34.480379],[137.889251,-34.479922],[137.891203,-34.47504],[137.892244,-34.472436],[137.892721,-34.471525],[137.894466,-34.468979],[137.89542,-34.467566],[137.896785,-34.464973],[137.897734,-34.463223],[137.901137,-34.456945],[137.901262,-34.4567],[137.901359,-34.456479],[137.901458,-34.456229],[137.901535,-34.455994],[137.901595,-34.455795],[137.901662,-34.455508],[137.901726,-34.455173],[137.901754,-34.45496],[137.901763,-34.454808],[137.901769,-34.454585],[137.901767,-34.45433],[137.901735,-34.453668],[137.901724,-34.453382],[137.901734,-34.453115],[137.901756,-34.452826],[137.901791,-34.452582],[137.901841,-34.452331],[137.901915,-34.452042],[137.902127,-34.451328],[137.902726,-34.44952],[137.903965,-34.445397],[137.904373,-34.443522],[137.90454,-34.442717],[137.905095,-34.440044]]}},{"type":"Feature","properties":{"tier":"arterial"},"geometry":{"type":"LineString","coordinates":[[137.674289,-34.371353],[137.674542,-34.37076],[137.67457,-34.370695]]}},{"type":"Feature","properties":{"tier":"arterial"},"geometry":{"type":"LineString","coordinates":[[137.913973,-34.425704],[137.914097,-34.42572],[137.914295,-34.42576],[137.915424,-34.426143],[137.916889,-34.426671]]}},{"type":"Feature","properties":{"tier":"arterial"},"geometry":{"type":"LineString","coordinates":[[137.915647,-34.42247],[137.91646,-34.422767],[137.917105,-34.423003],[137.918557,-34.423533]]}},{"type":"Feature","properties":{"tier":"arterial"},"geometry":{"type":"LineString","coordinates":[[137.918498,-34.423644],[137.917039,-34.423118],[137.915583,-34.422594]]}},{"type":"Feature","properties":{"tier":"arterial"},"geometry":{"type":"LineString","coordinates":[[137.756536,-34.252095],[137.756832,-34.249553]]}},{"type":"Feature","properties":{"tier":"arterial"},"geometry":{"type":"LineString","coordinates":[[137.756445,-34.261615],[137.756458,-34.261579],[137.756515,-34.261332],[137.756575,-34.260309],[137.756558,-34.258896],[137.756542,-34.257554],[137.756551,-34.256768],[137.756554,-34.256047],[137.75655,-34.255124]]}},{"type":"Feature","properties":{"tier":"arterial"},"geometry":{"type":"LineString","coordinates":[[137.676205,-34.375056],[137.67802,-34.375673],[137.680862,-34.376603],[137.681811,-34.376923],[137.682098,-34.377021]]}},{"type":"Feature","properties":{"tier":"arterial"},"geometry":{"type":"LineString","coordinates":[[137.673044,-34.373988],[137.674681,-34.374541],[137.676205,-34.375056]]}},{"type":"Feature","properties":{"tier":"arterial"},"geometry":{"type":"LineString","coordinates":[[137.675094,-34.369798],[137.675682,-34.369332]]}},{"type":"Feature","properties":{"tier":"arterial"},"geometry":{"type":"LineString","coordinates":[[137.679176,-34.365696],[137.680158,-34.364668]]}},{"type":"Feature","properties":{"tier":"regional"},"geometry":{"type":"LineString","coordinates":[[137.597305,-34.07732],[137.597386,-34.077551],[137.597446,-34.077796],[137.59758,-34.078074],[137.597934,-34.078501],[137.598099,-34.07862],[137.599167,-34.079514],[137.5998,-34.080029],[137.599905,-34.080093],[137.600535,-34.080398],[137.600994,-34.080587],[137.601512,-34.080838],[137.602118,-34.081017],[137.602861,-34.081173],[137.603049,-34.081209],[137.60322,-34.081262],[137.603582,-34.081444],[137.604805,-34.08212],[137.606413,-34.083013]]}},{"type":"Feature","properties":{"tier":"regional"},"geometry":{"type":"LineString","coordinates":[[137.597305,-34.07732],[137.597406,-34.077125],[137.597534,-34.076801],[137.597723,-34.076448],[137.597945,-34.076033],[137.597971,-34.075985],[137.597992,-34.07571],[137.597924,-34.074978],[137.597884,-34.074544],[137.597879,-34.07446],[137.597863,-34.074202],[137.59803,-34.073693],[137.598497,-34.072961],[137.598698,-34.072645]]}},{"type":"Feature","properties":{"tier":"regional"},"geometry":{"type":"LineString","coordinates":[[137.611189,-34.081605],[137.611042,-34.080341],[137.611012,-34.079971],[137.611015,-34.079867],[137.611035,-34.079754],[137.611066,-34.07966],[137.611443,-34.078862]]}},{"type":"Feature","properties":{"tier":"regional"},"geometry":{"type":"LineString","coordinates":[[137.597406,-34.077125],[137.598063,-34.077181],[137.598348,-34.07723],[137.598537,-34.077257],[137.598674,-34.077261],[137.598796,-34.077256],[137.598887,-34.07724],[137.59896,-34.077211],[137.598997,-34.077189],[137.599036,-34.077153],[137.599092,-34.07699],[137.599178,-34.076823],[137.599586,-34.076155],[137.599598,-34.07613],[137.600015,-34.075319],[137.600348,-34.074937],[137.600712,-34.074653],[137.601969,-34.074041]]}},{"type":"Feature","properties":{"tier":"regional"},"geometry":{"type":"LineString","coordinates":[[137.559753,-34.05834],[137.55977,-34.058486],[137.559785,-34.058524],[137.559803,-34.058551],[137.560314,-34.059324],[137.560377,-34.059414],[137.561116,-34.060462],[137.561257,-34.06066],[137.561738,-34.061434],[137.561865,-34.061618],[137.562497,-34.062513],[137.566027,-34.064479],[137.566708,-34.064888],[137.566932,-34.064954],[137.56704,-34.064873]]}},{"type":"Feature","properties":{"tier":"arterial"},"geometry":{"type":"LineString","coordinates":[[137.592502,-34.069231],[137.593352,-34.069937],[137.593567,-34.070116],[137.593994,-34.070439],[137.594494,-34.070753],[137.594647,-34.070836],[137.594804,-34.070911],[137.596586,-34.071699],[137.597318,-34.07201],[137.598256,-34.072432],[137.598614,-34.072602],[137.598698,-34.072645],[137.59947,-34.072966],[137.601442,-34.073801],[137.601969,-34.074041],[137.602284,-34.074176],[137.602463,-34.074274],[137.60292,-34.074527],[137.603977,-34.075111],[137.604665,-34.075501],[137.604759,-34.075554],[137.605211,-34.075786],[137.605471,-34.075882],[137.60577,-34.075997],[137.605926,-34.07606],[137.606089,-34.076135],[137.606292,-34.076269],[137.606499,-34.076449],[137.606813,-34.076723],[137.606938,-34.076821],[137.607236,-34.07704],[137.60752,-34.077235],[137.607641,-34.077318],[137.608652,-34.077922],[137.608866,-34.07803],[137.60927,-34.078228],[137.609558,-34.078343],[137.610629,-34.078636],[137.611443,-34.078862],[137.611638,-34.078917],[137.611962,-34.079008],[137.612769,-34.079362],[137.613255,-34.07966],[137.614044,-34.0802],[137.614182,-34.080286],[137.614474,-34.080429],[137.614898,-34.080564],[137.61541,-34.080665],[137.616368,-34.080828],[137.616797,-34.080902],[137.617166,-34.080973]]}},{"type":"Feature","properties":{"tier":"regional"},"geometry":{"type":"LineString","coordinates":[[137.625962,-34.08081],[137.623887,-34.079003],[137.622304,-34.07759],[137.621936,-34.077285],[137.621199,-34.076675],[137.620052,-34.07573],[137.619977,-34.075668],[137.619397,-34.075191],[137.619231,-34.075012],[137.619113,-34.074844],[137.619059,-34.074635],[137.618941,-34.072205],[137.618882,-34.071813],[137.618823,-34.071663],[137.61842,-34.070912],[137.617702,-34.069592],[137.617155,-34.068694],[137.616279,-34.067255],[137.616121,-34.066996],[137.61582,-34.066637],[137.614527,-34.065274],[137.613951,-34.064684],[137.613344,-34.064207],[137.612642,-34.063775]]}},{"type":"Feature","properties":{"tier":"regional"},"geometry":{"type":"LineString","coordinates":[[137.611189,-34.081605],[137.610674,-34.081435],[137.610122,-34.081198],[137.609438,-34.080844],[137.608939,-34.080607],[137.608535,-34.080443]]}},{"type":"Feature","properties":{"tier":"regional"},"geometry":{"type":"LineString","coordinates":[[137.600013,-34.089309],[137.601195,-34.088568],[137.601628,-34.08833],[137.60215,-34.088026],[137.602746,-34.087466],[137.60295,-34.087191],[137.603051,-34.087009],[137.603127,-34.086387],[137.603239,-34.085494],[137.603352,-34.085258],[137.603481,-34.085063],[137.60367,-34.08488],[137.605964,-34.083468],[137.606413,-34.083013],[137.606793,-34.082597],[137.606981,-34.08239],[137.607708,-34.081655],[137.608311,-34.081091],[137.608392,-34.080973],[137.608446,-34.080858],[137.608494,-34.080704],[137.608535,-34.080443],[137.608544,-34.080289],[137.608543,-34.080102],[137.608569,-34.079949],[137.608595,-34.07976],[137.608618,-34.07953],[137.60872,-34.079086],[137.60877,-34.078867],[137.608789,-34.078702],[137.608773,-34.078525],[137.608748,-34.078345],[137.608694,-34.07811],[137.608652,-34.077922]]}},{"type":"Feature","properties":{"tier":"regional"},"geometry":{"type":"LineString","coordinates":[[137.565058,-34.05594],[137.565401,-34.055219],[137.565903,-34.054161],[137.566333,-34.053266],[137.566878,-34.052081],[137.567489,-34.05082],[137.567593,-34.050601],[137.568162,-34.049402],[137.568695,-34.048221]]}},{"type":"Feature","properties":{"tier":"regional"},"geometry":{"type":"LineString","coordinates":[[137.593811,-34.052538],[137.598762,-34.057038],[137.602492,-34.06034],[137.603167,-34.060902],[137.604892,-34.062308],[137.605319,-34.062697],[137.605601,-34.06297],[137.605782,-34.063226],[137.605816,-34.063276]]}},{"type":"Feature","properties":{"tier":"arterial"},"geometry":{"type":"LineString","coordinates":[[137.756904,-34.248937],[137.756931,-34.248612],[137.757417,-34.244867],[137.757588,-34.242845],[137.757803,-34.241107],[137.757932,-34.239617],[137.757975,-34.237701],[137.757963,-34.236766],[137.757954,-34.232517],[137.757952,-34.232166],[137.757991,-34.220442],[137.757975,-34.211159],[137.758104,-34.209987],[137.758146,-34.208887],[137.758232,-34.207929],[137.75849,-34.207219],[137.758962,-34.206616],[137.76261,-34.202854],[137.763425,-34.201966],[137.763897,-34.201185],[137.764155,-34.200263],[137.764409,-34.199055],[137.764475,-34.198737],[137.764633,-34.197987],[137.764912,-34.196767],[137.76527,-34.195471],[137.765485,-34.194228],[137.765442,-34.193412],[137.764669,-34.191566],[137.76188,-34.185957],[137.759477,-34.1812],[137.75776,-34.178218],[137.757288,-34.177295],[137.756902,-34.176762],[137.756473,-34.176301],[137.752947,-34.173765],[137.750894,-34.172288],[137.749864,-34.171543],[137.749177,-34.170904],[137.748705,-34.1703],[137.748405,-34.16959],[137.745701,-34.16295],[137.744442,-34.159835],[137.743828,-34.158465]]}},{"type":"Feature","properties":{"tier":"arterial"},"geometry":{"type":"LineString","coordinates":[[137.746579,-34.083431],[137.746585,-34.08836],[137.746593,-34.096572],[137.7466,-34.097068],[137.746613,-34.11173],[137.746636,-34.118904],[137.746625,-34.119391],[137.746606,-34.119704],[137.746548,-34.120144],[137.746334,-34.121364],[137.745519,-34.125947],[137.74429,-34.132789],[137.743441,-34.137963],[137.743383,-34.138444],[137.743383,-34.142138],[137.743383,-34.148958],[137.743395,-34.154163],[137.743383,-34.154554],[137.743344,-34.155075],[137.743282,-34.155452],[137.743218,-34.155738],[137.743039,-34.156307],[137.742951,-34.156572]]}},{"type":"Feature","properties":{"tier":"regional"},"geometry":{"type":"LineString","coordinates":[[137.900645,-34.041997],[137.900679,-34.044734],[137.900694,-34.049802],[137.900696,-34.050439],[137.9007,-34.051446],[137.9007,-34.051739],[137.900722,-34.058352],[137.900739,-34.064324],[137.900735,-34.069355],[137.900763,-34.079035],[137.900777,-34.092792],[137.900838,-34.105631],[137.900912,-34.111374],[137.900948,-34.111707],[137.901031,-34.112016],[137.901337,-34.112796],[137.904541,-34.120558],[137.904712,-34.121072],[137.904819,-34.121287]]}},{"type":"Feature","properties":{"tier":"regional"},"geometry":{"type":"LineString","coordinates":[[137.565269,-34.052681],[137.565753,-34.052946],[137.566333,-34.053266],[137.567963,-34.054164],[137.568005,-34.054188],[137.569187,-34.054868],[137.571916,-34.056426],[137.573292,-34.05723],[137.573776,-34.057509],[137.574543,-34.05795],[137.575578,-34.05887],[137.576604,-34.059781],[137.57752,-34.060594],[137.580122,-34.062987],[137.580418,-34.063237]]}},{"type":"Feature","properties":{"tier":"regional"},"geometry":{"type":"LineString","coordinates":[[137.589923,-34.063893],[137.590988,-34.063065],[137.592278,-34.062061],[137.593028,-34.061479],[137.594429,-34.060404],[137.598134,-34.05756],[137.598762,-34.057038]]}},{"type":"Feature","properties":{"tier":"regional"},"geometry":{"type":"LineString","coordinates":[[137.586065,-34.058666],[137.587266,-34.059739],[137.587737,-34.06016],[137.588604,-34.060934],[137.588624,-34.060952],[137.590219,-34.062378],[137.590988,-34.063065]]}},{"type":"Feature","properties":{"tier":"regional"},"geometry":{"type":"LineString","coordinates":[[137.593037,-34.059195],[137.593213,-34.059239],[137.594429,-34.060404],[137.597262,-34.062814],[137.598831,-34.06428],[137.599839,-34.065221],[137.599967,-34.06534]]}},{"type":"Feature","properties":{"tier":"regional"},"geometry":{"type":"LineString","coordinates":[[137.58952,-34.055929],[137.590296,-34.056617],[137.590458,-34.05676],[137.591589,-34.057763],[137.592315,-34.058406],[137.592868,-34.058896],[137.59304,-34.058913]]}},{"type":"Feature","properties":{"tier":"regional"},"geometry":{"type":"LineString","coordinates":[[137.513065,-34.481127],[137.51294,-34.480901],[137.506373,-34.468281],[137.506231,-34.467815],[137.505988,-34.466958],[137.505813,-34.465831],[137.505717,-34.464922],[137.505661,-34.463404],[137.505573,-34.457159],[137.505226,-34.438159],[137.505173,-34.435982],[137.505113,-34.43561],[137.505021,-34.435215],[137.502437,-34.423242]]}},{"type":"Feature","properties":{"tier":"regional"},"geometry":{"type":"LineString","coordinates":[[137.501071,-34.417922],[137.501503,-34.41868],[137.501558,-34.418802],[137.501766,-34.419239],[137.501852,-34.419452],[137.501943,-34.419744],[137.501974,-34.419961],[137.501992,-34.420083],[137.502437,-34.423242]]}},{"type":"Feature","properties":{"tier":"regional"},"geometry":{"type":"LineString","coordinates":[[137.577109,-34.053124],[137.578284,-34.052192],[137.581938,-34.049245]]}},{"type":"Feature","properties":{"tier":"regional"},"geometry":{"type":"LineString","coordinates":[[137.899035,-34.037954],[137.898997,-34.038082],[137.899034,-34.038186],[137.899169,-34.038292],[137.899936,-34.038455],[137.900759,-34.038621],[137.901083,-34.038684],[137.902321,-34.038927],[137.903864,-34.039229],[137.904793,-34.039414],[137.907355,-34.039931],[137.907956,-34.040022],[137.908679,-34.04005]]}},{"type":"Feature","properties":{"tier":"arterial"},"geometry":{"type":"LineString","coordinates":[[137.905775,-34.436552],[137.905994,-34.436557],[137.906194,-34.436501],[137.906206,-34.436492],[137.907596,-34.435364],[137.909007,-34.434219]]}},{"type":"Feature","properties":{"tier":"arterial"},"geometry":{"type":"LineString","coordinates":[[137.909007,-34.434219],[137.90984,-34.433526],[137.913723,-34.430291],[137.914262,-34.429842],[137.91479,-34.429402],[137.915915,-34.428465]]}},{"type":"Feature","properties":{"tier":"regional"},"geometry":{"type":"LineString","coordinates":[[137.615241,-34.086479],[137.61531,-34.085855],[137.615529,-34.084716],[137.615765,-34.083872],[137.616044,-34.083374],[137.616115,-34.082967],[137.6161,-34.082264],[137.616159,-34.081843],[137.616229,-34.081358],[137.616368,-34.080828]]}},{"type":"Feature","properties":{"tier":"regional"},"geometry":{"type":"LineString","coordinates":[[137.556252,-34.083019],[137.558377,-34.080211],[137.559277,-34.079101],[137.563104,-34.074383]]}},{"type":"Feature","properties":{"tier":"regional"},"geometry":{"type":"LineString","coordinates":[[137.597534,-34.076801],[137.597683,-34.076836],[137.598305,-34.07699],[137.598376,-34.077026],[137.598388,-34.077085],[137.598348,-34.07723]]}},{"type":"Feature","properties":{"tier":"arterial"},"geometry":{"type":"LineString","coordinates":[[137.592995,-34.066635],[137.593009,-34.064421],[137.593028,-34.061479],[137.593029,-34.060102],[137.593037,-34.059195],[137.59304,-34.058913],[137.593051,-34.058376],[137.593063,-34.0568],[137.593067,-34.055945],[137.593074,-34.055217],[137.593074,-34.055138],[137.593069,-34.053091],[137.593083,-34.052751],[137.593811,-34.052538],[137.594112,-34.052451],[137.597151,-34.051136],[137.59825,-34.050588],[137.59988,-34.049294],[137.603854,-34.0462],[137.60457,-34.045647],[137.611227,-34.040503],[137.612326,-34.039884],[137.613321,-34.039451],[137.613535,-34.039333]]}},{"type":"Feature","properties":{"tier":"regional"},"geometry":{"type":"LineString","coordinates":[[137.598831,-34.06428],[137.603167,-34.060902]]}},{"type":"Feature","properties":{"tier":"regional"},"geometry":{"type":"LineString","coordinates":[[137.581056,-34.056302],[137.582323,-34.055301],[137.583265,-34.054557],[137.585702,-34.052632],[137.589844,-34.049441],[137.589979,-34.049337],[137.590119,-34.04932],[137.590252,-34.049379],[137.592458,-34.051373],[137.592823,-34.051653],[137.592946,-34.051711],[137.593099,-34.05172]]}},{"type":"Feature","properties":{"tier":"arterial"},"geometry":{"type":"LineString","coordinates":[[137.749879,-34.03222],[137.74983,-34.032227],[137.749777,-34.032232],[137.749716,-34.032241],[137.749658,-34.032254],[137.749595,-34.032272],[137.749525,-34.032295],[137.749447,-34.032321],[137.749256,-34.032389],[137.74857,-34.03263],[137.747849,-34.032884],[137.746323,-34.033419],[137.745067,-34.03387],[137.743469,-34.034436],[137.742151,-34.0349],[137.741118,-34.035252],[137.739997,-34.035617],[137.739226,-34.035864],[137.738428,-34.036114],[137.737371,-34.036462],[137.736437,-34.036808],[137.735582,-34.037139],[137.735024,-34.03734],[137.734257,-34.037587],[137.733403,-34.037857],[137.732392,-34.038181],[137.731607,-34.038426],[137.73058,-34.038758],[137.729696,-34.039035],[137.727832,-34.039633],[137.724959,-34.040557],[137.723822,-34.040924],[137.69529,-34.050059],[137.694945,-34.050169],[137.694368,-34.050356],[137.689608,-34.051894],[137.68855,-34.052226],[137.688053,-34.052384],[137.6877,-34.052488],[137.687453,-34.052549],[137.687276,-34.052593],[137.687097,-34.052625],[137.686926,-34.052655],[137.686749,-34.052677],[137.686373,-34.052713],[137.685795,-34.052756],[137.684918,-34.052824],[137.683593,-34.052924],[137.68268,-34.052987],[137.680439,-34.053157],[137.677621,-34.053365],[137.673736,-34.053653],[137.67267,-34.053739],[137.671756,-34.053843],[137.670586,-34.053977],[137.669328,-34.054127],[137.667383,-34.05437],[137.666475,-34.054473],[137.65744,-34.055585],[137.640748,-34.057946],[137.633524,-34.058968],[137.632667,-34.05909],[137.632223,-34.059147],[137.631794,-34.059188],[137.631436,-34.0592],[137.631082,-34.059191],[137.630826,-34.059169],[137.630564,-34.059131],[137.630312,-34.059086],[137.630033,-34.05902],[137.629762,-34.058958],[137.629438,-34.058873],[137.625012,-34.057624],[137.623562,-34.057215],[137.623476,-34.057193],[137.623431,-34.057178],[137.623418,-34.057168],[137.6234,-34.057142]]}},{"type":"Feature","properties":{"tier":"regional"},"geometry":{"type":"LineString","coordinates":[[137.49998,-34.323569],[137.500499,-34.323313],[137.501391,-34.322876],[137.510033,-34.320211],[137.517391,-34.317951],[137.523314,-34.316214],[137.524365,-34.315983],[137.525395,-34.315965],[137.525996,-34.315983],[137.526897,-34.31609],[137.542179,-34.318622],[137.562884,-34.322055],[137.58222,-34.3252],[137.586096,-34.325865],[137.588756,-34.32632],[137.591318,-34.32676],[137.59694,-34.327752],[137.609127,-34.329666],[137.617839,-34.33119],[137.621747,-34.331821],[137.625736,-34.332465],[137.632752,-34.333617],[137.640627,-34.33491],[137.650927,-34.336611],[137.656406,-34.337462]]}},{"type":"Feature","properties":{"tier":"regional"},"geometry":{"type":"LineString","coordinates":[[137.566932,-34.064954],[137.567743,-34.065442],[137.574596,-34.06836],[137.574828,-34.068459]]}},{"type":"Feature","properties":{"tier":"regional"},"geometry":{"type":"LineString","coordinates":[[137.60457,-34.045647],[137.604267,-34.045643],[137.603333,-34.045713],[137.602714,-34.04578],[137.592973,-34.045771]]}},{"type":"Feature","properties":{"tier":"regional"},"geometry":{"type":"LineString","coordinates":[[137.605733,-34.429945],[137.594219,-34.429838],[137.58927,-34.429527],[137.54223,-34.426127],[137.523266,-34.424752]]}},{"type":"Feature","properties":{"tier":"regional"},"geometry":{"type":"LineString","coordinates":[[137.583239,-34.065616],[137.584167,-34.064928],[137.585108,-34.064201]]}},{"type":"Feature","properties":{"tier":"regional"},"geometry":{"type":"LineString","coordinates":[[137.79901,-34.314301],[137.799261,-34.314194],[137.800628,-34.313578],[137.804914,-34.311551],[137.824591,-34.302654],[137.8277,-34.301237],[137.834309,-34.298237],[137.869148,-34.278576],[137.869484,-34.278368],[137.870878,-34.277339],[137.871841,-34.276627],[137.872259,-34.276345],[137.872418,-34.276242],[137.872581,-34.276166],[137.878286,-34.27416],[137.912408,-34.262116],[137.914052,-34.261536],[137.91564,-34.260975],[137.918863,-34.259837],[137.920739,-34.259178],[137.92948,-34.256106],[137.941524,-34.251873],[137.953452,-34.247636],[137.953775,-34.247522],[137.968099,-34.242433],[137.972699,-34.240755],[137.973358,-34.24052],[137.981422,-34.237667],[137.985961,-34.236041],[137.992032,-34.233912],[137.993251,-34.233464],[137.993594,-34.233344],[137.993934,-34.233238],[137.994264,-34.233156],[137.994628,-34.233084],[137.994935,-34.233031],[137.995249,-34.232996],[137.995505,-34.232991],[137.995775,-34.232994],[137.996242,-34.233019],[137.997839,-34.233127],[138.00002,-34.233121]]}},{"type":"Feature","properties":{"tier":"regional"},"geometry":{"type":"LineString","coordinates":[[137.564746,-34.050872],[137.565309,-34.04967],[137.565426,-34.049411],[137.566001,-34.048231],[137.566406,-34.047436],[137.566567,-34.047116]]}},{"type":"Feature","properties":{"tier":"regional"},"geometry":{"type":"LineString","coordinates":[[137.565269,-34.052681],[137.564166,-34.052007]]}},{"type":"Feature","properties":{"tier":"regional"},"geometry":{"type":"LineString","coordinates":[[137.581938,-34.049245],[137.585071,-34.052072],[137.585702,-34.052632],[137.588118,-34.054775],[137.58952,-34.055929]]}},{"type":"Feature","properties":{"tier":"regional"},"geometry":{"type":"LineString","coordinates":[[137.568695,-34.048221],[137.571554,-34.049874],[137.572737,-34.050557],[137.575562,-34.05219],[137.576946,-34.053026],[137.577109,-34.053124],[137.577373,-34.053283],[137.57847,-34.054129],[137.579263,-34.05474],[137.579807,-34.055214],[137.58017,-34.05553],[137.580509,-34.055825],[137.581056,-34.056302],[137.583298,-34.058253],[137.584875,-34.059626]]}},{"type":"Feature","properties":{"tier":"regional"},"geometry":{"type":"LineString","coordinates":[[137.621936,-34.077285],[137.621822,-34.07747],[137.62158,-34.077945],[137.621494,-34.078269],[137.621253,-34.079121],[137.62114,-34.079402],[137.620792,-34.080383],[137.620566,-34.081091],[137.620438,-34.081578]]}},{"type":"Feature","properties":{"tier":"regional"},"geometry":{"type":"LineString","coordinates":[[137.61541,-34.080665],[137.615588,-34.080158],[137.616541,-34.078703],[137.616768,-34.078363],[137.617094,-34.078039]]}},{"type":"Feature","properties":{"tier":"arterial"},"geometry":{"type":"LineString","coordinates":[[137.89009,-34.428626],[137.892516,-34.429848],[137.894858,-34.431538],[137.89616,-34.432108],[137.900091,-34.433607],[137.903778,-34.435433],[137.904342,-34.435712],[137.905824,-34.43634]]}},{"type":"Feature","properties":{"tier":"arterial"},"geometry":{"type":"LineString","coordinates":[[137.616313,-33.99998],[137.616044,-34.003267],[137.614783,-34.021508],[137.614722,-34.022385],[137.614543,-34.024514],[137.613909,-34.032069],[137.613612,-34.038317]]}},{"type":"Feature","properties":{"tier":"arterial"},"geometry":{"type":"LineString","coordinates":[[137.903123,-34.037773],[137.901622,-34.037475],[137.899428,-34.037039],[137.898751,-34.036912],[137.898347,-34.03679],[137.897969,-34.03663],[137.896761,-34.036117],[137.895599,-34.035617],[137.894439,-34.035126]]}},{"type":"Feature","properties":{"tier":"arterial"},"geometry":{"type":"LineString","coordinates":[[137.894439,-34.035126],[137.892431,-34.034275],[137.891615,-34.03393],[137.88594,-34.031526],[137.882599,-34.030406],[137.882258,-34.030271],[137.880176,-34.029451],[137.879485,-34.029165],[137.872233,-34.026123],[137.865042,-34.023112],[137.863813,-34.022597],[137.862144,-34.021815],[137.861818,-34.021662],[137.859787,-34.020721],[137.85963,-34.020649],[137.857008,-34.019555],[137.852622,-34.017726],[137.850359,-34.016807]]}},{"type":"Feature","properties":{"tier":"arterial"},"geometry":{"type":"LineString","coordinates":[[137.670533,-34.379978],[137.670729,-34.379307],[137.670969,-34.378486],[137.671143,-34.378089],[137.671595,-34.37713]]}},{"type":"Feature","properties":{"tier":"arterial"},"geometry":{"type":"LineString","coordinates":[[137.671814,-34.376589],[137.672428,-34.37529],[137.673044,-34.373988],[137.673684,-34.372634],[137.674289,-34.371353]]}},{"type":"Feature","properties":{"tier":"arterial"},"geometry":{"type":"LineString","coordinates":[[137.59554,-34.067076],[137.594929,-34.067397],[137.594676,-34.067561],[137.594353,-34.067793],[137.593842,-34.068186],[137.593416,-34.068514],[137.592502,-34.069231],[137.591526,-34.069986],[137.591392,-34.070093],[137.590641,-34.070693],[137.58969,-34.071415]]}},{"type":"Feature","properties":{"tier":"arterial"},"geometry":{"type":"LineString","coordinates":[[137.667709,-34.363468],[137.662222,-34.350797]]}},{"type":"Feature","properties":{"tier":"arterial"},"geometry":{"type":"LineString","coordinates":[[137.611726,-34.06123],[137.607774,-34.062598],[137.607687,-34.062628],[137.606949,-34.062883],[137.605816,-34.063276],[137.605145,-34.063508],[137.602971,-34.064259],[137.602461,-34.064435],[137.599967,-34.06534],[137.598833,-34.065752],[137.59692,-34.066513]]}},{"type":"Feature","properties":{"tier":"arterial"},"geometry":{"type":"LineString","coordinates":[[137.908185,-34.427668],[137.908729,-34.425772],[137.909197,-34.424718],[137.909898,-34.423248],[137.910332,-34.422312],[137.911478,-34.419813],[137.912171,-34.4183],[137.912841,-34.41684],[137.913181,-34.416097]]}},{"type":"Feature","properties":{"tier":"arterial"},"geometry":{"type":"LineString","coordinates":[[137.916569,-34.399671],[137.916657,-34.399351],[137.916736,-34.399098],[137.916831,-34.398825],[137.91832,-34.394543],[137.91908,-34.39238],[137.924228,-34.377464],[137.925657,-34.373342],[137.926447,-34.371135],[137.9266,-34.370567],[137.927049,-34.368485],[137.927601,-34.365808],[137.927717,-34.36512],[137.927892,-34.363591],[137.928043,-34.362369],[137.928246,-34.360843],[137.928306,-34.360397],[137.928345,-34.360164],[137.928423,-34.359804],[137.928566,-34.359374],[137.928942,-34.358432],[137.929473,-34.357056],[137.929579,-34.356782],[137.929691,-34.356531],[137.929833,-34.356248],[137.930218,-34.355592],[137.93059,-34.354959],[137.931083,-34.354121],[137.932164,-34.352275],[137.932678,-34.351362],[137.933596,-34.349774],[137.934143,-34.348854],[137.934997,-34.347527],[137.938134,-34.343201],[137.940705,-34.339873],[137.942329,-34.337802],[137.942988,-34.336965],[137.943381,-34.336467],[137.945866,-34.333313],[137.950801,-34.32696],[137.951219,-34.326336],[137.954537,-34.321235],[137.956384,-34.318381]]}},{"type":"Feature","properties":{"tier":"regional"},"geometry":{"type":"LineString","coordinates":[[137.920364,-34.420552],[137.922633,-34.419234],[137.922772,-34.419184],[137.922946,-34.419154],[137.92432,-34.418945],[137.924599,-34.4189],[137.924616,-34.418894],[137.924703,-34.418863],[137.927258,-34.416237]]}},{"type":"Feature","properties":{"tier":"arterial"},"geometry":{"type":"LineString","coordinates":[[137.682098,-34.377021],[137.689277,-34.379465],[137.696107,-34.381746],[137.698934,-34.382645],[137.700558,-34.383091],[137.707164,-34.38484],[137.712649,-34.386299],[137.719951,-34.388242],[137.722353,-34.388848],[137.72376,-34.389134],[137.726479,-34.389831],[137.728957,-34.390499],[137.730414,-34.390816],[137.734026,-34.391492],[137.734667,-34.391614],[137.7352,-34.39168],[137.735685,-34.391716],[137.737167,-34.391773],[137.73915,-34.391864],[137.740442,-34.391906],[137.741759,-34.391971],[137.742184,-34.392011],[137.742607,-34.392076],[137.743674,-34.392257],[137.745386,-34.392591],[137.74615,-34.39273],[137.750503,-34.393569],[137.751114,-34.393687],[137.751733,-34.393867],[137.753392,-34.394411],[137.755138,-34.395023],[137.756474,-34.39548],[137.756772,-34.395585],[137.758943,-34.396347],[137.761703,-34.397441],[137.761778,-34.397471],[137.766726,-34.399684],[137.771382,-34.401734],[137.775305,-34.403573],[137.779912,-34.405806],[137.782491,-34.407128],[137.790916,-34.412263],[137.792532,-34.41325],[137.793199,-34.413666],[137.793484,-34.413784],[137.79444,-34.414184],[137.79565,-34.414568],[137.796925,-34.414817],[137.797153,-34.414843],[137.79908,-34.415035],[137.799314,-34.41506],[137.799841,-34.415097],[137.808063,-34.4157],[137.820603,-34.416671],[137.827487,-34.417169],[137.834403,-34.41781],[137.841999,-34.418399],[137.848346,-34.418891],[137.850429,-34.419096],[137.855043,-34.419906],[137.858131,-34.420448],[137.860253,-34.420985],[137.870606,-34.42389],[137.880042,-34.426538],[137.884357,-34.427775],[137.88529,-34.428],[137.886223,-34.428164],[137.888032,-34.428399],[137.889183,-34.428526],[137.89009,-34.428626],[137.893539,-34.42829],[137.897082,-34.42792],[137.89805,-34.42782],[137.898891,-34.427592],[137.901342,-34.426759],[137.901434,-34.426731],[137.903356,-34.426151],[137.904838,-34.42586],[137.906057,-34.425732],[137.908729,-34.425772]]}},{"type":"Feature","properties":{"tier":"regional"},"geometry":{"type":"LineString","coordinates":[[137.617166,-34.080973],[137.619697,-34.081455],[137.620438,-34.081578],[137.62158,-34.081767],[137.622036,-34.081815],[137.62239,-34.081811]]}},{"type":"Feature","properties":{"tier":"arterial"},"geometry":{"type":"LineString","coordinates":[[137.685867,-33.99998],[137.684958,-34.001178],[137.683056,-34.003674],[137.679924,-34.007758],[137.678508,-34.009603],[137.678228,-34.009973],[137.677535,-34.010884],[137.675575,-34.013443],[137.666985,-34.024604],[137.66648,-34.025248],[137.65985,-34.034144],[137.659481,-34.034607],[137.658314,-34.036192],[137.657607,-34.037017],[137.657239,-34.037468],[137.656031,-34.038795],[137.653999,-34.04052],[137.641845,-34.050506],[137.641613,-34.050689],[137.641426,-34.050808],[137.641255,-34.050898],[137.641018,-34.051004],[137.627484,-34.055708],[137.6234,-34.057142],[137.617981,-34.059026]]}},{"type":"Feature","properties":{"tier":"arterial"},"geometry":{"type":"LineString","coordinates":[[137.746784,-34.077149],[137.746812,-34.076874],[137.746999,-34.075014],[137.748184,-34.063228],[137.748608,-34.059017],[137.749,-34.055121],[137.749018,-34.054948],[137.750432,-34.041326],[137.750951,-34.036598],[137.750947,-34.036063],[137.750934,-34.035873],[137.750734,-34.035116],[137.74995,-34.032643],[137.749879,-34.03222],[137.749837,-34.02414],[137.749812,-34.019107],[137.749802,-34.018808],[137.749759,-34.018464],[137.74967,-34.018073],[137.749561,-34.017665],[137.749347,-34.017153],[137.749147,-34.01679],[137.748873,-34.016368],[137.748743,-34.016208]]}},{"type":"Feature","properties":{"tier":"arterial"},"geometry":{"type":"LineString","coordinates":[[137.746585,-34.079121],[137.746579,-34.083431]]}},{"type":"Feature","properties":{"tier":"arterial"},"geometry":{"type":"LineString","coordinates":[[137.746784,-34.077149],[137.746713,-34.077859],[137.746669,-34.078234],[137.746585,-34.079121]]}},{"type":"Feature","properties":{"tier":"regional"},"geometry":{"type":"LineString","coordinates":[[137.617094,-34.078039],[137.61729,-34.077855],[137.617536,-34.077643],[137.617801,-34.077419],[137.61821,-34.077114],[137.618844,-34.076648],[137.619462,-34.076208],[137.619955,-34.075824],[137.620052,-34.07573]]}},{"type":"Feature","properties":{"tier":"arterial"},"geometry":{"type":"LineString","coordinates":[[137.907961,-34.409233],[137.909598,-34.410086],[137.910885,-34.411148],[137.911689,-34.411966],[137.913417,-34.414417],[137.913523,-34.414539],[137.913609,-34.414629],[137.913753,-34.414761]]}},{"type":"Feature","properties":{"tier":"arterial"},"geometry":{"type":"LineString","coordinates":[[137.742951,-34.156572],[137.743002,-34.156867],[137.743088,-34.157073],[137.743411,-34.157514],[137.743637,-34.157889],[137.743828,-34.158465]]}},{"type":"Feature","properties":{"tier":"arterial"},"geometry":{"type":"LineString","coordinates":[[137.743828,-34.158465],[137.743684,-34.15812],[137.743487,-34.157773],[137.743281,-34.157452],[137.743065,-34.157165],[137.742833,-34.156901]]}},{"type":"Feature","properties":{"tier":"arterial"},"geometry":{"type":"LineString","coordinates":[[137.741753,-34.156132],[137.742086,-34.156292],[137.742392,-34.15648],[137.742685,-34.15665],[137.742767,-34.156662],[137.742848,-34.156633],[137.742951,-34.156572]]}},{"type":"Feature","properties":{"tier":"arterial"},"geometry":{"type":"LineString","coordinates":[[137.904819,-34.121287],[137.906755,-34.118473],[137.907124,-34.117914],[137.907347,-34.117596],[137.907512,-34.117403],[137.907671,-34.117253],[137.907982,-34.117001],[137.909188,-34.116067],[137.914265,-34.112134],[137.914626,-34.111838],[137.914714,-34.111767],[137.915558,-34.110931],[137.916321,-34.110174],[137.916634,-34.109885],[137.916661,-34.109865],[137.91708,-34.109551],[137.918549,-34.108455],[137.918714,-34.108328],[137.918837,-34.108222],[137.918972,-34.108079],[137.919129,-34.10787],[137.919811,-34.106799],[137.920275,-34.106065],[137.920415,-34.105828],[137.92114,-34.104442],[137.921508,-34.103738],[137.921654,-34.103495],[137.92181,-34.103296],[137.922044,-34.103073],[137.92323,-34.102119],[137.925832,-34.09998],[137.926074,-34.099781],[137.926288,-34.099639],[137.926564,-34.099509],[137.927224,-34.099247],[137.934051,-34.096485],[137.934337,-34.096344],[137.934479,-34.09624],[137.934621,-34.096109],[137.934801,-34.095902],[137.93563,-34.094858],[137.935785,-34.094627],[137.935908,-34.094389],[137.936076,-34.094016],[137.936238,-34.093736],[137.936376,-34.093567],[137.936585,-34.093387],[137.9368,-34.093257],[137.936985,-34.093174],[137.937137,-34.093127],[137.937288,-34.093089],[137.937683,-34.092996],[137.938141,-34.092906],[137.938447,-34.092874],[137.941239,-34.092875],[137.941665,-34.092863],[137.942043,-34.092828],[137.942536,-34.09275],[137.942921,-34.092714],[137.943286,-34.092715],[137.943689,-34.09273],[137.944593,-34.09281],[137.945589,-34.092871],[137.946349,-34.09287],[137.956364,-34.092896],[137.968046,-34.092881],[137.97478,-34.092902],[137.97512,-34.092872],[137.975345,-34.092812],[137.975556,-34.092731],[137.975757,-34.092621],[137.97591,-34.092506],[137.976111,-34.092323],[137.976238,-34.092164],[137.976436,-34.091816],[137.977351,-34.090016],[137.979455,-34.085874],[137.979591,-34.085626],[137.979708,-34.085452],[137.979836,-34.085308],[137.9803,-34.084855],[137.980997,-34.084227],[137.982064,-34.083255],[137.98283,-34.082588],[137.982969,-34.082488],[137.983117,-34.082397],[137.983295,-34.08232],[137.98332,-34.082309],[137.983585,-34.082235],[137.983833,-34.0822],[137.984122,-34.08219],[137.997135,-34.082017],[137.997665,-34.082014],[137.998422,-34.081993],[137.998827,-34.081946],[137.999216,-34.081853],[137.999599,-34.081744],[137.999905,-34.081651],[138.00002,-34.081617]]}},{"type":"Feature","properties":{"tier":"arterial"},"geometry":{"type":"LineString","coordinates":[[137.756904,-34.248937],[137.756949,-34.248869],[137.757488,-34.248084]]}},{"type":"Feature","properties":{"tier":"arterial"},"geometry":{"type":"LineString","coordinates":[[137.75655,-34.255124],[137.75655,-34.255109],[137.756538,-34.252614],[137.756536,-34.252095]]}},{"type":"Feature","properties":{"tier":"arterial"},"geometry":{"type":"LineString","coordinates":[[137.755348,-34.262741],[137.755936,-34.262261],[137.756125,-34.262072],[137.756445,-34.261615]]}},{"type":"Feature","properties":{"tier":"arterial"},"geometry":{"type":"LineString","coordinates":[[137.751739,-34.265688],[137.755162,-34.262893],[137.755348,-34.262741]]}},{"type":"Feature","properties":{"tier":"arterial"},"geometry":{"type":"LineString","coordinates":[[137.680158,-34.364668],[137.680209,-34.364614],[137.696436,-34.347605],[137.697566,-34.346417],[137.697822,-34.346098],[137.698987,-34.344405],[137.700193,-34.342583],[137.714813,-34.320864],[137.731476,-34.29605],[137.737138,-34.28761],[137.74232,-34.279927],[137.742828,-34.279219],[137.744936,-34.276609],[137.745004,-34.276523],[137.745087,-34.276419],[137.745134,-34.276334],[137.750219,-34.267243],[137.750358,-34.267036],[137.750549,-34.266802],[137.750822,-34.266506],[137.751127,-34.2662],[137.75153,-34.265859],[137.751739,-34.265688]]}},{"type":"Feature","properties":{"tier":"arterial"},"geometry":{"type":"LineString","coordinates":[[137.675682,-34.369332],[137.676054,-34.368945],[137.677141,-34.367812],[137.678012,-34.366925]]}},{"type":"Feature","properties":{"tier":"arterial"},"geometry":{"type":"LineString","coordinates":[[137.67457,-34.370695],[137.674615,-34.370603],[137.674819,-34.370191],[137.675094,-34.369798]]}},{"type":"Feature","properties":{"tier":"arterial"},"geometry":{"type":"LineString","coordinates":[[137.671647,-34.369622],[137.670376,-34.368697],[137.66999,-34.368393],[137.669849,-34.368246],[137.669659,-34.367912],[137.668952,-34.366301]]}},{"type":"Feature","properties":{"tier":"arterial"},"geometry":{"type":"LineString","coordinates":[[137.668952,-34.366301],[137.667709,-34.363468]]}},{"type":"Feature","properties":{"tier":"arterial"},"geometry":{"type":"LineString","coordinates":[[137.5894,-34.075662],[137.589927,-34.076405],[137.590067,-34.076566],[137.590261,-34.076766],[137.593333,-34.079566],[137.593956,-34.080167],[137.594135,-34.080381],[137.595161,-34.081679],[137.595176,-34.081696],[137.595562,-34.082221],[137.595969,-34.082745],[137.596924,-34.084146],[137.597442,-34.084981],[137.597633,-34.085271],[137.59881,-34.087156],[137.598902,-34.087287],[137.599544,-34.088329],[137.599773,-34.088749],[137.600013,-34.089309],[137.600077,-34.089551],[137.600328,-34.090655],[137.600403,-34.090997],[137.600846,-34.093038],[137.601101,-34.094209],[137.601466,-34.095949],[137.601829,-34.097139],[137.602076,-34.097931],[137.602165,-34.098199],[137.602273,-34.098538],[137.602302,-34.098628],[137.60423,-34.104664],[137.60531,-34.108077],[137.606671,-34.112372],[137.607051,-34.113565],[137.609613,-34.121663],[137.611017,-34.126016],[137.611387,-34.127175],[137.613232,-34.132944],[137.614533,-34.136952],[137.61557,-34.140335],[137.616464,-34.143119],[137.618142,-34.148433],[137.621318,-34.158448],[137.622987,-34.163621],[137.623792,-34.166182],[137.628162,-34.179894],[137.632182,-34.192449],[137.632316,-34.192896],[137.633249,-34.195976],[137.635823,-34.204211],[137.636364,-34.205841],[137.638484,-34.212232],[137.638783,-34.213167],[137.639071,-34.214226],[137.639735,-34.217552],[137.64002,-34.219029],[137.640094,-34.219464],[137.64028,-34.220574],[137.640451,-34.222414],[137.641169,-34.231157],[137.641881,-34.23814]]}},{"type":"Feature","properties":{"tier":"arterial"},"geometry":{"type":"LineString","coordinates":[[137.589086,-34.07192],[137.588907,-34.07212],[137.588808,-34.072262],[137.588676,-34.072582],[137.588582,-34.072939],[137.58857,-34.0734],[137.588583,-34.073892],[137.588625,-34.074318],[137.588716,-34.074627],[137.588865,-34.074929],[137.5894,-34.075662]]}},{"type":"Feature","properties":{"tier":"arterial"},"geometry":{"type":"LineString","coordinates":[[137.59692,-34.066513],[137.595651,-34.067017],[137.59554,-34.067076]]}},{"type":"Feature","properties":{"tier":"arterial"},"geometry":{"type":"LineString","coordinates":[[137.678012,-34.366925],[137.679176,-34.365696]]}},{"type":"Feature","properties":{"tier":"arterial"},"geometry":{"type":"LineString","coordinates":[[137.617166,-34.080973],[137.617383,-34.08103],[137.617574,-34.081091],[137.618091,-34.081337],[137.618565,-34.08162],[137.619163,-34.082048],[137.619376,-34.082198],[137.620271,-34.082705],[137.621048,-34.083051],[137.626,-34.085265],[137.640902,-34.091892],[137.642996,-34.092846],[137.646593,-34.094529],[137.646815,-34.094633],[137.649687,-34.095977],[137.650375,-34.09635],[137.651126,-34.096812],[137.651493,-34.097052],[137.651684,-34.097178],[137.659228,-34.102735],[137.666136,-34.107885],[137.666334,-34.108025],[137.666405,-34.10808],[137.666557,-34.108193],[137.678701,-34.117101],[137.695318,-34.129351],[137.695344,-34.129367],[137.705484,-34.135667],[137.705962,-34.135944],[137.709385,-34.138079],[137.720281,-34.144847],[137.727333,-34.148603],[137.729613,-34.149759],[137.740592,-34.155523],[137.741753,-34.156132]]}},{"type":"Feature","properties":{"tier":"arterial"},"geometry":{"type":"LineString","coordinates":[[137.756832,-34.249553],[137.756904,-34.248937]]}},{"type":"Feature","properties":{"tier":"arterial"},"geometry":{"type":"LineString","coordinates":[[137.612201,-34.054815],[137.611829,-34.056174],[137.611548,-34.057631],[137.611453,-34.059115],[137.611452,-34.05958],[137.611484,-34.060147],[137.611575,-34.06072],[137.611726,-34.06123]]}},{"type":"Feature","properties":{"tier":"arterial"},"geometry":{"type":"LineString","coordinates":[[137.613612,-34.038317],[137.613535,-34.039333]]}},{"type":"Feature","properties":{"tier":"arterial"},"geometry":{"type":"LineString","coordinates":[[137.656406,-34.337462],[137.660363,-34.346479],[137.662222,-34.350797]]}},{"type":"Feature","properties":{"tier":"arterial"},"geometry":{"type":"LineString","coordinates":[[137.757488,-34.248084],[137.76129,-34.242546],[137.761547,-34.242186],[137.761786,-34.241941],[137.762137,-34.241664],[137.762419,-34.241482],[137.762681,-34.241345],[137.76298,-34.241224],[137.773757,-34.237167],[137.77385,-34.237132],[137.774637,-34.236836],[137.775681,-34.236448],[137.78099,-34.234472],[137.78146,-34.234271],[137.781779,-34.234082],[137.782007,-34.233902],[137.782065,-34.233856],[137.782733,-34.233292],[137.782961,-34.233091],[137.786267,-34.230304],[137.789014,-34.228009],[137.794784,-34.223274],[137.795432,-34.222685],[137.809417,-34.210089],[137.820161,-34.200412],[137.8203,-34.200286],[137.820431,-34.200168],[137.820549,-34.200063],[137.828562,-34.192862],[137.846062,-34.177106],[137.846496,-34.176734],[137.854166,-34.169832],[137.872512,-34.153274],[137.872753,-34.153046],[137.872824,-34.152978],[137.874744,-34.151247],[137.88551,-34.141536],[137.886911,-34.140271],[137.895279,-34.132723],[137.895545,-34.132413],[137.896075,-34.131823],[137.896202,-34.131668],[137.89633,-34.131524],[137.896523,-34.131326],[137.898,-34.130033],[137.899698,-34.12857],[137.900038,-34.128269],[137.90021,-34.128087],[137.900362,-34.127898],[137.90091,-34.127083],[137.901567,-34.126079],[137.903114,-34.123824],[137.903362,-34.123456],[137.904819,-34.121287]]}},{"type":"Feature","properties":{"tier":"arterial"},"geometry":{"type":"LineString","coordinates":[[137.850359,-34.016807],[137.837625,-34.011362],[137.836623,-34.010935],[137.817686,-34.003045],[137.810445,-33.99998]]}},{"type":"Feature","properties":{"tier":"arterial"},"geometry":{"type":"LineString","coordinates":[[137.983685,-34.276429],[137.985268,-34.273522],[137.986126,-34.271437],[137.988772,-34.264322],[137.989688,-34.261949],[137.99036,-34.26023],[137.991089,-34.258363],[137.992307,-34.255069],[137.992591,-34.254302],[137.99328,-34.251463],[137.994944,-34.244508],[137.995043,-34.244089],[137.995411,-34.242555],[137.995504,-34.242275],[137.995609,-34.242007],[137.995727,-34.241734],[137.99592,-34.241305],[137.995994,-34.241192],[137.996694,-34.240336],[137.999594,-34.236671],[138.00002,-34.236143]]}},{"type":"Feature","properties":{"tier":"arterial"},"geometry":{"type":"LineString","coordinates":[[137.913753,-34.414761],[137.915293,-34.411412]]}},{"type":"Feature","properties":{"tier":"arterial"},"geometry":{"type":"LineString","coordinates":[[137.66934,-34.384282],[137.669608,-34.383343],[137.670073,-34.381644]]}},{"type":"Feature","properties":{"tier":"arterial"},"geometry":{"type":"LineString","coordinates":[[137.906978,-34.432204],[137.908185,-34.427668]]}},{"type":"Feature","properties":{"tier":"arterial"},"geometry":{"type":"LineString","coordinates":[[137.905775,-34.436552],[137.905824,-34.43634],[137.906978,-34.432204]]}},{"type":"Feature","properties":{"tier":"arterial"},"geometry":{"type":"LineString","coordinates":[[137.905095,-34.440044],[137.905775,-34.436552]]}},{"type":"Feature","properties":{"tier":"arterial"},"geometry":{"type":"LineString","coordinates":[[137.913181,-34.416097],[137.91347,-34.415425]]}},{"type":"Feature","properties":{"tier":"arterial"},"geometry":{"type":"LineString","coordinates":[[138.00002,-34.053778],[137.991498,-34.052415],[137.979171,-34.050426],[137.965488,-34.048235],[137.965319,-34.048208],[137.957405,-34.046933],[137.943804,-34.044742],[137.934925,-34.043312],[137.922784,-34.04135],[137.92222,-34.041272],[137.921598,-34.041235],[137.920394,-34.041269],[137.919851,-34.041268],[137.919294,-34.041245],[137.918668,-34.041168],[137.918285,-34.0411],[137.91682,-34.040803],[137.909565,-34.039331],[137.909194,-34.039227],[137.907393,-34.038655],[137.906816,-34.038505],[137.903123,-34.037773]]}},{"type":"Feature","properties":{"tier":"arterial"},"geometry":{"type":"LineString","coordinates":[[137.641881,-34.23814],[137.642062,-34.239918],[137.64211,-34.240387],[137.642133,-34.240612],[137.642316,-34.242388]]}},{"type":"Feature","properties":{"tier":"arterial"},"geometry":{"type":"LineString","coordinates":[[137.642316,-34.242388],[137.642798,-34.247045],[137.645642,-34.27427],[137.645854,-34.276292],[137.645856,-34.276594],[137.645841,-34.278746],[137.646447,-34.286059],[137.647529,-34.29891],[137.648058,-34.305266],[137.648625,-34.312815],[137.649021,-34.317894],[137.649174,-34.319474],[137.649285,-34.320365],[137.649414,-34.320975],[137.649611,-34.321641],[137.649895,-34.322363],[137.653267,-34.330137],[137.655764,-34.335893],[137.656406,-34.337462]]}},{"type":"Feature","properties":{"tier":"arterial"},"geometry":{"type":"LineString","coordinates":[[137.671647,-34.369622],[137.672216,-34.370045]]}},{"type":"Feature","properties":{"tier":"arterial"},"geometry":{"type":"LineString","coordinates":[[137.670073,-34.381644],[137.670382,-34.380549],[137.670533,-34.379978]]}},{"type":"Feature","properties":{"tier":"arterial"},"geometry":{"type":"LineString","coordinates":[[137.671595,-34.37713],[137.671814,-34.376589]]}},{"type":"Feature","properties":{"tier":"arterial"},"geometry":{"type":"LineString","coordinates":[[137.668363,-34.387801],[137.66934,-34.384282]]}},{"type":"Feature","properties":{"tier":"arterial"},"geometry":{"type":"LineString","coordinates":[[137.613535,-34.039333],[137.613115,-34.045423],[137.612805,-34.049708],[137.612729,-34.051752],[137.612705,-34.052025],[137.61262,-34.052973],[137.612201,-34.054815]]}},{"type":"Feature","properties":{"tier":"arterial"},"geometry":{"type":"LineString","coordinates":[[137.915293,-34.411412],[137.915484,-34.410996],[137.91566,-34.41061],[137.915946,-34.409953],[137.916053,-34.409606],[137.916129,-34.409331],[137.916172,-34.409053],[137.916202,-34.408738],[137.916219,-34.408465]]}},{"type":"Feature","properties":{"tier":"arterial"},"geometry":{"type":"LineString","coordinates":[[137.916219,-34.408465],[137.916287,-34.405833],[137.916313,-34.404882],[137.916324,-34.404445],[137.91646,-34.400515],[137.916478,-34.400216],[137.916518,-34.399948],[137.916569,-34.399671]]}},{"type":"Feature","properties":{"tier":"arterial"},"geometry":{"type":"LineString","coordinates":[[137.91347,-34.415425],[137.913407,-34.415784],[137.913367,-34.415957],[137.913376,-34.416153],[137.913496,-34.416491]]}},{"type":"Feature","properties":{"tier":"arterial"},"geometry":{"type":"LineString","coordinates":[[137.91347,-34.415425],[137.913594,-34.415135],[137.913753,-34.414761]]}},{"type":"Feature","properties":{"tier":"arterial"},"geometry":{"type":"LineString","coordinates":[[137.742951,-34.156572],[137.742877,-34.156777],[137.742833,-34.156901]]}},{"type":"Feature","properties":{"tier":"arterial"},"geometry":{"type":"LineString","coordinates":[[137.741753,-34.156132],[137.742187,-34.156399],[137.742466,-34.156598],[137.742833,-34.156901]]}},{"type":"Feature","properties":{"tier":"regional"},"geometry":{"type":"LineString","coordinates":[[137.919183,-34.422299],[137.919478,-34.421758]]}},{"type":"Feature","properties":{"tier":"regional"},"geometry":{"type":"LineString","coordinates":[[137.919478,-34.421758],[137.919578,-34.421567],[137.919686,-34.421362]]}},{"type":"Feature","properties":{"tier":"arterial"},"geometry":{"type":"LineString","coordinates":[[137.748743,-34.016208],[137.748528,-34.015944],[137.748114,-34.015516],[137.745372,-34.012914],[137.741574,-34.009289],[137.736247,-34.004217],[137.735063,-34.003098],[137.734781,-34.002789],[137.732621,-33.99998]]}},{"type":"Feature","properties":{"tier":"regional"},"geometry":{"type":"LineString","coordinates":[[137.523266,-34.424752],[137.502437,-34.423242]]}},{"type":"Feature","properties":{"tier":"regional"},"geometry":{"type":"LineString","coordinates":[[137.918557,-34.423533],[137.918694,-34.423262],[137.918873,-34.422909],[137.919183,-34.422299]]}},{"type":"Feature","properties":{"tier":"arterial"},"geometry":{"type":"LineString","coordinates":[[137.918498,-34.423644],[137.918557,-34.423533]]}},{"type":"Feature","properties":{"tier":"arterial"},"geometry":{"type":"LineString","coordinates":[[137.916011,-34.421726],[137.915958,-34.421891],[137.915647,-34.42247]]}},{"type":"Feature","properties":{"tier":"regional"},"geometry":{"type":"LineString","coordinates":[[137.915583,-34.422594],[137.914935,-34.423845],[137.91456,-34.424571],[137.914318,-34.425039],[137.913973,-34.425704]]}},{"type":"Feature","properties":{"tier":"regional"},"geometry":{"type":"LineString","coordinates":[[137.927258,-34.416237],[137.929971,-34.413438],[137.930789,-34.412574]]}},{"type":"Feature","properties":{"tier":"arterial"},"geometry":{"type":"LineString","coordinates":[[137.591204,-34.068084],[137.592108,-34.067347],[137.592995,-34.066635]]}},{"type":"Feature","properties":{"tier":"arterial"},"geometry":{"type":"LineString","coordinates":[[137.592995,-34.066635],[137.594302,-34.06775],[137.594353,-34.067793]]}},{"type":"Feature","properties":{"tier":"arterial"},"geometry":{"type":"LineString","coordinates":[[137.585931,-34.06352],[137.586962,-34.062766]]}},{"type":"Feature","properties":{"tier":"regional"},"geometry":{"type":"LineString","coordinates":[[137.559168,-34.072298],[137.559515,-34.072475],[137.56038,-34.072959],[137.561105,-34.073329],[137.563104,-34.074383]]}},{"type":"Feature","properties":{"tier":"regional"},"geometry":{"type":"LineString","coordinates":[[137.568695,-34.048221],[137.569,-34.047568],[137.570357,-34.044668],[137.571243,-34.042776],[137.572125,-34.039615]]}},{"type":"Feature","properties":{"tier":"regional"},"geometry":{"type":"LineString","coordinates":[[137.593083,-34.052751],[137.593099,-34.05172],[137.593125,-34.049998],[137.593143,-34.047972],[137.593108,-34.047528],[137.592973,-34.045771]]}},{"type":"Feature","properties":{"tier":"regional"},"geometry":{"type":"LineString","coordinates":[[137.610288,-34.067915],[137.610538,-34.067654],[137.611375,-34.066263],[137.612019,-34.065096],[137.612064,-34.065013],[137.612565,-34.063916],[137.612642,-34.063775],[137.612788,-34.063282],[137.612771,-34.062958],[137.612614,-34.062529],[137.612529,-34.062128],[137.612512,-34.061811],[137.612573,-34.060932]]}},{"type":"Feature","properties":{"tier":"regional"},"geometry":{"type":"LineString","coordinates":[[137.62239,-34.081811],[137.622767,-34.081768],[137.623021,-34.081711],[137.623334,-34.081625],[137.624678,-34.081194],[137.625468,-34.080954],[137.625962,-34.08081]]}},{"type":"Feature","properties":{"tier":"regional"},"geometry":{"type":"LineString","coordinates":[[137.611189,-34.081605],[137.611315,-34.082699],[137.611787,-34.083267],[137.61286,-34.084334],[137.614405,-34.085791],[137.615241,-34.086479]]}},{"type":"Feature","properties":{"tier":"arterial"},"geometry":{"type":"LineString","coordinates":[[137.915647,-34.42247],[137.915583,-34.422594]]}},{"type":"Feature","properties":{"tier":"arterial"},"geometry":{"type":"LineString","coordinates":[[137.915904,-34.421067],[137.916,-34.421409],[137.916011,-34.421726]]}},{"type":"Feature","properties":{"tier":"arterial"},"geometry":{"type":"LineString","coordinates":[[137.956384,-34.318381],[137.958859,-34.314589],[137.958881,-34.314555],[137.962591,-34.308899]]}},{"type":"Feature","properties":{"tier":"arterial"},"geometry":{"type":"LineString","coordinates":[[137.962591,-34.308899],[137.964815,-34.30551],[137.964884,-34.305405],[137.968425,-34.299898],[137.970543,-34.296661],[137.971457,-34.295273],[137.971949,-34.294517],[137.971974,-34.294475],[137.972966,-34.292978],[137.9738,-34.291646],[137.980192,-34.281848],[137.981748,-34.279478],[137.983685,-34.276429]]}},{"type":"Feature","properties":{"tier":"regional"},"geometry":{"type":"LineString","coordinates":[[137.5845,-34.063644],[137.585108,-34.064201]]}},{"type":"Feature","properties":{"tier":"regional"},"geometry":{"type":"LineString","coordinates":[[137.583018,-34.06572],[137.58301,-34.065689],[137.583013,-34.065657],[137.583027,-34.065627],[137.583052,-34.065602],[137.583087,-34.065584],[137.583128,-34.065575],[137.58317,-34.065578],[137.583208,-34.065592],[137.583239,-34.065616],[137.583259,-34.065646],[137.583266,-34.06568],[137.58326,-34.065714],[137.583242,-34.065744],[137.583214,-34.065767],[137.583179,-34.065782],[137.58314,-34.065788],[137.583101,-34.065783],[137.583065,-34.065769],[137.583037,-34.065748],[137.583018,-34.06572]]}}]}
