{"type":"FeatureCollection","features":[{"type":"Feature","properties":{"tier":"regional"},"geometry":{"type":"LineString","coordinates":[[137.734384,-35.04294],[137.735446,-35.042667],[137.736089,-35.042502],[137.736339,-35.042408],[137.736673,-35.042255],[137.737896,-35.041589],[137.738246,-35.041414],[137.738688,-35.041241],[137.739018,-35.041158],[137.739323,-35.0411],[137.739717,-35.041074],[137.743554,-35.041041],[137.744127,-35.041055],[137.744717,-35.041146],[137.745441,-35.041339],[137.74821,-35.042392]]}},{"type":"Feature","properties":{"tier":"arterial"},"geometry":{"type":"LineString","coordinates":[[137.745793,-35.084728],[137.745898,-35.084725],[137.746076,-35.084722],[137.74628,-35.084724],[137.74643,-35.084721],[137.746651,-35.084719],[137.747174,-35.084708],[137.747687,-35.084701],[137.747812,-35.084794]]}},{"type":"Feature","properties":{"tier":"regional"},"geometry":{"type":"LineString","coordinates":[[137.745798,-35.088828],[137.745814,-35.08751],[137.74581,-35.086172],[137.745796,-35.084928],[137.745795,-35.084869]]}},{"type":"Feature","properties":{"tier":"arterial"},"geometry":{"type":"LineString","coordinates":[[137.729187,-34.99998],[137.729273,-35.005967],[137.729286,-35.008037],[137.729289,-35.010304],[137.729268,-35.011185],[137.72928,-35.012859],[137.729287,-35.013153],[137.729313,-35.015796],[137.729301,-35.016602],[137.729285,-35.023288],[137.729317,-35.027608],[137.729368,-35.037919]]}},{"type":"Feature","properties":{"tier":"arterial"},"geometry":{"type":"LineString","coordinates":[[137.674485,-34.99998],[137.673468,-35.0022],[137.673163,-35.002733],[137.672866,-35.003111],[137.663671,-35.012886],[137.663215,-35.013395]]}},{"type":"Feature","properties":{"tier":"arterial"},"geometry":{"type":"LineString","coordinates":[[137.731458,-35.04408],[137.730106,-35.044883],[137.729685,-35.045129],[137.729199,-35.045423],[137.728852,-35.045661],[137.72765,-35.046511],[137.727541,-35.046597],[137.727315,-35.046777],[137.726999,-35.047083],[137.726784,-35.047389],[137.726616,-35.047739],[137.726505,-35.048169],[137.726466,-35.048572],[137.726478,-35.04892],[137.726551,-35.049293],[137.726892,-35.050418],[137.727096,-35.051112],[137.727431,-35.052417],[137.727474,-35.05264]]}},{"type":"Feature","properties":{"tier":"arterial"},"geometry":{"type":"LineString","coordinates":[[137.601742,-35.019058],[137.59885,-35.019059]]}},{"type":"Feature","properties":{"tier":"arterial"},"geometry":{"type":"LineString","coordinates":[[137.605339,-35.019064],[137.60556,-35.019164],[137.606494,-35.01978],[137.607325,-35.02037],[137.607667,-35.020614],[137.608859,-35.021436],[137.608897,-35.021463],[137.611144,-35.023022]]}},{"type":"Feature","properties":{"tier":"regional"},"geometry":{"type":"LineString","coordinates":[[137.49998,-35.077018],[137.505237,-35.075827],[137.523355,-35.071794],[137.523908,-35.071684],[137.529304,-35.070499],[137.533811,-35.069514],[137.540532,-35.066861],[137.545588,-35.064957],[137.550352,-35.063075],[137.559781,-35.059477],[137.56065,-35.059067],[137.561305,-35.058668],[137.565404,-35.05526],[137.568525,-35.052647],[137.569512,-35.052006],[137.570575,-35.051606],[137.572381,-35.05109],[137.573219,-35.050776],[137.574147,-35.050262],[137.575081,-35.049722],[137.575708,-35.049318],[137.576331,-35.048795],[137.576856,-35.048185],[137.577361,-35.047193],[137.577484,-35.046683],[137.577564,-35.046103],[137.577559,-35.045533],[137.577457,-35.044913],[137.577269,-35.043908],[137.577248,-35.043227],[137.577334,-35.042678],[137.577505,-35.042146],[137.577677,-35.041733],[137.577945,-35.041246],[137.580231,-35.038492],[137.580799,-35.037903],[137.581551,-35.037425],[137.581965,-35.037151],[137.583084,-35.036722],[137.586056,-35.036133],[137.586601,-35.036013],[137.587182,-35.035818],[137.58801,-35.035494],[137.589666,-35.034642],[137.593281,-35.032752],[137.593945,-35.032302],[137.594981,-35.031375],[137.600309,-35.025942]]}},{"type":"Feature","properties":{"tier":"arterial"},"geometry":{"type":"LineString","coordinates":[[137.600616,-34.99998],[137.601594,-35.002073],[137.60235,-35.003708],[137.60307,-35.005254],[137.603948,-35.00714]]}},{"type":"Feature","properties":{"tier":"regional"},"geometry":{"type":"LineString","coordinates":[[137.744189,-35.084802],[137.744049,-35.084801],[137.740691,-35.084788]]}},{"type":"Feature","properties":{"tier":"arterial"},"geometry":{"type":"LineString","coordinates":[[137.747812,-35.084794],[137.747681,-35.08484],[137.747168,-35.084851],[137.746656,-35.084856],[137.746432,-35.084859],[137.746281,-35.084862],[137.746076,-35.084865],[137.745901,-35.084868],[137.745795,-35.084869]]}},{"type":"Feature","properties":{"tier":"regional"},"geometry":{"type":"LineString","coordinates":[[137.745979,-35.091732],[137.743679,-35.091738],[137.74072,-35.091733],[137.740718,-35.091619]]}},{"type":"Feature","properties":{"tier":"regional"},"geometry":{"type":"LineString","coordinates":[[137.740718,-35.091619],[137.740679,-35.088843],[137.740691,-35.086058],[137.740691,-35.084788],[137.740619,-35.080965]]}},{"type":"Feature","properties":{"tier":"regional"},"geometry":{"type":"LineString","coordinates":[[137.740619,-35.075638],[137.740608,-35.072629],[137.740596,-35.071785],[137.740604,-35.071397]]}},{"type":"Feature","properties":{"tier":"regional"},"geometry":{"type":"LineString","coordinates":[[137.740691,-35.084788],[137.736753,-35.084768],[137.735311,-35.084771]]}},{"type":"Feature","properties":{"tier":"regional"},"geometry":{"type":"LineString","coordinates":[[137.735311,-35.084771],[137.735274,-35.07967]]}},{"type":"Feature","properties":{"tier":"regional"},"geometry":{"type":"LineString","coordinates":[[137.740627,-35.077956],[137.745771,-35.077905]]}},{"type":"Feature","properties":{"tier":"regional"},"geometry":{"type":"LineString","coordinates":[[137.606792,-35.013524],[137.60924,-35.013532],[137.611412,-35.013524],[137.613801,-35.013516],[137.619086,-35.013522],[137.619881,-35.013523],[137.619948,-35.013523],[137.619973,-35.013525],[137.620085,-35.013531],[137.620751,-35.013588],[137.624538,-35.013907],[137.624651,-35.013935],[137.624748,-35.013979],[137.624812,-35.01403]]}},{"type":"Feature","properties":{"tier":"regional"},"geometry":{"type":"LineString","coordinates":[[137.663215,-35.013395],[137.664132,-35.013405],[137.68755,-35.013349],[137.725924,-35.013234],[137.72641,-35.013204],[137.72693,-35.013139],[137.727379,-35.013049],[137.727811,-35.012952],[137.728119,-35.0129],[137.728648,-35.012862],[137.72928,-35.012859]]}},{"type":"Feature","properties":{"tier":"arterial"},"geometry":{"type":"LineString","coordinates":[[137.744189,-35.084802],[137.744291,-35.084731],[137.74493,-35.084732],[137.745501,-35.084728],[137.745793,-35.084728]]}},{"type":"Feature","properties":{"tier":"regional"},"geometry":{"type":"LineString","coordinates":[[137.734384,-35.04294],[137.733001,-35.04345],[137.731458,-35.04408]]}},{"type":"Feature","properties":{"tier":"regional"},"geometry":{"type":"LineString","coordinates":[[137.760455,-35.013123],[137.7399,-35.013185],[137.729287,-35.013153]]}},{"type":"Feature","properties":{"tier":"regional"},"geometry":{"type":"LineString","coordinates":[[137.601176,-35.025083],[137.60283,-35.023361],[137.603213,-35.022955],[137.603958,-35.022174],[137.604376,-35.02172],[137.604462,-35.021581],[137.604531,-35.021352],[137.604776,-35.020657],[137.604939,-35.020193],[137.604966,-35.020105],[137.605339,-35.019064]]}},{"type":"Feature","properties":{"tier":"arterial"},"geometry":{"type":"LineString","coordinates":[[137.626867,-35.013798],[137.626379,-35.013824],[137.626044,-35.013846],[137.625695,-35.013874],[137.625375,-35.013917],[137.625076,-35.013972],[137.624812,-35.01403],[137.624494,-35.014125],[137.624175,-35.014227],[137.623867,-35.014336],[137.623563,-35.014459],[137.623282,-35.014585],[137.623027,-35.014716],[137.622736,-35.014883],[137.621662,-35.015617],[137.621327,-35.015841],[137.621023,-35.01602],[137.620689,-35.016187],[137.620433,-35.0163],[137.620038,-35.016457],[137.619952,-35.016489],[137.619902,-35.016507],[137.619498,-35.016633],[137.619021,-35.016756],[137.617574,-35.017011]]}},{"type":"Feature","properties":{"tier":"regional"},"geometry":{"type":"LineString","coordinates":[[137.754408,-35.044173],[137.756807,-35.044178],[137.757349,-35.044153],[137.757881,-35.044046],[137.758408,-35.04388],[137.758887,-35.043682],[137.759369,-35.043391],[137.762119,-35.04127],[137.762522,-35.040844],[137.762765,-35.040484],[137.762976,-35.04007],[137.763286,-35.038944],[137.76365,-35.037679],[137.763707,-35.037311],[137.763702,-35.036969],[137.763626,-35.036573],[137.763161,-35.034705],[137.762672,-35.032566],[137.762226,-35.030389],[137.762023,-35.029633],[137.761553,-35.027782]]}},{"type":"Feature","properties":{"tier":"arterial"},"geometry":{"type":"LineString","coordinates":[[137.729368,-35.037919],[137.729436,-35.039363],[137.729457,-35.039776],[137.729483,-35.040226],[137.729579,-35.040618],[137.729679,-35.040947]]}},{"type":"Feature","properties":{"tier":"regional"},"geometry":{"type":"LineString","coordinates":[[137.76142,-35.027224],[137.760923,-35.025135],[137.760848,-35.024656],[137.76086,-35.024589],[137.761007,-35.023801],[137.761079,-35.023323],[137.761229,-35.022218],[137.761087,-35.019893],[137.760956,-35.018511],[137.760884,-35.017753],[137.760689,-35.01569],[137.76068,-35.015591],[137.760569,-35.014432],[137.760455,-35.013123]]}},{"type":"Feature","properties":{"tier":"regional"},"geometry":{"type":"LineString","coordinates":[[137.760181,-35.01219],[137.759679,-35.010684],[137.759067,-35.00866],[137.758493,-35.006933],[137.758199,-35.006212],[137.758118,-35.00596],[137.758066,-35.005758],[137.75801,-35.005452],[137.757951,-35.00486],[137.757892,-35.004272],[137.757763,-35.003191],[137.757209,-35.000342],[137.757137,-34.99998]]}},{"type":"Feature","properties":{"tier":"arterial"},"geometry":{"type":"LineString","coordinates":[[137.727474,-35.05264],[137.72771,-35.053584],[137.727972,-35.054443]]}},{"type":"Feature","properties":{"tier":"arterial"},"geometry":{"type":"LineString","coordinates":[[137.745795,-35.084869],[137.745502,-35.084865],[137.744927,-35.084869],[137.744291,-35.084869],[137.744189,-35.084802]]}},{"type":"Feature","properties":{"tier":"arterial"},"geometry":{"type":"LineString","coordinates":[[137.728142,-35.054992],[137.728475,-35.055761],[137.728617,-35.056057],[137.728817,-35.056361],[137.729079,-35.056688],[137.729862,-35.05751],[137.73101,-35.058658],[137.731513,-35.059192],[137.732016,-35.059832],[137.732258,-35.060283],[137.732669,-35.061235],[137.733012,-35.062004],[137.733443,-35.063016],[137.733911,-35.064129],[137.734278,-35.064927],[137.734622,-35.065633],[137.734868,-35.066072],[137.735183,-35.066575],[137.735581,-35.067108],[137.736511,-35.068373],[137.736673,-35.068586],[137.737014,-35.068917],[137.737396,-35.069246],[137.73782,-35.069613],[137.73825,-35.069849],[137.73897,-35.070185]]}},{"type":"Feature","properties":{"tier":"arterial"},"geometry":{"type":"LineString","coordinates":[[137.745762,-35.080781],[137.745762,-35.080841],[137.745774,-35.082085],[137.745777,-35.08216],[137.745804,-35.0834],[137.745795,-35.084666],[137.745795,-35.084677],[137.745793,-35.084728]]}},{"type":"Feature","properties":{"tier":"arterial"},"geometry":{"type":"LineString","coordinates":[[137.745795,-35.084869],[137.745793,-35.084728]]}},{"type":"Feature","properties":{"tier":"arterial"},"geometry":{"type":"LineString","coordinates":[[137.740918,-35.071161],[137.741197,-35.071399],[137.741765,-35.07197],[137.742968,-35.073238],[137.743507,-35.073794],[137.744413,-35.074727],[137.744764,-35.075131],[137.745106,-35.075637],[137.745319,-35.07599],[137.745525,-35.076483],[137.745603,-35.076811],[137.745703,-35.077196],[137.745754,-35.077483],[137.745771,-35.077905],[137.745763,-35.079592]]}},{"type":"Feature","properties":{"tier":"arterial"},"geometry":{"type":"LineString","coordinates":[[137.737389,-35.080113],[137.738088,-35.080259],[137.738235,-35.080294],[137.740036,-35.080676],[137.740395,-35.080823],[137.740619,-35.080965],[137.740774,-35.081091],[137.741135,-35.081444],[137.741602,-35.081976],[137.741859,-35.082241],[137.742584,-35.083021],[137.743078,-35.083541],[137.743326,-35.083811]]}},{"type":"Feature","properties":{"tier":"arterial"},"geometry":{"type":"LineString","coordinates":[[137.615427,-35.026001],[137.616855,-35.026995],[137.61989,-35.029105],[137.622429,-35.030861],[137.623147,-35.031323],[137.623709,-35.031686],[137.624181,-35.032028],[137.624592,-35.032389],[137.624958,-35.032755],[137.625184,-35.032981],[137.625343,-35.033179],[137.625935,-35.03379],[137.62697,-35.034925],[137.627252,-35.035235],[137.627639,-35.035623],[137.627792,-35.035815],[137.628371,-35.03641],[137.630224,-35.038417],[137.631158,-35.039408],[137.632311,-35.040624],[137.632807,-35.041175],[137.634167,-35.04262],[137.634328,-35.042814],[137.635524,-35.044063],[137.636402,-35.045012],[137.63656,-35.045203],[137.637074,-35.045743],[137.638081,-35.046799],[137.638381,-35.047148],[137.645188,-35.054416],[137.645588,-35.054954],[137.646594,-35.05666],[137.646892,-35.057132],[137.647254,-35.057769],[137.647804,-35.058669],[137.648085,-35.059047],[137.648333,-35.059303],[137.648569,-35.05947],[137.649856,-35.060123],[137.654319,-35.0622],[137.663257,-35.066405],[137.678196,-35.073433],[137.679743,-35.074151],[137.68006,-35.074247],[137.680615,-35.074357],[137.683952,-35.074572],[137.687776,-35.074785],[137.704244,-35.07579],[137.706394,-35.075923],[137.713791,-35.076381],[137.720833,-35.076805],[137.721641,-35.076877],[137.722434,-35.076978],[137.723169,-35.077112],[137.725445,-35.077609]]}},{"type":"Feature","properties":{"tier":"arterial"},"geometry":{"type":"LineString","coordinates":[[137.595977,-35.019024],[137.59105,-35.018995],[137.589711,-35.018991],[137.589262,-35.018968],[137.589039,-35.018938],[137.588686,-35.018875],[137.588399,-35.018795],[137.58575,-35.018072],[137.584999,-35.017949],[137.584152,-35.017993],[137.57839,-35.019379],[137.574871,-35.02027],[137.574327,-35.020343],[137.573552,-35.020234],[137.566267,-35.019104],[137.565789,-35.019039],[137.565301,-35.019012],[137.56262,-35.019205],[137.562487,-35.019212],[137.557134,-35.019605],[137.547813,-35.020225],[137.546805,-35.02011],[137.54445,-35.019708],[137.53525,-35.018133],[137.53466,-35.018125],[137.534198,-35.018169],[137.533639,-35.018311],[137.531871,-35.018762],[137.522031,-35.021285],[137.521013,-35.021578],[137.520487,-35.021868],[137.519875,-35.022281],[137.519253,-35.022579],[137.518594,-35.022767],[137.507376,-35.024275],[137.506829,-35.024398],[137.504887,-35.025057],[137.504426,-35.025118],[137.503954,-35.025118],[137.503406,-35.024996],[137.502951,-35.024726],[137.502656,-35.024425],[137.502389,-35.024054],[137.502379,-35.024032],[137.502226,-35.023713],[137.501937,-35.021929],[137.501765,-35.021165],[137.500964,-35.019418],[137.500757,-35.019076],[137.500487,-35.018704],[137.500065,-35.018273],[137.49998,-35.018199]]}},{"type":"Feature","properties":{"tier":"arterial"},"geometry":{"type":"LineString","coordinates":[[137.729679,-35.040947],[137.729979,-35.041607],[137.730224,-35.042034],[137.73083,-35.043016],[137.731138,-35.043533],[137.731458,-35.04408]]}},{"type":"Feature","properties":{"tier":"arterial"},"geometry":{"type":"LineString","coordinates":[[137.663215,-35.013395],[137.660729,-35.013371],[137.653761,-35.013394],[137.642802,-35.013431],[137.633854,-35.01346],[137.63261,-35.01352],[137.632263,-35.013537],[137.626867,-35.013798]]}},{"type":"Feature","properties":{"tier":"arterial"},"geometry":{"type":"LineString","coordinates":[[137.617574,-35.017011],[137.613828,-35.017626],[137.613324,-35.017711],[137.610262,-35.018248],[137.609946,-35.018303],[137.608893,-35.018485],[137.608256,-35.018587],[137.607734,-35.018681],[137.605552,-35.019054],[137.605339,-35.019064]]}},{"type":"Feature","properties":{"tier":"regional"},"geometry":{"type":"LineString","coordinates":[[137.760455,-35.013123],[137.760415,-35.012943],[137.760363,-35.012775],[137.760181,-35.01219]]}},{"type":"Feature","properties":{"tier":"arterial"},"geometry":{"type":"LineString","coordinates":[[137.603948,-35.00714],[137.604639,-35.00862],[137.606313,-35.012199],[137.6066,-35.01289],[137.606721,-35.013169],[137.60676,-35.013332],[137.606792,-35.013524],[137.606785,-35.013709],[137.606771,-35.013892],[137.606725,-35.014092],[137.606683,-35.014253],[137.606622,-35.014442],[137.606192,-35.016001],[137.606134,-35.016211],[137.605963,-35.016894],[137.605894,-35.017165],[137.605664,-35.017963],[137.605626,-35.018066],[137.605339,-35.019064]]}},{"type":"Feature","properties":{"tier":"arterial"},"geometry":{"type":"LineString","coordinates":[[137.747812,-35.084794],[137.747935,-35.084796]]}},{"type":"Feature","properties":{"tier":"regional"},"geometry":{"type":"LineString","coordinates":[[137.745979,-35.091732],[137.745921,-35.091606],[137.745847,-35.091428],[137.74583,-35.091169],[137.745823,-35.090625],[137.745816,-35.090015],[137.745798,-35.088828]]}},{"type":"Feature","properties":{"tier":"arterial"},"geometry":{"type":"LineString","coordinates":[[137.727972,-35.054443],[137.728019,-35.054588],[137.728142,-35.054992]]}},{"type":"Feature","properties":{"tier":"regional"},"geometry":{"type":"LineString","coordinates":[[137.74821,-35.042392],[137.749067,-35.042718],[137.750495,-35.043237]]}},{"type":"Feature","properties":{"tier":"arterial"},"geometry":{"type":"LineString","coordinates":[[137.743619,-35.084118],[137.744044,-35.084594],[137.744189,-35.084802]]}},{"type":"Feature","properties":{"tier":"arterial"},"geometry":{"type":"LineString","coordinates":[[137.725445,-35.077609],[137.727693,-35.078073],[137.735274,-35.07967]]}},{"type":"Feature","properties":{"tier":"arterial"},"geometry":{"type":"LineString","coordinates":[[137.735274,-35.07967],[137.737389,-35.080113]]}},{"type":"Feature","properties":{"tier":"arterial"},"geometry":{"type":"LineString","coordinates":[[137.740158,-35.070722],[137.740487,-35.070901],[137.740565,-35.070945],[137.740612,-35.070972]]}},{"type":"Feature","properties":{"tier":"arterial"},"geometry":{"type":"LineString","coordinates":[[137.745763,-35.079592],[137.745762,-35.080781]]}},{"type":"Feature","properties":{"tier":"regional"},"geometry":{"type":"LineString","coordinates":[[137.761553,-35.027782],[137.76142,-35.027224]]}},{"type":"Feature","properties":{"tier":"arterial"},"geometry":{"type":"LineString","coordinates":[[137.73897,-35.070185],[137.740158,-35.070722]]}},{"type":"Feature","properties":{"tier":"arterial"},"geometry":{"type":"LineString","coordinates":[[137.740612,-35.070972],[137.740918,-35.071161]]}},{"type":"Feature","properties":{"tier":"regional"},"geometry":{"type":"LineString","coordinates":[[137.740604,-35.071397],[137.740612,-35.070972]]}},{"type":"Feature","properties":{"tier":"regional"},"geometry":{"type":"LineString","coordinates":[[137.740619,-35.080965],[137.740627,-35.077956],[137.740621,-35.076205]]}},{"type":"Feature","properties":{"tier":"regional"},"geometry":{"type":"LineString","coordinates":[[137.740621,-35.076205],[137.740619,-35.075638]]}},{"type":"Feature","properties":{"tier":"arterial"},"geometry":{"type":"LineString","coordinates":[[137.743326,-35.083811],[137.743619,-35.084118]]}},{"type":"Feature","properties":{"tier":"arterial"},"geometry":{"type":"LineString","coordinates":[[137.611144,-35.023022],[137.612529,-35.023997],[137.615427,-35.026001]]}},{"type":"Feature","properties":{"tier":"regional"},"geometry":{"type":"LineString","coordinates":[[137.750495,-35.043237],[137.751849,-35.043705],[137.752817,-35.04398],[137.753401,-35.044112],[137.753884,-35.044166],[137.754408,-35.044173]]}},{"type":"Feature","properties":{"tier":"arterial"},"geometry":{"type":"LineString","coordinates":[[137.605339,-35.019064],[137.604436,-35.019062],[137.604094,-35.019061],[137.60381,-35.019065],[137.601742,-35.019058]]}},{"type":"Feature","properties":{"tier":"arterial"},"geometry":{"type":"LineString","coordinates":[[137.59885,-35.019059],[137.598003,-35.019057],[137.595977,-35.019024]]}}]}
