{"type":"FeatureCollection","features":[{"type":"Feature","properties":{"tier":"arterial"},"geometry":{"type":"LineString","coordinates":[[137.564472,-33.040495],[137.563149,-33.040431]]}},{"type":"Feature","properties":{"tier":"arterial"},"geometry":{"type":"LineString","coordinates":[[137.571999,-33.025272],[137.572121,-33.025318]]}},{"type":"Feature","properties":{"tier":"high"},"geometry":{"type":"LineString","coordinates":[[137.563039,-33.039786],[137.563032,-33.039287],[137.563014,-33.038446],[137.563014,-33.038236],[137.563004,-33.037632],[137.563,-33.036619],[137.563004,-33.036106],[137.563011,-33.035211],[137.563252,-33.03445],[137.563683,-33.033931]]}},{"type":"Feature","properties":{"tier":"regional"},"geometry":{"type":"LineString","coordinates":[[137.539719,-33.027753],[137.539666,-33.027911],[137.539648,-33.02797],[137.53963,-33.028028],[137.539403,-33.028768],[137.539328,-33.029088],[137.539297,-33.029219],[137.539279,-33.029566],[137.539288,-33.029944],[137.53929,-33.029989],[137.539301,-33.030047],[137.539364,-33.030384],[137.539894,-33.031848],[137.540888,-33.03443],[137.5419,-33.037058],[137.542179,-33.037853],[137.542461,-33.038596],[137.543351,-33.040936],[137.543592,-33.041635],[137.543673,-33.041868],[137.543689,-33.041914],[137.543707,-33.041967],[137.543718,-33.042]]}},{"type":"Feature","properties":{"tier":"arterial"},"geometry":{"type":"LineString","coordinates":[[137.55539,-33.016172],[137.555247,-33.016129]]}},{"type":"Feature","properties":{"tier":"high"},"geometry":{"type":"LineString","coordinates":[[137.529062,-33.045539],[137.529003,-33.045588],[137.528918,-33.045638],[137.528706,-33.045742]]}},{"type":"Feature","properties":{"tier":"arterial"},"geometry":{"type":"LineString","coordinates":[[137.554498,-33.017467],[137.554605,-33.017282],[137.554687,-33.017139]]}},{"type":"Feature","properties":{"tier":"regional"},"geometry":{"type":"LineString","coordinates":[[137.553383,-33.017076],[137.553908,-33.017228],[137.554249,-33.017366],[137.554408,-33.017431],[137.554498,-33.017467]]}},{"type":"Feature","properties":{"tier":"arterial"},"geometry":{"type":"LineString","coordinates":[[137.530802,-33.015577],[137.5311,-33.015498],[137.532092,-33.015235],[137.53319,-33.014965],[137.533654,-33.014914],[137.533776,-33.014913],[137.534043,-33.014909],[137.534393,-33.014927],[137.534664,-33.014941],[137.534767,-33.014946],[137.535156,-33.014966],[137.537635,-33.015079],[137.538091,-33.015149],[137.5382,-33.015165],[137.539143,-33.015309],[137.539916,-33.015427],[137.540773,-33.015564],[137.54276,-33.015882],[137.544238,-33.016117],[137.544865,-33.016276],[137.545323,-33.016462],[137.545791,-33.016652],[137.546203,-33.016827],[137.547229,-33.017221]]}},{"type":"Feature","properties":{"tier":"arterial"},"geometry":{"type":"LineString","coordinates":[[137.528236,-33.034133],[137.528341,-33.034075],[137.528478,-33.034039],[137.528621,-33.034037],[137.528759,-33.034071],[137.528878,-33.034137],[137.528938,-33.034191],[137.528985,-33.034252],[137.52903,-33.034357],[137.529039,-33.034468],[137.529013,-33.034577],[137.528952,-33.034676],[137.528883,-33.034741],[137.5288,-33.034793],[137.528671,-33.034837],[137.528531,-33.034848],[137.528394,-33.034826],[137.52827,-33.034772],[137.528169,-33.03469],[137.528122,-33.034627],[137.528089,-33.034558],[137.528068,-33.034439],[137.52809,-33.03432],[137.528153,-33.034211],[137.528236,-33.034133]]}},{"type":"Feature","properties":{"tier":"arterial"},"geometry":{"type":"LineString","coordinates":[[137.553547,-33.018599],[137.553271,-33.018785],[137.553085,-33.018929],[137.552998,-33.019039],[137.552643,-33.019485]]}},{"type":"Feature","properties":{"tier":"regional"},"geometry":{"type":"LineString","coordinates":[[137.991181,-33.17728],[137.992235,-33.177279],[137.993329,-33.177277],[137.994424,-33.177276],[137.995137,-33.177275],[137.995425,-33.177275],[137.99644,-33.177274],[137.997501,-33.177272],[137.998564,-33.177277],[137.998798,-33.177271],[137.999589,-33.17727],[138.00002,-33.177269]]}},{"type":"Feature","properties":{"tier":"regional"},"geometry":{"type":"LineString","coordinates":[[137.99121,-33.198712],[137.991208,-33.197211],[137.991207,-33.196517],[137.991207,-33.196057],[137.991206,-33.195616],[137.991205,-33.19492],[137.991203,-33.193399],[137.991201,-33.192347],[137.9912,-33.19139],[137.9912,-33.191315],[137.991199,-33.190364],[137.991197,-33.189384],[137.991192,-33.185318],[137.99119,-33.183915],[137.991186,-33.181324],[137.991183,-33.179235],[137.991183,-33.179158],[137.991181,-33.17728]]}},{"type":"Feature","properties":{"tier":"regional"},"geometry":{"type":"LineString","coordinates":[[137.991266,-33.204014],[137.992394,-33.204037],[137.992909,-33.204072],[137.993759,-33.204029],[137.994966,-33.20402],[137.995424,-33.204023],[137.99626,-33.204019],[137.996496,-33.204014],[137.99755,-33.204015],[137.999281,-33.204017],[138.00002,-33.204015]]}},{"type":"Feature","properties":{"tier":"regional"},"geometry":{"type":"LineString","coordinates":[[137.991166,-33.204096],[137.991137,-33.204088],[137.991112,-33.204072],[137.991095,-33.204051],[137.991088,-33.204019],[137.991095,-33.203993],[137.991111,-33.203971],[137.991136,-33.203955],[137.991165,-33.203947],[137.991197,-33.203948],[137.991226,-33.203958],[137.991249,-33.203976],[137.991263,-33.203999],[137.991266,-33.204014],[137.991264,-33.20404],[137.991252,-33.204063],[137.99123,-33.204082],[137.991202,-33.204093],[137.991166,-33.204096]]}},{"type":"Feature","properties":{"tier":"arterial"},"geometry":{"type":"LineString","coordinates":[[137.558768,-33.010446],[137.559196,-33.010042],[137.559719,-33.009693],[137.56051,-33.009294],[137.561188,-33.009059],[137.561611,-33.008963],[137.562041,-33.008898],[137.562623,-33.008852],[137.563222,-33.008837],[137.56407,-33.008828],[137.564465,-33.008823],[137.568101,-33.008818],[137.568647,-33.008815],[137.570276,-33.008809],[137.572457,-33.008803]]}},{"type":"Feature","properties":{"tier":"arterial"},"geometry":{"type":"LineString","coordinates":[[137.531422,-33.025719],[137.531501,-33.025788],[137.53156,-33.025838],[137.531681,-33.025911],[137.531799,-33.02595],[137.531945,-33.025995],[137.533009,-33.026263],[137.533474,-33.026365]]}},{"type":"Feature","properties":{"tier":"arterial"},"geometry":{"type":"LineString","coordinates":[[137.530656,-33.025303],[137.530771,-33.025211],[137.530845,-33.025137],[137.530907,-33.025059],[137.530965,-33.02493],[137.531042,-33.024722],[137.531181,-33.024384]]}},{"type":"Feature","properties":{"tier":"arterial"},"geometry":{"type":"LineString","coordinates":[[137.530027,-33.016156],[137.529993,-33.016314],[137.529982,-33.016478],[137.530044,-33.016711],[137.530375,-33.017575],[137.53083,-33.018792],[137.531321,-33.020094],[137.531442,-33.020382],[137.531741,-33.02127]]}},{"type":"Feature","properties":{"tier":"arterial"},"geometry":{"type":"LineString","coordinates":[[137.529289,-33.016095],[137.529262,-33.015999],[137.529269,-33.015901],[137.529291,-33.015839],[137.529326,-33.015781],[137.529415,-33.015698],[137.52953,-33.015642],[137.529661,-33.01562],[137.529793,-33.015634],[137.529892,-33.01567],[137.52999,-33.01574],[137.530059,-33.015831],[137.530091,-33.015935],[137.530083,-33.016042],[137.530061,-33.016101],[137.530027,-33.016156],[137.529935,-33.016242],[137.529814,-33.016298],[137.529678,-33.016317],[137.529542,-33.016299],[137.52943,-33.01625],[137.529347,-33.016181],[137.529289,-33.016095]]}},{"type":"Feature","properties":{"tier":"arterial"},"geometry":{"type":"LineString","coordinates":[[137.554628,-33.017512],[137.554578,-33.0176],[137.55444,-33.017846],[137.55435,-33.018007],[137.554293,-33.01808],[137.554168,-33.018238],[137.554003,-33.018366],[137.553955,-33.018405],[137.553627,-33.018561]]}},{"type":"Feature","properties":{"tier":"arterial"},"geometry":{"type":"LineString","coordinates":[[137.554952,-33.016008],[137.553728,-33.015509],[137.553028,-33.015258],[137.552141,-33.015039],[137.551047,-33.014932]]}},{"type":"Feature","properties":{"tier":"arterial"},"geometry":{"type":"LineString","coordinates":[[137.555021,-33.016548],[137.555087,-33.016299],[137.555061,-33.016146],[137.554952,-33.016008]]}},{"type":"Feature","properties":{"tier":"arterial"},"geometry":{"type":"LineString","coordinates":[[137.554952,-33.016008],[137.555101,-33.016001],[137.555225,-33.015975],[137.555394,-33.015883]]}},{"type":"Feature","properties":{"tier":"arterial"},"geometry":{"type":"LineString","coordinates":[[137.572917,-33.025746],[137.572185,-33.025441],[137.572095,-33.025404]]}},{"type":"Feature","properties":{"tier":"high"},"geometry":{"type":"LineString","coordinates":[[137.575816,-33.009079],[137.575601,-33.011088]]}},{"type":"Feature","properties":{"tier":"high"},"geometry":{"type":"LineString","coordinates":[[137.575775,-33.007899],[137.575948,-33.007087],[137.57602,-33.006925]]}},{"type":"Feature","properties":{"tier":"high"},"geometry":{"type":"LineString","coordinates":[[137.572457,-33.024125],[137.57243,-33.024264]]}},{"type":"Feature","properties":{"tier":"arterial"},"geometry":{"type":"LineString","coordinates":[[137.573526,-33.025988],[137.573635,-33.026038],[137.573823,-33.026122],[137.574071,-33.026216]]}},{"type":"Feature","properties":{"tier":"arterial"},"geometry":{"type":"LineString","coordinates":[[137.571969,-33.025363],[137.571925,-33.025348],[137.571436,-33.025161],[137.571054,-33.025014],[137.569799,-33.024479],[137.569503,-33.024312],[137.569275,-33.02414],[137.568726,-33.023726],[137.567641,-33.022903],[137.567346,-33.022741],[137.566914,-33.022563],[137.566608,-33.022436],[137.565614,-33.022045],[137.564594,-33.021625],[137.562957,-33.020966],[137.56116,-33.020253],[137.559336,-33.019509],[137.558175,-33.019042],[137.557,-33.018577],[137.556111,-33.018204],[137.55584,-33.018099],[137.555185,-33.017844],[137.554856,-33.017712],[137.554636,-33.017623],[137.554578,-33.0176],[137.554453,-33.01755]]}},{"type":"Feature","properties":{"tier":"arterial"},"geometry":{"type":"LineString","coordinates":[[137.52943,-33.01625],[137.529241,-33.016225],[137.529021,-33.016232],[137.528552,-33.016357]]}},{"type":"Feature","properties":{"tier":"arterial"},"geometry":{"type":"LineString","coordinates":[[137.518649,-33.021218],[137.518669,-33.02111],[137.518722,-33.021009],[137.518804,-33.020924],[137.518908,-33.020859],[137.51903,-33.020818],[137.519187,-33.020806],[137.519315,-33.020826],[137.519433,-33.020874],[137.519532,-33.020945],[137.519606,-33.021036],[137.51965,-33.021139],[137.519662,-33.021248],[137.519641,-33.021351],[137.519591,-33.021447],[137.519514,-33.02153],[137.519416,-33.021594],[137.519302,-33.021637],[137.519202,-33.021653],[137.519101,-33.021652],[137.518979,-33.021628],[137.518868,-33.02158],[137.518775,-33.02151],[137.518705,-33.021424],[137.518662,-33.021325],[137.518649,-33.021218]]}},{"type":"Feature","properties":{"tier":"arterial"},"geometry":{"type":"LineString","coordinates":[[137.519187,-33.020806],[137.519379,-33.020755],[137.519556,-33.020675],[137.519873,-33.02039],[137.520546,-33.019734],[137.521624,-33.018675],[137.52171,-33.018603],[137.522069,-33.01832],[137.522399,-33.018091],[137.522834,-33.017844],[137.523237,-33.017652],[137.523732,-33.017474],[137.524247,-33.017328]]}},{"type":"Feature","properties":{"tier":"arterial"},"geometry":{"type":"LineString","coordinates":[[137.519662,-33.021248],[137.519723,-33.021396],[137.519806,-33.021547],[137.519982,-33.021709],[137.520932,-33.022401],[137.521535,-33.022841],[137.522388,-33.023436],[137.522661,-33.023626],[137.52304,-33.02385],[137.523534,-33.024087],[137.523961,-33.024237],[137.524383,-33.024368],[137.525382,-33.024595],[137.526723,-33.024888],[137.528119,-33.025192],[137.529296,-33.025472],[137.529759,-33.025533],[137.530042,-33.025547],[137.530256,-33.025509]]}},{"type":"Feature","properties":{"tier":"arterial"},"geometry":{"type":"LineString","coordinates":[[137.530134,-33.025972],[137.529973,-33.025835],[137.529787,-33.025752],[137.528058,-33.025364],[137.526673,-33.02505],[137.524323,-33.024517],[137.52399,-33.024434],[137.523416,-33.024236],[137.522831,-33.023949],[137.522254,-33.02357],[137.521561,-33.023083],[137.520798,-33.022532],[137.51995,-33.021918],[137.519662,-33.021714],[137.51952,-33.021665],[137.519302,-33.021637]]}},{"type":"Feature","properties":{"tier":"arterial"},"geometry":{"type":"LineString","coordinates":[[137.519101,-33.021652],[137.51885,-33.021693],[137.518685,-33.021782],[137.518501,-33.021954],[137.516908,-33.023522],[137.516448,-33.024061],[137.516341,-33.024251],[137.51613,-33.024621],[137.51588,-33.02507],[137.515457,-33.025799],[137.515056,-33.026556],[137.514916,-33.026787],[137.514692,-33.027179],[137.514326,-33.027827],[137.513884,-33.028591],[137.513721,-33.028887]]}},{"type":"Feature","properties":{"tier":"arterial"},"geometry":{"type":"LineString","coordinates":[[137.512444,-33.030766],[137.513231,-33.029352],[137.513627,-33.028641],[137.51423,-33.027595],[137.514775,-33.026621]]}},{"type":"Feature","properties":{"tier":"arterial"},"geometry":{"type":"LineString","coordinates":[[137.512397,-33.030994],[137.512247,-33.03128],[137.512145,-33.031475],[137.512076,-33.031739],[137.511761,-33.032337],[137.511417,-33.032961],[137.511161,-33.03341],[137.511052,-33.033604],[137.5106,-33.034406],[137.510286,-33.034962],[137.510125,-33.035245],[137.509942,-33.035597],[137.509234,-33.036885],[137.508933,-33.037433],[137.508683,-33.038092],[137.508373,-33.038909],[137.508221,-33.039309],[137.50804,-33.039814],[137.507637,-33.040939],[137.507399,-33.041967],[137.507285,-33.042744],[137.507207,-33.043493],[137.507194,-33.04362],[137.507187,-33.044253],[137.507185,-33.044442],[137.507222,-33.045437],[137.507345,-33.046274],[137.507527,-33.047249],[137.507929,-33.048569],[137.508308,-33.049787],[137.508441,-33.050215]]}},{"type":"Feature","properties":{"tier":"arterial"},"geometry":{"type":"LineString","coordinates":[[137.528341,-33.034075],[137.528491,-33.033813],[137.52851,-33.033682],[137.528558,-33.033346],[137.528672,-33.032482],[137.528723,-33.03226],[137.528911,-33.031434],[137.529204,-33.030634]]}},{"type":"Feature","properties":{"tier":"arterial"},"geometry":{"type":"LineString","coordinates":[[137.530987,-33.026375],[137.530792,-33.026549],[137.530679,-33.026668],[137.530573,-33.026935],[137.530519,-33.027102],[137.530472,-33.027251],[137.530188,-33.028139]]}},{"type":"Feature","properties":{"tier":"arterial"},"geometry":{"type":"LineString","coordinates":[[137.5288,-33.034793],[137.528658,-33.034938],[137.528584,-33.035132],[137.528581,-33.035175],[137.528449,-33.036831],[137.528369,-33.037618],[137.528268,-33.038447],[137.528112,-33.04021],[137.528036,-33.040906],[137.528024,-33.041349],[137.52805,-33.041732],[137.52816,-33.042243],[137.528409,-33.043026],[137.528894,-33.044577],[137.529037,-33.045163],[137.529045,-33.0452]]}},{"type":"Feature","properties":{"tier":"regional"},"geometry":{"type":"LineString","coordinates":[[137.53007,-33.034454],[137.529808,-33.034514],[137.529629,-33.034532],[137.529395,-33.034527],[137.529206,-33.034566],[137.529088,-33.034625],[137.528952,-33.034676]]}},{"type":"Feature","properties":{"tier":"regional"},"geometry":{"type":"LineString","coordinates":[[137.528985,-33.034252],[137.52921,-33.034401],[137.529344,-33.034454],[137.529647,-33.034472],[137.53007,-33.034454]]}},{"type":"Feature","properties":{"tier":"regional"},"geometry":{"type":"LineString","coordinates":[[137.53007,-33.034454],[137.530904,-33.034237],[137.531486,-33.034082]]}},{"type":"Feature","properties":{"tier":"regional"},"geometry":{"type":"LineString","coordinates":[[137.512604,-33.03093],[137.513464,-33.031307],[137.515942,-33.032315],[137.516292,-33.032457],[137.517148,-33.032806],[137.51755,-33.032969],[137.519105,-33.033602],[137.519562,-33.033713],[137.519991,-33.033809],[137.520854,-33.033882],[137.520913,-33.033886],[137.52175,-33.03395],[137.521826,-33.033956]]}},{"type":"Feature","properties":{"tier":"regional"},"geometry":{"type":"LineString","coordinates":[[137.528089,-33.034558],[137.527967,-33.034473],[137.52778,-33.034397],[137.527623,-33.03436]]}},{"type":"Feature","properties":{"tier":"regional"},"geometry":{"type":"LineString","coordinates":[[137.527623,-33.03436],[137.527826,-33.034331],[137.528153,-33.034211]]}},{"type":"Feature","properties":{"tier":"arterial"},"geometry":{"type":"LineString","coordinates":[[137.575461,-33.034597],[137.575401,-33.034518],[137.575285,-33.034424],[137.575029,-33.03425],[137.574726,-33.034045],[137.574506,-33.033889],[137.573985,-33.033519],[137.573808,-33.033393],[137.573467,-33.033153],[137.572951,-33.032793],[137.572439,-33.032435],[137.571923,-33.032073],[137.571403,-33.031707],[137.570874,-33.031335],[137.570342,-33.03096],[137.569835,-33.0306],[137.569303,-33.030235],[137.568766,-33.029871],[137.568431,-33.029643],[137.568325,-33.029575],[137.568243,-33.029528]]}},{"type":"Feature","properties":{"tier":"arterial"},"geometry":{"type":"LineString","coordinates":[[137.578658,-33.036686],[137.578789,-33.036761],[137.578953,-33.036856],[137.579086,-33.036921],[137.579336,-33.036965],[137.579352,-33.036965],[137.579481,-33.036968],[137.579592,-33.036951],[137.57971,-33.036912],[137.579813,-33.036872],[137.579914,-33.036822],[137.580463,-33.036484],[137.581007,-33.036135],[137.581567,-33.035792],[137.582113,-33.035458],[137.582276,-33.035333],[137.58265,-33.034972],[137.583148,-33.034493]]}},{"type":"Feature","properties":{"tier":"arterial"},"geometry":{"type":"LineString","coordinates":[[137.577911,-33.036255],[137.577375,-33.035895],[137.576823,-33.035524]]}},{"type":"Feature","properties":{"tier":"arterial"},"geometry":{"type":"LineString","coordinates":[[137.575799,-33.034605],[137.575869,-33.034681],[137.576077,-33.034818],[137.576961,-33.035421]]}},{"type":"Feature","properties":{"tier":"regional"},"geometry":{"type":"LineString","coordinates":[[137.580644,-33.029046],[137.57981,-33.030003],[137.578989,-33.030974],[137.578171,-33.031894],[137.577438,-33.03274],[137.577407,-33.032776],[137.576532,-33.033828],[137.575893,-33.034481],[137.575795,-33.034557]]}},{"type":"Feature","properties":{"tier":"regional"},"geometry":{"type":"LineString","coordinates":[[137.575639,-33.034449],[137.575756,-33.034401],[137.5764,-33.033746],[137.57729,-33.032702],[137.577318,-33.032669],[137.577648,-33.032301],[137.578012,-33.031841],[137.578038,-33.031811],[137.578607,-33.03115],[137.578837,-33.030884],[137.579141,-33.030527],[137.579665,-33.029913],[137.580498,-33.028957]]}},{"type":"Feature","properties":{"tier":"regional"},"geometry":{"type":"LineString","coordinates":[[137.56982,-33.040585],[137.569757,-33.040728],[137.569777,-33.040787],[137.569868,-33.040912]]}},{"type":"Feature","properties":{"tier":"regional"},"geometry":{"type":"LineString","coordinates":[[137.575602,-33.034731],[137.575542,-33.034772],[137.575369,-33.034962],[137.574646,-33.035684],[137.574282,-33.036071],[137.573916,-33.03644],[137.573492,-33.036866],[137.573376,-33.036983],[137.572758,-33.037588]]}},{"type":"Feature","properties":{"tier":"regional"},"geometry":{"type":"LineString","coordinates":[[137.569524,-33.040885],[137.56956,-33.040772],[137.569616,-33.040595],[137.569947,-33.040242],[137.570385,-33.03981],[137.570518,-33.039679],[137.571098,-33.03909]]}},{"type":"Feature","properties":{"tier":"regional"},"geometry":{"type":"LineString","coordinates":[[137.568943,-33.040839],[137.569302,-33.04079],[137.569423,-33.040735],[137.569616,-33.040595]]}},{"type":"Feature","properties":{"tier":"high"},"geometry":{"type":"LineString","coordinates":[[137.523425,-33.046928],[137.525108,-33.046432],[137.525581,-33.046323],[137.526306,-33.046155]]}},{"type":"Feature","properties":{"tier":"arterial"},"geometry":{"type":"LineString","coordinates":[[137.564472,-33.040495],[137.564571,-33.040502],[137.565317,-33.040558],[137.565458,-33.040568]]}},{"type":"Feature","properties":{"tier":"high"},"geometry":{"type":"LineString","coordinates":[[137.562131,-33.040256],[137.562379,-33.040231],[137.562644,-33.040244],[137.562776,-33.040217],[137.562874,-33.040165],[137.562958,-33.040074],[137.562997,-33.039998],[137.563039,-33.039786]]}},{"type":"Feature","properties":{"tier":"high"},"geometry":{"type":"LineString","coordinates":[[137.552472,-33.039743],[137.552531,-33.039861]]}},{"type":"Feature","properties":{"tier":"arterial"},"geometry":{"type":"LineString","coordinates":[[137.553289,-33.0403],[137.552946,-33.040373],[137.552736,-33.040409],[137.55263,-33.040409],[137.552544,-33.040339]]}},{"type":"Feature","properties":{"tier":"arterial"},"geometry":{"type":"LineString","coordinates":[[137.551727,-33.040521],[137.552129,-33.04039],[137.552248,-33.040329],[137.552304,-33.04026],[137.55234,-33.040169],[137.552334,-33.040061]]}},{"type":"Feature","properties":{"tier":"arterial"},"geometry":{"type":"LineString","coordinates":[[137.551131,-33.028053],[137.551112,-33.027687],[137.551101,-33.02714],[137.551054,-33.026915],[137.550991,-33.026618],[137.550924,-33.025873],[137.550916,-33.025779],[137.550918,-33.025741],[137.550941,-33.025388],[137.551051,-33.024617],[137.551101,-33.02418],[137.551098,-33.023946],[137.551096,-33.023817],[137.551076,-33.022415],[137.551096,-33.021889],[137.551147,-33.021603],[137.551229,-33.021345],[137.551398,-33.020861],[137.551599,-33.020487],[137.551895,-33.020086],[137.552196,-33.019691],[137.552452,-33.019345],[137.552603,-33.019051],[137.5527,-33.018772],[137.552755,-33.018689]]}},{"type":"Feature","properties":{"tier":"arterial"},"geometry":{"type":"LineString","coordinates":[[137.552157,-33.018451],[137.552496,-33.01853],[137.552664,-33.018582],[137.552755,-33.018689]]}},{"type":"Feature","properties":{"tier":"arterial"},"geometry":{"type":"LineString","coordinates":[[137.552755,-33.018689],[137.55282,-33.018766],[137.552805,-33.018921],[137.552736,-33.019227],[137.552643,-33.019485]]}},{"type":"Feature","properties":{"tier":"regional"},"geometry":{"type":"LineString","coordinates":[[137.515356,-33.016972],[137.515491,-33.016968],[137.515652,-33.017147],[137.515937,-33.017862],[137.516065,-33.01815]]}},{"type":"Feature","properties":{"tier":"regional"},"geometry":{"type":"LineString","coordinates":[[137.518649,-33.021218],[137.518584,-33.021032],[137.518452,-33.020841],[137.51799,-33.02051],[137.516912,-33.019692],[137.516519,-33.019254],[137.516332,-33.019011],[137.516007,-33.018493],[137.515869,-33.0182],[137.515755,-33.017959],[137.515736,-33.017918],[137.515356,-33.016972]]}},{"type":"Feature","properties":{"tier":"regional"},"geometry":{"type":"LineString","coordinates":[[137.515356,-33.016972],[137.513745,-33.017418],[137.51287,-33.017674],[137.512533,-33.017845],[137.511452,-33.018388],[137.511205,-33.018521],[137.510775,-33.018752],[137.510404,-33.018949],[137.509999,-33.01928],[137.509329,-33.019753]]}},{"type":"Feature","properties":{"tier":"regional"},"geometry":{"type":"LineString","coordinates":[[137.558882,-33.024392],[137.558847,-33.024258],[137.558828,-33.024187],[137.558871,-33.024142],[137.558973,-33.024061]]}},{"type":"Feature","properties":{"tier":"regional"},"geometry":{"type":"LineString","coordinates":[[137.558742,-33.02406],[137.558871,-33.024142],[137.559,-33.02427],[137.55911,-33.024389],[137.559251,-33.024509],[137.559383,-33.02462],[137.560859,-33.025732],[137.562428,-33.026945],[137.562624,-33.027067],[137.562759,-33.027131],[137.563769,-33.027547],[137.564113,-33.02772],[137.564397,-33.027863],[137.564567,-33.027961]]}},{"type":"Feature","properties":{"tier":"regional"},"geometry":{"type":"LineString","coordinates":[[137.559137,-33.024141],[137.559048,-33.024187],[137.559,-33.02427]]}},{"type":"Feature","properties":{"tier":"regional"},"geometry":{"type":"LineString","coordinates":[[137.564269,-33.027967],[137.564172,-33.02787],[137.563955,-33.027771],[137.563089,-33.027415],[137.562657,-33.027254],[137.562407,-33.027094],[137.560776,-33.025859],[137.559134,-33.024606],[137.558882,-33.024392],[137.558787,-33.02429],[137.558677,-33.024238],[137.558591,-33.024203],[137.558383,-33.024158]]}},{"type":"Feature","properties":{"tier":"regional"},"geometry":{"type":"LineString","coordinates":[[137.563926,-33.027995],[137.563985,-33.027927],[137.563997,-33.02785],[137.563955,-33.027771]]}},{"type":"Feature","properties":{"tier":"arterial"},"geometry":{"type":"LineString","coordinates":[[137.559815,-33.028149],[137.55972,-33.028194],[137.55967,-33.028234],[137.55964,-33.028283]]}},{"type":"Feature","properties":{"tier":"regional"},"geometry":{"type":"LineString","coordinates":[[137.56527,-33.032356],[137.565189,-33.032338],[137.564734,-33.032016],[137.56462,-33.031936],[137.56421,-33.031657],[137.563686,-33.031314],[137.563142,-33.030979],[137.562383,-33.03046],[137.561518,-33.029859],[137.559801,-33.028646],[137.559639,-33.028534],[137.559241,-33.028262],[137.559086,-33.028185],[137.558946,-33.028147]]}},{"type":"Feature","properties":{"tier":"arterial"},"geometry":{"type":"LineString","coordinates":[[137.559639,-33.028534],[137.559571,-33.028431],[137.559527,-33.028333],[137.559529,-33.028263],[137.559554,-33.028148],[137.559655,-33.02812],[137.559875,-33.028037]]}},{"type":"Feature","properties":{"tier":"arterial"},"geometry":{"type":"LineString","coordinates":[[137.559092,-33.028043],[137.559239,-33.028078],[137.559445,-33.028082],[137.559503,-33.028107],[137.559554,-33.028148]]}},{"type":"Feature","properties":{"tier":"arterial"},"geometry":{"type":"LineString","coordinates":[[137.543376,-33.028066],[137.543308,-33.02816],[137.543158,-33.028233]]}},{"type":"Feature","properties":{"tier":"arterial"},"geometry":{"type":"LineString","coordinates":[[137.54374,-33.02823],[137.543495,-33.028187],[137.543422,-33.028151],[137.543376,-33.028066]]}},{"type":"Feature","properties":{"tier":"arterial"},"geometry":{"type":"LineString","coordinates":[[137.559559,-33.027726],[137.559615,-33.027844],[137.55965,-33.027933],[137.55971,-33.028033]]}},{"type":"Feature","properties":{"tier":"arterial"},"geometry":{"type":"LineString","coordinates":[[137.559229,-33.028042],[137.559399,-33.027968],[137.55948,-33.027894],[137.559559,-33.027726]]}},{"type":"Feature","properties":{"tier":"arterial"},"geometry":{"type":"LineString","coordinates":[[137.560805,-33.028027],[137.560805,-33.028152]]}},{"type":"Feature","properties":{"tier":"arterial"},"geometry":{"type":"LineString","coordinates":[[137.557652,-33.028045],[137.557653,-33.028144]]}},{"type":"Feature","properties":{"tier":"arterial"},"geometry":{"type":"LineString","coordinates":[[137.564737,-33.028107],[137.564736,-33.028064],[137.564661,-33.028043],[137.564557,-33.028036],[137.564379,-33.028036],[137.564269,-33.027967]]}},{"type":"Feature","properties":{"tier":"arterial"},"geometry":{"type":"LineString","coordinates":[[137.563478,-33.028143],[137.563487,-33.028011]]}},{"type":"Feature","properties":{"tier":"arterial"},"geometry":{"type":"LineString","coordinates":[[137.571693,-33.025847],[137.5718,-33.025667],[137.571871,-33.025521],[137.571874,-33.025453],[137.571846,-33.025393],[137.57177,-33.025334],[137.571587,-33.025257],[137.571436,-33.025161]]}},{"type":"Feature","properties":{"tier":"arterial"},"geometry":{"type":"LineString","coordinates":[[137.582176,-33.030165],[137.582297,-33.030104],[137.582409,-33.030111]]}},{"type":"Feature","properties":{"tier":"arterial"},"geometry":{"type":"LineString","coordinates":[[137.544238,-33.016117],[137.544181,-33.016273]]}},{"type":"Feature","properties":{"tier":"arterial"},"geometry":{"type":"LineString","coordinates":[[137.531826,-33.022263],[137.531637,-33.022266]]}},{"type":"Feature","properties":{"tier":"regional"},"geometry":{"type":"LineString","coordinates":[[137.559801,-33.028646],[137.559635,-33.028665]]}},{"type":"Feature","properties":{"tier":"regional"},"geometry":{"type":"LineString","coordinates":[[137.559635,-33.028665],[137.559639,-33.028534]]}},{"type":"Feature","properties":{"tier":"arterial"},"geometry":{"type":"LineString","coordinates":[[137.556907,-33.028147],[137.556905,-33.028272]]}},{"type":"Feature","properties":{"tier":"arterial"},"geometry":{"type":"LineString","coordinates":[[137.551377,-33.031472],[137.551124,-33.031477]]}},{"type":"Feature","properties":{"tier":"arterial"},"geometry":{"type":"LineString","coordinates":[[137.551372,-33.029844],[137.551112,-33.029838]]}},{"type":"Feature","properties":{"tier":"arterial"},"geometry":{"type":"LineString","coordinates":[[137.523732,-33.017474],[137.523812,-33.017629]]}},{"type":"Feature","properties":{"tier":"arterial"},"geometry":{"type":"LineString","coordinates":[[137.524882,-33.017345],[137.524735,-33.017352],[137.524589,-33.017378],[137.524437,-33.017422],[137.524349,-33.017422],[137.524289,-33.0174],[137.524247,-33.017328]]}},{"type":"Feature","properties":{"tier":"regional"},"geometry":{"type":"LineString","coordinates":[[137.524247,-33.017328],[137.523934,-33.016426],[137.523833,-33.016204],[137.523736,-33.016041],[137.523526,-33.015787],[137.523387,-33.015656],[137.523231,-33.015546],[137.523049,-33.015448],[137.52291,-33.015373],[137.522618,-33.015267],[137.522338,-33.01521],[137.522035,-33.015185],[137.52174,-33.015194],[137.521392,-33.015257],[137.519539,-33.015846],[137.519311,-33.015918],[137.518851,-33.016081],[137.518586,-33.016207],[137.51844,-33.016288],[137.518258,-33.016416],[137.518226,-33.016438],[137.51807,-33.016551],[137.51727,-33.017332],[137.516781,-33.017808],[137.516564,-33.017968],[137.516463,-33.018012],[137.516065,-33.01815]]}},{"type":"Feature","properties":{"tier":"arterial"},"geometry":{"type":"LineString","coordinates":[[137.520546,-33.019734],[137.520703,-33.019838]]}},{"type":"Feature","properties":{"tier":"arterial"},"geometry":{"type":"LineString","coordinates":[[137.52171,-33.018603],[137.52185,-33.018715]]}},{"type":"Feature","properties":{"tier":"regional"},"geometry":{"type":"LineString","coordinates":[[137.517087,-33.019562],[137.516912,-33.019692],[137.516494,-33.01998],[137.516205,-33.020189],[137.515368,-33.020621],[137.514495,-33.021063],[137.514182,-33.021222],[137.513774,-33.021484],[137.513401,-33.021742],[137.512915,-33.022117],[137.512724,-33.02229],[137.512309,-33.022727]]}},{"type":"Feature","properties":{"tier":"regional"},"geometry":{"type":"LineString","coordinates":[[137.515937,-33.017862],[137.515736,-33.017918]]}},{"type":"Feature","properties":{"tier":"regional"},"geometry":{"type":"LineString","coordinates":[[137.516448,-33.024061],[137.516278,-33.023976]]}},{"type":"Feature","properties":{"tier":"arterial"},"geometry":{"type":"LineString","coordinates":[[137.527871,-33.016364],[137.527926,-33.016525]]}},{"type":"Feature","properties":{"tier":"arterial"},"geometry":{"type":"LineString","coordinates":[[137.530658,-33.018842],[137.53083,-33.018792]]}},{"type":"Feature","properties":{"tier":"arterial"},"geometry":{"type":"LineString","coordinates":[[137.531321,-33.020094],[137.531155,-33.020142]]}},{"type":"Feature","properties":{"tier":"high"},"geometry":{"type":"LineString","coordinates":[[137.537127,-33.043755],[137.53712,-33.043825],[137.537045,-33.043867],[137.536841,-33.04392],[137.536736,-33.043985]]}},{"type":"Feature","properties":{"tier":"regional"},"geometry":{"type":"LineString","coordinates":[[137.538345,-33.043632],[137.538087,-33.043645],[137.537773,-33.043711],[137.537523,-33.043774],[137.537334,-33.04381],[137.537216,-33.043813],[137.537127,-33.043755]]}},{"type":"Feature","properties":{"tier":"high"},"geometry":{"type":"LineString","coordinates":[[137.537051,-33.04354],[137.537136,-33.043636],[137.537195,-33.043679],[137.537308,-33.043714]]}},{"type":"Feature","properties":{"tier":"regional"},"geometry":{"type":"LineString","coordinates":[[137.536155,-33.043969],[137.536407,-33.043868],[137.536796,-33.043777],[137.536936,-33.043737],[137.536996,-33.043672],[137.537051,-33.04354]]}},{"type":"Feature","properties":{"tier":"high"},"geometry":{"type":"LineString","coordinates":[[137.548689,-33.041196],[137.548674,-33.041277],[137.5486,-33.041311],[137.548381,-33.041378],[137.548072,-33.041474]]}},{"type":"Feature","properties":{"tier":"high"},"geometry":{"type":"LineString","coordinates":[[137.549591,-33.041147],[137.549456,-33.041135],[137.549018,-33.041229],[137.548802,-33.041264],[137.548735,-33.041243],[137.548689,-33.041196]]}},{"type":"Feature","properties":{"tier":"arterial"},"geometry":{"type":"LineString","coordinates":[[137.552369,-33.03935],[137.552122,-33.039401]]}},{"type":"Feature","properties":{"tier":"high"},"geometry":{"type":"LineString","coordinates":[[137.543718,-33.042],[137.543894,-33.042142],[137.543974,-33.042165],[137.544615,-33.042097]]}},{"type":"Feature","properties":{"tier":"regional"},"geometry":{"type":"LineString","coordinates":[[137.543116,-33.042432],[137.543559,-33.042278],[137.543653,-33.042193],[137.543718,-33.042]]}},{"type":"Feature","properties":{"tier":"arterial"},"geometry":{"type":"LineString","coordinates":[[137.551373,-33.032807],[137.551142,-33.03281]]}},{"type":"Feature","properties":{"tier":"arterial"},"geometry":{"type":"LineString","coordinates":[[137.551655,-33.037088],[137.551424,-33.037136]]}},{"type":"Feature","properties":{"tier":"high"},"geometry":{"type":"LineString","coordinates":[[137.532774,-33.045115],[137.532664,-33.045038],[137.532577,-33.044991],[137.532462,-33.044987],[137.532324,-33.045007],[137.532136,-33.045048],[137.532022,-33.045039]]}},{"type":"Feature","properties":{"tier":"high"},"geometry":{"type":"LineString","coordinates":[[137.532702,-33.044887],[137.532739,-33.044804],[137.532833,-33.044752],[137.533054,-33.0447],[137.533395,-33.044581]]}},{"type":"Feature","properties":{"tier":"high"},"geometry":{"type":"LineString","coordinates":[[137.533597,-33.044687],[137.533359,-33.044776],[137.533138,-33.044835],[137.532971,-33.044876],[137.532874,-33.044921],[137.532833,-33.04498],[137.532774,-33.045115]]}},{"type":"Feature","properties":{"tier":"high"},"geometry":{"type":"LineString","coordinates":[[137.531765,-33.044942],[137.53213,-33.044914],[137.532507,-33.044822],[137.532618,-33.044819],[137.532702,-33.044887]]}},{"type":"Feature","properties":{"tier":"arterial"},"geometry":{"type":"LineString","coordinates":[[137.513721,-33.028887],[137.513413,-33.029417],[137.512999,-33.030177],[137.51258,-33.030809]]}},{"type":"Feature","properties":{"tier":"arterial"},"geometry":{"type":"LineString","coordinates":[[137.513627,-33.028641],[137.513685,-33.028651],[137.51371,-33.02865],[137.513785,-33.02862],[137.513859,-33.028587],[137.513868,-33.028586],[137.513884,-33.028591]]}},{"type":"Feature","properties":{"tier":"arterial"},"geometry":{"type":"LineString","coordinates":[[137.514775,-33.026621],[137.515056,-33.026556]]}},{"type":"Feature","properties":{"tier":"arterial"},"geometry":{"type":"LineString","coordinates":[[137.514775,-33.026621],[137.514916,-33.026787]]}},{"type":"Feature","properties":{"tier":"arterial"},"geometry":{"type":"LineString","coordinates":[[137.515457,-33.025799],[137.515194,-33.025852]]}},{"type":"Feature","properties":{"tier":"arterial"},"geometry":{"type":"LineString","coordinates":[[137.515457,-33.025799],[137.515337,-33.025615]]}},{"type":"Feature","properties":{"tier":"arterial"},"geometry":{"type":"LineString","coordinates":[[137.538165,-33.015318],[137.5382,-33.015165]]}},{"type":"Feature","properties":{"tier":"arterial"},"geometry":{"type":"LineString","coordinates":[[137.540736,-33.015735],[137.540773,-33.015564]]}},{"type":"Feature","properties":{"tier":"regional"},"geometry":{"type":"LineString","coordinates":[[137.553383,-33.017076],[137.55304,-33.016942],[137.551906,-33.016499],[137.550856,-33.016085],[137.550468,-33.015932],[137.549063,-33.015364],[137.548459,-33.01512],[137.546538,-33.014346],[137.545045,-33.013745],[137.544887,-33.013681],[137.543775,-33.013236],[137.542369,-33.012673],[137.541846,-33.012464],[137.540858,-33.012065],[137.540099,-33.011758],[137.538444,-33.011091],[137.538025,-33.010898],[137.536288,-33.010098],[137.535557,-33.009766],[137.535047,-33.009607],[137.534211,-33.009452],[137.533396,-33.009323],[137.533319,-33.009309],[137.53311,-33.009271],[137.532789,-33.009172],[137.532507,-33.009057],[137.532252,-33.008902],[137.532015,-33.008725],[137.531807,-33.008545],[137.531637,-33.008396]]}},{"type":"Feature","properties":{"tier":"regional"},"geometry":{"type":"LineString","coordinates":[[137.551096,-33.023817],[137.551342,-33.023886],[137.551553,-33.023916],[137.552639,-33.023961],[137.553929,-33.023988],[137.55652,-33.024066],[137.558742,-33.02406]]}},{"type":"Feature","properties":{"tier":"arterial"},"geometry":{"type":"LineString","coordinates":[[137.581894,-33.029807],[137.582176,-33.030165],[137.583547,-33.031907],[137.584832,-33.032856],[137.584907,-33.032912],[137.585152,-33.033093],[137.586072,-33.033754],[137.586163,-33.033819]]}},{"type":"Feature","properties":{"tier":"arterial"},"geometry":{"type":"LineString","coordinates":[[137.582374,-33.039091],[137.582449,-33.039062],[137.58267,-33.038976],[137.58285,-33.038905],[137.58306,-33.038823],[137.583127,-33.038765],[137.583176,-33.0387],[137.583213,-33.03863],[137.583891,-33.0375]]}},{"type":"Feature","properties":{"tier":"regional"},"geometry":{"type":"LineString","coordinates":[[137.997497,-33.173613],[138.00002,-33.173589]]}},{"type":"Feature","properties":{"tier":"regional"},"geometry":{"type":"LineString","coordinates":[[137.997497,-33.173613],[137.997498,-33.174353],[137.997499,-33.175166],[137.997499,-33.175625],[137.997499,-33.175807],[137.9975,-33.176442],[137.997501,-33.177272],[137.997503,-33.17926],[137.997504,-33.180264],[137.997505,-33.181313],[137.997505,-33.181967],[137.997506,-33.18236],[137.997509,-33.185326],[137.997511,-33.187285],[137.997513,-33.189389],[137.997514,-33.190343],[137.997514,-33.190429],[137.997515,-33.191317],[137.997515,-33.191462],[137.997516,-33.192266],[137.997516,-33.192425],[137.997517,-33.193329]]}},{"type":"Feature","properties":{"tier":"regional"},"geometry":{"type":"LineString","coordinates":[[137.991186,-33.181324],[137.992244,-33.181322],[137.993311,-33.18132],[137.993974,-33.181319],[137.994441,-33.181318],[137.995276,-33.181317],[137.995398,-33.181317],[137.996442,-33.181315],[137.997505,-33.181313],[137.998577,-33.181311],[137.999587,-33.18131],[138.00002,-33.181309]]}},{"type":"Feature","properties":{"tier":"regional"},"geometry":{"type":"LineString","coordinates":[[137.997624,-33.1934],[137.998429,-33.193398],[137.998901,-33.193397],[137.999522,-33.193396],[138.00002,-33.193395]]}},{"type":"Feature","properties":{"tier":"regional"},"geometry":{"type":"LineString","coordinates":[[137.997624,-33.1934],[137.997619,-33.193426],[137.997604,-33.193449],[137.997581,-33.193466],[137.997552,-33.193475],[137.997521,-33.193476],[137.997493,-33.193468],[137.99747,-33.193453],[137.997454,-33.193432],[137.997446,-33.193408],[137.99745,-33.193382],[137.997464,-33.193358],[137.997487,-33.19334],[137.997517,-33.193329],[137.997548,-33.193329],[137.997577,-33.193337],[137.997601,-33.193353],[137.997618,-33.193375],[137.997624,-33.1934]]}},{"type":"Feature","properties":{"tier":"regional"},"geometry":{"type":"LineString","coordinates":[[137.99121,-33.198712],[137.992275,-33.19871],[137.993269,-33.198709],[137.993953,-33.198708],[137.994301,-33.198707],[137.994966,-33.198706],[137.995499,-33.198705],[137.99626,-33.198704],[137.996538,-33.198704],[137.997535,-33.198702],[137.999096,-33.1987],[138.00002,-33.198699]]}},{"type":"Feature","properties":{"tier":"regional"},"geometry":{"type":"LineString","coordinates":[[137.988505,-33.208142],[137.988758,-33.207753],[137.989489,-33.206622],[137.989757,-33.206202],[137.990468,-33.205178],[137.991166,-33.204096]]}},{"type":"Feature","properties":{"tier":"regional"},"geometry":{"type":"LineString","coordinates":[[137.988505,-33.208142],[137.989411,-33.208562],[137.991011,-33.209284],[137.991532,-33.209535],[137.992198,-33.209819],[137.992614,-33.209995],[137.992743,-33.210047],[137.993027,-33.210117],[137.993342,-33.210185],[137.993568,-33.210219],[137.994012,-33.210265],[137.994364,-33.210284],[137.995013,-33.210285],[137.996516,-33.210265],[137.997567,-33.210268]]}},{"type":"Feature","properties":{"tier":"regional"},"geometry":{"type":"LineString","coordinates":[[137.997568,-33.210594],[137.99867,-33.21059],[138.00002,-33.210597]]}},{"type":"Feature","properties":{"tier":"high"},"geometry":{"type":"LineString","coordinates":[[137.576162,-33.008797],[137.576001,-33.008852],[137.575906,-33.008937],[137.575816,-33.009079]]}},{"type":"Feature","properties":{"tier":"arterial"},"geometry":{"type":"LineString","coordinates":[[137.575658,-33.009088],[137.575608,-33.008966],[137.57554,-33.008886],[137.575366,-33.008806]]}},{"type":"Feature","properties":{"tier":"high"},"geometry":{"type":"LineString","coordinates":[[137.575366,-33.008806],[137.575569,-33.008637],[137.575643,-33.00856],[137.575729,-33.008398]]}},{"type":"Feature","properties":{"tier":"high"},"geometry":{"type":"LineString","coordinates":[[137.575879,-33.008408],[137.575925,-33.008611],[137.576021,-33.008693],[137.576162,-33.008797]]}},{"type":"Feature","properties":{"tier":"arterial"},"geometry":{"type":"LineString","coordinates":[[137.572343,-33.024651],[137.572336,-33.024913],[137.572336,-33.025017],[137.572348,-33.025109],[137.572373,-33.025187],[137.572416,-33.025265],[137.572485,-33.025347],[137.572671,-33.025541]]}},{"type":"Feature","properties":{"tier":"high"},"geometry":{"type":"LineString","coordinates":[[137.573249,-33.025901],[137.572271,-33.025522],[137.572224,-33.025526],[137.572146,-33.025553],[137.572084,-33.025605],[137.571928,-33.025749]]}},{"type":"Feature","properties":{"tier":"high"},"geometry":{"type":"LineString","coordinates":[[137.575432,-33.011069],[137.575658,-33.009088]]}},{"type":"Feature","properties":{"tier":"high"},"geometry":{"type":"LineString","coordinates":[[137.572269,-33.024192],[137.572286,-33.02407]]}},{"type":"Feature","properties":{"tier":"high"},"geometry":{"type":"LineString","coordinates":[[137.572343,-33.024651],[137.572243,-33.024922],[137.572147,-33.025235],[137.572121,-33.025318]]}},{"type":"Feature","properties":{"tier":"arterial"},"geometry":{"type":"LineString","coordinates":[[137.563161,-33.039789],[137.563174,-33.039943],[137.563184,-33.040098],[137.563191,-33.040215],[137.563211,-33.040296],[137.563347,-33.040352]]}},{"type":"Feature","properties":{"tier":"high"},"geometry":{"type":"LineString","coordinates":[[137.570931,-33.024836],[137.571295,-33.024969],[137.571536,-33.025041],[137.571687,-33.025076],[137.571829,-33.025058],[137.571939,-33.025002],[137.572038,-33.024921],[137.572118,-33.024795],[137.572196,-33.024581]]}},{"type":"Feature","properties":{"tier":"arterial"},"geometry":{"type":"LineString","coordinates":[[137.568355,-33.029416],[137.568877,-33.029787],[137.569398,-33.030145],[137.57038,-33.030832],[137.570424,-33.030863],[137.571495,-33.031614],[137.572518,-33.032332]]}},{"type":"Feature","properties":{"tier":"arterial"},"geometry":{"type":"LineString","coordinates":[[137.550263,-33.028166],[137.549652,-33.028157],[137.548323,-33.028172],[137.547844,-33.028178],[137.546696,-33.028211],[137.545285,-33.028223],[137.54374,-33.02823],[137.543403,-33.028232],[137.543158,-33.028233],[137.542852,-33.028235],[137.541908,-33.02824],[137.541517,-33.028215],[137.540992,-33.028182],[137.54076,-33.028134],[137.539666,-33.027911],[137.538361,-33.027649],[137.53834,-33.027645],[137.538142,-33.027602],[137.537038,-33.027361],[137.536879,-33.027327],[137.535441,-33.027013]]}},{"type":"Feature","properties":{"tier":"regional"},"geometry":{"type":"LineString","coordinates":[[138.00002,-33.00247],[137.998459,-32.99998]]}},{"type":"Feature","properties":{"tier":"arterial"},"geometry":{"type":"LineString","coordinates":[[137.5522,-33.02816],[137.551961,-33.028207],[137.55184,-33.028253],[137.551725,-33.028303],[137.551636,-33.028359],[137.551524,-33.028474],[137.551482,-33.028529],[137.551453,-33.028605],[137.551434,-33.028662],[137.551414,-33.02873],[137.551369,-33.028981]]}},{"type":"Feature","properties":{"tier":"arterial"},"geometry":{"type":"LineString","coordinates":[[137.551117,-33.02901],[137.551033,-33.028651],[137.551009,-33.028568],[137.550952,-33.028467],[137.550907,-33.028416],[137.550883,-33.028397],[137.550818,-33.028343],[137.550743,-33.028296],[137.550676,-33.028271],[137.550542,-33.02823],[137.550455,-33.028203],[137.550263,-33.028166]]}},{"type":"Feature","properties":{"tier":"arterial"},"geometry":{"type":"LineString","coordinates":[[137.552755,-33.018689],[137.552621,-33.018679],[137.55162,-33.018567],[137.550259,-33.018424],[137.549581,-33.018353],[137.549551,-33.01835],[137.549167,-33.01822],[137.548327,-33.017873],[137.5483,-33.017862],[137.547727,-33.017638],[137.547133,-33.017376],[137.545218,-33.016624],[137.544787,-33.016442],[137.544181,-33.016273],[137.542722,-33.01605],[137.541639,-33.015873],[137.540736,-33.015735],[137.538598,-33.015394],[137.538165,-33.015318],[137.537641,-33.015256],[137.537277,-33.015224],[137.535154,-33.015116],[137.534651,-33.015102],[137.534014,-33.015084]]}},{"type":"Feature","properties":{"tier":"arterial"},"geometry":{"type":"LineString","coordinates":[[137.553017,-33.018533],[137.553474,-33.018469],[137.553777,-33.018336],[137.554027,-33.01818],[137.554159,-33.018015],[137.554297,-33.017841],[137.55442,-33.017612],[137.554453,-33.01755],[137.554498,-33.017467]]}},{"type":"Feature","properties":{"tier":"arterial"},"geometry":{"type":"LineString","coordinates":[[137.554687,-33.017139],[137.554775,-33.016985]]}},{"type":"Feature","properties":{"tier":"arterial"},"geometry":{"type":"LineString","coordinates":[[137.554811,-33.017189],[137.554734,-33.017326],[137.554664,-33.017449],[137.554628,-33.017512]]}},{"type":"Feature","properties":{"tier":"arterial"},"geometry":{"type":"LineString","coordinates":[[137.55489,-33.017052],[137.554811,-33.017189]]}},{"type":"Feature","properties":{"tier":"arterial"},"geometry":{"type":"LineString","coordinates":[[137.554775,-33.016985],[137.554873,-33.016815],[137.555021,-33.016548],[137.555247,-33.016129],[137.555394,-33.015883]]}},{"type":"Feature","properties":{"tier":"arterial"},"geometry":{"type":"LineString","coordinates":[[137.554734,-33.017326],[137.554737,-33.017395],[137.554742,-33.01744],[137.554756,-33.017489],[137.554775,-33.017521],[137.554818,-33.01757],[137.554845,-33.017603]]}},{"type":"Feature","properties":{"tier":"arterial"},"geometry":{"type":"LineString","coordinates":[[137.554297,-33.017841],[137.554303,-33.017707],[137.5543,-33.017662],[137.5543,-33.01762],[137.554284,-33.01757],[137.554258,-33.017534],[137.554217,-33.017496],[137.554131,-33.017415]]}},{"type":"Feature","properties":{"tier":"arterial"},"geometry":{"type":"LineString","coordinates":[[137.554856,-33.017712],[137.554793,-33.017705],[137.554732,-33.017701],[137.554694,-33.017703],[137.554642,-33.017717],[137.554589,-33.017739],[137.554541,-33.017773],[137.55444,-33.017846]]}},{"type":"Feature","properties":{"tier":"arterial"},"geometry":{"type":"LineString","coordinates":[[137.576479,-33.035761],[137.576506,-33.035281]]}},{"type":"Feature","properties":{"tier":"regional"},"geometry":{"type":"LineString","coordinates":[[137.559554,-33.028148],[137.559615,-33.02823],[137.55964,-33.028283],[137.559679,-33.028369],[137.559778,-33.028474],[137.560186,-33.028762],[137.560389,-33.028906],[137.561019,-33.029345],[137.561388,-33.029602],[137.56162,-33.029761],[137.562057,-33.030066],[137.562485,-33.030365],[137.562819,-33.030595],[137.563178,-33.030841],[137.564264,-33.031597],[137.564783,-33.031972],[137.565236,-33.0323],[137.56527,-33.032356]]}},{"type":"Feature","properties":{"tier":"regional"},"geometry":{"type":"LineString","coordinates":[[137.57263,-33.03754],[137.572758,-33.037588]]}},{"type":"Feature","properties":{"tier":"regional"},"geometry":{"type":"LineString","coordinates":[[137.579665,-33.029913],[137.57981,-33.030003]]}},{"type":"Feature","properties":{"tier":"regional"},"geometry":{"type":"LineString","coordinates":[[137.558871,-33.024142],[137.558383,-33.024158]]}},{"type":"Feature","properties":{"tier":"high"},"geometry":{"type":"LineString","coordinates":[[137.563149,-33.040431],[137.56304,-33.040423]]}},{"type":"Feature","properties":{"tier":"arterial"},"geometry":{"type":"LineString","coordinates":[[137.554498,-33.017467],[137.554628,-33.017512],[137.554845,-33.017603],[137.555065,-33.017694],[137.555881,-33.018026],[137.556326,-33.018209],[137.557053,-33.018497]]}},{"type":"Feature","properties":{"tier":"regional"},"geometry":{"type":"LineString","coordinates":[[137.554453,-33.01755],[137.554131,-33.017415],[137.553756,-33.017258],[137.553383,-33.017076]]}},{"type":"Feature","properties":{"tier":"arterial"},"geometry":{"type":"LineString","coordinates":[[137.563151,-33.040335],[137.563347,-33.040352]]}},{"type":"Feature","properties":{"tier":"regional"},"geometry":{"type":"LineString","coordinates":[[137.536216,-33.041305],[137.536487,-33.042037],[137.536937,-33.043197],[137.536983,-33.043335],[137.537051,-33.04354]]}},{"type":"Feature","properties":{"tier":"arterial"},"geometry":{"type":"LineString","coordinates":[[137.564514,-33.02825],[137.56447,-33.028193],[137.564339,-33.028156],[137.564186,-33.028156],[137.563793,-33.028133]]}},{"type":"Feature","properties":{"tier":"arterial"},"geometry":{"type":"LineString","coordinates":[[137.558768,-33.010446],[137.558524,-33.010767],[137.558271,-33.0111],[137.558026,-33.011494],[137.557628,-33.012192],[137.556632,-33.01397],[137.556109,-33.014877],[137.55539,-33.016172]]}},{"type":"Feature","properties":{"tier":"high"},"geometry":{"type":"LineString","coordinates":[[137.553291,-33.040173],[137.554488,-33.039907],[137.555053,-33.039832],[137.555948,-33.039771],[137.556712,-33.039816],[137.557271,-33.039861]]}},{"type":"Feature","properties":{"tier":"high"},"geometry":{"type":"LineString","coordinates":[[137.543858,-33.042403],[137.54322,-33.042545],[137.54162,-33.042902],[137.540241,-33.043209],[137.538345,-33.043632],[137.536736,-33.043985]]}},{"type":"Feature","properties":{"tier":"high"},"geometry":{"type":"LineString","coordinates":[[137.571999,-33.025272],[137.572128,-33.024888],[137.572196,-33.024581],[137.572235,-33.024409],[137.572269,-33.024192]]}},{"type":"Feature","properties":{"tier":"high"},"geometry":{"type":"LineString","coordinates":[[137.568243,-33.029528],[137.567578,-33.030204],[137.567445,-33.030339],[137.566911,-33.030882],[137.566077,-33.031745],[137.565386,-33.032446],[137.564607,-33.033232],[137.564035,-33.033789],[137.563806,-33.034021]]}},{"type":"Feature","properties":{"tier":"regional"},"geometry":{"type":"LineString","coordinates":[[137.991197,-33.189384],[137.993309,-33.189388],[137.996378,-33.189367],[137.997513,-33.189389],[137.998577,-33.189376],[137.999625,-33.18938],[138.00002,-33.189378]]}},{"type":"Feature","properties":{"tier":"arterial"},"geometry":{"type":"LineString","coordinates":[[137.576397,-33.041345],[137.576526,-33.041314],[137.576754,-33.041229],[137.578526,-33.040563],[137.578559,-33.040548],[137.578941,-33.040402],[137.580104,-33.039962],[137.580107,-33.039961]]}},{"type":"Feature","properties":{"tier":"high"},"geometry":{"type":"LineString","coordinates":[[137.526383,-33.046295],[137.525143,-33.046573],[137.523425,-33.046928]]}},{"type":"Feature","properties":{"tier":"arterial"},"geometry":{"type":"LineString","coordinates":[[137.58398,-33.03739],[137.584175,-33.036845],[137.584254,-33.036646]]}},{"type":"Feature","properties":{"tier":"high"},"geometry":{"type":"LineString","coordinates":[[137.536155,-33.043969],[137.537127,-33.043755]]}},{"type":"Feature","properties":{"tier":"arterial"},"geometry":{"type":"LineString","coordinates":[[137.565458,-33.040568],[137.567794,-33.040752],[137.568534,-33.040808],[137.568805,-33.040829],[137.568943,-33.040839],[137.569524,-33.040885],[137.569607,-33.040891],[137.569868,-33.040912]]}},{"type":"Feature","properties":{"tier":"arterial"},"geometry":{"type":"LineString","coordinates":[[137.552755,-33.018689],[137.552843,-33.018616],[137.553017,-33.018533]]}},{"type":"Feature","properties":{"tier":"arterial"},"geometry":{"type":"LineString","coordinates":[[137.551362,-33.028159],[137.551369,-33.028981],[137.551372,-33.029376],[137.551372,-33.029844],[137.551372,-33.030285],[137.551377,-33.031472],[137.551374,-33.032584],[137.551374,-33.032659],[137.551373,-33.032807],[137.551395,-33.035087],[137.551399,-33.035845],[137.551483,-33.036478],[137.551655,-33.037088],[137.552069,-33.03839],[137.552182,-33.038798],[137.552369,-33.03935],[137.552396,-33.039453],[137.552472,-33.039743],[137.552503,-33.039862],[137.552584,-33.040172],[137.552584,-33.040257],[137.552544,-33.040339]]}},{"type":"Feature","properties":{"tier":"arterial"},"geometry":{"type":"LineString","coordinates":[[137.512444,-33.030766],[137.512482,-33.030765],[137.512519,-33.030773],[137.512552,-33.030788],[137.51258,-33.030809],[137.512605,-33.030846],[137.512613,-33.030888],[137.512604,-33.03093],[137.512584,-33.03096],[137.512554,-33.030985],[137.512518,-33.031002],[137.512477,-33.031009],[137.512436,-33.031006],[137.512397,-33.030994],[137.512363,-33.030973],[137.512338,-33.030944],[137.512324,-33.030911],[137.512322,-33.030876],[137.512331,-33.030842],[137.512357,-33.030806],[137.512397,-33.03078],[137.512444,-33.030766]]}},{"type":"Feature","properties":{"tier":"arterial"},"geometry":{"type":"LineString","coordinates":[[137.513721,-33.028887],[137.513706,-33.02888],[137.5137,-33.028869],[137.513693,-33.028799],[137.513679,-33.028696],[137.513666,-33.028676],[137.513627,-33.028641]]}},{"type":"Feature","properties":{"tier":"arterial"},"geometry":{"type":"LineString","coordinates":[[137.582215,-33.039161],[137.582206,-33.039137],[137.582207,-33.039112],[137.582217,-33.039088],[137.582236,-33.039069],[137.582262,-33.039056],[137.582287,-33.039051],[137.582313,-33.039052],[137.582338,-33.03906],[137.582359,-33.039073],[137.582374,-33.039091],[137.582382,-33.03911],[137.582384,-33.039131],[137.582379,-33.039151],[137.582368,-33.039169],[137.582352,-33.039184],[137.582331,-33.039195],[137.582305,-33.0392],[137.582278,-33.0392],[137.582253,-33.039192],[137.582231,-33.039179],[137.582215,-33.039161]]}},{"type":"Feature","properties":{"tier":"regional"},"geometry":{"type":"LineString","coordinates":[[137.570385,-33.03981],[137.570513,-33.039907]]}},{"type":"Feature","properties":{"tier":"high"},"geometry":{"type":"LineString","coordinates":[[137.562131,-33.040256],[137.562605,-33.040295],[137.563045,-33.040332]]}},{"type":"Feature","properties":{"tier":"high"},"geometry":{"type":"LineString","coordinates":[[137.56304,-33.040423],[137.563045,-33.040332]]}},{"type":"Feature","properties":{"tier":"arterial"},"geometry":{"type":"LineString","coordinates":[[137.553547,-33.018599],[137.553342,-33.018648],[137.553046,-33.018695],[137.55288,-33.018697],[137.552755,-33.018689]]}},{"type":"Feature","properties":{"tier":"arterial"},"geometry":{"type":"LineString","coordinates":[[137.551122,-33.028159],[137.551131,-33.028053]]}},{"type":"Feature","properties":{"tier":"arterial"},"geometry":{"type":"LineString","coordinates":[[137.552334,-33.040061],[137.552282,-33.039901],[137.552243,-33.039782],[137.552175,-33.039572],[137.552122,-33.039401],[137.551947,-33.038843],[137.551629,-33.037825],[137.551424,-33.037136],[137.551262,-33.0366],[137.551172,-33.036028],[137.551132,-33.03559],[137.551139,-33.035089]]}},{"type":"Feature","properties":{"tier":"arterial"},"geometry":{"type":"LineString","coordinates":[[137.551359,-33.028051],[137.551362,-33.028159]]}},{"type":"Feature","properties":{"tier":"arterial"},"geometry":{"type":"LineString","coordinates":[[137.552643,-33.019485],[137.552015,-33.020335],[137.551809,-33.020647],[137.551664,-33.020933],[137.551483,-33.021384],[137.551377,-33.021881],[137.551342,-33.022411],[137.551342,-33.023886],[137.551342,-33.024003],[137.551342,-33.024595],[137.551342,-33.024626],[137.551354,-33.025741],[137.551355,-33.025877],[137.551357,-33.0261],[137.551362,-33.026942],[137.55136,-33.027527],[137.551359,-33.028051]]}},{"type":"Feature","properties":{"tier":"arterial"},"geometry":{"type":"LineString","coordinates":[[137.551362,-33.028159],[137.551122,-33.028159]]}},{"type":"Feature","properties":{"tier":"arterial"},"geometry":{"type":"LineString","coordinates":[[137.564737,-33.028107],[137.564485,-33.02809],[137.563793,-33.028133],[137.563478,-33.028143],[137.562128,-33.028157],[137.560805,-33.028152],[137.559815,-33.028149],[137.559673,-33.028149],[137.559554,-33.028148],[137.558946,-33.028147],[137.557653,-33.028144],[137.556907,-33.028147],[137.555684,-33.028152],[137.553494,-33.028161],[137.552936,-33.02816],[137.5522,-33.02816],[137.551362,-33.028159]]}},{"type":"Feature","properties":{"tier":"arterial"},"geometry":{"type":"LineString","coordinates":[[137.551359,-33.028051],[137.552656,-33.028049],[137.552932,-33.028049],[137.553946,-33.028047],[137.554162,-33.028047],[137.555258,-33.028048],[137.555682,-33.028046],[137.556538,-33.02804],[137.557652,-33.028045],[137.559092,-33.028043]]}},{"type":"Feature","properties":{"tier":"arterial"},"geometry":{"type":"LineString","coordinates":[[137.550457,-33.028055],[137.551131,-33.028053]]}},{"type":"Feature","properties":{"tier":"arterial"},"geometry":{"type":"LineString","coordinates":[[137.551131,-33.028053],[137.551359,-33.028051]]}},{"type":"Feature","properties":{"tier":"arterial"},"geometry":{"type":"LineString","coordinates":[[137.551122,-33.028159],[137.550263,-33.028166]]}},{"type":"Feature","properties":{"tier":"high"},"geometry":{"type":"LineString","coordinates":[[137.552544,-33.040339],[137.552452,-33.04044],[137.552319,-33.040503],[137.55202,-33.040589],[137.551676,-33.040675]]}},{"type":"Feature","properties":{"tier":"high"},"geometry":{"type":"LineString","coordinates":[[137.552544,-33.040339],[137.553291,-33.040173]]}},{"type":"Feature","properties":{"tier":"high"},"geometry":{"type":"LineString","coordinates":[[137.546194,-33.041745],[137.548689,-33.041196]]}},{"type":"Feature","properties":{"tier":"high"},"geometry":{"type":"LineString","coordinates":[[137.532702,-33.044887],[137.532022,-33.045039],[137.529408,-33.045597]]}},{"type":"Feature","properties":{"tier":"high"},"geometry":{"type":"LineString","coordinates":[[137.529408,-33.045597],[137.528706,-33.045742]]}},{"type":"Feature","properties":{"tier":"arterial"},"geometry":{"type":"LineString","coordinates":[[137.568238,-33.029355],[137.568355,-33.029416]]}},{"type":"Feature","properties":{"tier":"arterial"},"geometry":{"type":"LineString","coordinates":[[137.564895,-33.02803],[137.564958,-33.028043],[137.566028,-33.028468],[137.567003,-33.028853],[137.567587,-33.029096],[137.567613,-33.029106],[137.568134,-33.029313],[137.568238,-33.029355]]}},{"type":"Feature","properties":{"tier":"arterial"},"geometry":{"type":"LineString","coordinates":[[137.568128,-33.029466],[137.567528,-33.029211],[137.566901,-33.028946],[137.56597,-33.02858],[137.565119,-33.028236],[137.564737,-33.028107]]}},{"type":"Feature","properties":{"tier":"arterial"},"geometry":{"type":"LineString","coordinates":[[137.568243,-33.029528],[137.568128,-33.029466]]}},{"type":"Feature","properties":{"tier":"high"},"geometry":{"type":"LineString","coordinates":[[137.568238,-33.029355],[137.568794,-33.028792],[137.569355,-33.028225],[137.570292,-33.02726],[137.570749,-33.026797],[137.5712,-33.026341]]}},{"type":"Feature","properties":{"tier":"high"},"geometry":{"type":"LineString","coordinates":[[137.568128,-33.029466],[137.568238,-33.029355]]}},{"type":"Feature","properties":{"tier":"high"},"geometry":{"type":"LineString","coordinates":[[137.568355,-33.029416],[137.568243,-33.029528]]}},{"type":"Feature","properties":{"tier":"high"},"geometry":{"type":"LineString","coordinates":[[137.572121,-33.025318],[137.572095,-33.025404]]}},{"type":"Feature","properties":{"tier":"high"},"geometry":{"type":"LineString","coordinates":[[137.575879,-33.008408],[137.575842,-33.008801]]}},{"type":"Feature","properties":{"tier":"high"},"geometry":{"type":"LineString","coordinates":[[137.576032,-33.007095],[137.575879,-33.008408]]}},{"type":"Feature","properties":{"tier":"arterial"},"geometry":{"type":"LineString","coordinates":[[137.575687,-33.008803],[137.575842,-33.008801]]}},{"type":"Feature","properties":{"tier":"arterial"},"geometry":{"type":"LineString","coordinates":[[137.573526,-33.025988],[137.573249,-33.025901],[137.572917,-33.025746]]}},{"type":"Feature","properties":{"tier":"arterial"},"geometry":{"type":"LineString","coordinates":[[137.572671,-33.025541],[137.572949,-33.02568],[137.573526,-33.025988]]}},{"type":"Feature","properties":{"tier":"arterial"},"geometry":{"type":"LineString","coordinates":[[137.578658,-33.036686],[137.578312,-33.036492],[137.577911,-33.036255]]}},{"type":"Feature","properties":{"tier":"arterial"},"geometry":{"type":"LineString","coordinates":[[137.578039,-33.036168],[137.578397,-33.03643],[137.578658,-33.036686]]}},{"type":"Feature","properties":{"tier":"high"},"geometry":{"type":"LineString","coordinates":[[137.552531,-33.039861],[137.55262,-33.040039],[137.552693,-33.040144],[137.552795,-33.040202],[137.55294,-33.040202],[137.553291,-33.040173]]}},{"type":"Feature","properties":{"tier":"arterial"},"geometry":{"type":"LineString","coordinates":[[137.571054,-33.025014],[137.570941,-33.024909],[137.570736,-33.024825],[137.570768,-33.024768]]}},{"type":"Feature","properties":{"tier":"arterial"},"geometry":{"type":"LineString","coordinates":[[137.574071,-33.026216],[137.57569,-33.02683],[137.577511,-33.027574],[137.578133,-33.027828],[137.579683,-33.028461],[137.580498,-33.028957],[137.580644,-33.029046],[137.581145,-33.029351]]}},{"type":"Feature","properties":{"tier":"arterial"},"geometry":{"type":"LineString","coordinates":[[137.530182,-33.017622],[137.530375,-33.017575]]}},{"type":"Feature","properties":{"tier":"arterial"},"geometry":{"type":"LineString","coordinates":[[137.584254,-33.036646],[137.584282,-33.036576],[137.584337,-33.036466],[137.584399,-33.036354],[137.584855,-33.035727]]}},{"type":"Feature","properties":{"tier":"arterial"},"geometry":{"type":"LineString","coordinates":[[137.580107,-33.039961],[137.580111,-33.039959],[137.580519,-33.039805],[137.581355,-33.039489],[137.581675,-33.039361],[137.581923,-33.039269],[137.582215,-33.039161]]}},{"type":"Feature","properties":{"tier":"high"},"geometry":{"type":"LineString","coordinates":[[137.561666,-33.040315],[137.556698,-33.039927],[137.55629,-33.039922],[137.555716,-33.039915],[137.554881,-33.04001],[137.554153,-33.040157],[137.553837,-33.040228]]}},{"type":"Feature","properties":{"tier":"high"},"geometry":{"type":"LineString","coordinates":[[137.557271,-33.039861],[137.559116,-33.04001],[137.560431,-33.040117],[137.562131,-33.040256]]}},{"type":"Feature","properties":{"tier":"arterial"},"geometry":{"type":"LineString","coordinates":[[137.536943,-33.02715],[137.536879,-33.027327]]}},{"type":"Feature","properties":{"tier":"arterial"},"geometry":{"type":"LineString","coordinates":[[137.531181,-33.024384],[137.531261,-33.024134],[137.531276,-33.024086],[137.531388,-33.023729]]}},{"type":"Feature","properties":{"tier":"arterial"},"geometry":{"type":"LineString","coordinates":[[137.531276,-33.024086],[137.531459,-33.024135]]}},{"type":"Feature","properties":{"tier":"arterial"},"geometry":{"type":"LineString","coordinates":[[137.551047,-33.014932],[137.550051,-33.014702],[137.543759,-33.012188],[137.542572,-33.011691],[137.539822,-33.010542],[137.536278,-33.008889],[137.535439,-33.008508],[137.53487,-33.008249],[137.533143,-33.007464],[137.532604,-33.007219],[137.530624,-33.006308],[137.529348,-33.005721],[137.528891,-33.005509],[137.527183,-33.004718],[137.525372,-33.003871],[137.522137,-33.002411],[137.517351,-33.000228],[137.517245,-33.00018],[137.516817,-32.99998]]}},{"type":"Feature","properties":{"tier":"arterial"},"geometry":{"type":"LineString","coordinates":[[137.55609,-33.014675],[137.556109,-33.014643],[137.5565,-33.013931],[137.557016,-33.013048],[137.557348,-33.012451]]}},{"type":"Feature","properties":{"tier":"arterial"},"geometry":{"type":"LineString","coordinates":[[137.557348,-33.012451],[137.557689,-33.011838],[137.558145,-33.011095],[137.558768,-33.010446]]}},{"type":"Feature","properties":{"tier":"arterial"},"geometry":{"type":"LineString","coordinates":[[137.573326,-33.008801],[137.575366,-33.008806]]}},{"type":"Feature","properties":{"tier":"high"},"geometry":{"type":"LineString","coordinates":[[137.576419,-33.003347],[137.576315,-33.004275],[137.576251,-33.004845],[137.57602,-33.006925]]}},{"type":"Feature","properties":{"tier":"high"},"geometry":{"type":"LineString","coordinates":[[137.576877,-32.99998],[137.576688,-33.000958],[137.576465,-33.002942],[137.576419,-33.003347]]}},{"type":"Feature","properties":{"tier":"regional"},"geometry":{"type":"LineString","coordinates":[[137.534701,-33.033229],[137.53453,-33.033298]]}},{"type":"Feature","properties":{"tier":"regional"},"geometry":{"type":"LineString","coordinates":[[137.534504,-33.033227],[137.534701,-33.033229]]}},{"type":"Feature","properties":{"tier":"regional"},"geometry":{"type":"LineString","coordinates":[[137.534199,-33.03335],[137.534363,-33.03326]]}},{"type":"Feature","properties":{"tier":"regional"},"geometry":{"type":"LineString","coordinates":[[137.534379,-33.033326],[137.534199,-33.03335]]}},{"type":"Feature","properties":{"tier":"regional"},"geometry":{"type":"LineString","coordinates":[[137.534434,-33.033209],[137.534449,-33.033208],[137.534464,-33.03321],[137.534479,-33.033213],[137.534492,-33.033219],[137.534504,-33.033227],[137.534514,-33.033236],[137.534523,-33.033247],[137.534528,-33.033259],[137.534532,-33.033272],[137.534532,-33.033285],[137.53453,-33.033298],[137.534525,-33.033311],[137.534516,-33.033322],[137.534506,-33.033332],[137.534494,-33.033341],[137.53448,-33.033347],[137.534464,-33.033351],[137.534449,-33.033353],[137.534433,-33.033352],[137.534417,-33.033349],[137.534403,-33.033343],[137.53439,-33.033335],[137.534379,-33.033326],[137.53437,-33.033315],[137.534364,-33.033302],[137.53436,-33.033288],[137.53436,-33.033274],[137.534363,-33.03326],[137.534369,-33.033247],[137.534378,-33.033236],[137.53439,-33.033225],[137.534404,-33.033217],[137.534419,-33.033212],[137.534434,-33.033209]]}},{"type":"Feature","properties":{"tier":"regional"},"geometry":{"type":"LineString","coordinates":[[137.534701,-33.033229],[137.536366,-33.032784],[137.53783,-33.032396],[137.539894,-33.031848]]}},{"type":"Feature","properties":{"tier":"high"},"geometry":{"type":"LineString","coordinates":[[137.567474,-33.03013],[137.567578,-33.030204]]}},{"type":"Feature","properties":{"tier":"high"},"geometry":{"type":"LineString","coordinates":[[137.568794,-33.028792],[137.568903,-33.028863]]}},{"type":"Feature","properties":{"tier":"arterial"},"geometry":{"type":"LineString","coordinates":[[137.530188,-33.028139],[137.529891,-33.02907],[137.529696,-33.029682],[137.529385,-33.030677]]}},{"type":"Feature","properties":{"tier":"regional"},"geometry":{"type":"LineString","coordinates":[[137.531486,-33.034082],[137.533328,-33.033591],[137.534199,-33.03335]]}},{"type":"Feature","properties":{"tier":"arterial"},"geometry":{"type":"LineString","coordinates":[[137.528196,-33.043061],[137.52785,-33.041758]]}},{"type":"Feature","properties":{"tier":"arterial"},"geometry":{"type":"LineString","coordinates":[[137.52785,-33.041758],[137.527809,-33.041119],[137.527827,-33.040925],[137.527893,-33.040193],[137.527933,-33.039758],[137.528077,-33.038436]]}},{"type":"Feature","properties":{"tier":"arterial"},"geometry":{"type":"LineString","coordinates":[[137.528077,-33.038436],[137.528253,-33.03683],[137.528257,-33.03678],[137.528356,-33.035163],[137.528359,-33.035117],[137.528329,-33.034857],[137.528169,-33.03469]]}},{"type":"Feature","properties":{"tier":"arterial"},"geometry":{"type":"LineString","coordinates":[[137.530029,-33.028095],[137.530183,-33.027611],[137.530337,-33.027063],[137.530365,-33.026949],[137.53039,-33.026796],[137.530442,-33.026621],[137.530406,-33.026307]]}},{"type":"Feature","properties":{"tier":"arterial"},"geometry":{"type":"LineString","coordinates":[[137.514775,-33.026621],[137.51502,-33.02617],[137.515194,-33.025852]]}},{"type":"Feature","properties":{"tier":"regional"},"geometry":{"type":"LineString","coordinates":[[137.516278,-33.023976],[137.515667,-33.023739],[137.515431,-33.023658],[137.515389,-33.023643],[137.515122,-33.023582],[137.514767,-33.023515],[137.514613,-33.023499],[137.514211,-33.023426],[137.513841,-33.023331],[137.513402,-33.023217],[137.513033,-33.023076],[137.512309,-33.022727]]}},{"type":"Feature","properties":{"tier":"arterial"},"geometry":{"type":"LineString","coordinates":[[137.516278,-33.023976],[137.516618,-33.023583],[137.517093,-33.023084],[137.518292,-33.021891],[137.518527,-33.02165],[137.518604,-33.021526],[137.518662,-33.021325]]}},{"type":"Feature","properties":{"tier":"arterial"},"geometry":{"type":"LineString","coordinates":[[137.5311,-33.015498],[137.531172,-33.015671]]}},{"type":"Feature","properties":{"tier":"arterial"},"geometry":{"type":"LineString","coordinates":[[137.534014,-33.015084],[137.533835,-33.015082],[137.533587,-33.015079],[137.533285,-33.015121],[137.533023,-33.015169],[137.531519,-33.015578],[137.531308,-33.015635],[137.531172,-33.015671],[137.530417,-33.015869],[137.530288,-33.015925],[137.530227,-33.015951],[137.530083,-33.016042]]}},{"type":"Feature","properties":{"tier":"arterial"},"geometry":{"type":"LineString","coordinates":[[137.548394,-33.017695],[137.5483,-33.017862]]}},{"type":"Feature","properties":{"tier":"arterial"},"geometry":{"type":"LineString","coordinates":[[137.531388,-33.023729],[137.531576,-33.02295],[137.531637,-33.022266],[137.531651,-33.022112],[137.531527,-33.021312]]}},{"type":"Feature","properties":{"tier":"arterial"},"geometry":{"type":"LineString","coordinates":[[137.53158,-33.023759],[137.531459,-33.024135],[137.53125,-33.024788],[137.531169,-33.025166],[137.531196,-33.025323],[137.531239,-33.02545]]}},{"type":"Feature","properties":{"tier":"arterial"},"geometry":{"type":"LineString","coordinates":[[137.525425,-33.017199],[137.524882,-33.017345],[137.524346,-33.017487],[137.523812,-33.017629],[137.523458,-33.017745],[137.523145,-33.017885],[137.522749,-33.018077],[137.522362,-33.018324],[137.522054,-33.018568],[137.52185,-33.018715],[137.521407,-33.01914],[137.520703,-33.019838],[137.519915,-33.020601],[137.519761,-33.020782],[137.519686,-33.020889],[137.51965,-33.021139]]}},{"type":"Feature","properties":{"tier":"arterial"},"geometry":{"type":"LineString","coordinates":[[137.525365,-33.017025],[137.527871,-33.016364],[137.528777,-33.016133],[137.52895,-33.016074],[137.529049,-33.01604],[137.529269,-33.015901]]}},{"type":"Feature","properties":{"tier":"arterial"},"geometry":{"type":"LineString","coordinates":[[137.553627,-33.018561],[137.553547,-33.018599]]}},{"type":"Feature","properties":{"tier":"arterial"},"geometry":{"type":"LineString","coordinates":[[137.557053,-33.018497],[137.558027,-33.018881],[137.558222,-33.018961],[137.559375,-33.019431],[137.559529,-33.019493],[137.561208,-33.020175],[137.561803,-33.020429],[137.562918,-33.020867],[137.564178,-33.021377],[137.565654,-33.021969],[137.566309,-33.022231],[137.567425,-33.022688],[137.567685,-33.022827],[137.568571,-33.023481],[137.568803,-33.023664],[137.569253,-33.02402],[137.569851,-33.024386],[137.570768,-33.024768],[137.570931,-33.024836],[137.571563,-33.0251],[137.571761,-33.02519],[137.571907,-33.025241],[137.571999,-33.025272]]}},{"type":"Feature","properties":{"tier":"high"},"geometry":{"type":"LineString","coordinates":[[137.571363,-33.026404],[137.5709,-33.026861],[137.570432,-33.027324],[137.569466,-33.028295],[137.568903,-33.028863],[137.568421,-33.02935],[137.568418,-33.029353],[137.568355,-33.029416]]}},{"type":"Feature","properties":{"tier":"high"},"geometry":{"type":"LineString","coordinates":[[137.571693,-33.025847],[137.571839,-33.025656],[137.571932,-33.025447],[137.571969,-33.025363]]}},{"type":"Feature","properties":{"tier":"arterial"},"geometry":{"type":"LineString","coordinates":[[137.576961,-33.035421],[137.577492,-33.035789],[137.578039,-33.036168]]}},{"type":"Feature","properties":{"tier":"arterial"},"geometry":{"type":"LineString","coordinates":[[137.576823,-33.035524],[137.576506,-33.035281],[137.57615,-33.035035],[137.575867,-33.034838],[137.575765,-33.034762],[137.575665,-33.03473]]}},{"type":"Feature","properties":{"tier":"arterial"},"geometry":{"type":"LineString","coordinates":[[137.583148,-33.034493],[137.583564,-33.034083],[137.583876,-33.033775],[137.583942,-33.03371],[137.583976,-33.033678],[137.584387,-33.033283],[137.584832,-33.032856]]}},{"type":"Feature","properties":{"tier":"arterial"},"geometry":{"type":"LineString","coordinates":[[137.584855,-33.035727],[137.58518,-33.035254],[137.585502,-33.034785],[137.585808,-33.034338],[137.586163,-33.033819]]}},{"type":"Feature","properties":{"tier":"regional"},"geometry":{"type":"LineString","coordinates":[[137.512309,-33.022727],[137.511983,-33.022545],[137.511908,-33.022492],[137.511591,-33.022266],[137.51128,-33.022006],[137.510959,-33.021708],[137.51064,-33.021383],[137.510212,-33.020791],[137.510011,-33.020503],[137.509661,-33.020116],[137.509329,-33.019753]]}},{"type":"Feature","properties":{"tier":"regional"},"geometry":{"type":"LineString","coordinates":[[137.517087,-33.019562],[137.517504,-33.019922],[137.51843,-33.020597],[137.518687,-33.020763],[137.518833,-33.02079],[137.51903,-33.020818]]}},{"type":"Feature","properties":{"tier":"regional"},"geometry":{"type":"LineString","coordinates":[[137.516065,-33.01815],[137.516245,-33.018503],[137.516494,-33.018903],[137.516609,-33.019038],[137.516896,-33.019378],[137.517087,-33.019562]]}},{"type":"Feature","properties":{"tier":"regional"},"geometry":{"type":"LineString","coordinates":[[137.516065,-33.01815],[137.515869,-33.0182]]}},{"type":"Feature","properties":{"tier":"arterial"},"geometry":{"type":"LineString","coordinates":[[137.524247,-33.017328],[137.525023,-33.017117],[137.525365,-33.017025]]}},{"type":"Feature","properties":{"tier":"arterial"},"geometry":{"type":"LineString","coordinates":[[137.575665,-33.03473],[137.575633,-33.034733],[137.575602,-33.034731],[137.575558,-33.034719],[137.575519,-33.034698],[137.575489,-33.034668],[137.575469,-33.034633],[137.575461,-33.034597],[137.575468,-33.03455],[137.575494,-33.034506],[137.575535,-33.034473],[137.575588,-33.034453],[137.575639,-33.034449],[137.575692,-33.034458],[137.575739,-33.034481],[137.575774,-33.034515],[137.575795,-33.034557],[137.575799,-33.034605],[137.575786,-33.034648],[137.575757,-33.034686],[137.575715,-33.034714],[137.575665,-33.03473]]}},{"type":"Feature","properties":{"tier":"arterial"},"geometry":{"type":"LineString","coordinates":[[137.531527,-33.021312],[137.531381,-33.020782],[137.531333,-33.020609],[137.531155,-33.020142],[137.530658,-33.018842],[137.530556,-33.01858],[137.530182,-33.017622]]}},{"type":"Feature","properties":{"tier":"arterial"},"geometry":{"type":"LineString","coordinates":[[137.564567,-33.027961],[137.564895,-33.02803]]}},{"type":"Feature","properties":{"tier":"high"},"geometry":{"type":"LineString","coordinates":[[137.563806,-33.034021],[137.563634,-33.034213],[137.563538,-33.034353],[137.563423,-33.034519],[137.563344,-33.034674],[137.563238,-33.034925],[137.563186,-33.035195],[137.563172,-33.035364],[137.56316,-33.036109],[137.563163,-33.036608],[137.563181,-33.038237],[137.563172,-33.038334],[137.563168,-33.038444],[137.563155,-33.038862],[137.563163,-33.039685],[137.563161,-33.039789],[137.563151,-33.040335]]}},{"type":"Feature","properties":{"tier":"regional"},"geometry":{"type":"LineString","coordinates":[[137.571098,-33.03909],[137.57263,-33.03754],[137.574046,-33.036125],[137.574166,-33.035998],[137.575287,-33.034864],[137.575381,-33.034761],[137.575434,-33.034693],[137.575469,-33.034633]]}},{"type":"Feature","properties":{"tier":"arterial"},"geometry":{"type":"LineString","coordinates":[[137.531741,-33.02127],[137.531826,-33.021816],[137.531826,-33.022263],[137.531826,-33.022512],[137.531799,-33.022973],[137.53158,-33.023759]]}},{"type":"Feature","properties":{"tier":"regional"},"geometry":{"type":"LineString","coordinates":[[137.558383,-33.024158],[137.558188,-33.024164],[137.556519,-33.024177],[137.555628,-33.024158],[137.555244,-33.02415],[137.553933,-33.024117],[137.552641,-33.024075],[137.551716,-33.024042],[137.551342,-33.024003],[137.551098,-33.023946]]}},{"type":"Feature","properties":{"tier":"high"},"geometry":{"type":"LineString","coordinates":[[137.563683,-33.033931],[137.563955,-33.033662],[137.564294,-33.033326],[137.56527,-33.032356],[137.565641,-33.031993],[137.566804,-33.030811],[137.567474,-33.03013],[137.568045,-33.02955],[137.568128,-33.029466]]}},{"type":"Feature","properties":{"tier":"regional"},"geometry":{"type":"LineString","coordinates":[[137.571213,-33.039178],[137.570549,-33.039871],[137.570513,-33.039907],[137.56982,-33.040585]]}},{"type":"Feature","properties":{"tier":"arterial"},"geometry":{"type":"LineString","coordinates":[[137.529385,-33.030677],[137.529127,-33.031477],[137.528962,-33.03214],[137.528925,-33.032305],[137.528866,-33.032564],[137.528795,-33.033016],[137.528766,-33.03341],[137.528737,-33.033691],[137.528785,-33.033934],[137.528878,-33.034137]]}},{"type":"Feature","properties":{"tier":"regional"},"geometry":{"type":"LineString","coordinates":[[137.521826,-33.033956],[137.523002,-33.034049],[137.524251,-33.034132],[137.525232,-33.034201],[137.526899,-33.034319],[137.5275,-33.034353],[137.527623,-33.03436]]}},{"type":"Feature","properties":{"tier":"arterial"},"geometry":{"type":"LineString","coordinates":[[137.515194,-33.025852],[137.515337,-33.025615],[137.515712,-33.025009],[137.516017,-33.024466],[137.516124,-33.024274],[137.516278,-33.023976]]}},{"type":"Feature","properties":{"tier":"arterial"},"geometry":{"type":"LineString","coordinates":[[137.529204,-33.030634],[137.529519,-33.029643]]}},{"type":"Feature","properties":{"tier":"arterial"},"geometry":{"type":"LineString","coordinates":[[137.529519,-33.029643],[137.529693,-33.029098],[137.529827,-33.028705],[137.530029,-33.028095]]}},{"type":"Feature","properties":{"tier":"arterial"},"geometry":{"type":"LineString","coordinates":[[137.535441,-33.027013],[137.534587,-33.026814],[137.533618,-33.026589],[137.533423,-33.026544]]}},{"type":"Feature","properties":{"tier":"arterial"},"geometry":{"type":"LineString","coordinates":[[137.533423,-33.026544],[137.532953,-33.026434],[137.532813,-33.026401],[137.532429,-33.026317],[137.531892,-33.026193],[137.531701,-33.026165],[137.531564,-33.026165],[137.531463,-33.026176],[137.531308,-33.026182]]}},{"type":"Feature","properties":{"tier":"arterial"},"geometry":{"type":"LineString","coordinates":[[137.530406,-33.026307],[137.530328,-33.026255],[137.530261,-33.026194],[137.530205,-33.026126],[137.530163,-33.026051],[137.530134,-33.025972],[137.530118,-33.025875],[137.530123,-33.025777],[137.530148,-33.025681],[137.530192,-33.025591],[137.530256,-33.025509],[137.53032,-33.025449],[137.530393,-33.025397],[137.530475,-33.025356],[137.530563,-33.025324],[137.530656,-33.025303],[137.530761,-33.025294],[137.530866,-33.025298],[137.530969,-33.025317],[137.531067,-33.025349],[137.531158,-33.025394],[137.531239,-33.02545],[137.53129,-33.025496],[137.531334,-33.025547],[137.531371,-33.025601],[137.531401,-33.025659],[137.531422,-33.025719],[137.53144,-33.025815],[137.531436,-33.025913],[137.531413,-33.026008],[137.53137,-33.026099],[137.531308,-33.026182],[137.531242,-33.026245],[137.531165,-33.026299],[137.53108,-33.026343],[137.530987,-33.026375],[137.530869,-33.026398],[137.530747,-33.026403],[137.530627,-33.026389],[137.530512,-33.026356],[137.530406,-33.026307]]}},{"type":"Feature","properties":{"tier":"arterial"},"geometry":{"type":"LineString","coordinates":[[137.533474,-33.026365],[137.533671,-33.026412],[137.534079,-33.026503],[137.534113,-33.026511],[137.534584,-33.026624],[137.535267,-33.026778],[137.535495,-33.026829],[137.536943,-33.02715],[137.537098,-33.027185],[137.537298,-33.027229],[137.538198,-33.027436],[137.538395,-33.027481],[137.539719,-33.027753],[137.540792,-33.027974],[137.541719,-33.028057],[137.543376,-33.028066],[137.544047,-33.028062],[137.545096,-33.028071],[137.545279,-33.02807],[137.546737,-33.028065],[137.547376,-33.028062],[137.548051,-33.028061],[137.548327,-33.028061]]}},{"type":"Feature","properties":{"tier":"arterial"},"geometry":{"type":"LineString","coordinates":[[137.540792,-33.027974],[137.54076,-33.028134]]}},{"type":"Feature","properties":{"tier":"arterial"},"geometry":{"type":"LineString","coordinates":[[137.545279,-33.02807],[137.545285,-33.028223]]}},{"type":"Feature","properties":{"tier":"arterial"},"geometry":{"type":"LineString","coordinates":[[137.548327,-33.028061],[137.549264,-33.028053],[137.550457,-33.028055]]}},{"type":"Feature","properties":{"tier":"arterial"},"geometry":{"type":"LineString","coordinates":[[137.551139,-33.035089],[137.551157,-33.034074],[137.551142,-33.03281],[137.551132,-33.031927],[137.551124,-33.031477],[137.551117,-33.031022],[137.551114,-33.030367],[137.551112,-33.029838],[137.551117,-33.02901],[137.551121,-33.028252],[137.551122,-33.028159]]}},{"type":"Feature","properties":{"tier":"arterial"},"geometry":{"type":"LineString","coordinates":[[137.559092,-33.028043],[137.559229,-33.028042],[137.55971,-33.028033],[137.559875,-33.028037],[137.560805,-33.028027],[137.561519,-33.028019],[137.562231,-33.028018],[137.563487,-33.028011],[137.563926,-33.027995],[137.564269,-33.027967],[137.564567,-33.027961]]}},{"type":"Feature","properties":{"tier":"regional"},"geometry":{"type":"LineString","coordinates":[[137.572758,-33.037588],[137.572608,-33.037731],[137.571213,-33.039178]]}},{"type":"Feature","properties":{"tier":"regional"},"geometry":{"type":"LineString","coordinates":[[137.56982,-33.040585],[137.5697,-33.040717],[137.569607,-33.040891]]}},{"type":"Feature","properties":{"tier":"arterial"},"geometry":{"type":"LineString","coordinates":[[137.569868,-33.040912],[137.57028,-33.040943],[137.570562,-33.040964],[137.57111,-33.041006],[137.572901,-33.041141]]}},{"type":"Feature","properties":{"tier":"arterial"},"geometry":{"type":"LineString","coordinates":[[137.572901,-33.041141],[137.573914,-33.041221],[137.574771,-33.041289],[137.575787,-33.041371],[137.575807,-33.041371],[137.576081,-33.041371],[137.576397,-33.041345]]}},{"type":"Feature","properties":{"tier":"arterial"},"geometry":{"type":"LineString","coordinates":[[137.584001,-33.037401],[137.584017,-33.037417],[137.584026,-33.037436],[137.584028,-33.037457],[137.584022,-33.037478],[137.584008,-33.037496],[137.583988,-33.03751],[137.583963,-33.037518],[137.583937,-33.037519],[137.583912,-33.037512],[137.583891,-33.0375],[137.583876,-33.037482],[137.583868,-33.037462],[137.583868,-33.03744],[137.583877,-33.03742],[137.583891,-33.037404],[137.58391,-33.037392],[137.583933,-33.037385],[137.583957,-33.037385],[137.58398,-33.03739],[137.584001,-33.037401]]}},{"type":"Feature","properties":{"tier":"arterial"},"geometry":{"type":"LineString","coordinates":[[137.572518,-33.032332],[137.573563,-33.033061],[137.574602,-33.033786],[137.574958,-33.034034],[137.575225,-33.03424],[137.575293,-33.034284],[137.575462,-33.03439],[137.575538,-33.034427],[137.575588,-33.034453]]}},{"type":"Feature","properties":{"tier":"arterial"},"geometry":{"type":"LineString","coordinates":[[137.528723,-33.03226],[137.528925,-33.032305]]}},{"type":"Feature","properties":{"tier":"regional"},"geometry":{"type":"LineString","coordinates":[[137.562485,-33.030365],[137.562383,-33.03046]]}},{"type":"Feature","properties":{"tier":"high"},"geometry":{"type":"LineString","coordinates":[[137.549591,-33.041147],[137.548755,-33.041325],[137.548072,-33.041474],[137.546229,-33.041878]]}},{"type":"Feature","properties":{"tier":"high"},"geometry":{"type":"LineString","coordinates":[[137.551727,-33.040521],[137.552544,-33.040339]]}},{"type":"Feature","properties":{"tier":"high"},"geometry":{"type":"LineString","coordinates":[[137.533395,-33.044581],[137.535504,-33.044117],[137.536155,-33.043969]]}},{"type":"Feature","properties":{"tier":"high"},"geometry":{"type":"LineString","coordinates":[[137.526306,-33.046155],[137.528521,-33.045656],[137.529062,-33.045539]]}},{"type":"Feature","properties":{"tier":"high"},"geometry":{"type":"LineString","coordinates":[[137.531765,-33.044942],[137.532652,-33.044746],[137.533395,-33.044581]]}},{"type":"Feature","properties":{"tier":"high"},"geometry":{"type":"LineString","coordinates":[[137.543116,-33.042432],[137.543814,-33.042276]]}},{"type":"Feature","properties":{"tier":"high"},"geometry":{"type":"LineString","coordinates":[[137.575658,-33.009088],[137.575687,-33.008803]]}},{"type":"Feature","properties":{"tier":"arterial"},"geometry":{"type":"LineString","coordinates":[[137.575366,-33.008806],[137.575687,-33.008803]]}},{"type":"Feature","properties":{"tier":"high"},"geometry":{"type":"LineString","coordinates":[[137.57243,-33.024264],[137.572383,-33.024487],[137.572343,-33.024651]]}},{"type":"Feature","properties":{"tier":"high"},"geometry":{"type":"LineString","coordinates":[[137.5712,-33.026341],[137.57164,-33.025912],[137.571653,-33.025896],[137.571693,-33.025847]]}},{"type":"Feature","properties":{"tier":"high"},"geometry":{"type":"LineString","coordinates":[[137.575842,-33.008801],[137.575816,-33.009079]]}},{"type":"Feature","properties":{"tier":"high"},"geometry":{"type":"LineString","coordinates":[[137.529062,-33.045539],[137.529532,-33.045429]]}},{"type":"Feature","properties":{"tier":"arterial"},"geometry":{"type":"LineString","coordinates":[[137.581145,-33.029351],[137.581674,-33.029674],[137.581894,-33.029807]]}},{"type":"Feature","properties":{"tier":"high"},"geometry":{"type":"LineString","coordinates":[[137.523425,-33.046928],[137.509122,-33.050065],[137.508441,-33.050215],[137.50279,-33.051453],[137.501721,-33.051688],[137.49998,-33.052072]]}},{"type":"Feature","properties":{"tier":"high"},"geometry":{"type":"LineString","coordinates":[[137.551676,-33.040675],[137.549591,-33.041147]]}},{"type":"Feature","properties":{"tier":"high"},"geometry":{"type":"LineString","coordinates":[[137.548689,-33.041196],[137.551727,-33.040521]]}},{"type":"Feature","properties":{"tier":"high"},"geometry":{"type":"LineString","coordinates":[[137.544615,-33.042097],[137.546194,-33.041745]]}},{"type":"Feature","properties":{"tier":"high"},"geometry":{"type":"LineString","coordinates":[[137.546229,-33.041878],[137.544266,-33.042313]]}},{"type":"Feature","properties":{"tier":"high"},"geometry":{"type":"LineString","coordinates":[[137.553837,-33.040228],[137.551676,-33.040675]]}},{"type":"Feature","properties":{"tier":"arterial"},"geometry":{"type":"LineString","coordinates":[[137.552544,-33.040339],[137.552455,-33.040277],[137.552334,-33.040061]]}},{"type":"Feature","properties":{"tier":"high"},"geometry":{"type":"LineString","coordinates":[[137.543814,-33.042276],[137.544615,-33.042097]]}},{"type":"Feature","properties":{"tier":"regional"},"geometry":{"type":"LineString","coordinates":[[137.543718,-33.042],[137.543814,-33.042276]]}},{"type":"Feature","properties":{"tier":"arterial"},"geometry":{"type":"LineString","coordinates":[[137.55539,-33.016172],[137.55489,-33.017052]]}},{"type":"Feature","properties":{"tier":"arterial"},"geometry":{"type":"LineString","coordinates":[[137.555394,-33.015883],[137.55609,-33.014675]]}},{"type":"Feature","properties":{"tier":"arterial"},"geometry":{"type":"LineString","coordinates":[[137.555247,-33.016129],[137.554952,-33.016008]]}},{"type":"Feature","properties":{"tier":"arterial"},"geometry":{"type":"LineString","coordinates":[[137.529892,-33.01567],[137.530093,-33.015712],[137.530203,-33.015707],[137.530336,-33.0157],[137.530802,-33.015577]]}},{"type":"Feature","properties":{"tier":"arterial"},"geometry":{"type":"LineString","coordinates":[[137.530182,-33.017622],[137.529856,-33.016711],[137.529749,-33.016517],[137.529734,-33.01649],[137.529691,-33.016412],[137.529542,-33.016299]]}},{"type":"Feature","properties":{"tier":"arterial"},"geometry":{"type":"LineString","coordinates":[[137.528552,-33.016357],[137.527926,-33.016525],[137.527375,-33.016671],[137.525425,-33.017199]]}},{"type":"Feature","properties":{"tier":"regional"},"geometry":{"type":"LineString","coordinates":[[137.537051,-33.04354],[137.537127,-33.043755]]}},{"type":"Feature","properties":{"tier":"high"},"geometry":{"type":"LineString","coordinates":[[137.575601,-33.011088],[137.575416,-33.012793],[137.575175,-33.014761],[137.57501,-33.016298],[137.574984,-33.016523],[137.574956,-33.016755],[137.574949,-33.016815],[137.574769,-33.018372],[137.574734,-33.018767],[137.574593,-33.019852],[137.574531,-33.020372],[137.574399,-33.020756],[137.574263,-33.021051],[137.574065,-33.021361],[137.573651,-33.021889],[137.572859,-33.02293],[137.572709,-33.023151],[137.572608,-33.02335],[137.572542,-33.023542],[137.572498,-33.023804],[137.572457,-33.024125]]}},{"type":"Feature","properties":{"tier":"high"},"geometry":{"type":"LineString","coordinates":[[137.575729,-33.008398],[137.575775,-33.007899]]}},{"type":"Feature","properties":{"tier":"high"},"geometry":{"type":"LineString","coordinates":[[137.575687,-33.008803],[137.575729,-33.008398]]}},{"type":"Feature","properties":{"tier":"high"},"geometry":{"type":"LineString","coordinates":[[137.572286,-33.02407],[137.572291,-33.02404],[137.572373,-33.02354],[137.572529,-33.02314],[137.572925,-33.022584],[137.573361,-33.022024],[137.573771,-33.021482],[137.574285,-33.020535],[137.574394,-33.020141],[137.574461,-33.019606],[137.57456,-33.018797],[137.574822,-33.016511],[137.575013,-33.014752],[137.57535,-33.011768],[137.575432,-33.011069]]}},{"type":"Feature","properties":{"tier":"arterial"},"geometry":{"type":"LineString","coordinates":[[137.572457,-33.008803],[137.573326,-33.008801]]}},{"type":"Feature","properties":{"tier":"high"},"geometry":{"type":"LineString","coordinates":[[137.57602,-33.006925],[137.576032,-33.007095]]}},{"type":"Feature","properties":{"tier":"high"},"geometry":{"type":"LineString","coordinates":[[137.529045,-33.0452],[137.52911,-33.04528],[137.529169,-33.045348],[137.529269,-33.045401],[137.529337,-33.045418],[137.529532,-33.045429]]}},{"type":"Feature","properties":{"tier":"arterial"},"geometry":{"type":"LineString","coordinates":[[137.528521,-33.045656],[137.528699,-33.045568],[137.528765,-33.045521],[137.528814,-33.045471],[137.528834,-33.045422],[137.528846,-33.045379],[137.528847,-33.045327],[137.528853,-33.045256]]}},{"type":"Feature","properties":{"tier":"arterial"},"geometry":{"type":"LineString","coordinates":[[137.529062,-33.045539],[137.528996,-33.045491],[137.528853,-33.045256]]}},{"type":"Feature","properties":{"tier":"arterial"},"geometry":{"type":"LineString","coordinates":[[137.529408,-33.045597],[137.529251,-33.045581],[137.529157,-33.045572],[137.529114,-33.045557],[137.529062,-33.045539]]}},{"type":"Feature","properties":{"tier":"high"},"geometry":{"type":"LineString","coordinates":[[137.544266,-33.042313],[137.544163,-33.042386],[137.544042,-33.042444],[137.543984,-33.042493],[137.543952,-33.042548],[137.543952,-33.042609],[137.543965,-33.04269]]}},{"type":"Feature","properties":{"tier":"high"},"geometry":{"type":"LineString","coordinates":[[137.543965,-33.04269],[137.543901,-33.042641],[137.543809,-33.042569],[137.543729,-33.042537],[137.543588,-33.042525],[137.54322,-33.042545]]}},{"type":"Feature","properties":{"tier":"regional"},"geometry":{"type":"LineString","coordinates":[[137.543814,-33.042276],[137.543858,-33.042403]]}},{"type":"Feature","properties":{"tier":"arterial"},"geometry":{"type":"LineString","coordinates":[[137.554249,-33.017366],[137.554388,-33.017363],[137.554455,-33.017351],[137.554532,-33.017322],[137.554605,-33.017282]]}},{"type":"Feature","properties":{"tier":"regional"},"geometry":{"type":"LineString","coordinates":[[137.991197,-33.203948],[137.991213,-33.203739],[137.991228,-33.2035],[137.991217,-33.203147],[137.99122,-33.201428],[137.99121,-33.201377]]}},{"type":"Feature","properties":{"tier":"regional"},"geometry":{"type":"LineString","coordinates":[[137.99121,-33.201377],[137.991224,-33.200546],[137.99121,-33.198712]]}},{"type":"Feature","properties":{"tier":"high"},"geometry":{"type":"LineString","coordinates":[[137.563151,-33.040335],[137.563149,-33.040431]]}},{"type":"Feature","properties":{"tier":"high"},"geometry":{"type":"LineString","coordinates":[[137.563045,-33.040332],[137.563151,-33.040335]]}},{"type":"Feature","properties":{"tier":"high"},"geometry":{"type":"LineString","coordinates":[[137.563045,-33.040332],[137.563039,-33.039786]]}},{"type":"Feature","properties":{"tier":"arterial"},"geometry":{"type":"LineString","coordinates":[[137.563347,-33.040352],[137.563514,-33.040366],[137.56388,-33.040396],[137.564472,-33.040495]]}},{"type":"Feature","properties":{"tier":"high"},"geometry":{"type":"LineString","coordinates":[[137.56304,-33.040423],[137.561666,-33.040315]]}},{"type":"Feature","properties":{"tier":"arterial"},"geometry":{"type":"LineString","coordinates":[[137.528853,-33.045256],[137.528196,-33.043061]]}},{"type":"Feature","properties":{"tier":"high"},"geometry":{"type":"LineString","coordinates":[[137.529532,-33.045429],[137.530599,-33.045192],[137.531765,-33.044942]]}},{"type":"Feature","properties":{"tier":"arterial"},"geometry":{"type":"LineString","coordinates":[[137.529045,-33.0452],[137.529074,-33.045328],[137.529078,-33.045431],[137.529062,-33.045539]]}},{"type":"Feature","properties":{"tier":"high"},"geometry":{"type":"LineString","coordinates":[[137.528706,-33.045742],[137.526383,-33.046295]]}},{"type":"Feature","properties":{"tier":"high"},"geometry":{"type":"LineString","coordinates":[[137.537127,-33.043755],[137.537308,-33.043714]]}},{"type":"Feature","properties":{"tier":"high"},"geometry":{"type":"LineString","coordinates":[[137.536736,-33.043985],[137.533597,-33.044687],[137.532702,-33.044887]]}},{"type":"Feature","properties":{"tier":"high"},"geometry":{"type":"LineString","coordinates":[[137.537308,-33.043714],[137.538334,-33.043488],[137.540189,-33.043074],[137.541579,-33.042776],[137.542694,-33.042526],[137.543116,-33.042432]]}},{"type":"Feature","properties":{"tier":"high"},"geometry":{"type":"LineString","coordinates":[[137.544266,-33.042313],[137.543858,-33.042403]]}},{"type":"Feature","properties":{"tier":"arterial"},"geometry":{"type":"LineString","coordinates":[[137.572121,-33.025318],[137.572199,-33.025341],[137.572671,-33.025541]]}},{"type":"Feature","properties":{"tier":"high"},"geometry":{"type":"LineString","coordinates":[[137.572095,-33.025404],[137.571928,-33.025749],[137.571786,-33.025952],[137.571633,-33.026108],[137.571363,-33.026404]]}},{"type":"Feature","properties":{"tier":"arterial"},"geometry":{"type":"LineString","coordinates":[[137.572095,-33.025404],[137.571969,-33.025363]]}},{"type":"Feature","properties":{"tier":"high"},"geometry":{"type":"LineString","coordinates":[[137.571969,-33.025363],[137.571999,-33.025272]]}},{"type":"Feature","properties":{"tier":"arterial"},"geometry":{"type":"LineString","coordinates":[[137.553837,-33.040228],[137.553632,-33.040227],[137.553552,-33.040244],[137.553289,-33.0403]]}},{"type":"Feature","properties":{"tier":"arterial"},"geometry":{"type":"LineString","coordinates":[[137.547229,-33.017221],[137.547876,-33.017484],[137.548394,-33.017695],[137.548843,-33.017874],[137.549642,-33.018163],[137.549678,-33.018167],[137.550336,-33.018247],[137.551122,-33.01834],[137.551675,-33.018406],[137.552157,-33.018451],[137.552392,-33.018474],[137.553017,-33.018533]]}},{"type":"Feature","properties":{"tier":"regional"},"geometry":{"type":"LineString","coordinates":[[137.997521,-33.193476],[137.997523,-33.194321],[137.997525,-33.19519],[137.997527,-33.196001],[137.997531,-33.19742],[137.997533,-33.197814],[137.997535,-33.198702],[137.997537,-33.199608],[137.99753,-33.199981],[137.997542,-33.201368],[137.997544,-33.202021],[137.997547,-33.203101],[137.99755,-33.204015],[137.997553,-33.207274],[137.997527,-33.208487],[137.997567,-33.210268],[137.997568,-33.210594]]}},{"type":"Feature","properties":{"tier":"regional"},"geometry":{"type":"LineString","coordinates":[[137.991203,-33.193399],[137.992246,-33.193408],[137.993291,-33.193407],[137.993874,-33.193397],[137.994881,-33.193402],[137.99546,-33.193386],[137.997446,-33.193408]]}}]}
