{"type":"FeatureCollection","features":[{"type":"Feature","properties":{"tier":"arterial"},"geometry":{"type":"LineString","coordinates":[[137.551124,-35.681813],[137.548506,-35.68246],[137.546543,-35.683503],[137.54549,-35.684135],[137.543824,-35.68514],[137.541296,-35.686478],[137.536531,-35.689001],[137.529898,-35.692644],[137.52889,-35.692923],[137.528379,-35.693065],[137.527877,-35.693308],[137.525797,-35.694503]]}},{"type":"Feature","properties":{"tier":"regional"},"geometry":{"type":"LineString","coordinates":[[137.530602,-35.624717],[137.530598,-35.624659],[137.530372,-35.622299],[137.530214,-35.620625],[137.530157,-35.620219],[137.530093,-35.619903],[137.530059,-35.619742],[137.530026,-35.619668],[137.529902,-35.619456],[137.529347,-35.618676],[137.528508,-35.617415],[137.527789,-35.616441],[137.527161,-35.615442],[137.526694,-35.614744],[137.52652,-35.61456],[137.526339,-35.614392],[137.52615,-35.614232],[137.525831,-35.614022],[137.525226,-35.61363],[137.525077,-35.613489],[137.52464,-35.613036],[137.524082,-35.612369],[137.523978,-35.612154],[137.523884,-35.611874],[137.523688,-35.611111],[137.523556,-35.610588],[137.523487,-35.610396],[137.523339,-35.610169],[137.523031,-35.609816],[137.522859,-35.609606],[137.522685,-35.609365],[137.522593,-35.609209],[137.522508,-35.608981],[137.522453,-35.608744],[137.522373,-35.60821],[137.52227,-35.607439],[137.522168,-35.606785],[137.522111,-35.606433],[137.522053,-35.606232],[137.521918,-35.605823],[137.521725,-35.60521],[137.521526,-35.60447],[137.521572,-35.603669],[137.521533,-35.603307],[137.521387,-35.602949],[137.521233,-35.602724],[137.521045,-35.602519],[137.520835,-35.60237],[137.5206,-35.602248],[137.519801,-35.6019],[137.519275,-35.601682],[137.519077,-35.601561],[137.51893,-35.601433],[137.518253,-35.60069],[137.51809,-35.600527],[137.518014,-35.600475],[137.517949,-35.600431],[137.517884,-35.600394],[137.517759,-35.600329],[137.517191,-35.600034],[137.517062,-35.599945],[137.516977,-35.599886],[137.51685,-35.599773],[137.516737,-35.599641],[137.516645,-35.599507],[137.516446,-35.599203],[137.516309,-35.599031],[137.51613,-35.598874],[137.515985,-35.598769],[137.515911,-35.598725],[137.515834,-35.598679],[137.515679,-35.598605],[137.515569,-35.598559],[137.515307,-35.59845],[137.51488,-35.598303],[137.514469,-35.598182],[137.514303,-35.598153],[137.514183,-35.598139],[137.513942,-35.598121],[137.51374,-35.598124],[137.513521,-35.598136],[137.511923,-35.598242],[137.51179,-35.598251],[137.511585,-35.598222],[137.510428,-35.598085],[137.509584,-35.597989],[137.508756,-35.597896],[137.507757,-35.597761],[137.506869,-35.597637],[137.506575,-35.597591],[137.506487,-35.597577],[137.506197,-35.597533]]}},{"type":"Feature","properties":{"tier":"arterial"},"geometry":{"type":"LineString","coordinates":[[137.589772,-35.673403],[137.58949,-35.673671],[137.589302,-35.673839],[137.588997,-35.67411],[137.588823,-35.67425],[137.588669,-35.674375],[137.588538,-35.67447],[137.588319,-35.674622],[137.588065,-35.674775],[137.58774,-35.674954],[137.587594,-35.675028],[137.587392,-35.67513],[137.586973,-35.675313],[137.586762,-35.675387],[137.586519,-35.67547],[137.586271,-35.675547],[137.586083,-35.675595],[137.585801,-35.67566],[137.585544,-35.675716],[137.583987,-35.676024],[137.581644,-35.676485],[137.580571,-35.676712],[137.57969,-35.676867],[137.576876,-35.677434],[137.576242,-35.677561],[137.574858,-35.677837],[137.573567,-35.678108]]}},{"type":"Feature","properties":{"tier":"regional"},"geometry":{"type":"LineString","coordinates":[[137.641763,-35.653641],[137.641792,-35.653497],[137.641821,-35.653386],[137.641854,-35.653155],[137.641865,-35.652967],[137.641861,-35.652864],[137.641813,-35.6525],[137.641814,-35.652404],[137.641821,-35.652355],[137.641827,-35.652318],[137.641898,-35.652131],[137.642017,-35.651832],[137.642279,-35.65117],[137.642302,-35.651065],[137.642313,-35.650954],[137.642312,-35.650886],[137.642312,-35.650856],[137.642282,-35.650772],[137.642247,-35.650712],[137.641326,-35.649442],[137.641308,-35.649419],[137.641243,-35.649298],[137.641191,-35.649171],[137.641143,-35.648968],[137.641107,-35.648708],[137.641087,-35.648404],[137.641066,-35.64819],[137.641013,-35.647752],[137.640962,-35.647182],[137.640947,-35.646756],[137.640956,-35.646447],[137.640973,-35.646153]]}},{"type":"Feature","properties":{"tier":"arterial"},"geometry":{"type":"LineString","coordinates":[[137.640592,-35.655437],[137.640267,-35.65522],[137.639952,-35.65501],[137.639001,-35.654376],[137.638225,-35.653859],[137.638082,-35.653755],[137.638026,-35.653292]]}},{"type":"Feature","properties":{"tier":"regional"},"geometry":{"type":"LineString","coordinates":[[137.765628,-35.777943],[137.765699,-35.778053],[137.765878,-35.778327],[137.76597,-35.77852],[137.765997,-35.778714],[137.765989,-35.778999],[137.765867,-35.779884],[137.765941,-35.780161],[137.766055,-35.780423],[137.766145,-35.780539],[137.766325,-35.780678],[137.766496,-35.780703],[137.766691,-35.78074],[137.766823,-35.780749],[137.767056,-35.780762],[137.767296,-35.780777],[137.767652,-35.780796],[137.767929,-35.780815],[137.768406,-35.780828],[137.768626,-35.780834],[137.76893,-35.780896],[137.769774,-35.781069],[137.769971,-35.781109],[137.770755,-35.781435]]}},{"type":"Feature","properties":{"tier":"regional"},"geometry":{"type":"LineString","coordinates":[[137.744936,-35.852022],[137.745342,-35.851891],[137.745494,-35.851878],[137.74561,-35.851893],[137.745746,-35.851926],[137.745806,-35.851941],[137.746037,-35.851926],[137.746533,-35.851858],[137.74711,-35.851957],[137.747926,-35.852022],[137.748727,-35.851833],[137.749503,-35.851698],[137.749951,-35.851213],[137.750281,-35.85079],[137.75031,-35.850753],[137.750351,-35.850526],[137.750585,-35.849249],[137.750823,-35.847921],[137.751173,-35.846183],[137.751565,-35.84445],[137.75258,-35.843214]]}},{"type":"Feature","properties":{"tier":"regional"},"geometry":{"type":"LineString","coordinates":[[137.640592,-35.655437],[137.640814,-35.655183],[137.640979,-35.654909],[137.641248,-35.654485],[137.641491,-35.654093],[137.641573,-35.653957],[137.641696,-35.653759],[137.641763,-35.653641]]}},{"type":"Feature","properties":{"tier":"arterial"},"geometry":{"type":"LineString","coordinates":[[137.513218,-35.707942],[137.513193,-35.708238],[137.51319,-35.708657],[137.513189,-35.709184],[137.513205,-35.709874],[137.513252,-35.710814],[137.513574,-35.717545],[137.513684,-35.719879],[137.513767,-35.721852],[137.513961,-35.725263],[137.513991,-35.725914],[137.513965,-35.726559],[137.514172,-35.730102],[137.514369,-35.734935],[137.514326,-35.73608],[137.514259,-35.73646],[137.514205,-35.736733],[137.514051,-35.737499],[137.513597,-35.73952],[137.513357,-35.740203],[137.512936,-35.740774],[137.511459,-35.742794],[137.507983,-35.747622],[137.505692,-35.750784],[137.504567,-35.752616],[137.503135,-35.75495],[137.502798,-35.755499],[137.501563,-35.757304],[137.49998,-35.759417]]}},{"type":"Feature","properties":{"tier":"arterial"},"geometry":{"type":"LineString","coordinates":[[137.866483,-35.782307],[137.865887,-35.782719],[137.865341,-35.783169],[137.864096,-35.784269],[137.862705,-35.785486],[137.861987,-35.786183],[137.861596,-35.786701],[137.861071,-35.787915],[137.860426,-35.789487],[137.859685,-35.791597],[137.859313,-35.792391],[137.859012,-35.792845],[137.858416,-35.793422],[137.857649,-35.793929],[137.85728,-35.794173],[137.857173,-35.794244],[137.85511,-35.795555],[137.852458,-35.797302],[137.852244,-35.797435],[137.851902,-35.797635],[137.851669,-35.79774],[137.851381,-35.797867],[137.851152,-35.797956],[137.850842,-35.798056],[137.850397,-35.798182],[137.849682,-35.798342],[137.847574,-35.798784],[137.841991,-35.799962],[137.828881,-35.802729],[137.823116,-35.804006],[137.821028,-35.80447],[137.819938,-35.805047],[137.819054,-35.805841],[137.818702,-35.806512],[137.818522,-35.806857],[137.818161,-35.810282],[137.817936,-35.813295],[137.817433,-35.820031],[137.81732,-35.82155],[137.817123,-35.822545],[137.816436,-35.823867],[137.815346,-35.825002],[137.814891,-35.825274],[137.81452,-35.825495],[137.81436,-35.825591],[137.814041,-35.825781],[137.813145,-35.826131],[137.812798,-35.826267],[137.812558,-35.826323],[137.81,-35.826886],[137.809241,-35.827053],[137.8081,-35.827284],[137.80734,-35.827471],[137.806667,-35.827768],[137.805952,-35.828149],[137.805373,-35.828669],[137.804904,-35.829293],[137.804583,-35.829957],[137.804417,-35.830346],[137.804326,-35.830806],[137.80423,-35.83197],[137.804214,-35.832169],[137.803991,-35.833095],[137.803356,-35.834118],[137.802617,-35.834779],[137.802209,-35.835026],[137.801639,-35.83537],[137.800437,-35.83567],[137.798523,-35.835753],[137.798265,-35.835756],[137.798061,-35.835758],[137.795539,-35.835785],[137.793877,-35.835802],[137.791765,-35.835824],[137.790584,-35.835837],[137.78964,-35.835906],[137.788078,-35.836136],[137.786932,-35.836375],[137.785846,-35.836602],[137.785533,-35.836677],[137.785425,-35.836703],[137.78346,-35.837175],[137.780002,-35.838004],[137.777349,-35.838641],[137.776399,-35.838939],[137.775709,-35.839156],[137.775465,-35.839306],[137.774937,-35.839629],[137.774904,-35.83966],[137.77419,-35.840339],[137.773725,-35.841031],[137.773686,-35.841088],[137.7731,-35.84196],[137.77207,-35.843122],[137.771315,-35.84356],[137.770199,-35.844012],[137.768199,-35.844416],[137.767581,-35.844555],[137.765865,-35.845042],[137.765092,-35.845153],[137.764148,-35.845084],[137.763792,-35.845035],[137.763294,-35.844966],[137.762071,-35.844764],[137.761011,-35.844589],[137.754363,-35.843497],[137.753755,-35.84338],[137.75258,-35.843214],[137.750827,-35.842941],[137.750005,-35.842734],[137.749866,-35.842699],[137.74651,-35.841981],[137.744982,-35.841688],[137.743746,-35.841653],[137.742544,-35.841744],[137.740972,-35.842214],[137.740588,-35.842328],[137.738871,-35.842885],[137.737712,-35.84301],[137.73694,-35.842885],[137.736021,-35.842384],[137.733652,-35.839949],[137.731944,-35.838592],[137.7307,-35.838056],[137.727078,-35.836943],[137.720658,-35.835092],[137.718299,-35.834303],[137.717954,-35.834187],[137.714993,-35.832991],[137.708839,-35.830392],[137.705915,-35.828414],[137.705617,-35.828199],[137.70503,-35.8278],[137.701749,-35.825576]]}},{"type":"Feature","properties":{"tier":"regional"},"geometry":{"type":"LineString","coordinates":[[137.557702,-35.642972],[137.55767,-35.642889],[137.557402,-35.641728],[137.557116,-35.640276],[137.556819,-35.638914],[137.556701,-35.638347],[137.556607,-35.637863],[137.556577,-35.637453],[137.556587,-35.636625],[137.556596,-35.636193],[137.556613,-35.635746],[137.556642,-35.635468],[137.556735,-35.635043],[137.556926,-35.634494],[137.557514,-35.633104],[137.557736,-35.632604],[137.557893,-35.632163],[137.557976,-35.631896],[137.558038,-35.631591],[137.558066,-35.631278],[137.558073,-35.630815],[137.558039,-35.630412],[137.557915,-35.62993],[137.557753,-35.629503],[137.557519,-35.629069],[137.557257,-35.628674],[137.556946,-35.628306],[137.556749,-35.628113],[137.556319,-35.627747],[137.556054,-35.627572],[137.555769,-35.627408],[137.55511,-35.627108],[137.554007,-35.626644],[137.553624,-35.626498],[137.553247,-35.626378],[137.55284,-35.626276],[137.55238,-35.626184],[137.551903,-35.62614],[137.55133,-35.626134],[137.550796,-35.626168],[137.550617,-35.626193],[137.550291,-35.62624],[137.549801,-35.626349],[137.549234,-35.626485],[137.548729,-35.626565],[137.548276,-35.626615],[137.547967,-35.626626],[137.544928,-35.626607],[137.544079,-35.626592],[137.541569,-35.62655],[137.541245,-35.626505],[137.54089,-35.626439],[137.540776,-35.626415],[137.540457,-35.626346],[137.53782,-35.625614],[137.537217,-35.625496],[137.536599,-35.625403],[137.536031,-35.625342],[137.533896,-35.625114],[137.530602,-35.624717]]}},{"type":"Feature","properties":{"tier":"arterial"},"geometry":{"type":"LineString","coordinates":[[137.635342,-35.653065],[137.635368,-35.653308],[137.635436,-35.653454],[137.635883,-35.653843],[137.636061,-35.653979],[137.636151,-35.654048],[137.636619,-35.65435],[137.637112,-35.654667],[137.637596,-35.654985],[137.638095,-35.655308],[137.639036,-35.655921],[137.639056,-35.655933],[137.639504,-35.656217],[137.639552,-35.656247],[137.63973,-35.656365]]}},{"type":"Feature","properties":{"tier":"arterial"},"geometry":{"type":"LineString","coordinates":[[137.600409,-35.661909],[137.60053,-35.661798],[137.600689,-35.661662],[137.600789,-35.661588],[137.600907,-35.661513],[137.601032,-35.661443],[137.601191,-35.661372],[137.601345,-35.661313],[137.601881,-35.661123]]}},{"type":"Feature","properties":{"tier":"arterial"},"geometry":{"type":"LineString","coordinates":[[137.867222,-35.781904],[137.867544,-35.781721],[137.869897,-35.780436],[137.872368,-35.779055]]}},{"type":"Feature","properties":{"tier":"arterial"},"geometry":{"type":"LineString","coordinates":[[137.936974,-35.718163],[137.937726,-35.718185],[137.938178,-35.718187],[137.938743,-35.718189],[137.939123,-35.718192],[137.939342,-35.718194],[137.940449,-35.718215]]}},{"type":"Feature","properties":{"tier":"arterial"},"geometry":{"type":"LineString","coordinates":[[137.940449,-35.718215],[137.940588,-35.718159],[137.940684,-35.718022],[137.940782,-35.71775],[137.940997,-35.717515],[137.941255,-35.717455],[137.941485,-35.717391],[137.941688,-35.717266],[137.941789,-35.717176],[137.941917,-35.717108],[137.942115,-35.717102]]}},{"type":"Feature","properties":{"tier":"regional"},"geometry":{"type":"LineString","coordinates":[[137.953391,-35.824567],[137.953673,-35.824925],[137.953812,-35.825101],[137.954303,-35.825771],[137.954673,-35.826189],[137.955073,-35.826591],[137.955607,-35.827128],[137.955751,-35.827267],[137.956089,-35.827596],[137.956446,-35.827843],[137.956937,-35.828109],[137.957106,-35.828176],[137.957358,-35.828287],[137.957482,-35.828333],[137.958002,-35.828505],[137.958493,-35.828639],[137.958839,-35.828718],[137.959453,-35.8288],[137.960413,-35.828792],[137.961277,-35.82867],[137.961734,-35.828572],[137.961985,-35.828518],[137.963154,-35.828213],[137.964072,-35.827987],[137.964452,-35.827883],[137.964796,-35.827813],[137.965171,-35.827782],[137.965499,-35.827765],[137.965863,-35.827717],[137.966223,-35.827622],[137.966427,-35.827539],[137.967038,-35.827269],[137.96758,-35.827069],[137.968417,-35.826752],[137.96971,-35.826399],[137.972156,-35.825799],[137.972408,-35.82574],[137.973626,-35.825456],[137.974184,-35.825364],[137.974639,-35.825338],[137.974945,-35.825382],[137.975509,-35.825595],[137.978802,-35.826939],[137.979119,-35.82703],[137.979457,-35.827065],[137.97994,-35.827047],[137.984639,-35.826926],[137.98991,-35.826951],[137.990539,-35.826951],[137.990867,-35.826865],[137.991987,-35.826434],[137.994806,-35.825854],[137.995191,-35.825808],[137.997808,-35.826391],[137.999188,-35.826707],[138.00002,-35.826687]]}},{"type":"Feature","properties":{"tier":"regional"},"geometry":{"type":"LineString","coordinates":[[137.560239,-35.725216],[137.558817,-35.724945],[137.557465,-35.724627],[137.556669,-35.724342],[137.551918,-35.72108],[137.55135,-35.72069],[137.546875,-35.717559],[137.546434,-35.71725],[137.544983,-35.716234],[137.544308,-35.715762],[137.544195,-35.715683],[137.543109,-35.714923],[137.53558,-35.709654],[137.534986,-35.709238],[137.531426,-35.706769],[137.530568,-35.706438],[137.529981,-35.706324],[137.529087,-35.706264],[137.528368,-35.706299],[137.527599,-35.706445],[137.526738,-35.706821],[137.525303,-35.707648],[137.524431,-35.707919],[137.523489,-35.708083],[137.522863,-35.708073],[137.521988,-35.708057],[137.520451,-35.707928],[137.515787,-35.707517],[137.513397,-35.707254]]}},{"type":"Feature","properties":{"tier":"regional"},"geometry":{"type":"LineString","coordinates":[[137.743023,-35.752923],[137.747721,-35.755472],[137.748946,-35.756117],[137.752607,-35.758045],[137.752804,-35.758251],[137.755475,-35.761048],[137.756173,-35.761779],[137.758046,-35.763843],[137.758222,-35.764038],[137.759613,-35.765571],[137.759717,-35.765789],[137.760527,-35.767494],[137.76264,-35.771939],[137.763476,-35.773808],[137.763921,-35.774801]]}},{"type":"Feature","properties":{"tier":"regional"},"geometry":{"type":"LineString","coordinates":[[137.627174,-35.773263],[137.626906,-35.773337]]}},{"type":"Feature","properties":{"tier":"regional"},"geometry":{"type":"LineString","coordinates":[[137.548568,-35.785545],[137.548181,-35.785394],[137.546619,-35.784781],[137.54183,-35.782718],[137.540328,-35.782071],[137.539977,-35.781919],[137.539111,-35.781546],[137.538379,-35.78123],[137.537122,-35.780681],[137.535973,-35.780179],[137.532167,-35.778517],[137.531917,-35.778408],[137.526556,-35.77606],[137.522367,-35.774455],[137.520741,-35.773832],[137.515695,-35.771966],[137.514947,-35.771847],[137.512525,-35.771897],[137.510741,-35.771934],[137.505828,-35.772073],[137.500206,-35.772213],[137.49998,-35.772219]]}},{"type":"Feature","properties":{"tier":"regional"},"geometry":{"type":"LineString","coordinates":[[137.548568,-35.785545],[137.548893,-35.78553],[137.550655,-35.78536],[137.55225,-35.785168],[137.552436,-35.785142],[137.552553,-35.785128],[137.556078,-35.784605],[137.56103,-35.783891]]}},{"type":"Feature","properties":{"tier":"regional"},"geometry":{"type":"LineString","coordinates":[[137.705402,-35.769132],[137.705458,-35.769178],[137.705481,-35.769236],[137.705499,-35.769308],[137.705493,-35.769417],[137.705485,-35.769556],[137.705501,-35.770542],[137.705497,-35.771644],[137.705496,-35.772011],[137.705491,-35.773895],[137.705477,-35.77456],[137.705437,-35.776591],[137.705341,-35.779735],[137.705384,-35.783425],[137.705384,-35.785444],[137.705384,-35.786175],[137.705384,-35.786503],[137.705384,-35.79129],[137.705384,-35.792961],[137.705384,-35.793326],[137.705384,-35.794254],[137.705384,-35.794426],[137.705384,-35.800584],[137.705384,-35.802222],[137.705384,-35.80356],[137.705384,-35.808383],[137.705427,-35.811827],[137.705396,-35.81816],[137.705392,-35.8191],[137.705384,-35.820631],[137.705427,-35.82505],[137.705494,-35.826352],[137.705537,-35.827176],[137.705427,-35.827451],[137.70503,-35.8278]]}},{"type":"Feature","properties":{"tier":"regional"},"geometry":{"type":"LineString","coordinates":[[137.571217,-35.678637],[137.571035,-35.678557],[137.566337,-35.676403],[137.560513,-35.67366],[137.559827,-35.673346],[137.559312,-35.673172],[137.553634,-35.672359],[137.552806,-35.672245],[137.552337,-35.672181],[137.549085,-35.671732],[137.548227,-35.671557],[137.53558,-35.667907],[137.520075,-35.663298],[137.516898,-35.662353],[137.509873,-35.660341],[137.49998,-35.657405]]}},{"type":"Feature","properties":{"tier":"arterial"},"geometry":{"type":"LineString","coordinates":[[137.627859,-35.652476],[137.628157,-35.652464],[137.628422,-35.652467],[137.628467,-35.65247],[137.62875,-35.65249],[137.629149,-35.652525],[137.629187,-35.652528],[137.630121,-35.652613],[137.630376,-35.652635],[137.630865,-35.652677],[137.631149,-35.652701],[137.631317,-35.652716],[137.632393,-35.652808],[137.634025,-35.652954],[137.634049,-35.652956],[137.634325,-35.65298]]}},{"type":"Feature","properties":{"tier":"regional"},"geometry":{"type":"LineString","coordinates":[[137.638026,-35.653292],[137.639424,-35.653421],[137.639864,-35.653463],[137.640844,-35.653555],[137.641763,-35.653641]]}},{"type":"Feature","properties":{"tier":"regional"},"geometry":{"type":"LineString","coordinates":[[137.504651,-35.588618],[137.504698,-35.588676],[137.504717,-35.588737],[137.505003,-35.590525],[137.505221,-35.59159],[137.505359,-35.592371],[137.505449,-35.592811],[137.50557,-35.593386],[137.505704,-35.593963],[137.505856,-35.594203],[137.505895,-35.594264],[137.505923,-35.594307],[137.50624,-35.594739],[137.506527,-35.59512],[137.506599,-35.595269],[137.506652,-35.595439]]}},{"type":"Feature","properties":{"tier":"arterial"},"geometry":{"type":"LineString","coordinates":[[137.573567,-35.678108],[137.573058,-35.678215],[137.571217,-35.678637],[137.57043,-35.678826],[137.569943,-35.678943],[137.569417,-35.679069],[137.569064,-35.679141],[137.568571,-35.679245],[137.567757,-35.679421],[137.567404,-35.679497],[137.565785,-35.67984],[137.564197,-35.680176],[137.563765,-35.680267],[137.561978,-35.680644],[137.561358,-35.680773],[137.560291,-35.680996],[137.559435,-35.681172],[137.558896,-35.681269],[137.55858,-35.681318],[137.558364,-35.681341],[137.558252,-35.681352],[137.55775,-35.681399],[137.557308,-35.68141],[137.555709,-35.681392],[137.555251,-35.681391],[137.555116,-35.681391],[137.554217,-35.68139],[137.553618,-35.681385],[137.553293,-35.681394],[137.55306,-35.681417],[137.552772,-35.681459],[137.552278,-35.681556],[137.551437,-35.681744],[137.551124,-35.681813]]}},{"type":"Feature","properties":{"tier":"regional"},"geometry":{"type":"LineString","coordinates":[[137.950392,-35.816482],[137.950312,-35.816004],[137.950188,-35.815647],[137.950011,-35.81524],[137.949759,-35.814873],[137.949558,-35.814609],[137.949244,-35.814214],[137.948928,-35.813839],[137.948864,-35.813749],[137.948182,-35.81278],[137.947721,-35.812045],[137.94728,-35.81138],[137.947159,-35.811158],[137.947124,-35.81105],[137.94708,-35.810914],[137.947033,-35.810692],[137.946981,-35.810262],[137.94697,-35.810015],[137.946995,-35.809414],[137.947053,-35.808556],[137.947075,-35.808186],[137.947128,-35.807947],[137.947243,-35.80756],[137.947552,-35.806627],[137.948131,-35.804934],[137.948911,-35.802618],[137.949027,-35.802272],[137.949137,-35.801947],[137.949236,-35.801706],[137.949368,-35.80151],[137.949564,-35.801275],[137.949952,-35.800832],[137.950331,-35.800338],[137.950516,-35.800013],[137.950752,-35.79962],[137.95099,-35.799237],[137.951109,-35.799006],[137.951173,-35.798804],[137.951213,-35.798532],[137.951237,-35.797758],[137.951261,-35.797235],[137.951315,-35.796813],[137.951414,-35.796267],[137.951634,-35.794986],[137.951731,-35.794455],[137.951798,-35.794207],[137.95186,-35.794005],[137.951932,-35.793866],[137.952026,-35.793731],[137.952326,-35.7934],[137.953211,-35.792445],[137.954121,-35.791474],[137.954689,-35.790822],[137.95488,-35.790561],[137.955062,-35.790254],[137.956143,-35.788011],[137.956357,-35.787423],[137.956438,-35.786979],[137.956455,-35.786555],[137.956777,-35.78001],[137.956878,-35.776396]]}},{"type":"Feature","properties":{"tier":"arterial"},"geometry":{"type":"LineString","coordinates":[[137.756974,-35.791383],[137.756215,-35.792083],[137.755112,-35.792781],[137.753519,-35.794562],[137.751971,-35.795652],[137.751032,-35.796271],[137.749849,-35.797245],[137.749324,-35.798065],[137.748879,-35.798761],[137.748325,-35.799172],[137.747574,-35.799442],[137.746671,-35.799744],[137.746079,-35.80009],[137.745652,-35.800613],[137.745193,-35.801833],[137.745054,-35.802183],[137.744799,-35.802918],[137.744506,-35.803567],[137.744181,-35.804093],[137.743479,-35.804896],[137.742379,-35.805989],[137.741878,-35.806381],[137.741386,-35.806718],[137.740689,-35.807022],[137.739751,-35.807251],[137.738016,-35.807391],[137.737229,-35.807555],[137.736867,-35.807671],[137.73532,-35.808166],[137.734565,-35.808499],[137.733949,-35.808875],[137.705915,-35.828414]]}},{"type":"Feature","properties":{"tier":"arterial"},"geometry":{"type":"LineString","coordinates":[[137.770755,-35.781435],[137.769272,-35.783175],[137.768887,-35.783652],[137.768345,-35.784324],[137.767647,-35.785189],[137.766629,-35.786367],[137.766251,-35.786805],[137.766161,-35.786908],[137.76573,-35.787352]]}},{"type":"Feature","properties":{"tier":"arterial"},"geometry":{"type":"LineString","coordinates":[[137.522128,-35.696401],[137.521633,-35.696622]]}},{"type":"Feature","properties":{"tier":"arterial"},"geometry":{"type":"LineString","coordinates":[[137.521633,-35.696622],[137.520417,-35.697195],[137.519277,-35.698028],[137.519187,-35.698146],[137.518848,-35.698586]]}},{"type":"Feature","properties":{"tier":"arterial"},"geometry":{"type":"LineString","coordinates":[[137.572464,-35.684855],[137.572931,-35.681835],[137.573337,-35.679431]]}},{"type":"Feature","properties":{"tier":"arterial"},"geometry":{"type":"LineString","coordinates":[[137.572421,-35.685181],[137.572464,-35.684855]]}},{"type":"Feature","properties":{"tier":"arterial"},"geometry":{"type":"LineString","coordinates":[[137.875751,-35.777516],[137.875941,-35.777429]]}},{"type":"Feature","properties":{"tier":"arterial"},"geometry":{"type":"LineString","coordinates":[[137.875941,-35.777429],[137.876412,-35.777159],[137.878222,-35.77592],[137.878787,-35.775434],[137.879189,-35.775034],[137.879489,-35.774612],[137.879809,-35.77404],[137.88095,-35.771783],[137.881582,-35.769831],[137.881803,-35.769184],[137.882091,-35.76868],[137.882349,-35.768312],[137.88296,-35.767645],[137.883641,-35.767001],[137.884638,-35.766048],[137.885383,-35.765414],[137.886918,-35.764307],[137.887125,-35.76416],[137.888981,-35.762844],[137.889761,-35.762203],[137.890399,-35.761467],[137.891773,-35.759771],[137.892931,-35.758696],[137.89351,-35.758176],[137.89466,-35.756634],[137.895235,-35.75604],[137.895712,-35.755635],[137.896196,-35.755364],[137.896832,-35.755214],[137.898888,-35.754936],[137.899316,-35.754908],[137.899774,-35.754959],[137.900869,-35.755205],[137.901383,-35.755244],[137.901842,-35.755182],[137.903424,-35.754825],[137.907565,-35.753951],[137.908404,-35.753774],[137.908792,-35.753646],[137.909107,-35.753532],[137.909879,-35.753167],[137.910436,-35.752789],[137.910577,-35.752693],[137.911103,-35.752182],[137.911494,-35.751692],[137.911765,-35.75124],[137.911935,-35.750862],[137.912142,-35.750003],[137.912223,-35.749131],[137.912352,-35.744568],[137.912441,-35.744168],[137.913167,-35.742101],[137.913723,-35.740624],[137.91467,-35.737992],[137.915883,-35.734538]]}},{"type":"Feature","properties":{"tier":"regional"},"geometry":{"type":"LineString","coordinates":[[137.85728,-35.794173],[137.859493,-35.794772],[137.860211,-35.794963],[137.864986,-35.796234],[137.867544,-35.796885],[137.872668,-35.798282],[137.877755,-35.799639],[137.879062,-35.799988],[137.883662,-35.801172],[137.884083,-35.801281],[137.891036,-35.803126],[137.891201,-35.803169],[137.893825,-35.803851],[137.897816,-35.804866],[137.900348,-35.805557],[137.90185,-35.806009],[137.906184,-35.807478],[137.906279,-35.80751],[137.911764,-35.809356],[137.914648,-35.810371],[137.914756,-35.810409],[137.916313,-35.810957],[137.922899,-35.812998],[137.924939,-35.813631],[137.92877,-35.814975],[137.930518,-35.815684],[137.935496,-35.81736],[137.938184,-35.81821],[137.938291,-35.818244],[137.939173,-35.818526],[137.943564,-35.81993],[137.947835,-35.821414],[137.950452,-35.822324],[137.952011,-35.822812]]}},{"type":"Feature","properties":{"tier":"arterial"},"geometry":{"type":"LineString","coordinates":[[137.770755,-35.781435],[137.771151,-35.781121],[137.772138,-35.780363],[137.772595,-35.780116],[137.77289,-35.779976],[137.773326,-35.779648],[137.773807,-35.779124],[137.77421,-35.778742],[137.774421,-35.778533],[137.774599,-35.778304],[137.774884,-35.777773],[137.775043,-35.777553],[137.775192,-35.777393],[137.775797,-35.77693],[137.776413,-35.776353],[137.77689,-35.775929],[137.777438,-35.775442],[137.777794,-35.775126],[137.77837,-35.774709],[137.77885,-35.774497],[137.779762,-35.77423],[137.78029,-35.774041],[137.780577,-35.773938],[137.78083,-35.773756]]}},{"type":"Feature","properties":{"tier":"regional"},"geometry":{"type":"LineString","coordinates":[[137.506652,-35.595439],[137.506667,-35.595581],[137.506658,-35.595721],[137.506555,-35.596142]]}},{"type":"Feature","properties":{"tier":"arterial"},"geometry":{"type":"LineString","coordinates":[[137.915883,-35.734538],[137.918321,-35.72943],[137.918372,-35.72933],[137.919459,-35.727179]]}},{"type":"Feature","properties":{"tier":"regional"},"geometry":{"type":"LineString","coordinates":[[137.953268,-35.824408],[137.953391,-35.824567]]}},{"type":"Feature","properties":{"tier":"regional"},"geometry":{"type":"LineString","coordinates":[[137.950392,-35.816482],[137.950438,-35.816908],[137.950567,-35.817572],[137.950838,-35.818714],[137.951283,-35.820706],[137.951615,-35.821784],[137.95175,-35.822232],[137.952011,-35.822812],[137.952398,-35.823304],[137.953268,-35.824408]]}},{"type":"Feature","properties":{"tier":"arterial"},"geometry":{"type":"LineString","coordinates":[[137.524496,-35.695185],[137.523687,-35.695613],[137.522615,-35.696215],[137.522128,-35.696401]]}},{"type":"Feature","properties":{"tier":"arterial"},"geometry":{"type":"LineString","coordinates":[[137.517451,-35.700787],[137.51552,-35.703828],[137.51419,-35.705935],[137.513726,-35.70667],[137.513563,-35.706917],[137.51343,-35.707157],[137.513397,-35.707254],[137.513343,-35.707409],[137.513298,-35.707572],[137.513224,-35.707857],[137.513218,-35.707942]]}},{"type":"Feature","properties":{"tier":"arterial"},"geometry":{"type":"LineString","coordinates":[[137.920603,-35.724961],[137.920846,-35.724528],[137.921542,-35.723576],[137.921803,-35.72331],[137.922161,-35.723001],[137.922667,-35.722645],[137.923215,-35.722362],[137.924557,-35.721801],[137.925884,-35.721254],[137.926857,-35.720883],[137.927432,-35.720695],[137.927927,-35.720574],[137.929081,-35.720321]]}},{"type":"Feature","properties":{"tier":"arterial"},"geometry":{"type":"LineString","coordinates":[[137.601881,-35.661123],[137.602,-35.661081],[137.602416,-35.660942],[137.602833,-35.660802],[137.603972,-35.660393],[137.604335,-35.660283],[137.606722,-35.659477],[137.60878,-35.658778],[137.609244,-35.658623],[137.61047,-35.658212],[137.611259,-35.657944],[137.611651,-35.657811],[137.612873,-35.657405],[137.614724,-35.656771],[137.616835,-35.656052],[137.616913,-35.656025],[137.617498,-35.655826],[137.618294,-35.655555],[137.618897,-35.655349],[137.61916,-35.655261],[137.619227,-35.655239],[137.621099,-35.654615],[137.621363,-35.654527],[137.621543,-35.654466],[137.621907,-35.654344],[137.623052,-35.65396],[137.623196,-35.653912],[137.623519,-35.653804],[137.625109,-35.653272],[137.625988,-35.652979]]}},{"type":"Feature","properties":{"tier":"arterial"},"geometry":{"type":"LineString","coordinates":[[137.560477,-35.727254],[137.560451,-35.726974],[137.560373,-35.72636],[137.560239,-35.725216],[137.559558,-35.719392],[137.559515,-35.717911],[137.559922,-35.716988],[137.565039,-35.708588],[137.566653,-35.705883],[137.568191,-35.703307],[137.570138,-35.70008]]}},{"type":"Feature","properties":{"tier":"arterial"},"geometry":{"type":"LineString","coordinates":[[137.627284,-35.773341],[137.627174,-35.773263],[137.62681,-35.773005],[137.626411,-35.772706]]}},{"type":"Feature","properties":{"tier":"regional"},"geometry":{"type":"LineString","coordinates":[[137.626906,-35.773337],[137.613528,-35.775903],[137.612612,-35.776078],[137.608004,-35.776962],[137.607617,-35.777022],[137.600453,-35.778132],[137.595778,-35.778856],[137.589397,-35.779845],[137.583541,-35.780633],[137.583142,-35.780687],[137.581387,-35.780946],[137.579961,-35.781157],[137.570897,-35.782497],[137.561193,-35.783932],[137.56103,-35.783891]]}},{"type":"Feature","properties":{"tier":"arterial"},"geometry":{"type":"LineString","coordinates":[[137.626411,-35.772706],[137.600361,-35.754589],[137.595573,-35.751191],[137.59552,-35.751153],[137.591894,-35.748619],[137.591327,-35.748326],[137.590079,-35.747681],[137.589626,-35.747447],[137.585885,-35.744791],[137.582731,-35.742553],[137.582646,-35.742494],[137.580776,-35.74121],[137.578841,-35.739826],[137.569706,-35.73343],[137.568735,-35.73275],[137.567351,-35.73168],[137.566957,-35.731367],[137.566343,-35.73088],[137.562786,-35.728407],[137.561975,-35.727883],[137.561183,-35.727372],[137.5608,-35.727237],[137.560477,-35.727254]]}},{"type":"Feature","properties":{"tier":"arterial"},"geometry":{"type":"LineString","coordinates":[[137.874324,-35.778095],[137.874393,-35.778064],[137.875026,-35.777822],[137.875394,-35.777666],[137.875751,-35.777516]]}},{"type":"Feature","properties":{"tier":"arterial"},"geometry":{"type":"LineString","coordinates":[[137.929081,-35.720321],[137.929791,-35.720169],[137.930318,-35.720069],[137.930633,-35.720016],[137.931003,-35.719969],[137.93189,-35.719865],[137.932721,-35.71981],[137.933799,-35.719721],[137.934136,-35.719693],[137.934515,-35.719659],[137.934912,-35.719579],[137.935296,-35.719452],[137.93563,-35.719282],[137.936123,-35.718909],[137.936234,-35.718812],[137.936426,-35.718561],[137.936567,-35.718356],[137.936619,-35.718278],[137.936719,-35.718131]]}},{"type":"Feature","properties":{"tier":"arterial"},"geometry":{"type":"LineString","coordinates":[[137.931384,-35.723177],[137.93133,-35.722519],[137.931288,-35.722187],[137.931003,-35.719969]]}},{"type":"Feature","properties":{"tier":"arterial"},"geometry":{"type":"LineString","coordinates":[[137.931762,-35.72618],[137.931753,-35.726104],[137.931384,-35.723177]]}},{"type":"Feature","properties":{"tier":"arterial"},"geometry":{"type":"LineString","coordinates":[[138.00002,-35.737068],[137.989243,-35.736736],[137.981908,-35.736621],[137.980615,-35.736612],[137.979956,-35.736638],[137.979842,-35.736665],[137.979371,-35.736774],[137.978782,-35.736999],[137.978239,-35.737287],[137.973245,-35.741105],[137.973165,-35.741166],[137.972592,-35.741445],[137.972485,-35.741498],[137.972301,-35.741567],[137.971823,-35.741748],[137.971113,-35.741861],[137.968844,-35.742221],[137.968101,-35.742314],[137.96747,-35.742264],[137.958987,-35.741191],[137.95889,-35.741179],[137.95853,-35.741133],[137.947039,-35.739856],[137.946068,-35.739712],[137.945258,-35.739494],[137.944656,-35.739244],[137.944215,-35.73897],[137.943795,-35.738616],[137.943515,-35.738332],[137.942716,-35.737055],[137.942187,-35.736474],[137.941689,-35.736075],[137.941352,-35.735815],[137.94093,-35.735641],[137.940687,-35.73552],[137.940297,-35.735417],[137.939484,-35.735287],[137.938926,-35.735278],[137.937696,-35.73526],[137.937405,-35.735256],[137.9373,-35.735255],[137.936874,-35.73525],[137.936622,-35.735239],[137.935023,-35.735174],[137.933842,-35.735125],[137.933325,-35.734956],[137.933074,-35.734861],[137.932897,-35.734777],[137.932611,-35.734586],[137.932277,-35.734225],[137.932089,-35.733934],[137.932019,-35.733598],[137.931977,-35.733232],[137.932124,-35.729057],[137.931966,-35.727804],[137.931762,-35.72618]]}},{"type":"Feature","properties":{"tier":"regional"},"geometry":{"type":"LineString","coordinates":[[137.763921,-35.774801],[137.764218,-35.775465],[137.764664,-35.77646],[137.764807,-35.776686],[137.765145,-35.777217],[137.765628,-35.777943]]}},{"type":"Feature","properties":{"tier":"regional"},"geometry":{"type":"LineString","coordinates":[[137.600409,-35.661909],[137.600189,-35.661817],[137.600032,-35.661763],[137.599787,-35.661694],[137.598034,-35.661323],[137.595705,-35.660823],[137.594761,-35.660621],[137.594174,-35.660488],[137.591621,-35.659981],[137.589192,-35.659465],[137.586557,-35.658909],[137.583819,-35.658325],[137.577367,-35.656962],[137.574198,-35.656292],[137.573644,-35.656117],[137.573099,-35.655869],[137.572769,-35.655703]]}},{"type":"Feature","properties":{"tier":"arterial"},"geometry":{"type":"LineString","coordinates":[[137.599531,-35.662909],[137.59811,-35.664576],[137.597449,-35.665346],[137.596933,-35.665947],[137.595912,-35.667142],[137.595237,-35.667927],[137.594789,-35.668449],[137.593585,-35.669857],[137.592913,-35.670645],[137.592793,-35.67077],[137.592682,-35.670883],[137.592528,-35.671027],[137.592265,-35.671256],[137.591638,-35.671808],[137.591586,-35.671852],[137.591031,-35.672333],[137.590984,-35.672374],[137.589856,-35.673343],[137.589772,-35.673403]]}},{"type":"Feature","properties":{"tier":"arterial"},"geometry":{"type":"LineString","coordinates":[[137.872368,-35.779055],[137.874324,-35.778095]]}},{"type":"Feature","properties":{"tier":"arterial"},"geometry":{"type":"LineString","coordinates":[[137.513218,-35.707942],[137.51291,-35.707923],[137.512715,-35.70791],[137.512415,-35.707938],[137.512223,-35.707971],[137.512008,-35.708037],[137.511425,-35.708282],[137.502996,-35.711836],[137.500615,-35.712834],[137.500364,-35.712939],[137.49998,-35.713103]]}},{"type":"Feature","properties":{"tier":"regional"},"geometry":{"type":"LineString","coordinates":[[137.506555,-35.596142],[137.506403,-35.596768],[137.506302,-35.597184],[137.506197,-35.597533]]}},{"type":"Feature","properties":{"tier":"arterial"},"geometry":{"type":"LineString","coordinates":[[137.625988,-35.652979],[137.626682,-35.652749],[137.626954,-35.652659],[137.62719,-35.652595],[137.627418,-35.652538],[137.627672,-35.652497],[137.627843,-35.652477],[137.627859,-35.652476]]}},{"type":"Feature","properties":{"tier":"arterial"},"geometry":{"type":"LineString","coordinates":[[137.600409,-35.661909],[137.60024,-35.66209],[137.599873,-35.662514],[137.599531,-35.662909]]}},{"type":"Feature","properties":{"tier":"arterial"},"geometry":{"type":"LineString","coordinates":[[137.570138,-35.70008],[137.570293,-35.699715],[137.570446,-35.699122],[137.570667,-35.697536]]}},{"type":"Feature","properties":{"tier":"arterial"},"geometry":{"type":"LineString","coordinates":[[137.570667,-35.697536],[137.57115,-35.694065],[137.5716,-35.690889],[137.572185,-35.686732],[137.572421,-35.685181]]}},{"type":"Feature","properties":{"tier":"arterial"},"geometry":{"type":"LineString","coordinates":[[137.919459,-35.727179],[137.920603,-35.724961]]}},{"type":"Feature","properties":{"tier":"regional"},"geometry":{"type":"LineString","coordinates":[[137.572769,-35.655703],[137.572092,-35.655252],[137.571136,-35.654335],[137.570582,-35.653747],[137.570111,-35.653377],[137.569616,-35.653034],[137.569173,-35.652768],[137.568715,-35.652543],[137.56815,-35.652329],[137.567065,-35.65193],[137.566386,-35.651688],[137.565919,-35.65152],[137.565545,-35.651348],[137.565234,-35.651192],[137.564833,-35.650944],[137.564419,-35.65061],[137.564107,-35.650282],[137.563505,-35.649566],[137.563078,-35.649054],[137.561064,-35.646736],[137.560728,-35.646372],[137.560407,-35.646062],[137.559073,-35.644863],[137.558733,-35.644555],[137.558443,-35.644256],[137.558163,-35.643864],[137.557915,-35.643446],[137.557777,-35.643172],[137.557731,-35.64305]]}},{"type":"Feature","properties":{"tier":"regional"},"geometry":{"type":"LineString","coordinates":[[137.557731,-35.64305],[137.557702,-35.642972]]}},{"type":"Feature","properties":{"tier":"arterial"},"geometry":{"type":"LineString","coordinates":[[137.673293,-35.805722],[137.652522,-35.791197],[137.650617,-35.789866],[137.647085,-35.787396],[137.646264,-35.786822],[137.641807,-35.783705],[137.639028,-35.781761],[137.635962,-35.779616],[137.627284,-35.773341]]}},{"type":"Feature","properties":{"tier":"arterial"},"geometry":{"type":"LineString","coordinates":[[137.673384,-35.805785],[137.673293,-35.805722]]}},{"type":"Feature","properties":{"tier":"arterial"},"geometry":{"type":"LineString","coordinates":[[137.634325,-35.65298],[137.634603,-35.653003],[137.634887,-35.653027],[137.635237,-35.653056],[137.635342,-35.653065],[137.635588,-35.653086],[137.636917,-35.653197],[137.636952,-35.6532],[137.638026,-35.653292]]}},{"type":"Feature","properties":{"tier":"arterial"},"geometry":{"type":"LineString","coordinates":[[137.936719,-35.718131],[137.936861,-35.718151],[137.936974,-35.718163]]}},{"type":"Feature","properties":{"tier":"arterial"},"geometry":{"type":"LineString","coordinates":[[137.763238,-35.788641],[137.762832,-35.788734],[137.76198,-35.788884],[137.760131,-35.789195],[137.759613,-35.789297],[137.759032,-35.789411],[137.758173,-35.78986],[137.756974,-35.791383]]}},{"type":"Feature","properties":{"tier":"arterial"},"geometry":{"type":"LineString","coordinates":[[137.76573,-35.787352],[137.764917,-35.787866],[137.76408,-35.788327],[137.763642,-35.788529],[137.763238,-35.788641]]}},{"type":"Feature","properties":{"tier":"arterial"},"geometry":{"type":"LineString","coordinates":[[137.866483,-35.782307],[137.866623,-35.782229],[137.867222,-35.781904]]}},{"type":"Feature","properties":{"tier":"arterial"},"geometry":{"type":"LineString","coordinates":[[137.701749,-35.825576],[137.694909,-35.82082],[137.688668,-35.816473],[137.673384,-35.805785]]}},{"type":"Feature","properties":{"tier":"arterial"},"geometry":{"type":"LineString","coordinates":[[137.573337,-35.679431],[137.573567,-35.678108]]}},{"type":"Feature","properties":{"tier":"arterial"},"geometry":{"type":"LineString","coordinates":[[137.518848,-35.698586],[137.518271,-35.69948],[137.51794,-35.699994],[137.517451,-35.700787]]}},{"type":"Feature","properties":{"tier":"arterial"},"geometry":{"type":"LineString","coordinates":[[137.525797,-35.694503],[137.524496,-35.695185]]}}]}
