{"type":"FeatureCollection","features":[{"type":"Feature","properties":{"tier":"regional"},"geometry":{"type":"LineString","coordinates":[[137.700387,-26.50002],[137.700389,-26.500003],[137.700496,-26.499509],[137.700609,-26.499156],[137.700724,-26.498866],[137.701001,-26.498357],[137.701194,-26.497989],[137.701424,-26.497718],[137.701827,-26.497351],[137.70223,-26.49709],[137.702749,-26.496779],[137.703691,-26.496371],[137.7041,-26.49621],[137.704788,-26.495891],[137.705244,-26.49568],[137.705584,-26.495498],[137.705767,-26.495366],[137.705882,-26.495152],[137.705939,-26.494912],[137.705909,-26.494511],[137.705614,-26.492305],[137.705547,-26.492067],[137.705491,-26.49189],[137.705375,-26.491705],[137.705241,-26.491537],[137.705021,-26.491338],[137.704758,-26.491181],[137.704458,-26.490994],[137.704241,-26.490795],[137.703731,-26.490416],[137.703412,-26.490135],[137.703227,-26.489933],[137.703071,-26.48964],[137.7029,-26.489247],[137.70283,-26.48898],[137.702666,-26.488438],[137.702454,-26.487864],[137.702229,-26.487297],[137.702157,-26.486949],[137.702122,-26.48658],[137.70212,-26.48628],[137.7021,-26.485859],[137.702076,-26.485422],[137.70193,-26.48415],[137.701837,-26.483425],[137.701687,-26.482743],[137.70096,-26.47995],[137.700872,-26.479425],[137.700778,-26.478868],[137.700719,-26.478021],[137.700719,-26.47756],[137.700569,-26.47567],[137.700534,-26.475197],[137.700518,-26.474698],[137.700475,-26.474134],[137.700322,-26.47313],[137.70014,-26.472155],[137.700019,-26.471591],[137.699743,-26.470799],[137.69918,-26.46928],[137.698809,-26.46814],[137.698699,-26.467687],[137.698711,-26.467439],[137.698729,-26.467156],[137.698662,-26.466802],[137.698493,-26.466422],[137.698332,-26.466045],[137.698109,-26.465723],[137.697829,-26.465263],[137.69693,-26.46319],[137.696645,-26.462457],[137.69624,-26.4607],[137.695652,-26.456776],[137.69541,-26.45553],[137.695202,-26.454053],[137.695041,-26.453208],[137.694998,-26.45279],[137.695035,-26.452353],[137.695051,-26.452024],[137.69496,-26.451719],[137.694963,-26.451476],[137.695033,-26.451217],[137.695025,-26.4509],[137.69493,-26.44864],[137.69481,-26.4479],[137.693635,-26.443429],[137.693453,-26.442679],[137.693281,-26.44144],[137.692552,-26.438405],[137.69217,-26.43718],[137.68837,-26.42725],[137.687938,-26.426367],[137.687391,-26.425646],[137.68687,-26.42517],[137.686007,-26.424829],[137.685245,-26.424695],[137.68446,-26.42467],[137.676866,-26.424779],[137.676525,-26.424774],[137.676244,-26.424712],[137.675648,-26.424404],[137.674994,-26.424054],[137.674613,-26.423737],[137.674353,-26.423424],[137.674036,-26.423093],[137.67386,-26.42276],[137.6729,-26.42062],[137.67215,-26.41858],[137.67127,-26.41667],[137.670922,-26.415999],[137.670708,-26.415404],[137.670547,-26.415048],[137.67045,-26.414481],[137.6703,-26.4127],[137.670174,-26.412062],[137.670053,-26.41162],[137.669868,-26.41113],[137.669713,-26.410681],[137.669423,-26.409879],[137.66888,-26.40851],[137.667521,-26.405312],[137.667341,-26.405002],[137.667079,-26.404644],[137.66684,-26.404197],[137.666692,-26.403928],[137.666591,-26.403539],[137.666505,-26.40314],[137.666325,-26.402662],[137.666086,-26.402311],[137.665834,-26.402011],[137.665612,-26.40179],[137.665357,-26.4016],[137.664911,-26.401372],[137.66375,-26.400738],[137.66107,-26.39918],[137.660891,-26.399025],[137.660759,-26.398808],[137.66066,-26.398484],[137.66021,-26.39631],[137.65925,-26.39154],[137.659045,-26.390471],[137.658922,-26.389988],[137.658836,-26.389796],[137.658675,-26.389589],[137.658461,-26.389426],[137.65808,-26.389174],[137.657573,-26.38884],[137.65717,-26.3886],[137.657004,-26.388496],[137.656782,-26.3884],[137.656559,-26.388374],[137.656229,-26.388364],[137.655958,-26.388434],[137.655661,-26.388585],[137.6554,-26.38878],[137.65519,-26.38901],[137.654904,-26.389371],[137.654639,-26.389662],[137.654505,-26.389878],[137.654416,-26.390106],[137.654183,-26.39068],[137.65395,-26.39148],[137.6538,-26.39403],[137.65393,-26.39607],[137.65401,-26.39862],[137.654102,-26.399356],[137.654185,-26.399772],[137.654183,-26.400079],[137.654116,-26.400293],[137.653987,-26.400435],[137.65384,-26.40053],[137.65367,-26.400567],[137.653458,-26.400584],[137.653228,-26.400557],[137.652788,-26.400464],[137.65109,-26.40012],[137.64852,-26.399601],[137.64708,-26.399338],[137.64637,-26.39925],[137.646069,-26.39921],[137.645732,-26.399193],[137.645567,-26.399207],[137.645347,-26.399252],[137.645121,-26.399338],[137.644917,-26.399428],[137.644834,-26.399443],[137.644737,-26.399446],[137.64465,-26.39942],[137.64457,-26.399389],[137.644419,-26.399357],[137.644333,-26.399363],[137.6443,-26.399386],[137.644246,-26.399445],[137.644217,-26.399517],[137.644166,-26.399647],[137.644103,-26.399732],[137.643813,-26.400121],[137.64313,-26.40107],[137.642362,-26.402436],[137.64178,-26.40358],[137.639664,-26.409124],[137.639412,-26.409828],[137.639221,-26.41026],[137.638768,-26.411452],[137.638655,-26.411786],[137.638607,-26.412036],[137.638575,-26.412288],[137.638575,-26.412555],[137.638575,-26.413367],[137.63891,-26.41701],[137.638937,-26.41741],[137.638942,-26.417887],[137.638933,-26.418196],[137.638879,-26.418531],[137.638839,-26.418608],[137.638793,-26.418687],[137.63871,-26.418743],[137.638565,-26.418823],[137.638437,-26.418859],[137.63833,-26.41888],[137.638154,-26.418886],[137.637947,-26.418851],[137.637786,-26.418763],[137.637641,-26.418613],[137.63733,-26.418171],[137.636778,-26.41733],[137.63631,-26.41665],[137.63199,-26.409734],[137.631757,-26.40936],[137.63158,-26.409156],[137.631494,-26.409107],[137.631381,-26.409062],[137.631285,-26.409057],[137.63118,-26.409062],[137.630823,-26.40918],[137.630536,-26.409338],[137.630416,-26.409417],[137.630271,-26.409403],[137.63015,-26.409367],[137.630045,-26.409384],[137.63001,-26.409453],[137.629981,-26.409624],[137.629946,-26.40978],[137.62944,-26.41017],[137.628286,-26.411125],[137.628181,-26.411265],[137.628098,-26.411366],[137.62802,-26.41139],[137.627873,-26.411466],[137.62734,-26.41188],[137.62702,-26.412175],[137.626749,-26.412454],[137.626577,-26.412723],[137.626365,-26.413158],[137.62625,-26.41356],[137.626113,-26.414613],[137.626076,-26.415464],[137.6261,-26.41594],[137.628478,-26.424807],[137.628486,-26.424893],[137.628476,-26.425025],[137.628437,-26.425124],[137.628354,-26.425235],[137.628224,-26.425321],[137.628105,-26.42536],[137.628,-26.425376],[137.62755,-26.425381],[137.626914,-26.425383],[137.626324,-26.425383],[137.62575,-26.4254],[137.622858,-26.425435],[137.622359,-26.425447],[137.621135,-26.42546],[137.620945,-26.425482],[137.620757,-26.425537],[137.620604,-26.425597],[137.620499,-26.425612],[137.620379,-26.425608],[137.620273,-26.425575],[137.620166,-26.425521],[137.619999,-26.425478],[137.6179,-26.42549],[137.59449,-26.42579],[137.59213,-26.42577],[137.58923,-26.42587],[137.58679,-26.42587],[137.5667,-26.4262],[137.56061,-26.42622],[137.52703,-26.42663],[137.49998,-26.426835]]}},{"type":"Feature","properties":{"tier":"regional"},"geometry":{"type":"LineString","coordinates":[[137.49998,-26.043629],[137.500595,-26.043577],[137.500654,-26.04354],[137.500757,-26.043459],[137.500846,-26.043418],[137.500956,-26.043385],[137.501099,-26.043397],[137.501317,-26.043472],[137.501485,-26.043481],[137.501588,-26.04349],[137.502087,-26.043435],[137.50258,-26.043408],[137.502959,-26.043368],[137.505371,-26.043184],[137.507294,-26.043074],[137.51387,-26.042553],[137.51442,-26.042458],[137.515366,-26.04245],[137.51619,-26.042349],[137.519424,-26.042112],[137.520172,-26.042133],[137.520462,-26.04204],[137.520996,-26.042015],[137.521179,-26.041952],[137.521713,-26.041965],[137.523239,-26.041866],[137.52388,-26.041765],[137.524124,-26.041794],[137.526627,-26.041573],[137.527679,-26.041523],[137.527939,-26.041571],[137.528748,-26.041428],[137.530777,-26.041235],[137.532852,-26.041145],[137.533081,-26.041088],[137.533539,-26.041092],[137.536057,-26.040861],[137.540466,-26.040588],[137.540726,-26.040508],[137.542953,-26.040272],[137.546432,-26.040009],[137.54718,-26.040009],[137.547455,-26.039944],[137.548782,-26.039829],[137.549347,-26.039942],[137.549652,-26.039785],[137.550018,-26.039776],[137.550232,-26.039688],[137.550812,-26.039682],[137.55188,-26.039581],[137.552155,-26.03961],[137.552933,-26.039465],[137.556015,-26.039291],[137.556503,-26.039213],[137.557358,-26.039186],[137.557648,-26.039137],[137.558258,-26.039145],[137.560211,-26.039015],[137.562302,-26.038813],[137.563232,-26.038784],[137.567093,-26.038393],[137.568939,-26.03825],[137.569626,-26.038126],[137.570419,-26.038151],[137.573608,-26.037882],[137.573914,-26.03797],[137.574478,-26.037836],[137.575272,-26.037743],[137.578857,-26.037539],[137.57966,-26.037435],[137.58003,-26.037377],[137.580522,-26.037242],[137.580729,-26.037207],[137.580964,-26.03717],[137.581199,-26.037162],[137.581508,-26.037181],[137.581666,-26.03722],[137.581827,-26.037234],[137.582012,-26.037244],[137.582272,-26.037246],[137.582694,-26.037196],[137.582911,-26.037172],[137.58313,-26.03718],[137.584366,-26.037094],[137.584641,-26.03702],[137.585205,-26.037008],[137.592255,-26.036478],[137.596405,-26.036135],[137.596863,-26.036064],[137.600494,-26.035822],[137.600876,-26.035744],[137.601532,-26.03574],[137.601837,-26.035656],[137.602234,-26.035698],[137.604736,-26.035475],[137.623322,-26.034058],[137.624268,-26.033937],[137.624725,-26.033947],[137.627655,-26.033728],[137.62822,-26.033663],[137.628677,-26.033472],[137.62886,-26.033558],[137.629105,-26.033588],[137.631241,-26.033443],[137.639435,-26.032772],[137.646393,-26.032257],[137.647247,-26.032146],[137.647873,-26.032125],[137.64917,-26.03199],[137.649567,-26.032009],[137.650543,-26.031902],[137.654007,-26.03166],[137.654526,-26.031633],[137.654694,-26.031664],[137.655945,-26.031525],[137.658905,-26.031315],[137.661163,-26.031065],[137.663284,-26.030945],[137.664963,-26.030764],[137.667862,-26.030575],[137.668106,-26.030519],[137.668594,-26.030527],[137.670609,-26.030401],[137.672058,-26.030218],[137.67807,-26.029806],[137.679126,-26.029697],[137.68335,-26.029335],[137.686707,-26.029119],[137.68721,-26.029032],[137.688019,-26.02902],[137.690445,-26.028793],[137.69104,-26.028805],[137.691559,-26.028692],[137.692856,-26.02865],[137.693207,-26.028584],[137.695587,-26.028397],[137.695892,-26.028311],[137.69632,-26.028345],[137.697006,-26.028265],[137.698044,-26.028212],[137.698471,-26.02813],[137.699097,-26.028124],[137.701736,-26.027927],[137.702362,-26.027838],[137.704391,-26.027712],[137.704895,-26.027645],[137.705154,-26.027655],[137.708618,-26.027386],[137.7099,-26.0273],[137.710403,-26.027336],[137.710724,-26.02729],[137.710999,-26.027195],[137.71225,-26.027069],[137.713928,-26.026978],[137.714676,-26.026985],[137.715073,-26.026867],[137.717865,-26.026718],[137.719376,-26.026545],[137.720047,-26.026503],[137.720627,-26.026552],[137.721069,-26.026428],[137.7229,-26.026251],[137.727386,-26.025888],[137.727829,-26.025888],[137.728394,-26.025801],[137.729965,-26.025702],[137.730179,-26.025648],[137.732498,-26.025467],[137.734039,-26.025381],[137.734482,-26.025261],[137.735046,-26.025293],[137.735779,-26.025232],[137.735916,-26.025213],[137.736053,-26.02512],[137.736984,-26.025118],[137.737366,-26.025059],[137.737579,-26.025084],[137.738159,-26.025024],[137.738953,-26.025011],[137.741211,-26.024775],[137.746633,-26.024353],[137.751785,-26.023973],[137.755249,-26.023664],[137.758774,-26.023441],[137.759521,-26.023352],[137.759781,-26.023373],[137.760162,-26.023296],[137.764221,-26.023008],[137.765274,-26.022881],[137.765625,-26.022896],[137.766403,-26.022799],[137.768646,-26.022642],[137.769089,-26.022547],[137.770462,-26.022497],[137.771179,-26.022415],[137.771439,-26.022436],[137.772461,-26.022238],[137.773148,-26.022287],[137.773621,-26.022249],[137.775269,-26.021999],[137.776138,-26.022017],[137.776382,-26.021849],[137.776642,-26.021849],[137.776718,-26.021839],[137.776764,-26.021807],[137.77684,-26.021765],[137.777313,-26.02187],[137.777817,-26.021883],[137.778549,-26.021763],[137.778931,-26.02165],[137.779633,-26.021729],[137.780411,-26.021669],[137.780838,-26.021688],[137.782227,-26.021564],[137.783218,-26.021547],[137.783585,-26.021492],[137.78392,-26.021355],[137.784454,-26.021355],[137.785263,-26.02142],[137.78566,-26.021309],[137.787186,-26.021179],[137.787598,-26.02109],[137.787766,-26.021147],[137.788391,-26.021204],[137.789017,-26.021023],[137.794937,-26.020571],[137.795792,-26.020456],[137.796326,-26.020575],[137.796646,-26.020452],[137.797562,-26.020323],[137.798218,-26.020332],[137.800461,-26.020126],[137.801056,-26.020195],[137.801773,-26.019962],[137.802246,-26.019758],[137.802658,-26.019735],[137.803192,-26.0196],[137.803329,-26.019609],[137.803329,-26.019613],[137.803329,-26.019615],[137.804062,-26.019697],[137.804291,-26.019762],[137.804428,-26.019733],[137.804657,-26.019606],[137.805084,-26.019632],[137.805511,-26.019753],[137.805893,-26.019667],[137.806369,-26.019648],[137.80701,-26.019574],[137.80735,-26.019539],[137.80759,-26.019523],[137.808192,-26.019503],[137.808568,-26.019478],[137.808696,-26.019446],[137.808833,-26.019381],[137.808966,-26.019337],[137.809316,-26.019269],[137.809401,-26.019272],[137.809496,-26.019286],[137.809664,-26.01934],[137.809796,-26.019358],[137.809933,-26.01936],[137.810188,-26.019334],[137.810378,-26.019322],[137.810499,-26.019322],[137.810603,-26.019312],[137.811005,-26.019142],[137.811615,-26.019024],[137.813278,-26.019032],[137.813553,-26.018993],[137.813828,-26.018883],[137.814072,-26.019005],[137.814224,-26.01902],[137.815079,-26.018829],[137.815414,-26.01894],[137.816406,-26.018881],[137.816772,-26.018913],[137.818481,-26.018686],[137.818909,-26.018522],[137.819077,-26.018574],[137.819473,-26.018496],[137.819656,-26.018427],[137.81987,-26.01824],[137.819931,-26.018234],[137.82074,-26.018261],[137.821106,-26.018156],[137.821884,-26.018154],[137.822098,-26.018198],[137.822388,-26.018385],[137.822525,-26.018394],[137.82457,-26.018219],[137.826508,-26.018158],[137.828751,-26.017881],[137.830612,-26.017952],[137.830856,-26.01787],[137.831299,-26.017746],[137.83252,-26.017599],[137.83284,-26.017445],[137.833252,-26.017525],[137.833572,-26.017437],[137.834015,-26.017382],[137.834564,-26.017445],[137.835114,-26.017344],[137.836075,-26.017296],[137.838547,-26.017061],[137.839005,-26.01696],[137.840073,-26.017002],[137.840714,-26.016815],[137.840927,-26.016668],[137.841415,-26.016851],[137.842773,-26.016876],[137.845016,-26.016577],[137.84584,-26.016558],[137.846786,-26.01643],[137.847885,-26.016375],[137.848755,-26.016262],[137.849136,-26.016273],[137.849289,-26.016172],[137.84996,-26.016033],[137.850616,-26.015495],[137.850967,-26.015341],[137.85173,-26.01548],[137.851913,-26.01557],[137.852112,-26.015831],[137.852386,-26.016012],[137.852585,-26.016041],[137.853455,-26.015783],[137.854324,-26.01585],[137.855103,-26.015755],[137.855408,-26.015768],[137.856537,-26.015682],[137.856888,-26.015642],[137.857208,-26.015528],[137.857635,-26.015602],[137.858398,-26.015539],[137.85878,-26.015463],[137.85936,-26.015503],[137.860229,-26.015364],[137.861374,-26.01531],[137.862106,-26.015356],[137.862762,-26.015177],[137.863754,-26.015127],[137.868835,-26.014608],[137.8694,-26.014606],[137.870438,-26.014452],[137.871048,-26.014523],[137.872223,-26.014473],[137.873886,-26.014307],[137.874435,-26.014296],[137.87735,-26.014053],[137.878342,-26.014019],[137.878937,-26.01392],[137.879181,-26.013832],[137.879456,-26.013882],[137.879807,-26.013788],[137.880402,-26.013821],[137.885849,-26.013414],[137.886078,-26.013668],[137.886353,-26.013781],[137.88649,-26.013737],[137.886856,-26.013443],[137.887482,-26.013206],[137.887772,-26.01326],[137.888184,-26.01318],[137.890625,-26.013014],[137.891403,-26.012926],[137.891724,-26.012794],[137.892166,-26.012886],[137.893173,-26.01281],[137.893494,-26.012741],[137.894684,-26.012701],[137.895569,-26.012589],[137.895813,-26.012606],[137.898621,-26.012402],[137.899094,-26.012201],[137.899658,-26.01232],[137.900436,-26.012251],[137.900803,-26.012047],[137.901077,-26.011705],[137.901169,-26.011658],[137.901382,-26.011738],[137.901749,-26.012016],[137.90213,-26.012112],[137.903107,-26.012054],[137.903427,-26.012104],[137.903885,-26.011946],[137.904053,-26.011797],[137.904266,-26.011732],[137.904388,-26.01174],[137.904633,-26.011871],[137.90477,-26.011892],[137.90509,-26.011772],[137.905304,-26.011744],[137.905777,-26.011799],[137.906281,-26.011789],[137.908203,-26.011665],[137.90979,-26.011433],[137.911743,-26.011271],[137.912521,-26.011253],[137.912949,-26.011318],[137.913376,-26.011276],[137.91362,-26.011175],[137.91391,-26.011129],[137.914429,-26.011192],[137.914764,-26.01112],[137.915817,-26.011076],[137.916885,-26.010946],[137.923843,-26.01038],[137.924164,-26.010284],[137.9245,-26.010309],[137.925079,-26.010098],[137.925339,-26.010201],[137.925659,-26.010248],[137.927307,-26.010101],[137.927643,-26.010113],[137.928055,-26.009995],[137.928543,-26.010014],[137.928864,-26.009926],[137.929352,-26.009947],[137.930099,-26.009821],[137.930603,-26.009794],[137.930832,-26.009853],[137.936172,-26.009373],[137.937042,-26.009346],[137.937271,-26.00926],[137.937988,-26.009281],[137.939011,-26.009188],[137.939697,-26.008928],[137.939835,-26.008762],[137.940277,-26.008701],[137.940582,-26.008589],[137.94072,-26.008503],[137.94101,-26.00819],[137.941498,-26.008221],[137.941925,-26.007883],[137.942032,-26.007891],[137.942337,-26.007776],[137.942825,-26.007931],[137.943008,-26.007944],[137.943329,-26.007874],[137.94429,-26.008034],[137.944687,-26.008017],[137.945435,-26.008078],[137.945679,-26.008146],[137.946075,-26.008404],[137.946335,-26.008644],[137.946579,-26.008667],[137.94693,-26.00856],[137.947556,-26.008474],[137.94783,-26.008476],[137.948135,-26.008556],[137.948395,-26.008518],[137.948654,-26.008547],[137.949355,-26.008327],[137.94957,-26.008276],[137.950302,-26.008215],[137.950699,-26.008127],[137.951462,-26.008074],[137.952637,-26.007851],[137.954849,-26.007751],[137.955444,-26.007574],[137.955872,-26.007587],[137.956268,-26.007526],[137.956696,-26.007656],[137.956894,-26.007706],[137.957275,-26.007753],[137.958069,-26.007689],[137.958237,-26.00761],[137.95903,-26.007599],[137.959427,-26.007534],[137.959778,-26.007421],[137.960144,-26.0075],[137.961044,-26.007439],[137.961594,-26.007332],[137.961792,-26.007376],[137.963196,-26.007286],[137.965576,-26.007046],[137.965927,-26.007059],[137.966812,-26.006996],[137.96962,-26.006739],[137.973373,-26.00646],[137.97348,-26.006422],[137.973526,-26.006407],[137.976898,-26.006168],[137.977295,-26.006172],[137.977661,-26.006092],[137.978394,-26.006037],[137.978897,-26.005867],[137.979202,-26.005991],[137.980194,-26.005869],[137.980423,-26.005697],[137.98082,-26.005854],[137.981613,-26.005749],[137.982407,-26.005714],[137.982727,-26.005711],[137.983017,-26.005796],[137.983383,-26.005653],[137.985703,-26.00544],[137.986816,-26.005219],[137.98703,-26.005089],[137.98732,-26.005003],[137.987885,-26.004938],[137.988174,-26.004978],[137.988525,-26.004927],[137.988785,-26.004839],[137.989441,-26.005032],[137.989624,-26.004978],[137.989731,-26.004879],[137.989883,-26.004866],[137.990341,-26.005066],[137.991865,-26.004933]]}}]}
