{"type":"FeatureCollection","features":[{"type":"Feature","properties":{"tier":"regional"},"geometry":{"type":"LineString","coordinates":[[137.49998,-31.312587],[137.500082,-31.31285],[137.500194,-31.313134],[137.501026,-31.315528],[137.501254,-31.316438],[137.501307,-31.31672],[137.501428,-31.318171],[137.501482,-31.318425],[137.501696,-31.320913],[137.501517,-31.323301],[137.501425,-31.323812],[137.500961,-31.325285],[137.50072,-31.326332],[137.500479,-31.327714],[137.500181,-31.329013],[137.49998,-31.329846]]}},{"type":"Feature","properties":{"tier":"regional"},"geometry":{"type":"LineString","coordinates":[[137.49998,-31.338597],[137.500312,-31.33877],[137.501466,-31.339102],[137.503212,-31.339347],[137.503582,-31.339368],[137.503805,-31.339446],[137.503998,-31.339586],[137.504054,-31.339794],[137.503534,-31.341746],[137.503134,-31.342791],[137.503059,-31.343492],[137.503115,-31.343947],[137.503848,-31.345716],[137.504228,-31.346458],[137.504792,-31.347397],[137.50705,-31.351992],[137.507828,-31.353715],[137.507978,-31.354191],[137.507994,-31.35464],[137.507774,-31.356051],[137.507216,-31.35825],[137.507061,-31.359317],[137.506964,-31.363751],[137.506642,-31.367562],[137.505698,-31.373425],[137.505505,-31.375385],[137.505698,-31.378701],[137.50572,-31.379434],[137.506106,-31.380478],[137.506084,-31.382402],[137.505827,-31.384325],[137.506278,-31.385534],[137.506278,-31.388593],[137.505763,-31.389619],[137.505634,-31.391744],[137.505913,-31.393978],[137.50705,-31.39548],[137.507458,-31.396817],[137.507222,-31.399327],[137.504926,-31.401726],[137.503274,-31.405865],[137.502887,-31.407458],[137.502716,-31.409528],[137.502265,-31.409839],[137.501149,-31.412403],[137.501149,-31.413135],[137.501042,-31.413904],[137.500913,-31.415626],[137.50042,-31.417713],[137.500119,-31.420478],[137.49998,-31.422175]]}}]}
