{"type":"FeatureCollection","features":[{"type":"Feature","properties":{"tier":"regional"},"geometry":{"type":"LineString","coordinates":[[138.00002,-30.064062],[137.999546,-30.064151],[137.998914,-30.064281],[137.998549,-30.064262],[137.997746,-30.064388],[137.996222,-30.064368],[137.995759,-30.064276],[137.994243,-30.06448],[137.993227,-30.064394],[137.992022,-30.063633],[137.991066,-30.062715],[137.990581,-30.06236],[137.989156,-30.061829],[137.988732,-30.061521],[137.986935,-30.06114],[137.986305,-30.061284],[137.985987,-30.061232],[137.985608,-30.06114],[137.985017,-30.061206],[137.984433,-30.061035],[137.982917,-30.060057],[137.982386,-30.059847],[137.980976,-30.059401],[137.978527,-30.057741],[137.978247,-30.057643],[137.97717,-30.057734],[137.975639,-30.057656],[137.971886,-30.056816],[137.97156,-30.056645],[137.970711,-30.056612],[137.969282,-30.056213],[137.968516,-30.05596],[137.968288,-30.055869],[137.967993,-30.055806],[137.967615,-30.055839],[137.967282,-30.055934],[137.966928,-30.055985],[137.96511,-30.056175],[137.964859,-30.056171],[137.964632,-30.056106],[137.962899,-30.055581],[137.962127,-30.055563],[137.961837,-30.055412],[137.961698,-30.055342],[137.961373,-30.055226],[137.960837,-30.054868],[137.959292,-30.054251],[137.958755,-30.054107],[137.958133,-30.053944],[137.957911,-30.053696],[137.95757,-30.052979],[137.957629,-30.05224],[137.957621,-30.051813],[137.957648,-30.051593],[137.957578,-30.051349],[137.957385,-30.050929],[137.95716,-30.050104],[137.956975,-30.049779],[137.956733,-30.049547],[137.95639,-30.049287],[137.955604,-30.048821],[137.954319,-30.048082],[137.953993,-30.048],[137.953206,-30.047845],[137.951621,-30.047488],[137.951414,-30.047423],[137.951178,-30.047281],[137.951023,-30.047184],[137.950795,-30.047109],[137.94796,-30.046185],[137.945631,-30.045131],[137.944888,-30.044853],[137.942169,-30.043935],[137.941084,-30.043647],[137.938333,-30.0429],[137.937491,-30.042494],[137.935868,-30.041644],[137.93519,-30.041012],[137.934224,-30.040316],[137.933492,-30.039835],[137.932153,-30.038962],[137.928443,-30.036203],[137.92751,-30.035813],[137.925913,-30.035321],[137.924379,-30.034597],[137.917678,-30.030727],[137.913197,-30.028016],[137.912157,-30.027079],[137.910774,-30.026559],[137.906775,-30.024359],[137.903001,-30.022781],[137.9024,-30.022512],[137.900996,-30.022437],[137.892058,-30.022245],[137.885325,-30.021194],[137.874469,-30.019409],[137.87312,-30.019041],[137.871285,-30.019054],[137.868647,-30.018542],[137.864901,-30.0174],[137.861808,-30.017505],[137.856456,-30.016245],[137.855781,-30.015969],[137.853855,-30.015713],[137.853302,-30.015457],[137.851702,-30.015214],[137.850747,-30.01484],[137.848564,-30.014387],[137.847419,-30.014453],[137.846554,-30.014269],[137.845031,-30.014256],[137.84428,-30.014157],[137.842976,-30.014584],[137.842567,-30.014925],[137.842006,-30.015103],[137.841452,-30.015208],[137.840611,-30.015024],[137.83939,-30.015089],[137.838321,-30.015286],[137.83754,-30.015319],[137.836957,-30.015194],[137.836669,-30.015247],[137.835698,-30.015667],[137.834872,-30.015779],[137.833348,-30.015916],[137.832287,-30.016304],[137.831665,-30.016363],[137.830323,-30.016842],[137.82908,-30.017052],[137.825918,-30.01677],[137.825569,-30.016816],[137.82419,-30.017092],[137.823341,-30.017026],[137.822772,-30.016836],[137.822112,-30.016908],[137.821635,-30.017026],[137.820422,-30.017111],[137.819626,-30.016921],[137.818413,-30.016284],[137.81689,-30.015731],[137.816381,-30.015703],[137.815904,-30.015815],[137.815357,-30.01607],[137.814413,-30.017063],[137.813706,-30.017676],[137.813357,-30.018256],[137.813234,-30.018377],[137.812918,-30.018433],[137.812516,-30.018321],[137.812178,-30.01821],[137.811878,-30.018164],[137.81147,-30.01834],[137.810414,-30.019162],[137.810012,-30.019254],[137.809739,-30.019203],[137.809444,-30.019115],[137.80864,-30.019008],[137.80411,-30.017147],[137.803359,-30.016929],[137.80084,-30.015058],[137.799505,-30.014056],[137.796224,-30.012394],[137.79564,-30.012236],[137.793989,-30.012111],[137.793415,-30.012134],[137.792445,-30.011897],[137.790788,-30.011577],[137.789309,-30.010918],[137.788435,-30.010342],[137.787647,-30.009595],[137.787336,-30.009506],[137.786773,-30.009488],[137.78532,-30.009488],[137.784077,-30.009562],[137.780705,-30.009404],[137.780206,-30.009474],[137.779702,-30.009543],[137.778432,-30.009441],[137.777654,-30.009274],[137.776877,-30.009325],[137.776625,-30.009516],[137.776304,-30.010128],[137.776271,-30.010356],[137.776411,-30.011558],[137.776255,-30.011888],[137.775773,-30.012542],[137.775548,-30.012654],[137.774754,-30.012584],[137.774395,-30.012788],[137.774261,-30.012928],[137.772256,-30.014042],[137.770466,-30.01484],[137.765673,-30.017718],[137.7634,-30.019013],[137.762226,-30.019468],[137.75924,-30.021297],[137.756447,-30.022708],[137.751252,-30.024555],[137.750003,-30.024991],[137.7495,-30.025205],[137.748738,-30.025321],[137.746631,-30.025446],[137.746015,-30.025655],[137.74357,-30.026727],[137.742761,-30.027029],[137.737164,-30.028342],[137.735701,-30.028613],[137.731743,-30.02903],[137.729924,-30.029457],[137.727877,-30.03031],[137.725481,-30.030605],[137.724753,-30.030625],[137.720356,-30.031688],[137.719211,-30.032187],[137.718521,-30.032673],[137.718036,-30.032725],[137.7137,-30.034688],[137.712714,-30.035429],[137.712108,-30.035679],[137.71144,-30.035804],[137.709985,-30.036578],[137.709492,-30.037024],[137.708901,-30.037306],[137.708469,-30.037792],[137.707862,-30.038534],[137.706144,-30.040062],[137.70267,-30.043766],[137.701946,-30.044891],[137.701188,-30.044891],[137.700247,-30.044602],[137.698246,-30.044707],[137.696821,-30.04539],[137.695759,-30.045416],[137.692151,-30.044681],[137.690907,-30.045154],[137.685782,-30.04518],[137.683083,-30.045652],[137.679687,-30.045259],[137.675532,-30.045469],[137.665616,-30.046177],[137.655548,-30.047569],[137.646186,-30.04974],[137.642517,-30.048729],[137.63207,-30.045159],[137.628021,-30.045422],[137.622047,-30.044949],[137.615224,-30.045697],[137.611691,-30.046262],[137.60939,-30.046435],[137.606667,-30.04779],[137.60165,-30.049145],[137.599387,-30.049924],[137.596685,-30.049609],[137.593801,-30.052374],[137.592075,-30.052866],[137.589802,-30.053182],[137.587036,-30.0545],[137.581107,-30.057469],[137.573988,-30.058007],[137.567212,-30.060494],[137.564565,-30.062996],[137.563807,-30.063755],[137.56303,-30.064329],[137.5626,-30.064641],[137.562324,-30.06491],[137.562169,-30.065076]]}}]}
