{"type":"FeatureCollection","features":[{"type":"Feature","properties":{"tier":"regional"},"geometry":{"type":"LineString","coordinates":[[138.018867,-25.99998],[138.01852,-26.00058],[138.01845,-26.00091],[138.01854,-26.00209],[138.01836,-26.00222]]}},{"type":"Feature","properties":{"tier":"regional"},"geometry":{"type":"LineString","coordinates":[[138.202351,-26.50002],[138.202461,-26.498431],[138.20274,-26.497164],[138.202869,-26.495973],[138.201367,-26.492459],[138.200487,-26.490941],[138.198985,-26.488272],[138.198534,-26.487504],[138.198921,-26.485314],[138.198384,-26.484373],[138.19759,-26.483336],[138.197075,-26.481915],[138.196367,-26.48082],[138.195358,-26.479456],[138.195015,-26.479264],[138.19405,-26.479437],[138.192848,-26.479898],[138.19141,-26.480148],[138.190788,-26.48009],[138.190166,-26.479706],[138.189715,-26.47913],[138.189029,-26.477574],[138.188964,-26.476959],[138.188063,-26.474712],[138.187848,-26.473752],[138.187076,-26.470909],[138.185874,-26.466049],[138.185359,-26.464225],[138.185166,-26.460844],[138.185145,-26.45827],[138.186132,-26.454427],[138.186196,-26.451795],[138.186089,-26.44828],[138.185724,-26.445456],[138.185467,-26.44436],[138.185123,-26.442017],[138.184694,-26.439807],[138.184029,-26.437732],[138.183793,-26.436195],[138.183299,-26.432506],[138.182312,-26.428394],[138.181733,-26.427068],[138.181111,-26.4248],[138.180338,-26.42188],[138.179523,-26.41819],[138.179094,-26.416903],[138.178192,-26.415077],[138.177399,-26.412713],[138.176862,-26.411368],[138.175832,-26.40739],[138.175489,-26.406064],[138.175467,-26.405506],[138.175124,-26.404315],[138.174738,-26.402393],[138.174309,-26.400221],[138.173772,-26.39851],[138.173751,-26.397895],[138.172313,-26.3963],[138.171283,-26.394955],[138.17094,-26.393282],[138.170511,-26.39136],[138.169845,-26.388881],[138.169631,-26.387766],[138.16933,-26.385863],[138.16873,-26.384325],[138.168258,-26.38148],[138.167785,-26.380423],[138.166455,-26.378674],[138.166026,-26.378116],[138.164266,-26.37529],[138.163022,-26.373694],[138.162099,-26.37183],[138.160876,-26.37033],[138.15991,-26.368735],[138.159074,-26.367619],[138.158602,-26.366235],[138.158687,-26.365716],[138.158559,-26.365139],[138.158494,-26.364332],[138.158537,-26.363582],[138.15828,-26.362486],[138.158108,-26.36164],[138.158344,-26.36116],[138.159031,-26.360006],[138.159031,-26.359602],[138.158323,-26.358487],[138.15755,-26.35743],[138.157464,-26.356814],[138.156735,-26.355103],[138.155855,-26.353219],[138.153924,-26.350373],[138.153666,-26.349892],[138.152465,-26.348662],[138.151907,-26.348335],[138.151585,-26.347931],[138.15092,-26.346393],[138.150405,-26.344105],[138.149976,-26.342566],[138.149847,-26.340797],[138.149482,-26.33999],[138.148946,-26.33849],[138.148624,-26.337086],[138.148237,-26.335759],[138.147851,-26.334528],[138.147615,-26.333643],[138.147143,-26.332201],[138.146328,-26.329989],[138.145963,-26.328893],[138.145448,-26.327836],[138.144718,-26.32597],[138.143603,-26.323451],[138.142594,-26.322643],[138.141628,-26.321508],[138.140835,-26.320335],[138.139032,-26.317142],[138.13753,-26.316084],[138.137187,-26.315469],[138.136479,-26.313719],[138.13635,-26.312084],[138.1362,-26.31143],[138.135685,-26.309891],[138.135492,-26.308852],[138.134891,-26.30589],[138.134998,-26.304986],[138.135127,-26.304236],[138.134998,-26.303428],[138.13311,-26.297503],[138.132359,-26.295791],[138.131458,-26.294098],[138.130835,-26.292213],[138.13017,-26.291174],[138.128668,-26.288461],[138.128024,-26.287595],[138.12723,-26.286768],[138.126265,-26.284979],[138.125578,-26.284036],[138.125235,-26.282613],[138.123432,-26.279207],[138.123196,-26.277456],[138.123154,-26.276841],[138.122359,-26.275186],[138.121802,-26.274243],[138.12163,-26.273223],[138.121265,-26.272127],[138.120578,-26.270876],[138.119613,-26.269741],[138.119119,-26.26824],[138.118669,-26.2667],[138.118368,-26.265912],[138.11781,-26.264257],[138.117467,-26.261832],[138.116695,-26.259658],[138.115836,-26.257118],[138.114592,-26.253788],[138.113691,-26.251825],[138.113497,-26.250594],[138.113455,-26.249401],[138.113412,-26.248227],[138.112789,-26.245686],[138.112146,-26.244204],[138.111824,-26.243434],[138.110257,-26.241106],[138.109335,-26.239412],[138.108498,-26.238007],[138.10573,-26.23383],[138.104056,-26.231944],[138.102425,-26.229173],[138.101352,-26.227363],[138.099099,-26.222551],[138.09852,-26.221396],[138.098155,-26.220472],[138.097447,-26.218739],[138.096267,-26.216776],[138.095344,-26.215043],[138.094679,-26.213946],[138.093671,-26.212637],[138.093199,-26.211809],[138.092426,-26.209653],[138.092297,-26.208498],[138.091503,-26.207285],[138.090495,-26.205475],[138.089572,-26.202607],[138.088821,-26.201875],[138.087426,-26.200836],[138.086933,-26.199661],[138.086203,-26.197254],[138.085753,-26.195637],[138.085903,-26.19479],[138.084058,-26.189264],[138.083478,-26.185009],[138.082942,-26.183988],[138.082362,-26.182833],[138.080989,-26.181793],[138.080431,-26.180869],[138.078908,-26.18031],[138.077878,-26.179521],[138.076333,-26.176863],[138.076011,-26.17488],[138.075689,-26.173686],[138.075582,-26.172665],[138.075153,-26.169391],[138.074702,-26.167042],[138.074294,-26.164538],[138.074251,-26.162747],[138.073071,-26.158664],[138.072277,-26.154369],[138.071977,-26.151653],[138.071762,-26.150305],[138.071634,-26.149149],[138.070775,-26.148109],[138.070582,-26.146742],[138.070132,-26.145933],[138.070175,-26.144623],[138.069574,-26.1426],[138.069102,-26.140539],[138.068758,-26.138844],[138.067685,-26.134914],[138.067535,-26.134221],[138.066977,-26.133238],[138.066527,-26.132005],[138.065068,-26.129385],[138.064939,-26.125571],[138.06363,-26.122122],[138.063201,-26.118789],[138.062986,-26.117826],[138.061677,-26.11378],[138.060991,-26.111718],[138.059682,-26.107845],[138.059553,-26.106882],[138.058695,-26.105186],[138.056892,-26.102836],[138.056742,-26.102373],[138.056721,-26.100947],[138.056506,-26.099752],[138.055712,-26.09798],[138.054961,-26.09638],[138.054768,-26.094877],[138.054961,-26.093682],[138.054446,-26.092198],[138.053652,-26.09083],[138.053287,-26.089539],[138.05245,-26.088248],[138.052064,-26.086803],[138.05112,-26.085299]]}},{"type":"Feature","properties":{"tier":"regional"},"geometry":{"type":"LineString","coordinates":[[138.05112,-26.085299],[138.050863,-26.084644],[138.053588,-26.083333],[138.054768,-26.082929],[138.05554,-26.082293],[138.055068,-26.081657],[138.054467,-26.08104],[138.05436,-26.079961],[138.05288,-26.076376],[138.050798,-26.073909],[138.05009,-26.071442],[138.049918,-26.070594],[138.049961,-26.069187],[138.049554,-26.068628],[138.046979,-26.067298],[138.046721,-26.066989],[138.046206,-26.066103],[138.045498,-26.065679],[138.044533,-26.063983],[138.044189,-26.062517],[138.043674,-26.060976],[138.042837,-26.060378],[138.040327,-26.059086],[138.03846,-26.056214],[138.038224,-26.054036],[138.037795,-26.050527],[138.037688,-26.049409],[138.036894,-26.04752],[138.035778,-26.046768],[138.034962,-26.045264],[138.034834,-26.044455],[138.034297,-26.04378],[138.033611,-26.041274],[138.032709,-26.039731],[138.031808,-26.037803],[138.029834,-26.033755],[138.029147,-26.031499],[138.029126,-26.030901],[138.028375,-26.02878],[138.027624,-26.02743],[138.027323,-26.026254],[138.027517,-26.025309],[138.026959,-26.023516],[138.025972,-26.020875],[138.025006,-26.01966],[138.024019,-26.017693],[138.022753,-26.012563],[138.022066,-26.011156],[138.021294,-26.008109],[138.020414,-26.006026],[138.01977,-26.004348],[138.019019,-26.0035],[138.018376,-26.002535],[138.01836,-26.00222]]}}]}
