{"type":"FeatureCollection","features":[{"type":"Feature","properties":{"tier":"arterial"},"geometry":{"type":"LineString","coordinates":[[138.127427,-32.50002],[138.127458,-32.499664],[138.12755,-32.49737],[138.127571,-32.492625],[138.127584,-32.489701],[138.127593,-32.487531],[138.1276,-32.486051],[138.127634,-32.48362],[138.127628,-32.481836],[138.127697,-32.480928],[138.127851,-32.479311],[138.128796,-32.471007],[138.128765,-32.469536],[138.128642,-32.467705],[138.127956,-32.459483],[138.127362,-32.452432],[138.127049,-32.447365],[138.127023,-32.446946],[138.126348,-32.439681],[138.126275,-32.43895],[138.126238,-32.438667],[138.126187,-32.438411],[138.12597,-32.437388],[138.125731,-32.43672],[138.124666,-32.435054],[138.124019,-32.434305],[138.123127,-32.43352],[138.122001,-32.432651],[138.12153,-32.432331],[138.121333,-32.432163],[138.119347,-32.429804],[138.11815,-32.426479],[138.114468,-32.414774],[138.114161,-32.413795],[138.114143,-32.413737],[138.11235,-32.408039],[138.111181,-32.404228],[138.110026,-32.401664],[138.106334,-32.389977],[138.105931,-32.389235],[138.105618,-32.388781],[138.105307,-32.388452],[138.105152,-32.388288],[138.104553,-32.387796],[138.103803,-32.3873],[138.101414,-32.386048],[138.100655,-32.385575],[138.100023,-32.385047],[138.099365,-32.384355],[138.096767,-32.381331],[138.094993,-32.379805],[138.09437,-32.379178],[138.092628,-32.37657],[138.087886,-32.369132],[138.087361,-32.368487],[138.086698,-32.367863],[138.085624,-32.367147],[138.083829,-32.366203],[138.083759,-32.366167],[138.077565,-32.362952],[138.072364,-32.360062],[138.072121,-32.359927],[138.069297,-32.358358],[138.066153,-32.356731],[138.066117,-32.356713],[138.065911,-32.356607],[138.062941,-32.355086],[138.060173,-32.353732],[138.059681,-32.353611],[138.059643,-32.353602],[138.058437,-32.353505],[138.055583,-32.353669],[138.054174,-32.353459],[138.051908,-32.352708],[138.051117,-32.352607],[138.049946,-32.35251],[138.049421,-32.352463],[138.049137,-32.352427]]}},{"type":"Feature","properties":{"tier":"arterial"},"geometry":{"type":"LineString","coordinates":[[138.139173,-32.232482],[138.138482,-32.232631],[138.137769,-32.232805],[138.137122,-32.233069],[138.137029,-32.233107],[138.136284,-32.233568],[138.135459,-32.234584],[138.132865,-32.238629],[138.132419,-32.239211],[138.124946,-32.245047],[138.123942,-32.24589],[138.123388,-32.246672],[138.11973,-32.255837],[138.118604,-32.259209],[138.117517,-32.261419],[138.116326,-32.263594],[138.115474,-32.265047],[138.114328,-32.266717],[138.113341,-32.268068],[138.112026,-32.269708],[138.111658,-32.270188],[138.111604,-32.270261],[138.111504,-32.270396],[138.10189,-32.282789],[138.100509,-32.284571],[138.100162,-32.285166],[138.09801,-32.289309],[138.092749,-32.299403],[138.092408,-32.299969],[138.091969,-32.300583],[138.081679,-32.313734],[138.07785,-32.31859],[138.077693,-32.318763],[138.072207,-32.324822],[138.071864,-32.3252],[138.070621,-32.326573],[138.069865,-32.327474],[138.066705,-32.331351],[138.066347,-32.331899],[138.066073,-32.332476],[138.065231,-32.334877],[138.064909,-32.335439],[138.064525,-32.335927],[138.06408,-32.336365],[138.063551,-32.336751],[138.062965,-32.337075],[138.062841,-32.337122],[138.062325,-32.337319],[138.062215,-32.337351],[138.061672,-32.337508],[138.061151,-32.337601],[138.060231,-32.337765],[138.056077,-32.338436],[138.05542,-32.338616],[138.055095,-32.338709]]}},{"type":"Feature","properties":{"tier":"arterial"},"geometry":{"type":"LineString","coordinates":[[138.036378,-32.346414],[138.036744,-32.346854]]}},{"type":"Feature","properties":{"tier":"arterial"},"geometry":{"type":"LineString","coordinates":[[138.045663,-32.343218],[138.045056,-32.343527],[138.044417,-32.34384],[138.043955,-32.344074],[138.042851,-32.344631],[138.04197,-32.345065]]}},{"type":"Feature","properties":{"tier":"arterial"},"geometry":{"type":"LineString","coordinates":[[138.045663,-32.343218],[138.045896,-32.343109],[138.046121,-32.343045],[138.046363,-32.343019],[138.047244,-32.342943],[138.0476,-32.342893],[138.047824,-32.342817],[138.048026,-32.342718],[138.048227,-32.342561],[138.048314,-32.342483],[138.048331,-32.342467],[138.048671,-32.342049],[138.049182,-32.341437],[138.049403,-32.341203],[138.04962,-32.341]]}},{"type":"Feature","properties":{"tier":"arterial"},"geometry":{"type":"LineString","coordinates":[[138.03703,-32.347226],[138.037138,-32.347276],[138.037183,-32.347293],[138.03724,-32.347311],[138.03732,-32.34732],[138.037403,-32.34732],[138.037519,-32.347301]]}},{"type":"Feature","properties":{"tier":"arterial"},"geometry":{"type":"LineString","coordinates":[[138.044196,-32.350918],[138.044002,-32.350691],[138.043642,-32.35017],[138.042867,-32.349071],[138.042112,-32.347957],[138.041305,-32.346812],[138.041233,-32.346702]]}},{"type":"Feature","properties":{"tier":"arterial"},"geometry":{"type":"LineString","coordinates":[[138.139672,-32.232386],[138.141013,-32.232021],[138.141455,-32.231827],[138.142761,-32.230974],[138.143244,-32.23042],[138.143661,-32.229771],[138.143811,-32.229499],[138.147372,-32.223024],[138.14803,-32.221828],[138.149524,-32.219137],[138.150839,-32.216794]]}},{"type":"Feature","properties":{"tier":"arterial"},"geometry":{"type":"LineString","coordinates":[[138.139173,-32.232482],[138.139672,-32.232386]]}},{"type":"Feature","properties":{"tier":"arterial"},"geometry":{"type":"LineString","coordinates":[[138.039851,-32.346127],[138.039444,-32.346342],[138.039282,-32.346424],[138.038321,-32.34691],[138.037887,-32.347122],[138.037775,-32.347176]]}},{"type":"Feature","properties":{"tier":"arterial"},"geometry":{"type":"LineString","coordinates":[[138.420147,-32.014498],[138.419067,-32.01259],[138.417423,-32.009684],[138.416299,-32.007668]]}},{"type":"Feature","properties":{"tier":"arterial"},"geometry":{"type":"LineString","coordinates":[[138.416299,-32.007668],[138.415336,-32.005982],[138.414751,-32.004941],[138.411962,-31.99998]]}},{"type":"Feature","properties":{"tier":"arterial"},"geometry":{"type":"LineString","coordinates":[[138.439724,-32.029289],[138.43863,-32.028741],[138.437476,-32.028215],[138.436785,-32.027888],[138.43615,-32.027554],[138.435585,-32.027234],[138.434812,-32.0267],[138.432212,-32.024837],[138.431532,-32.024359],[138.43116,-32.024077],[138.430795,-32.023749],[138.430443,-32.023398],[138.430179,-32.023117],[138.429766,-32.022648],[138.429393,-32.022249],[138.429097,-32.02194],[138.428878,-32.021721],[138.428663,-32.021512],[138.428516,-32.021378],[138.428297,-32.021179],[138.428122,-32.021037],[138.427813,-32.0208],[138.42758,-32.020626],[138.4273,-32.02043],[138.427028,-32.020262],[138.426294,-32.019824],[138.425477,-32.01937],[138.424722,-32.018953],[138.423626,-32.018312],[138.423205,-32.018039],[138.422888,-32.017799],[138.422596,-32.017572],[138.42249,-32.017483],[138.422338,-32.017354],[138.422081,-32.017111],[138.421851,-32.016889],[138.421328,-32.016316],[138.420974,-32.015865],[138.420553,-32.015199],[138.420147,-32.014498]]}},{"type":"Feature","properties":{"tier":"arterial"},"geometry":{"type":"LineString","coordinates":[[138.26443,-32.115946],[138.264603,-32.115803],[138.265336,-32.1152],[138.266083,-32.114586],[138.266447,-32.114336],[138.266901,-32.114056],[138.271054,-32.111916],[138.273038,-32.110871]]}},{"type":"Feature","properties":{"tier":"arterial"},"geometry":{"type":"LineString","coordinates":[[138.273038,-32.110871],[138.274052,-32.110374],[138.274784,-32.110098],[138.275494,-32.109928],[138.276221,-32.109789],[138.276926,-32.10974],[138.277641,-32.109759],[138.279544,-32.109881],[138.280318,-32.109902],[138.281011,-32.109889],[138.281778,-32.109798],[138.282725,-32.109558],[138.283481,-32.109257],[138.287228,-32.107556],[138.291249,-32.105719],[138.292083,-32.105254],[138.292752,-32.104738],[138.293714,-32.103546],[138.294855,-32.102099],[138.29521,-32.10149],[138.295477,-32.100861],[138.2956,-32.099992],[138.295688,-32.099375]]}},{"type":"Feature","properties":{"tier":"arterial"},"geometry":{"type":"LineString","coordinates":[[138.50002,-32.378045],[138.499956,-32.377748],[138.499734,-32.376565],[138.499588,-32.375593],[138.49953,-32.375033],[138.499455,-32.374278],[138.499475,-32.373336],[138.499459,-32.372655],[138.499358,-32.372056],[138.499186,-32.3713],[138.498918,-32.370509],[138.498337,-32.369142],[138.497515,-32.367057],[138.496855,-32.365374],[138.496221,-32.363366],[138.495921,-32.362499],[138.49566,-32.361853],[138.495354,-32.361211],[138.495041,-32.360684],[138.494595,-32.359875],[138.494143,-32.358966],[138.493831,-32.358361],[138.493398,-32.35774],[138.493068,-32.357334],[138.491371,-32.355418],[138.490916,-32.354877],[138.490574,-32.354363],[138.48995,-32.3533],[138.485284,-32.345018],[138.484501,-32.343566],[138.484123,-32.34287],[138.483822,-32.342353],[138.483586,-32.341939],[138.483268,-32.341505],[138.482971,-32.341163],[138.482942,-32.341137],[138.482407,-32.340661],[138.48194,-32.340305],[138.481447,-32.339947],[138.475925,-32.336213],[138.475328,-32.335733],[138.474918,-32.335339],[138.474584,-32.334984],[138.474322,-32.334564],[138.474078,-32.334106],[138.473941,-32.333667],[138.473804,-32.333167],[138.473776,-32.332714],[138.473828,-32.331889],[138.473892,-32.331276],[138.474053,-32.330549],[138.474205,-32.330106],[138.474361,-32.329791],[138.474458,-32.329633],[138.474483,-32.329593],[138.474627,-32.329359],[138.475018,-32.328903],[138.475513,-32.328473],[138.476198,-32.328055],[138.476794,-32.327675],[138.477534,-32.327114],[138.479073,-32.325861],[138.47957,-32.325432],[138.479921,-32.32506],[138.480231,-32.324662],[138.480345,-32.324466],[138.480477,-32.32424],[138.480814,-32.323379],[138.481249,-32.32228],[138.481531,-32.321686],[138.483455,-32.31765],[138.483777,-32.316987],[138.483978,-32.316491],[138.484164,-32.315908],[138.484286,-32.315527],[138.484412,-32.315133],[138.484649,-32.31463],[138.484816,-32.314256],[138.48495,-32.313847],[138.485049,-32.313507],[138.485107,-32.313153],[138.48516,-32.312418],[138.48519,-32.31212],[138.485248,-32.311827],[138.485564,-32.310676],[138.48562,-32.310447],[138.485671,-32.310196],[138.485708,-32.309936],[138.485726,-32.309663],[138.485712,-32.309388],[138.485679,-32.309106],[138.485592,-32.308708],[138.485093,-32.306584],[138.485,-32.306027],[138.484976,-32.30564],[138.485021,-32.305285],[138.485077,-32.304925],[138.485161,-32.3046],[138.485306,-32.30425],[138.485498,-32.303939],[138.48567,-32.303676],[138.489833,-32.296711],[138.4901,-32.296172],[138.490311,-32.295558],[138.490568,-32.2946],[138.491314,-32.291851],[138.491697,-32.290075],[138.491749,-32.28987],[138.491983,-32.288945],[138.492074,-32.288544],[138.492141,-32.288329],[138.492206,-32.288136],[138.492296,-32.287932],[138.492413,-32.287681],[138.494295,-32.284315],[138.494548,-32.283841],[138.494797,-32.283351],[138.494953,-32.282994],[138.495051,-32.282601],[138.495099,-32.282186],[138.495093,-32.28182],[138.495077,-32.281609],[138.495031,-32.281374],[138.494966,-32.281097],[138.494939,-32.280814],[138.494968,-32.280399],[138.495126,-32.279293],[138.495465,-32.277362],[138.495652,-32.27621],[138.495742,-32.275798],[138.495836,-32.275405],[138.495978,-32.274916],[138.496091,-32.274559],[138.496419,-32.273476],[138.496579,-32.272986],[138.496795,-32.272412],[138.497047,-32.271836],[138.497336,-32.271291],[138.49771,-32.270623],[138.498138,-32.269908],[138.498938,-32.268841],[138.499171,-32.268546],[138.50002,-32.267471]]}},{"type":"Feature","properties":{"tier":"arterial"},"geometry":{"type":"LineString","coordinates":[[138.50002,-32.075396],[138.499694,-32.07515],[138.499303,-32.074901],[138.498762,-32.074589],[138.498196,-32.074259],[138.497434,-32.073854]]}},{"type":"Feature","properties":{"tier":"regional"},"geometry":{"type":"LineString","coordinates":[[138.402361,-32.484648],[138.403491,-32.482411],[138.406266,-32.477478],[138.409032,-32.472878],[138.409461,-32.472245],[138.409713,-32.471954],[138.410086,-32.471646],[138.410706,-32.471345],[138.411158,-32.471064],[138.412334,-32.470378],[138.413667,-32.469602],[138.415426,-32.468606],[138.416499,-32.4679],[138.41725,-32.467375],[138.418954,-32.466118],[138.421781,-32.46408],[138.424267,-32.462251],[138.425061,-32.461944],[138.429738,-32.461038],[138.430489,-32.460875],[138.430933,-32.460619],[138.431369,-32.460278],[138.433644,-32.458703],[138.433901,-32.458558],[138.43433,-32.458196],[138.434824,-32.457797],[138.435232,-32.457426],[138.435532,-32.457073],[138.435832,-32.456784],[138.436283,-32.456494],[138.43979,-32.455078],[138.440281,-32.45488],[138.440731,-32.454699],[138.441587,-32.454356],[138.442337,-32.453968],[138.44287,-32.453615],[138.447033,-32.45012],[138.447656,-32.449559],[138.448214,-32.449197],[138.448814,-32.448962],[138.449394,-32.44878],[138.453728,-32.447748],[138.454629,-32.447477],[138.455316,-32.447205],[138.455852,-32.446951],[138.456296,-32.446677],[138.456754,-32.446354],[138.457228,-32.44591],[138.457655,-32.445467],[138.459372,-32.44371],[138.460072,-32.442965],[138.460852,-32.442135],[138.46289,-32.440505],[138.463663,-32.439835],[138.464929,-32.438676],[138.465916,-32.437897],[138.466796,-32.437227],[138.467311,-32.436847],[138.467676,-32.436376],[138.468534,-32.435181],[138.468696,-32.434911],[138.469006,-32.434547],[138.469102,-32.434453],[138.470272,-32.433315],[138.470916,-32.432881],[138.471581,-32.432518],[138.472868,-32.431903],[138.474299,-32.431266],[138.475014,-32.430888],[138.475551,-32.430526],[138.476044,-32.430164],[138.47643,-32.429784],[138.478962,-32.427139],[138.479238,-32.426876],[138.479456,-32.426668],[138.479756,-32.426451],[138.4801,-32.426216],[138.480593,-32.426053],[138.481001,-32.425998],[138.481473,-32.426089],[138.482903,-32.426593],[138.483704,-32.427012],[138.486387,-32.428932],[138.488018,-32.430092],[138.488704,-32.430653],[138.489197,-32.431241],[138.490152,-32.432419],[138.490689,-32.433071],[138.490968,-32.433342],[138.49115,-32.433496],[138.49144,-32.433596],[138.491816,-32.433668],[138.49218,-32.433696],[138.492502,-32.433662],[138.493103,-32.433569],[138.493492,-32.433467],[138.493921,-32.433349],[138.494487,-32.433134],[138.494863,-32.432953],[138.495892,-32.432518],[138.496292,-32.432344],[138.496611,-32.432256],[138.496893,-32.432172],[138.497161,-32.432154],[138.499347,-32.4325],[138.50002,-32.432603]]}},{"type":"Feature","properties":{"tier":"arterial"},"geometry":{"type":"LineString","coordinates":[[138.491138,-32.065377],[138.490893,-32.06497],[138.490587,-32.064552],[138.490192,-32.06403],[138.489935,-32.063724],[138.489625,-32.063398],[138.489208,-32.063007],[138.488841,-32.062697],[138.488291,-32.062286],[138.487048,-32.061594],[138.485788,-32.060915],[138.484567,-32.06017],[138.483077,-32.05915],[138.481302,-32.057923],[138.478829,-32.056229],[138.474684,-32.05336],[138.471833,-32.051419],[138.468278,-32.048934],[138.467586,-32.048457],[138.46754,-32.048425],[138.462846,-32.045192],[138.462307,-32.044822],[138.458733,-32.042372],[138.450518,-32.036686],[138.441419,-32.030411],[138.440855,-32.030019],[138.440637,-32.029866],[138.440314,-32.029649],[138.440006,-32.029452],[138.439724,-32.029289]]}},{"type":"Feature","properties":{"tier":"arterial"},"geometry":{"type":"LineString","coordinates":[[138.492656,-32.069078],[138.49254,-32.068896],[138.49239,-32.06861],[138.49221,-32.068224],[138.492159,-32.068077],[138.491976,-32.067541],[138.491701,-32.06677]]}},{"type":"Feature","properties":{"tier":"regional"},"geometry":{"type":"LineString","coordinates":[[138.111658,-32.270188],[138.11184,-32.270207],[138.121627,-32.270215],[138.121874,-32.270112],[138.121941,-32.270041],[138.130659,-32.262038],[138.130885,-32.261882],[138.142964,-32.255047],[138.143398,-32.254892],[138.154942,-32.25172],[138.15718,-32.250932],[138.158135,-32.250511],[138.1595,-32.24982],[138.1598,-32.24961],[138.161332,-32.248424],[138.161645,-32.248279],[138.16481,-32.247507],[138.165004,-32.247421],[138.167212,-32.245996],[138.179585,-32.238018],[138.179665,-32.237995],[138.179794,-32.237963],[138.179924,-32.237937],[138.180066,-32.237927],[138.180164,-32.237926],[138.180242,-32.237947],[138.184028,-32.239033],[138.184224,-32.239064],[138.184512,-32.23908],[138.228997,-32.238675],[138.234144,-32.238635],[138.235501,-32.238745],[138.240688,-32.239419],[138.242658,-32.239783],[138.269919,-32.244525],[138.269961,-32.244532],[138.277363,-32.245815],[138.283508,-32.248351],[138.283837,-32.248459],[138.2922,-32.250768],[138.296723,-32.252923],[138.300566,-32.254242],[138.307733,-32.25852],[138.311594,-32.259708],[138.313381,-32.260102],[138.321638,-32.261688]]}},{"type":"Feature","properties":{"tier":"arterial"},"geometry":{"type":"LineString","coordinates":[[138.150839,-32.216794],[138.151106,-32.216309],[138.151259,-32.216021]]}},{"type":"Feature","properties":{"tier":"arterial"},"geometry":{"type":"LineString","coordinates":[[138.151259,-32.216021],[138.153796,-32.211475],[138.157348,-32.204887],[138.157681,-32.204268],[138.157943,-32.203844],[138.158298,-32.203366],[138.158618,-32.203004],[138.1591,-32.202543],[138.169072,-32.194349],[138.171138,-32.192651],[138.180145,-32.185248],[138.185385,-32.180941],[138.195754,-32.172418],[138.203064,-32.166409],[138.207408,-32.162837],[138.218516,-32.153704],[138.220339,-32.152206],[138.224551,-32.148742],[138.233222,-32.141612],[138.239574,-32.136389],[138.245614,-32.131421],[138.253749,-32.12473],[138.257847,-32.12136],[138.260051,-32.119548],[138.261014,-32.118755],[138.262137,-32.117832],[138.26443,-32.115946]]}},{"type":"Feature","properties":{"tier":"arterial"},"geometry":{"type":"LineString","coordinates":[[138.036378,-32.346414],[138.03629,-32.346382],[138.036191,-32.346369],[138.036113,-32.346373],[138.03596,-32.34639]]}},{"type":"Feature","properties":{"tier":"regional"},"geometry":{"type":"LineString","coordinates":[[138.359972,-32.50002],[138.360792,-32.499765],[138.364357,-32.498656],[138.365513,-32.498456],[138.366445,-32.498389],[138.36745,-32.498415],[138.369565,-32.498725],[138.370131,-32.498628],[138.371735,-32.498353],[138.371892,-32.498334],[138.376492,-32.497783],[138.377657,-32.497303],[138.379196,-32.496082],[138.38079,-32.494661],[138.382249,-32.493901],[138.383702,-32.493422],[138.384645,-32.493066],[138.392099,-32.489835],[138.393156,-32.489367],[138.394493,-32.488848],[138.396071,-32.488273],[138.40111,-32.485547],[138.401715,-32.485242],[138.402051,-32.485022],[138.402361,-32.484648]]}},{"type":"Feature","properties":{"tier":"arterial"},"geometry":{"type":"LineString","coordinates":[[138.295679,-32.097832],[138.295693,-32.097071],[138.295708,-32.096224],[138.295747,-32.09554],[138.295808,-32.095142],[138.295849,-32.094877],[138.296006,-32.094385],[138.296265,-32.093811],[138.296664,-32.092981],[138.296919,-32.09245],[138.297128,-32.092058],[138.298374,-32.089726],[138.298621,-32.089101],[138.298835,-32.088368],[138.299328,-32.086145],[138.299374,-32.085726],[138.299388,-32.085377],[138.299385,-32.085118],[138.299352,-32.082758],[138.299367,-32.082116],[138.299461,-32.081625],[138.299617,-32.081105],[138.299902,-32.080535],[138.300254,-32.079995],[138.301425,-32.078662],[138.304321,-32.075285],[138.304677,-32.074729],[138.304946,-32.074132],[138.305107,-32.073515],[138.305156,-32.073104],[138.305162,-32.073029],[138.305963,-32.066017],[138.306117,-32.065412],[138.306367,-32.064857],[138.306734,-32.0643],[138.307463,-32.063355],[138.307604,-32.063157]]}},{"type":"Feature","properties":{"tier":"arterial"},"geometry":{"type":"LineString","coordinates":[[138.295688,-32.099375],[138.295679,-32.097832]]}},{"type":"Feature","properties":{"tier":"arterial"},"geometry":{"type":"LineString","coordinates":[[138.037235,-32.347454],[138.03703,-32.347226]]}},{"type":"Feature","properties":{"tier":"arterial"},"geometry":{"type":"LineString","coordinates":[[138.03596,-32.34639],[138.036175,-32.346282],[138.036311,-32.346214]]}},{"type":"Feature","properties":{"tier":"arterial"},"geometry":{"type":"LineString","coordinates":[[138.036311,-32.346214],[138.036332,-32.346308],[138.036378,-32.346414]]}},{"type":"Feature","properties":{"tier":"arterial"},"geometry":{"type":"LineString","coordinates":[[138.037519,-32.347301],[138.037235,-32.347454]]}},{"type":"Feature","properties":{"tier":"arterial"},"geometry":{"type":"LineString","coordinates":[[138.050012,-32.340733],[138.050478,-32.340387],[138.050955,-32.340112]]}},{"type":"Feature","properties":{"tier":"arterial"},"geometry":{"type":"LineString","coordinates":[[138.307604,-32.063157],[138.30763,-32.063121]]}},{"type":"Feature","properties":{"tier":"arterial"},"geometry":{"type":"LineString","coordinates":[[138.30763,-32.063121],[138.307794,-32.062891],[138.308195,-32.062169],[138.309041,-32.059644],[138.309192,-32.059092],[138.309277,-32.058435],[138.309261,-32.05784],[138.309118,-32.057223],[138.308527,-32.054132],[138.308448,-32.053925],[138.308501,-32.052726],[138.308725,-32.049476],[138.308808,-32.048992],[138.308926,-32.048512],[138.309178,-32.04794],[138.309526,-32.047393],[138.309941,-32.046911],[138.310457,-32.04646],[138.313623,-32.043848],[138.314132,-32.043421],[138.314759,-32.042854],[138.315522,-32.041869],[138.316255,-32.040833],[138.317331,-32.03954],[138.318529,-32.038218],[138.319533,-32.036879],[138.320012,-32.03624],[138.32037,-32.035689],[138.320645,-32.035063],[138.321228,-32.032721],[138.321481,-32.032002],[138.32185,-32.031391],[138.322352,-32.030786],[138.324462,-32.028905],[138.324489,-32.028877],[138.325066,-32.028257],[138.325468,-32.027794],[138.325846,-32.027419],[138.326225,-32.02712],[138.326849,-32.026668],[138.328989,-32.025135],[138.329641,-32.024618],[138.330314,-32.023923],[138.333118,-32.020858],[138.334597,-32.019205],[138.334924,-32.01884],[138.338136,-32.015332],[138.338729,-32.014716],[138.341835,-32.011813],[138.3423,-32.011346],[138.342761,-32.010709],[138.343427,-32.009712],[138.343842,-32.009206],[138.344338,-32.00867],[138.346294,-32.006606],[138.346756,-32.006064],[138.347243,-32.005396],[138.350499,-32.00081],[138.351088,-31.99998]]}},{"type":"Feature","properties":{"tier":"arterial"},"geometry":{"type":"LineString","coordinates":[[138.036959,-32.34715],[138.036989,-32.347183],[138.03703,-32.347226]]}},{"type":"Feature","properties":{"tier":"arterial"},"geometry":{"type":"LineString","coordinates":[[138.04197,-32.345065],[138.041749,-32.345183]]}},{"type":"Feature","properties":{"tier":"arterial"},"geometry":{"type":"LineString","coordinates":[[138.036744,-32.346854],[138.036771,-32.346888],[138.036959,-32.34715]]}},{"type":"Feature","properties":{"tier":"arterial"},"geometry":{"type":"LineString","coordinates":[[138.035663,-32.346537],[138.03596,-32.34639]]}},{"type":"Feature","properties":{"tier":"arterial"},"geometry":{"type":"LineString","coordinates":[[138.037775,-32.347176],[138.037519,-32.347301]]}},{"type":"Feature","properties":{"tier":"arterial"},"geometry":{"type":"LineString","coordinates":[[138.040303,-32.3459],[138.039851,-32.346127]]}},{"type":"Feature","properties":{"tier":"arterial"},"geometry":{"type":"LineString","coordinates":[[138.040596,-32.345749],[138.040303,-32.3459]]}},{"type":"Feature","properties":{"tier":"arterial"},"geometry":{"type":"LineString","coordinates":[[138.041184,-32.345459],[138.040596,-32.345749]]}},{"type":"Feature","properties":{"tier":"arterial"},"geometry":{"type":"LineString","coordinates":[[138.041749,-32.345183],[138.041184,-32.345459]]}},{"type":"Feature","properties":{"tier":"arterial"},"geometry":{"type":"LineString","coordinates":[[138.04085,-32.346127],[138.040596,-32.345749]]}},{"type":"Feature","properties":{"tier":"arterial"},"geometry":{"type":"LineString","coordinates":[[138.041233,-32.346702],[138.04085,-32.346127]]}},{"type":"Feature","properties":{"tier":"arterial"},"geometry":{"type":"LineString","coordinates":[[138.029502,-32.349819],[138.030218,-32.349457],[138.034305,-32.347269],[138.034428,-32.347203]]}},{"type":"Feature","properties":{"tier":"arterial"},"geometry":{"type":"LineString","coordinates":[[137.99998,-32.362871],[138.000326,-32.362446],[138.000811,-32.361875],[138.001346,-32.36139],[138.003811,-32.359363],[138.004564,-32.358894],[138.005467,-32.358479],[138.006378,-32.358127],[138.008497,-32.357307],[138.013097,-32.355516],[138.015572,-32.354596],[138.017718,-32.353949],[138.023916,-32.352081],[138.026675,-32.351249],[138.029502,-32.349819]]}},{"type":"Feature","properties":{"tier":"arterial"},"geometry":{"type":"LineString","coordinates":[[138.034428,-32.347203],[138.034572,-32.347126],[138.035105,-32.346829],[138.035663,-32.346537]]}},{"type":"Feature","properties":{"tier":"arterial"},"geometry":{"type":"LineString","coordinates":[[138.497434,-32.073854],[138.496802,-32.073499],[138.496371,-32.073215],[138.495963,-32.072897],[138.495616,-32.072575],[138.495594,-32.072551],[138.495126,-32.07205],[138.494757,-32.071602],[138.493822,-32.07047],[138.492883,-32.069349],[138.492656,-32.069078]]}},{"type":"Feature","properties":{"tier":"arterial"},"geometry":{"type":"LineString","coordinates":[[138.049137,-32.352427],[138.048362,-32.352316],[138.047799,-32.35221],[138.0463,-32.351866],[138.045778,-32.351744],[138.045547,-32.351689],[138.045322,-32.351621],[138.045006,-32.351492],[138.04467,-32.351307],[138.044391,-32.351103],[138.044196,-32.350918]]}},{"type":"Feature","properties":{"tier":"arterial"},"geometry":{"type":"LineString","coordinates":[[138.491701,-32.06677],[138.491511,-32.066204],[138.491317,-32.065753],[138.491138,-32.065377]]}},{"type":"Feature","properties":{"tier":"arterial"},"geometry":{"type":"LineString","coordinates":[[138.04962,-32.341],[138.050012,-32.340733]]}},{"type":"Feature","properties":{"tier":"arterial"},"geometry":{"type":"LineString","coordinates":[[138.055095,-32.338709],[138.054405,-32.338938],[138.053967,-32.339084],[138.053588,-32.33921],[138.051516,-32.339899],[138.050955,-32.340112]]}}]}
