{"type":"FeatureCollection","features":[{"type":"Feature","properties":{"tier":"arterial"},"geometry":{"type":"LineString","coordinates":[[138.465468,-28.99998],[138.464524,-29.003469],[138.462392,-29.010407],[138.461601,-29.012516],[138.46148,-29.01274],[138.460838,-29.013937],[138.459664,-29.016122],[138.459563,-29.016319],[138.458898,-29.017538],[138.45878,-29.017753],[138.456282,-29.022321],[138.45497,-29.02472],[138.45027,-29.032474],[138.449831,-29.033215],[138.448212,-29.03718],[138.441121,-29.054546],[138.436788,-29.065208],[138.43379,-29.072771],[138.43257,-29.075848],[138.431852,-29.077685],[138.425825,-29.093119],[138.418723,-29.1113],[138.4152,-29.12031],[138.413347,-29.124972],[138.411868,-29.129689],[138.409037,-29.139117],[138.40902,-29.139172],[138.408879,-29.13964],[138.407837,-29.142994],[138.407393,-29.144587],[138.40712,-29.146195],[138.405476,-29.164611],[138.405482,-29.16727],[138.405697,-29.17331],[138.406025,-29.182496],[138.406227,-29.188134],[138.406185,-29.188916],[138.405983,-29.189673],[138.400184,-29.208619],[138.394426,-29.227536],[138.393757,-29.22962],[138.393646,-29.230381],[138.393531,-29.231959],[138.393039,-29.238104],[138.392809,-29.24119],[138.392672,-29.243876],[138.392654,-29.24424],[138.392488,-29.245251],[138.391906,-29.246224],[138.389362,-29.250501],[138.385762,-29.256703],[138.376326,-29.272126],[138.376025,-29.272581],[138.375574,-29.273206],[138.374189,-29.274862],[138.372771,-29.276113],[138.37248,-29.276336],[138.372321,-29.276459],[138.371215,-29.277307],[138.362664,-29.283791],[138.36178,-29.284598],[138.360141,-29.286454],[138.359503,-29.287425],[138.359055,-29.288395],[138.35844,-29.289534],[138.358042,-29.290817],[138.357534,-29.299984],[138.356633,-29.307266],[138.356294,-29.308684],[138.355785,-29.309961],[138.35513,-29.311217],[138.351646,-29.317571],[138.348463,-29.322948],[138.347517,-29.324074],[138.346477,-29.325082],[138.321755,-29.339262],[138.32103,-29.339751],[138.320387,-29.340241],[138.315088,-29.345239],[138.306834,-29.353338],[138.297743,-29.362608],[138.293183,-29.367217],[138.288686,-29.371833],[138.284529,-29.376371],[138.280246,-29.381309],[138.274996,-29.386977],[138.270645,-29.391706],[138.262317,-29.401231],[138.261118,-29.402665],[138.26052,-29.403529],[138.260073,-29.40445],[138.256404,-29.411575],[138.254561,-29.415154],[138.253622,-29.416963],[138.252741,-29.418752],[138.249754,-29.424519],[138.249205,-29.425676],[138.248821,-29.426651],[138.246378,-29.433806],[138.246332,-29.433938],[138.246203,-29.434308],[138.246132,-29.43452],[138.245849,-29.435368],[138.243677,-29.44187],[138.243334,-29.442761],[138.242654,-29.444443],[138.241634,-29.446527],[138.23287,-29.461536],[138.226802,-29.472154],[138.222943,-29.478046],[138.211187,-29.493108],[138.205642,-29.50002]]}}]}
