{"type":"FeatureCollection","features":[{"type":"Feature","properties":{"tier":"arterial"},"geometry":{"type":"LineString","coordinates":[[138.50002,-33.966088],[138.497647,-33.956206]]}},{"type":"Feature","properties":{"tier":"arterial"},"geometry":{"type":"LineString","coordinates":[[138.162719,-33.933848],[138.163272,-33.933816]]}},{"type":"Feature","properties":{"tier":"arterial"},"geometry":{"type":"LineString","coordinates":[[138.006203,-33.864612],[138.005639,-33.863688],[138.005642,-33.863608]]}},{"type":"Feature","properties":{"tier":"arterial"},"geometry":{"type":"LineString","coordinates":[[138.118507,-33.82689],[138.118994,-33.827503],[138.11941,-33.828024],[138.120193,-33.828641],[138.121002,-33.828957],[138.121724,-33.829076],[138.1224,-33.829002],[138.123323,-33.828846],[138.124559,-33.828473],[138.12564,-33.828147],[138.126128,-33.828015],[138.128841,-33.827277],[138.130962,-33.827021],[138.132618,-33.827007],[138.136283,-33.827919],[138.138454,-33.828062],[138.141433,-33.82819],[138.143364,-33.828097],[138.145003,-33.827648],[138.150497,-33.825837],[138.152013,-33.825206],[138.154161,-33.824554],[138.15585,-33.824055],[138.156466,-33.823904],[138.156972,-33.823819],[138.157569,-33.823784],[138.158761,-33.823727],[138.159228,-33.823692],[138.15962,-33.823615],[138.159832,-33.823551],[138.159998,-33.823484],[138.160221,-33.823397],[138.160475,-33.823267],[138.160793,-33.823051],[138.161053,-33.822831],[138.161508,-33.822343],[138.16309,-33.820557],[138.16332,-33.820347],[138.163524,-33.820175],[138.163751,-33.820026],[138.163973,-33.819924],[138.164187,-33.819848],[138.164467,-33.819785],[138.164736,-33.819755],[138.164987,-33.81976],[138.165191,-33.819772],[138.165436,-33.819812],[138.165648,-33.81987],[138.165974,-33.819999],[138.166274,-33.820166],[138.166552,-33.820364],[138.167081,-33.82073],[138.167422,-33.820924],[138.167796,-33.821103],[138.16816,-33.821238],[138.16879,-33.821418],[138.169143,-33.821475],[138.169471,-33.821517],[138.169882,-33.821547],[138.170289,-33.821545],[138.171121,-33.821427],[138.17198,-33.821193],[138.17264,-33.820882],[138.173038,-33.820639],[138.173362,-33.820432],[138.173963,-33.819933],[138.176349,-33.817772],[138.178477,-33.815869],[138.179353,-33.815113],[138.179464,-33.815029],[138.198222,-33.800902],[138.203556,-33.796938],[138.203941,-33.796689],[138.204357,-33.796449],[138.204744,-33.796257],[138.205114,-33.796097],[138.205457,-33.795976],[138.205811,-33.795869],[138.207228,-33.795504],[138.2088,-33.795095],[138.209531,-33.794904],[138.209722,-33.794852],[138.210048,-33.794764]]}},{"type":"Feature","properties":{"tier":"arterial"},"geometry":{"type":"LineString","coordinates":[[138.403277,-33.70468],[138.387195,-33.709822],[138.357268,-33.718736],[138.354685,-33.719729],[138.353078,-33.720445],[138.329011,-33.733532],[138.2987,-33.7499],[138.297516,-33.750583],[138.292872,-33.753139],[138.279351,-33.760416],[138.276353,-33.762044],[138.27478,-33.763001],[138.274244,-33.763503],[138.27349,-33.764384],[138.273071,-33.765121],[138.272741,-33.765962],[138.27213,-33.767909],[138.271944,-33.768393],[138.271718,-33.768883],[138.27138,-33.769468],[138.270962,-33.770065],[138.270418,-33.770631],[138.269848,-33.771164],[138.269282,-33.771577],[138.268738,-33.771919],[138.268153,-33.772226],[138.267643,-33.772452],[138.267121,-33.772656],[138.266499,-33.772858],[138.263976,-33.773389],[138.260016,-33.774155],[138.258815,-33.77437],[138.250369,-33.776018],[138.247967,-33.776605],[138.245677,-33.777474],[138.242394,-33.779033],[138.235572,-33.782417],[138.232941,-33.783624],[138.232431,-33.78386],[138.232004,-33.784017],[138.231616,-33.784144],[138.231436,-33.784203],[138.230867,-33.784346],[138.230364,-33.784441],[138.229755,-33.784522],[138.229014,-33.784532],[138.228297,-33.784503],[138.22768,-33.784437],[138.227018,-33.784314],[138.226414,-33.784156],[138.225823,-33.783954],[138.22433,-33.783379],[138.222534,-33.782663],[138.221809,-33.782213],[138.221516,-33.781893],[138.220928,-33.781197],[138.220641,-33.780928],[138.220416,-33.780759],[138.219968,-33.780477],[138.219586,-33.780319]]}},{"type":"Feature","properties":{"tier":"arterial"},"geometry":{"type":"LineString","coordinates":[[138.215618,-33.537723],[138.215514,-33.537763],[138.21534,-33.537828],[138.215259,-33.537855]]}},{"type":"Feature","properties":{"tier":"regional"},"geometry":{"type":"LineString","coordinates":[[138.440156,-33.85615],[138.439702,-33.85565],[138.436762,-33.85263],[138.435048,-33.850894],[138.432878,-33.848897],[138.426237,-33.842881],[138.425792,-33.842462],[138.425701,-33.842379],[138.421534,-33.838582],[138.41724,-33.834667],[138.412603,-33.830434],[138.405475,-33.823951],[138.402968,-33.821663],[138.40042,-33.819337],[138.393662,-33.813165],[138.393223,-33.812781],[138.383543,-33.803928],[138.376083,-33.797175],[138.370033,-33.791643],[138.369756,-33.791393],[138.369509,-33.79121],[138.369321,-33.791094],[138.368955,-33.79089],[138.368582,-33.790757],[138.368256,-33.79065],[138.367962,-33.790583],[138.363482,-33.789764],[138.363171,-33.789692],[138.362916,-33.789618],[138.36262,-33.789517],[138.362285,-33.789377],[138.351999,-33.785001],[138.347274,-33.783009],[138.346775,-33.782797],[138.346148,-33.782481],[138.34552,-33.782162],[138.345004,-33.781876],[138.344593,-33.781646],[138.343961,-33.781352],[138.343512,-33.78116],[138.342399,-33.780751],[138.339395,-33.779673],[138.337981,-33.779187],[138.337498,-33.779046],[138.337023,-33.778927],[138.336313,-33.778789],[138.333734,-33.778311],[138.331167,-33.777843],[138.329032,-33.777461],[138.327954,-33.777256],[138.327109,-33.77714],[138.326792,-33.777103],[138.326303,-33.777066],[138.318093,-33.776636],[138.301635,-33.775762],[138.299377,-33.775639],[138.298111,-33.775536],[138.297525,-33.77546],[138.296857,-33.77536],[138.295308,-33.775089],[138.274128,-33.771404],[138.273641,-33.771312],[138.273253,-33.771206],[138.272882,-33.771091],[138.272448,-33.770916],[138.272162,-33.77078],[138.270962,-33.770065]]}},{"type":"Feature","properties":{"tier":"arterial"},"geometry":{"type":"LineString","coordinates":[[138.009597,-33.864433],[138.009209,-33.8646]]}},{"type":"Feature","properties":{"tier":"arterial"},"geometry":{"type":"LineString","coordinates":[[138.489079,-33.847801],[138.48886,-33.846816],[138.48859,-33.845746],[138.48835,-33.844794],[138.488042,-33.843576]]}},{"type":"Feature","properties":{"tier":"arterial"},"geometry":{"type":"LineString","coordinates":[[138.485001,-33.848452],[138.485602,-33.848333],[138.486005,-33.848264],[138.486644,-33.848172],[138.486947,-33.848119],[138.487624,-33.848025],[138.488441,-33.847901],[138.489079,-33.847801],[138.489329,-33.847754],[138.489952,-33.847643],[138.490819,-33.847516],[138.491294,-33.847447],[138.492353,-33.847317],[138.492538,-33.847297],[138.493534,-33.847162]]}},{"type":"Feature","properties":{"tier":"arterial"},"geometry":{"type":"LineString","coordinates":[[137.99998,-33.977605],[137.999985,-33.977604],[138.001261,-33.977154],[138.002983,-33.976558],[138.004695,-33.975944],[138.00595,-33.975508],[138.006894,-33.975183],[138.008852,-33.974498],[138.010826,-33.973791],[138.012634,-33.973159],[138.014217,-33.972617],[138.016368,-33.971851],[138.017698,-33.971371],[138.019173,-33.970859],[138.020749,-33.970245]]}},{"type":"Feature","properties":{"tier":"arterial"},"geometry":{"type":"LineString","coordinates":[[138.403277,-33.70468],[138.403525,-33.704601],[138.404248,-33.70428],[138.404737,-33.704049],[138.404877,-33.703976]]}},{"type":"Feature","properties":{"tier":"arterial"},"geometry":{"type":"LineString","coordinates":[[138.405264,-33.692099],[138.405416,-33.692199],[138.405417,-33.692489],[138.405417,-33.692506],[138.405428,-33.694275]]}},{"type":"Feature","properties":{"tier":"arterial"},"geometry":{"type":"LineString","coordinates":[[138.40333,-33.692126],[138.404068,-33.692116],[138.405264,-33.692099]]}},{"type":"Feature","properties":{"tier":"arterial"},"geometry":{"type":"LineString","coordinates":[[138.488042,-33.843576],[138.487865,-33.843075],[138.487699,-33.842691],[138.487252,-33.841883],[138.487004,-33.841329],[138.486801,-33.840799],[138.484434,-33.831783],[138.48434,-33.831431],[138.482239,-33.823058],[138.481842,-33.82198],[138.481564,-33.821441],[138.481272,-33.820875],[138.480405,-33.819545],[138.475325,-33.811804],[138.471287,-33.805651],[138.452261,-33.776653],[138.445401,-33.766195],[138.438949,-33.756357],[138.430761,-33.743909],[138.421851,-33.730362],[138.414015,-33.718313],[138.413864,-33.718081],[138.413208,-33.717129],[138.411498,-33.714912],[138.406985,-33.708011],[138.406343,-33.706942],[138.40589,-33.705873],[138.405515,-33.704982],[138.404877,-33.703976]]}},{"type":"Feature","properties":{"tier":"arterial"},"geometry":{"type":"LineString","coordinates":[[138.335169,-33.590396],[138.33558,-33.590673],[138.339747,-33.593636],[138.34252,-33.595604],[138.345321,-33.597586],[138.348627,-33.599937],[138.351696,-33.602096],[138.354415,-33.604023],[138.361873,-33.609282],[138.365713,-33.612056],[138.3701,-33.615098],[138.377336,-33.620257],[138.38569,-33.62618],[138.385987,-33.626392],[138.392228,-33.630846],[138.395566,-33.633208],[138.39938,-33.635906],[138.401611,-33.637492],[138.401906,-33.637733],[138.402116,-33.637943],[138.40233,-33.6382],[138.4025,-33.638402],[138.402632,-33.638602],[138.402697,-33.6387],[138.402771,-33.63884],[138.402885,-33.639081],[138.402997,-33.639359],[138.403107,-33.639726],[138.403182,-33.640066],[138.403208,-33.640445],[138.40329,-33.672778],[138.403306,-33.684471],[138.403307,-33.685129]]}},{"type":"Feature","properties":{"tier":"arterial"},"geometry":{"type":"LineString","coordinates":[[138.403277,-33.70468],[138.403179,-33.704403],[138.403135,-33.704231],[138.403142,-33.704041],[138.403186,-33.703868],[138.403367,-33.703429],[138.403385,-33.70328],[138.403389,-33.703114],[138.403393,-33.702192],[138.403394,-33.702031],[138.403393,-33.701672],[138.40334,-33.698991],[138.403339,-33.697772],[138.403338,-33.697731],[138.403336,-33.696493],[138.403336,-33.69619],[138.403335,-33.695234],[138.403333,-33.694004],[138.40333,-33.692126],[138.403329,-33.691832],[138.403324,-33.690489],[138.40332,-33.6891],[138.403316,-33.688004],[138.403313,-33.687183],[138.403307,-33.685129]]}},{"type":"Feature","properties":{"tier":"arterial"},"geometry":{"type":"LineString","coordinates":[[138.406926,-33.694448],[138.408412,-33.694584],[138.408908,-33.69463],[138.413307,-33.695046],[138.41466,-33.695177],[138.41598,-33.695299],[138.416279,-33.69532],[138.416808,-33.695346],[138.417187,-33.695344],[138.417499,-33.695326],[138.417811,-33.695302],[138.417946,-33.695284],[138.418134,-33.695251],[138.418349,-33.695206],[138.419462,-33.694977],[138.421485,-33.694507],[138.422724,-33.69422],[138.423055,-33.694159],[138.423283,-33.694121],[138.423541,-33.694091],[138.423796,-33.69408],[138.424073,-33.69407],[138.424455,-33.694081],[138.424898,-33.694127],[138.425341,-33.694181],[138.429326,-33.694802],[138.432017,-33.695223],[138.433321,-33.69542],[138.435988,-33.69583],[138.436725,-33.695961],[138.437001,-33.696021],[138.437789,-33.696219],[138.438128,-33.696325],[138.438664,-33.696506],[138.439853,-33.696929],[138.440418,-33.697096],[138.440775,-33.697177],[138.441015,-33.697225],[138.441231,-33.697242],[138.441544,-33.697269],[138.441968,-33.697273],[138.44244,-33.69724],[138.442825,-33.697185],[138.443067,-33.697131],[138.443484,-33.697024],[138.443926,-33.696867],[138.444253,-33.696725],[138.444569,-33.696558],[138.444828,-33.696401],[138.445052,-33.696247],[138.44545,-33.695942],[138.446208,-33.695318],[138.44753,-33.694253],[138.448055,-33.69383],[138.448521,-33.693465],[138.448877,-33.69318],[138.449071,-33.693028],[138.449614,-33.69262],[138.449914,-33.692389],[138.450274,-33.692153],[138.450683,-33.691941],[138.451009,-33.69179],[138.451448,-33.691629],[138.451805,-33.691521],[138.452428,-33.691399],[138.452826,-33.691334],[138.453258,-33.691316],[138.453634,-33.691316],[138.453913,-33.691333],[138.454516,-33.691383],[138.455066,-33.691441],[138.456034,-33.691557],[138.456426,-33.691595],[138.456686,-33.691607],[138.457055,-33.691597],[138.457307,-33.691598],[138.457497,-33.691582],[138.457656,-33.691558],[138.458147,-33.691344]]}},{"type":"Feature","properties":{"tier":"arterial"},"geometry":{"type":"LineString","coordinates":[[138.02096,-33.970463],[138.020749,-33.970245],[138.020522,-33.969993],[138.018354,-33.967606],[138.01731,-33.966431],[138.017143,-33.966216],[138.017018,-33.966009],[138.016871,-33.965691],[138.016308,-33.96436],[138.014091,-33.958701],[138.01391,-33.958308],[138.013819,-33.958154],[138.013695,-33.957973],[138.013516,-33.957768],[138.013326,-33.95759],[138.013025,-33.957347],[138.0122,-33.956725],[138.00781,-33.953468],[138.007513,-33.95322],[138.007201,-33.952875],[138.001359,-33.945958],[138.001159,-33.945625],[138.001027,-33.945343],[138.000906,-33.944941],[138.00086,-33.94458],[138.000874,-33.944246],[138.00091,-33.944011],[138.001114,-33.943418],[138.002944,-33.938514],[138.006648,-33.92864],[138.006695,-33.928524],[138.00974,-33.920376],[138.01255,-33.912908],[138.014469,-33.90779],[138.015234,-33.905751],[138.015484,-33.905083],[138.015747,-33.904382],[138.015827,-33.904131],[138.015847,-33.903937],[138.015854,-33.903753],[138.015844,-33.903472],[138.015253,-33.889489],[138.015245,-33.889245],[138.015264,-33.889036],[138.015314,-33.888765],[138.01546,-33.888288],[138.018196,-33.880105],[138.018244,-33.879773],[138.01824,-33.879429],[138.018192,-33.879165],[138.018126,-33.878888],[138.018038,-33.878653],[138.01791,-33.878395],[138.017341,-33.877405],[138.012662,-33.869527]]}},{"type":"Feature","properties":{"tier":"arterial"},"geometry":{"type":"LineString","coordinates":[[138.010431,-33.861744],[138.010577,-33.861097],[138.010772,-33.860317],[138.01096,-33.85955],[138.011548,-33.857182],[138.012473,-33.853445],[138.012731,-33.852411],[138.012949,-33.8515],[138.013032,-33.851188],[138.013142,-33.850817],[138.013257,-33.850643],[138.013621,-33.850175],[138.014405,-33.849546],[138.01501,-33.849269],[138.015631,-33.849134],[138.016545,-33.849121],[138.017312,-33.849257],[138.019149,-33.849521],[138.019726,-33.84956],[138.020174,-33.849547],[138.020745,-33.849504],[138.020891,-33.849469],[138.021208,-33.849395],[138.02165,-33.849198],[138.022146,-33.84893],[138.02265,-33.848719],[138.023344,-33.848475],[138.02407,-33.848466],[138.024881,-33.848585],[138.025691,-33.84891],[138.026381,-33.849167],[138.026961,-33.849325],[138.027436,-33.849385],[138.028081,-33.849386],[138.028577,-33.849328],[138.03038,-33.84899],[138.032708,-33.848482],[138.034789,-33.848072],[138.036441,-33.847733],[138.037568,-33.847475],[138.038374,-33.84736],[138.038821,-33.847324],[138.03963,-33.847303],[138.04128,-33.847511],[138.042664,-33.847707],[138.044338,-33.847947],[138.045543,-33.848062],[138.04653,-33.848114],[138.046592,-33.848112],[138.047449,-33.848081],[138.048522,-33.848019],[138.051006,-33.847691],[138.051721,-33.847532],[138.052402,-33.847308],[138.053179,-33.846889],[138.054044,-33.846311],[138.054872,-33.845921],[138.055665,-33.845641],[138.056233,-33.845515],[138.057141,-33.845391],[138.059015,-33.845346],[138.060656,-33.845274],[138.06286,-33.845143],[138.063578,-33.84517],[138.064278,-33.845368],[138.065134,-33.845674],[138.066807,-33.846122],[138.067581,-33.846336],[138.068606,-33.846477],[138.069485,-33.846522],[138.07049,-33.846234],[138.071103,-33.845945],[138.07165,-33.845534],[138.07205,-33.84501],[138.072638,-33.84416],[138.073312,-33.843604],[138.075394,-33.842168],[138.075931,-33.841874],[138.077068,-33.841513],[138.081799,-33.840122],[138.082199,-33.840011],[138.082472,-33.839949],[138.082738,-33.839909],[138.082969,-33.83989],[138.083215,-33.839882],[138.083497,-33.839895],[138.08384,-33.839929],[138.084656,-33.840029],[138.088176,-33.840418],[138.089249,-33.840453],[138.090212,-33.840165],[138.090922,-33.839705],[138.092038,-33.83835],[138.097617,-33.830579],[138.098381,-33.829704],[138.099334,-33.829117],[138.103067,-33.827549],[138.103873,-33.827136],[138.104973,-33.826779],[138.106137,-33.826583],[138.107291,-33.826433],[138.112208,-33.825766],[138.114884,-33.825421],[138.116328,-33.825588],[138.116581,-33.825693],[138.117261,-33.825977],[138.118188,-33.826573],[138.118507,-33.82689]]}},{"type":"Feature","properties":{"tier":"arterial"},"geometry":{"type":"LineString","coordinates":[[138.024035,-33.967943],[138.024447,-33.967861],[138.026378,-33.967612],[138.027049,-33.967497],[138.02951,-33.967078],[138.031699,-33.966651],[138.032116,-33.966496],[138.034188,-33.965725],[138.036485,-33.964574],[138.037879,-33.963874],[138.040325,-33.963163],[138.043072,-33.963056],[138.046977,-33.963127],[138.059036,-33.963341],[138.062984,-33.963412],[138.064787,-33.963661],[138.066504,-33.964088],[138.068606,-33.964551],[138.070151,-33.964373],[138.071096,-33.963981],[138.072083,-33.963341],[138.073241,-33.961917],[138.074228,-33.961312],[138.075516,-33.960956],[138.077361,-33.9606],[138.08173,-33.959988],[138.083137,-33.959772],[138.084384,-33.959525],[138.085129,-33.95939],[138.087189,-33.959069],[138.092982,-33.958144],[138.097837,-33.95715],[138.099591,-33.956791],[138.110061,-33.954702],[138.113667,-33.953943],[138.116285,-33.952555],[138.118345,-33.950917],[138.12031,-33.948496],[138.121858,-33.946588],[138.124353,-33.943512],[138.129675,-33.936819],[138.131954,-33.933927],[138.132897,-33.932776],[138.133683,-33.931713],[138.134245,-33.930996],[138.134518,-33.930706],[138.134756,-33.930524],[138.134943,-33.930438],[138.135142,-33.930404],[138.135323,-33.930411],[138.135664,-33.930476],[138.137165,-33.930831],[138.1409,-33.931715],[138.148021,-33.932861],[138.148381,-33.932852],[138.151196,-33.932649],[138.152358,-33.932483],[138.154757,-33.931615],[138.155124,-33.931478]]}},{"type":"Feature","properties":{"tier":"arterial"},"geometry":{"type":"LineString","coordinates":[[138.155124,-33.931478],[138.155493,-33.931431],[138.158329,-33.931449],[138.160038,-33.93146],[138.16166,-33.931451]]}},{"type":"Feature","properties":{"tier":"regional"},"geometry":{"type":"LineString","coordinates":[[137.99998,-33.60245],[138.003203,-33.60321],[138.005285,-33.60405],[138.00592,-33.604366],[138.006344,-33.604544],[138.006561,-33.604603],[138.006811,-33.604682],[138.007164,-33.604742],[138.007543,-33.604776],[138.007906,-33.604784],[138.008485,-33.604768],[138.010334,-33.604663],[138.010743,-33.604598],[138.011084,-33.604502],[138.012881,-33.603925],[138.017902,-33.602352],[138.024211,-33.60035],[138.025133,-33.599939],[138.025691,-33.599582],[138.026695,-33.598781],[138.028385,-33.597465],[138.029144,-33.596897],[138.030298,-33.596232],[138.032795,-33.594895],[138.03323,-33.594756],[138.033951,-33.594639],[138.037845,-33.594194],[138.042734,-33.593642],[138.043148,-33.593545],[138.044126,-33.593213],[138.052281,-33.590419],[138.05255,-33.590327],[138.05378,-33.589926],[138.054106,-33.589856],[138.054291,-33.58985],[138.054564,-33.589857],[138.054961,-33.589948],[138.057264,-33.590677],[138.061261,-33.591967],[138.06478,-33.593102],[138.065652,-33.593371],[138.066266,-33.593538],[138.068302,-33.594043],[138.069862,-33.594307],[138.070361,-33.594429],[138.070966,-33.594594],[138.071932,-33.594935],[138.072362,-33.595071],[138.072683,-33.595149],[138.073125,-33.5952],[138.074633,-33.59529],[138.075124,-33.595315],[138.075972,-33.595359],[138.076541,-33.595345],[138.077137,-33.59528]]}},{"type":"Feature","properties":{"tier":"arterial"},"geometry":{"type":"LineString","coordinates":[[138.001871,-33.867969],[138.001647,-33.86806],[138.001181,-33.868278],[137.99998,-33.86877]]}},{"type":"Feature","properties":{"tier":"arterial"},"geometry":{"type":"LineString","coordinates":[[138.005642,-33.863608],[138.005496,-33.863484],[138.005132,-33.863221],[138.003855,-33.862388],[138.002713,-33.861693],[137.99998,-33.860053]]}},{"type":"Feature","properties":{"tier":"arterial"},"geometry":{"type":"LineString","coordinates":[[138.005642,-33.863608],[138.005768,-33.863624],[138.006347,-33.86455]]}},{"type":"Feature","properties":{"tier":"arterial"},"geometry":{"type":"LineString","coordinates":[[138.012662,-33.869527],[138.011978,-33.868383],[138.011444,-33.867489],[138.010891,-33.866565],[138.010312,-33.865596],[138.010159,-33.865339]]}},{"type":"Feature","properties":{"tier":"arterial"},"geometry":{"type":"LineString","coordinates":[[138.331732,-33.585277],[138.331297,-33.585346],[138.330787,-33.585515],[138.330357,-33.585708],[138.32985,-33.586046],[138.328787,-33.586864],[138.328492,-33.587066],[138.328164,-33.587265],[138.327711,-33.587466],[138.327219,-33.587629],[138.326637,-33.587728],[138.326287,-33.587745],[138.325883,-33.587739],[138.324462,-33.587586],[138.324027,-33.587529],[138.323637,-33.587455],[138.323011,-33.587301],[138.322581,-33.587155],[138.322234,-33.58702],[138.32164,-33.58674],[138.317972,-33.584588],[138.315399,-33.583082],[138.315021,-33.582824],[138.312376,-33.580455],[138.307762,-33.576309],[138.304403,-33.573295],[138.301932,-33.571028],[138.298797,-33.568259],[138.298476,-33.567999],[138.298091,-33.56769],[138.297739,-33.567437],[138.296978,-33.566944],[138.296428,-33.566629],[138.295429,-33.566093],[138.289074,-33.562795],[138.278798,-33.557422],[138.2676,-33.551578],[138.267314,-33.551434],[138.264074,-33.549721],[138.250497,-33.542615],[138.235091,-33.534555],[138.234315,-33.534151],[138.233234,-33.53363],[138.232168,-33.533155],[138.231591,-33.532924],[138.229523,-33.532118],[138.228862,-33.531867],[138.228496,-33.53177],[138.228044,-33.531728],[138.227467,-33.53171],[138.225305,-33.531702],[138.22528,-33.53248],[138.225184,-33.533015],[138.225013,-33.533591],[138.224976,-33.533942],[138.224983,-33.53436]]}},{"type":"Feature","properties":{"tier":"regional"},"geometry":{"type":"LineString","coordinates":[[138.084965,-33.59317],[138.084962,-33.595205],[138.084967,-33.596772]]}},{"type":"Feature","properties":{"tier":"arterial"},"geometry":{"type":"LineString","coordinates":[[138.219586,-33.780319],[138.217702,-33.779595],[138.216076,-33.77897],[138.215416,-33.778677],[138.215305,-33.778636]]}},{"type":"Feature","properties":{"tier":"arterial"},"geometry":{"type":"LineString","coordinates":[[138.215305,-33.778636],[138.214533,-33.778364],[138.21302,-33.777757],[138.21102,-33.776925]]}},{"type":"Feature","properties":{"tier":"arterial"},"geometry":{"type":"LineString","coordinates":[[138.443541,-33.566799],[138.443616,-33.567923]]}},{"type":"Feature","properties":{"tier":"arterial"},"geometry":{"type":"LineString","coordinates":[[138.445557,-33.573093],[138.445655,-33.573502],[138.445747,-33.574081],[138.445889,-33.574916]]}},{"type":"Feature","properties":{"tier":"arterial"},"geometry":{"type":"LineString","coordinates":[[138.274043,-33.901633],[138.276015,-33.901043],[138.278892,-33.900548],[138.297745,-33.898178],[138.30165,-33.897464],[138.302813,-33.897219],[138.305778,-33.896024],[138.308528,-33.895077],[138.314853,-33.893105],[138.315413,-33.892925],[138.318859,-33.891916],[138.324031,-33.89004],[138.330433,-33.887652],[138.332995,-33.886546],[138.340003,-33.883662],[138.341891,-33.882344],[138.345539,-33.879707],[138.346068,-33.879338],[138.346862,-33.878925],[138.347898,-33.878611],[138.363257,-33.874597],[138.36449,-33.874267],[138.370813,-33.873082],[138.373011,-33.872568],[138.373777,-33.872382],[138.388822,-33.868705],[138.405575,-33.864585],[138.40642,-33.864324],[138.407337,-33.86378],[138.409032,-33.862853],[138.409909,-33.862506],[138.410952,-33.862309],[138.413388,-33.862194],[138.415698,-33.862049],[138.416379,-33.861973],[138.418088,-33.861553],[138.424498,-33.85998],[138.425804,-33.859592],[138.425941,-33.859557],[138.428861,-33.858636],[138.430071,-33.858345],[138.434077,-33.857748],[138.434898,-33.857618],[138.436557,-33.857349],[138.437057,-33.857228],[138.440156,-33.85615]]}},{"type":"Feature","properties":{"tier":"arterial"},"geometry":{"type":"LineString","coordinates":[[138.080692,-33.49998],[138.080127,-33.5004],[138.068279,-33.509244],[138.067379,-33.509909],[138.063626,-33.512609]]}},{"type":"Feature","properties":{"tier":"arterial"},"geometry":{"type":"LineString","coordinates":[[138.446436,-33.578587],[138.446439,-33.578808],[138.446424,-33.580238],[138.446403,-33.581031],[138.446363,-33.581281],[138.446279,-33.581543],[138.446112,-33.581898],[138.445957,-33.582137],[138.445584,-33.582575],[138.444567,-33.583726],[138.443965,-33.584407],[138.443685,-33.584735],[138.443425,-33.585081],[138.443282,-33.585385],[138.443185,-33.585665],[138.443107,-33.585985],[138.443063,-33.586352],[138.443055,-33.586746],[138.443039,-33.587242],[138.443047,-33.587908],[138.443086,-33.590215],[138.443105,-33.590518],[138.443118,-33.590684],[138.443137,-33.590837],[138.443164,-33.591027],[138.443194,-33.591184],[138.443558,-33.593021],[138.443602,-33.593346],[138.443613,-33.593567],[138.443585,-33.593847],[138.44353,-33.594123],[138.443384,-33.594613],[138.442601,-33.597],[138.442268,-33.598008],[138.442203,-33.598344],[138.44219,-33.598648],[138.442226,-33.598968],[138.442328,-33.599359],[138.442821,-33.601156],[138.443085,-33.602113],[138.443137,-33.602302],[138.443372,-33.603896],[138.443416,-33.605785],[138.443451,-33.607254],[138.443513,-33.608047],[138.443604,-33.608855],[138.443749,-33.609781],[138.444715,-33.613819],[138.444901,-33.614442],[138.445162,-33.615046],[138.446648,-33.618031],[138.447387,-33.619724],[138.44783,-33.620948],[138.448628,-33.622479],[138.449441,-33.624253],[138.449553,-33.624682],[138.449677,-33.625167],[138.449728,-33.625936],[138.449691,-33.629287],[138.449802,-33.630982],[138.449813,-33.631823],[138.449754,-33.633393],[138.449743,-33.633675],[138.449694,-33.634367],[138.44968,-33.634463],[138.449618,-33.634866],[138.449427,-33.635601],[138.448877,-33.63729],[138.447438,-33.641713],[138.447298,-33.642202],[138.447244,-33.642703],[138.447296,-33.643212],[138.447754,-33.644696],[138.447841,-33.6452],[138.447834,-33.645708],[138.447726,-33.647004],[138.44758,-33.648756],[138.447529,-33.64937],[138.447327,-33.651791],[138.447306,-33.652061],[138.447285,-33.652327],[138.447336,-33.652802],[138.447455,-33.653303],[138.447634,-33.653794],[138.447771,-33.65414],[138.448592,-33.656216],[138.448864,-33.657206],[138.449881,-33.66172],[138.450675,-33.665078],[138.45087,-33.665863],[138.450905,-33.666005],[138.450999,-33.666368],[138.451073,-33.666615],[138.451153,-33.666833],[138.451274,-33.66705],[138.451522,-33.667454],[138.451754,-33.66783],[138.455081,-33.673024],[138.456052,-33.674568],[138.456177,-33.674778],[138.456291,-33.675016],[138.45636,-33.675219],[138.45642,-33.675422],[138.456452,-33.675542],[138.456459,-33.675677],[138.456468,-33.675866],[138.45646,-33.676062],[138.456441,-33.676243],[138.456403,-33.676444],[138.45635,-33.676631],[138.454802,-33.681477],[138.454713,-33.681975],[138.45468,-33.682499],[138.454709,-33.683057],[138.454842,-33.683709],[138.455002,-33.684134],[138.45666,-33.688538],[138.457626,-33.690763],[138.458147,-33.691344],[138.458496,-33.691596],[138.459113,-33.691888],[138.46036,-33.692066],[138.462583,-33.692327],[138.463487,-33.692429],[138.464035,-33.692436],[138.46432,-33.692413],[138.464757,-33.692333],[138.4664,-33.692],[138.4687,-33.691507],[138.469203,-33.691393],[138.469599,-33.691316],[138.469978,-33.691279],[138.47031,-33.691266],[138.470643,-33.691283],[138.47101,-33.691352],[138.471655,-33.691529],[138.473947,-33.69227],[138.475241,-33.692684],[138.475705,-33.692825],[138.476115,-33.692935],[138.476593,-33.693008],[138.477482,-33.693123],[138.47811,-33.6932],[138.478823,-33.693287],[138.479511,-33.693368],[138.48185,-33.69368],[138.48245,-33.69381],[138.4833,-33.69405],[138.486484,-33.694983],[138.48773,-33.69533],[138.48828,-33.69555],[138.489,-33.69598],[138.48975,-33.69671],[138.496147,-33.703251],[138.497266,-33.704075],[138.49971,-33.70566],[138.50002,-33.70586]]}},{"type":"Feature","properties":{"tier":"arterial"},"geometry":{"type":"LineString","coordinates":[[138.444307,-33.564075],[138.44402,-33.564661],[138.443779,-33.565361],[138.443663,-33.565819],[138.443541,-33.566799]]}},{"type":"Feature","properties":{"tier":"arterial"},"geometry":{"type":"LineString","coordinates":[[138.445889,-33.574916],[138.445971,-33.57548],[138.446173,-33.576784],[138.44642,-33.578396],[138.446436,-33.578587]]}},{"type":"Feature","properties":{"tier":"arterial"},"geometry":{"type":"LineString","coordinates":[[138.210272,-33.795247],[138.210227,-33.795219],[138.210042,-33.794945],[138.209972,-33.794898],[138.209871,-33.794879],[138.209759,-33.794869],[138.209722,-33.794852]]}},{"type":"Feature","properties":{"tier":"arterial"},"geometry":{"type":"LineString","coordinates":[[138.209531,-33.794904],[138.209554,-33.794878],[138.209783,-33.794764],[138.209844,-33.794707],[138.209872,-33.794634],[138.209812,-33.794326],[138.209823,-33.794291]]}},{"type":"Feature","properties":{"tier":"high"},"geometry":{"type":"LineString","coordinates":[[138.162719,-33.933848],[138.162374,-33.933371]]}},{"type":"Feature","properties":{"tier":"high"},"geometry":{"type":"LineString","coordinates":[[138.161651,-33.926156],[138.161711,-33.925569],[138.16211,-33.92358],[138.162288,-33.922518]]}},{"type":"Feature","properties":{"tier":"arterial"},"geometry":{"type":"LineString","coordinates":[[138.215618,-33.537723],[138.215491,-33.537853],[138.215465,-33.538002],[138.215459,-33.538193]]}},{"type":"Feature","properties":{"tier":"arterial"},"geometry":{"type":"LineString","coordinates":[[138.214999,-33.537475],[138.215191,-33.53763],[138.215357,-33.537706],[138.215514,-33.537763]]}},{"type":"Feature","properties":{"tier":"high"},"geometry":{"type":"LineString","coordinates":[[138.214925,-33.537362],[138.214603,-33.536902],[138.214349,-33.53658],[138.214063,-33.536234],[138.213655,-33.535761],[138.213457,-33.535542],[138.213227,-33.535302],[138.212924,-33.534991],[138.212596,-33.534675],[138.212239,-33.534345],[138.211875,-33.534024],[138.211782,-33.53395],[138.201809,-33.525861],[138.199361,-33.523879],[138.196183,-33.521333],[138.193015,-33.518759],[138.192384,-33.518197],[138.191623,-33.517458],[138.190983,-33.51676],[138.190328,-33.51597],[138.189899,-33.515395],[138.189573,-33.514926],[138.189201,-33.514349],[138.188774,-33.513618],[138.188386,-33.512855],[138.188171,-33.512404],[138.187977,-33.511942],[138.187577,-33.510891],[138.186862,-33.509021],[138.183417,-33.49998]]}},{"type":"Feature","properties":{"tier":"high"},"geometry":{"type":"LineString","coordinates":[[138.225505,-33.616214],[138.225094,-33.613421]]}},{"type":"Feature","properties":{"tier":"high"},"geometry":{"type":"LineString","coordinates":[[138.217824,-33.679614],[138.218344,-33.678272],[138.221232,-33.671128],[138.222423,-33.668198],[138.224645,-33.662697],[138.225635,-33.660243],[138.22661,-33.657772],[138.226856,-33.656943],[138.227045,-33.656143],[138.227199,-33.655285],[138.22723,-33.655075],[138.227308,-33.65432],[138.227343,-33.653623],[138.227338,-33.650443],[138.22731,-33.638615],[138.227307,-33.638071],[138.227291,-33.63019],[138.227274,-33.629195],[138.227212,-33.628146],[138.227059,-33.626877],[138.226709,-33.624448],[138.226695,-33.624351],[138.226147,-33.620633],[138.225505,-33.616214]]}},{"type":"Feature","properties":{"tier":"arterial"},"geometry":{"type":"LineString","coordinates":[[138.493534,-33.847162],[138.494942,-33.846947]]}},{"type":"Feature","properties":{"tier":"arterial"},"geometry":{"type":"LineString","coordinates":[[138.004075,-33.866668],[138.003373,-33.867038],[138.00281,-33.867479],[138.002375,-33.867769],[138.001871,-33.867969]]}},{"type":"Feature","properties":{"tier":"arterial"},"geometry":{"type":"LineString","coordinates":[[138.443616,-33.567923],[138.443738,-33.568546],[138.443954,-33.569238]]}},{"type":"Feature","properties":{"tier":"arterial"},"geometry":{"type":"LineString","coordinates":[[138.443954,-33.569238],[138.444101,-33.56958],[138.444446,-33.57038],[138.444491,-33.570487],[138.445042,-33.571789],[138.445404,-33.572626],[138.445505,-33.572884],[138.445557,-33.573093]]}},{"type":"Feature","properties":{"tier":"arterial"},"geometry":{"type":"LineString","coordinates":[[138.334698,-33.590066],[138.335169,-33.590396]]}},{"type":"Feature","properties":{"tier":"arterial"},"geometry":{"type":"LineString","coordinates":[[138.333271,-33.588468],[138.3333,-33.588563],[138.333426,-33.588864],[138.333563,-33.589093],[138.333734,-33.589304],[138.334082,-33.589642],[138.334438,-33.589892],[138.334698,-33.590066]]}},{"type":"Feature","properties":{"tier":"arterial"},"geometry":{"type":"LineString","coordinates":[[138.333073,-33.585209],[138.333152,-33.586864],[138.333235,-33.588348],[138.333271,-33.588468]]}},{"type":"Feature","properties":{"tier":"arterial"},"geometry":{"type":"LineString","coordinates":[[138.33438,-33.58517],[138.333073,-33.585209],[138.331732,-33.585277]]}},{"type":"Feature","properties":{"tier":"arterial"},"geometry":{"type":"LineString","coordinates":[[138.393092,-33.590195],[138.392984,-33.590323],[138.392871,-33.590424],[138.392737,-33.590523],[138.392552,-33.590635],[138.392461,-33.59068],[138.392285,-33.590754],[138.392111,-33.590809],[138.391928,-33.590852],[138.391643,-33.590887],[138.379047,-33.591946],[138.378665,-33.591948],[138.378267,-33.591903],[138.377782,-33.591783],[138.377401,-33.591649],[138.377013,-33.59144],[138.376671,-33.591199],[138.376064,-33.590611],[138.372299,-33.586694],[138.371819,-33.586298],[138.371181,-33.58589],[138.370555,-33.585571],[138.369908,-33.585354],[138.369321,-33.585203],[138.368798,-33.585109],[138.368298,-33.585066],[138.362147,-33.584703],[138.352077,-33.584154],[138.34813,-33.58394],[138.346028,-33.583792],[138.338803,-33.584066],[138.338206,-33.584086],[138.337782,-33.584129],[138.337543,-33.584169],[138.337221,-33.584257],[138.33478,-33.585084],[138.334595,-33.585141],[138.33438,-33.58517]]}},{"type":"Feature","properties":{"tier":"arterial"},"geometry":{"type":"LineString","coordinates":[[138.009761,-33.864695],[138.009733,-33.864689],[138.009629,-33.864623],[138.009546,-33.864593],[138.009455,-33.864581],[138.009379,-33.864584],[138.009269,-33.864606],[138.009222,-33.864608],[138.009209,-33.8646]]}},{"type":"Feature","properties":{"tier":"regional"},"geometry":{"type":"LineString","coordinates":[[138.077137,-33.59528],[138.07778,-33.595172],[138.078246,-33.595069],[138.078965,-33.594852],[138.082229,-33.593879],[138.083559,-33.59348],[138.08463,-33.593179],[138.084737,-33.593168],[138.084965,-33.59317]]}},{"type":"Feature","properties":{"tier":"arterial"},"geometry":{"type":"LineString","coordinates":[[138.224983,-33.53436],[138.224984,-33.53476]]}},{"type":"Feature","properties":{"tier":"arterial"},"geometry":{"type":"LineString","coordinates":[[138.224984,-33.53476],[138.224985,-33.535009],[138.225,-33.536212],[138.224964,-33.53761]]}},{"type":"Feature","properties":{"tier":"arterial"},"geometry":{"type":"LineString","coordinates":[[138.439702,-33.85565],[138.439932,-33.855799],[138.440119,-33.855883],[138.440269,-33.855912],[138.440456,-33.855936],[138.440656,-33.855913],[138.441059,-33.855837]]}},{"type":"Feature","properties":{"tier":"arterial"},"geometry":{"type":"LineString","coordinates":[[137.99998,-33.578737],[138.005733,-33.575732],[138.006207,-33.575472],[138.006703,-33.57513],[138.00701,-33.574847],[138.010574,-33.571018],[138.018576,-33.562496],[138.019022,-33.561899],[138.019359,-33.56127],[138.019698,-33.560318],[138.021541,-33.55232],[138.022292,-33.549188],[138.022538,-33.548723],[138.023171,-33.547828],[138.02348,-33.547476],[138.023884,-33.547112],[138.041993,-33.532967],[138.042643,-33.532407],[138.043166,-33.531809],[138.043443,-33.531429],[138.046533,-33.525995],[138.04682,-33.525599],[138.047185,-33.525187],[138.047692,-33.524723],[138.048201,-33.524344],[138.048612,-33.524091],[138.049067,-33.523841],[138.060039,-33.519438],[138.06073,-33.519105],[138.061209,-33.518804],[138.061498,-33.518605],[138.061948,-33.518217],[138.062346,-33.517809],[138.062644,-33.517428],[138.062763,-33.51725],[138.062901,-33.517043],[138.063096,-33.516669],[138.063342,-33.516113],[138.06347,-33.515667],[138.063537,-33.515294],[138.063606,-33.514085],[138.063626,-33.512813],[138.063626,-33.512609],[138.063637,-33.49998]]}},{"type":"Feature","properties":{"tier":"arterial"},"geometry":{"type":"LineString","coordinates":[[138.405428,-33.694275],[138.406926,-33.694448]]}},{"type":"Feature","properties":{"tier":"high"},"geometry":{"type":"LineString","coordinates":[[138.209359,-33.808323],[138.209374,-33.808351],[138.209384,-33.808388],[138.209384,-33.808433],[138.209371,-33.808485],[138.209337,-33.808602],[138.209321,-33.808681],[138.209314,-33.808738],[138.209311,-33.808801],[138.209323,-33.808877],[138.209353,-33.808972],[138.209392,-33.809044],[138.209415,-33.809097],[138.209422,-33.809129]]}},{"type":"Feature","properties":{"tier":"high"},"geometry":{"type":"LineString","coordinates":[[138.163272,-33.933816],[138.163055,-33.933883],[138.162995,-33.933934],[138.162983,-33.934028],[138.16305,-33.93412],[138.163173,-33.934317]]}},{"type":"Feature","properties":{"tier":"high"},"geometry":{"type":"LineString","coordinates":[[138.162374,-33.933371],[138.162635,-33.933624],[138.162821,-33.933729],[138.163012,-33.933786],[138.163272,-33.933816]]}},{"type":"Feature","properties":{"tier":"arterial"},"geometry":{"type":"LineString","coordinates":[[138.163272,-33.933816],[138.163888,-33.933737],[138.164149,-33.933704],[138.164509,-33.933659],[138.16638,-33.933405],[138.166719,-33.93334],[138.167116,-33.933254],[138.167557,-33.933152],[138.16802,-33.933041],[138.168593,-33.932909],[138.169156,-33.932773],[138.169406,-33.932705],[138.169591,-33.93264],[138.169633,-33.932624],[138.169864,-33.932537],[138.171514,-33.931703],[138.175541,-33.929593],[138.181731,-33.926493],[138.185631,-33.924514],[138.191029,-33.921819],[138.19201,-33.921436],[138.201567,-33.918807],[138.201592,-33.9188],[138.204877,-33.917913],[138.206336,-33.917624],[138.218681,-33.915169],[138.222944,-33.913899],[138.223703,-33.913673],[138.228866,-33.912098],[138.229171,-33.912],[138.229607,-33.911882],[138.236513,-33.910022],[138.240263,-33.908939],[138.244409,-33.907743],[138.244973,-33.907634],[138.245654,-33.907636],[138.248615,-33.907951],[138.248638,-33.907953],[138.249001,-33.907992],[138.250929,-33.90821],[138.252731,-33.908309],[138.253366,-33.908294],[138.254559,-33.908045],[138.261447,-33.905944],[138.266489,-33.903949],[138.271381,-33.9024],[138.274043,-33.901633]]}},{"type":"Feature","properties":{"tier":"high"},"geometry":{"type":"LineString","coordinates":[[138.162374,-33.933371],[138.162197,-33.933127],[138.161929,-33.932566]]}},{"type":"Feature","properties":{"tier":"high"},"geometry":{"type":"LineString","coordinates":[[138.214999,-33.537475],[138.214925,-33.537362]]}},{"type":"Feature","properties":{"tier":"high"},"geometry":{"type":"LineString","coordinates":[[138.215733,-33.538682],[138.215459,-33.538193]]}},{"type":"Feature","properties":{"tier":"high"},"geometry":{"type":"LineString","coordinates":[[138.21102,-33.776925],[138.211442,-33.776221],[138.211787,-33.775545],[138.21196,-33.775109],[138.212097,-33.774672],[138.212198,-33.774278]]}},{"type":"Feature","properties":{"tier":"high"},"geometry":{"type":"LineString","coordinates":[[138.212198,-33.774278],[138.212258,-33.773947],[138.212292,-33.773668],[138.2123,-33.773606],[138.212327,-33.773246],[138.212335,-33.773009],[138.212337,-33.772959],[138.212341,-33.772644],[138.212344,-33.772408],[138.212291,-33.765507],[138.212256,-33.764648],[138.212193,-33.763953],[138.21211,-33.763354],[138.212001,-33.762716],[138.210749,-33.756789],[138.210072,-33.753573],[138.209879,-33.752384],[138.209742,-33.751241],[138.209665,-33.750245],[138.209627,-33.749425],[138.209611,-33.748639],[138.209635,-33.747431],[138.209686,-33.746573],[138.209757,-33.745652],[138.209816,-33.744896],[138.210018,-33.741607],[138.210176,-33.738306],[138.210657,-33.728344],[138.211124,-33.718552],[138.211489,-33.711485],[138.211654,-33.707651],[138.211765,-33.704591],[138.211774,-33.703971],[138.211778,-33.702707],[138.211763,-33.701467],[138.211716,-33.697586],[138.211765,-33.696467],[138.211868,-33.695447],[138.211996,-33.694599],[138.212355,-33.692858],[138.212666,-33.691305],[138.212763,-33.690886],[138.212847,-33.690565],[138.212976,-33.690154],[138.213126,-33.689742],[138.213299,-33.689327],[138.213478,-33.68894],[138.21397,-33.68805],[138.214572,-33.687036],[138.215055,-33.686135],[138.21557,-33.68506],[138.216037,-33.683965],[138.216782,-33.682114],[138.217824,-33.679614]]}},{"type":"Feature","properties":{"tier":"arterial"},"geometry":{"type":"LineString","coordinates":[[138.009597,-33.864433],[138.009696,-33.864361],[138.009807,-33.864205],[138.009869,-33.864029],[138.009909,-33.863821],[138.009952,-33.863668],[138.010143,-33.862889]]}},{"type":"Feature","properties":{"tier":"arterial"},"geometry":{"type":"LineString","coordinates":[[138.009761,-33.864695],[138.009597,-33.864433]]}},{"type":"Feature","properties":{"tier":"arterial"},"geometry":{"type":"LineString","coordinates":[[138.006927,-33.86554],[138.006795,-33.865593]]}},{"type":"Feature","properties":{"tier":"arterial"},"geometry":{"type":"LineString","coordinates":[[138.006795,-33.865593],[138.005438,-33.866143]]}},{"type":"Feature","properties":{"tier":"arterial"},"geometry":{"type":"LineString","coordinates":[[138.035455,-34.00002],[138.034405,-33.992713],[138.03429,-33.991864],[138.034212,-33.991386],[138.034176,-33.991197],[138.034136,-33.991077],[138.034006,-33.990814],[138.023174,-33.973026],[138.022977,-33.972746],[138.022785,-33.97251],[138.022375,-33.972058],[138.021645,-33.971243]]}},{"type":"Feature","properties":{"tier":"high"},"geometry":{"type":"LineString","coordinates":[[138.215259,-33.537855],[138.214999,-33.537475]]}},{"type":"Feature","properties":{"tier":"high"},"geometry":{"type":"LineString","coordinates":[[138.215459,-33.538193],[138.215259,-33.537855]]}},{"type":"Feature","properties":{"tier":"high"},"geometry":{"type":"LineString","coordinates":[[138.206792,-33.786827],[138.206779,-33.786732],[138.206752,-33.786034],[138.206758,-33.785846],[138.206774,-33.785465],[138.20686,-33.784596],[138.207011,-33.783854],[138.20717,-33.783263],[138.207469,-33.782428],[138.207745,-33.781818],[138.208132,-33.781129],[138.208466,-33.780586],[138.209909,-33.778534],[138.21102,-33.776925]]}},{"type":"Feature","properties":{"tier":"high"},"geometry":{"type":"LineString","coordinates":[[138.210048,-33.794764],[138.209823,-33.794291],[138.209331,-33.793309],[138.208245,-33.791117],[138.207701,-33.79002],[138.207482,-33.789512],[138.207319,-33.789039],[138.207138,-33.788508],[138.206979,-33.787911],[138.206937,-33.787723],[138.20687,-33.787366],[138.206792,-33.786827]]}},{"type":"Feature","properties":{"tier":"high"},"geometry":{"type":"LineString","coordinates":[[138.209126,-33.808924],[138.209359,-33.808323],[138.209879,-33.806983],[138.21027,-33.805944],[138.210491,-33.805246],[138.2106,-33.804802],[138.210693,-33.804355],[138.210764,-33.80393],[138.210836,-33.803338],[138.210921,-33.801936],[138.210993,-33.800637],[138.211066,-33.799254],[138.211075,-33.798211],[138.211049,-33.797798],[138.211005,-33.797451],[138.210918,-33.796991],[138.210818,-33.796607],[138.210715,-33.796279],[138.210613,-33.795968],[138.210511,-33.795712],[138.210272,-33.795247],[138.210048,-33.794764]]}},{"type":"Feature","properties":{"tier":"arterial"},"geometry":{"type":"LineString","coordinates":[[138.475756,-33.850058],[138.482048,-33.849122],[138.483258,-33.848874],[138.485001,-33.848452]]}},{"type":"Feature","properties":{"tier":"arterial"},"geometry":{"type":"LineString","coordinates":[[138.217849,-34.00002],[138.217844,-34.000011],[138.217576,-33.999424],[138.217375,-33.998934],[138.217276,-33.998761],[138.217117,-33.998608],[138.216949,-33.998497],[138.21675,-33.998403],[138.21652,-33.998355],[138.216171,-33.998341],[138.215959,-33.998348],[138.215481,-33.998368]]}},{"type":"Feature","properties":{"tier":"high"},"geometry":{"type":"LineString","coordinates":[[138.164264,-33.935746],[138.16403,-33.935368],[138.163825,-33.93506]]}},{"type":"Feature","properties":{"tier":"high"},"geometry":{"type":"LineString","coordinates":[[138.163173,-33.934317],[138.162719,-33.933848]]}},{"type":"Feature","properties":{"tier":"high"},"geometry":{"type":"LineString","coordinates":[[138.163825,-33.93506],[138.163774,-33.934992],[138.163173,-33.934317]]}},{"type":"Feature","properties":{"tier":"high"},"geometry":{"type":"LineString","coordinates":[[138.161929,-33.932566],[138.161808,-33.932261],[138.161739,-33.93199],[138.161698,-33.931785],[138.16166,-33.931451],[138.161639,-33.929472],[138.161632,-33.928397],[138.161627,-33.927508],[138.161623,-33.926746],[138.161651,-33.926156]]}},{"type":"Feature","properties":{"tier":"arterial"},"geometry":{"type":"LineString","coordinates":[[138.217117,-33.537612],[138.216556,-33.537611],[138.216246,-33.53762],[138.215959,-33.537643],[138.215783,-33.537676],[138.215618,-33.537723]]}},{"type":"Feature","properties":{"tier":"high"},"geometry":{"type":"LineString","coordinates":[[138.225094,-33.613421],[138.224969,-33.612507],[138.224869,-33.611532],[138.224785,-33.610601],[138.224716,-33.609617],[138.22468,-33.608794],[138.224655,-33.60797],[138.224647,-33.604383],[138.224662,-33.597889],[138.224639,-33.587476],[138.224658,-33.569981],[138.224657,-33.569866],[138.224655,-33.569635],[138.224658,-33.568553],[138.22466,-33.567579],[138.22466,-33.564611],[138.224659,-33.56432],[138.224644,-33.56403],[138.224622,-33.563643],[138.224577,-33.563265],[138.22452,-33.562891],[138.224457,-33.562539],[138.224384,-33.56221],[138.224205,-33.561543],[138.223986,-33.560886],[138.223191,-33.558551],[138.220962,-33.551987],[138.220601,-33.550912],[138.220364,-33.550223],[138.219786,-33.54861],[138.218915,-33.546284],[138.218281,-33.544675],[138.218077,-33.544174],[138.217217,-33.54212],[138.21598,-33.539178],[138.215733,-33.538682]]}},{"type":"Feature","properties":{"tier":"arterial"},"geometry":{"type":"LineString","coordinates":[[138.224964,-33.53761],[138.222768,-33.537593],[138.221951,-33.537592],[138.220586,-33.537595],[138.217501,-33.537618],[138.217409,-33.537617],[138.217117,-33.537612]]}},{"type":"Feature","properties":{"tier":"arterial"},"geometry":{"type":"LineString","coordinates":[[138.009209,-33.8646],[138.008326,-33.864978]]}},{"type":"Feature","properties":{"tier":"arterial"},"geometry":{"type":"LineString","coordinates":[[138.005438,-33.866143],[138.004075,-33.866668]]}},{"type":"Feature","properties":{"tier":"arterial"},"geometry":{"type":"LineString","coordinates":[[138.006795,-33.865593],[138.006203,-33.864612]]}},{"type":"Feature","properties":{"tier":"arterial"},"geometry":{"type":"LineString","coordinates":[[138.006347,-33.86455],[138.006927,-33.86554]]}},{"type":"Feature","properties":{"tier":"arterial"},"geometry":{"type":"LineString","coordinates":[[138.010143,-33.862889],[138.010332,-33.862115],[138.010431,-33.861744]]}},{"type":"Feature","properties":{"tier":"arterial"},"geometry":{"type":"LineString","coordinates":[[138.008326,-33.864978],[138.006927,-33.86554]]}},{"type":"Feature","properties":{"tier":"arterial"},"geometry":{"type":"LineString","coordinates":[[138.010159,-33.865339],[138.009954,-33.865034],[138.009761,-33.864695]]}},{"type":"Feature","properties":{"tier":"arterial"},"geometry":{"type":"LineString","coordinates":[[138.44035,-33.49998],[138.440359,-33.500028],[138.440751,-33.502178],[138.440774,-33.502293],[138.441073,-33.503836],[138.441129,-33.504056],[138.441238,-33.504394],[138.442609,-33.508587],[138.442962,-33.509675],[138.443196,-33.510516],[138.443434,-33.5115],[138.443676,-33.512512],[138.444807,-33.516427],[138.446327,-33.521499],[138.446448,-33.522078],[138.446488,-33.522517],[138.446548,-33.525365],[138.446715,-33.526869],[138.446895,-33.528132],[138.446922,-33.52832],[138.44702,-33.528985],[138.447407,-33.5335],[138.447422,-33.533893],[138.447492,-33.53451],[138.447588,-33.535039],[138.449147,-33.541529],[138.449553,-33.543194],[138.44967,-33.543712]]}},{"type":"Feature","properties":{"tier":"arterial"},"geometry":{"type":"LineString","coordinates":[[138.021641,-33.969913],[138.02178,-33.969738],[138.022472,-33.969],[138.022847,-33.968588],[138.023261,-33.968237],[138.023734,-33.968004],[138.024035,-33.967943]]}},{"type":"Feature","properties":{"tier":"arterial"},"geometry":{"type":"LineString","coordinates":[[138.021645,-33.971243],[138.02096,-33.970463]]}},{"type":"Feature","properties":{"tier":"arterial"},"geometry":{"type":"LineString","coordinates":[[138.02096,-33.970463],[138.021641,-33.969913]]}},{"type":"Feature","properties":{"tier":"high"},"geometry":{"type":"LineString","coordinates":[[138.208461,-33.810553],[138.208918,-33.809429],[138.209126,-33.808924]]}},{"type":"Feature","properties":{"tier":"high"},"geometry":{"type":"LineString","coordinates":[[138.162288,-33.922518],[138.162435,-33.921455],[138.162811,-33.91636],[138.162885,-33.915111],[138.162885,-33.914893],[138.162898,-33.914029],[138.162872,-33.913166],[138.162803,-33.912241],[138.162705,-33.91105],[138.1627,-33.910211],[138.162722,-33.909814],[138.162778,-33.909346],[138.162908,-33.908606],[138.163041,-33.908093],[138.163137,-33.907774],[138.163311,-33.907297],[138.163512,-33.906821],[138.163902,-33.906051],[138.164649,-33.904811],[138.16607,-33.90251],[138.167754,-33.899771],[138.168282,-33.89889],[138.168623,-33.898242],[138.168805,-33.89784],[138.16897,-33.897429],[138.169029,-33.897251],[138.169337,-33.896162],[138.169762,-33.894556],[138.169916,-33.894075],[138.170155,-33.893413],[138.17048,-33.892625],[138.171313,-33.890749],[138.173328,-33.886143],[138.173748,-33.88512],[138.174147,-33.884086],[138.174539,-33.882998],[138.174897,-33.881956],[138.176636,-33.876609],[138.177406,-33.874531],[138.178344,-33.872279],[138.178901,-33.87094],[138.17933,-33.869799],[138.179771,-33.868593],[138.18055,-33.866223],[138.180937,-33.865154],[138.181474,-33.863625],[138.181768,-33.862917],[138.182059,-33.862259],[138.182397,-33.861562],[138.182732,-33.86092],[138.183333,-33.859842],[138.184004,-33.858746],[138.184895,-33.857438],[138.185719,-33.856349],[138.187561,-33.85414],[138.188507,-33.85301],[138.188924,-33.852469],[138.189141,-33.852157],[138.189314,-33.851882],[138.189649,-33.851305],[138.189938,-33.850712],[138.190153,-33.850203],[138.191158,-33.847757],[138.19324,-33.842615],[138.195448,-33.837172],[138.198686,-33.829209],[138.20108,-33.823307],[138.201313,-33.822762],[138.201576,-33.822243],[138.201918,-33.82165],[138.202342,-33.821034],[138.202764,-33.820495],[138.20431,-33.818708],[138.204911,-33.818003],[138.205157,-33.817687],[138.205392,-33.817368],[138.205698,-33.816892],[138.205979,-33.81641],[138.206357,-33.815609],[138.206715,-33.814739],[138.208045,-33.811483]]}},{"type":"Feature","properties":{"tier":"high"},"geometry":{"type":"LineString","coordinates":[[138.164501,-33.936234],[138.164264,-33.935746]]}},{"type":"Feature","properties":{"tier":"high"},"geometry":{"type":"LineString","coordinates":[[138.208045,-33.811483],[138.208461,-33.810553]]}},{"type":"Feature","properties":{"tier":"arterial"},"geometry":{"type":"LineString","coordinates":[[138.494942,-33.846947],[138.50002,-33.846187]]}},{"type":"Feature","properties":{"tier":"arterial"},"geometry":{"type":"LineString","coordinates":[[138.489776,-33.923724],[138.489347,-33.921904],[138.488302,-33.917749],[138.484408,-33.90162],[138.481008,-33.88821],[138.479172,-33.88097],[138.479072,-33.880363],[138.479107,-33.879637],[138.479217,-33.879012],[138.479481,-33.878235],[138.479871,-33.877467],[138.480994,-33.876032],[138.481456,-33.875256],[138.481788,-33.874333],[138.481814,-33.874153],[138.481921,-33.873413],[138.481889,-33.87243],[138.481698,-33.871617],[138.481281,-33.870472],[138.480398,-33.86825],[138.480134,-33.86743],[138.475756,-33.850058]]}},{"type":"Feature","properties":{"tier":"arterial"},"geometry":{"type":"LineString","coordinates":[[138.489824,-33.92393],[138.489776,-33.923724]]}},{"type":"Feature","properties":{"tier":"arterial"},"geometry":{"type":"LineString","coordinates":[[138.497621,-33.956098],[138.495869,-33.948799],[138.493222,-33.93804],[138.490764,-33.927921],[138.489824,-33.92393]]}},{"type":"Feature","properties":{"tier":"arterial"},"geometry":{"type":"LineString","coordinates":[[138.497647,-33.956206],[138.497621,-33.956098]]}},{"type":"Feature","properties":{"tier":"arterial"},"geometry":{"type":"LineString","coordinates":[[138.449707,-33.543878],[138.449811,-33.544336],[138.449849,-33.544507],[138.449956,-33.545093],[138.449977,-33.545602],[138.449774,-33.54963],[138.449717,-33.551434],[138.449644,-33.553274],[138.449593,-33.554449],[138.449556,-33.55505],[138.449474,-33.555719],[138.449339,-33.55639],[138.449167,-33.557048],[138.448497,-33.558695],[138.448306,-33.559057],[138.44795,-33.559659],[138.447627,-33.560138],[138.447138,-33.560767],[138.446658,-33.561319],[138.445699,-33.562251],[138.444788,-33.563296],[138.444307,-33.564075]]}},{"type":"Feature","properties":{"tier":"arterial"},"geometry":{"type":"LineString","coordinates":[[138.44967,-33.543712],[138.449707,-33.543878]]}},{"type":"Feature","properties":{"tier":"high"},"geometry":{"type":"LineString","coordinates":[[138.215301,-34.00002],[138.21541,-33.999347],[138.215481,-33.998368],[138.215445,-33.997476],[138.215331,-33.996733],[138.215243,-33.996345],[138.215113,-33.9959],[138.214936,-33.995409],[138.214731,-33.994912],[138.214521,-33.994514],[138.214349,-33.994206],[138.213513,-33.992739],[138.212587,-33.991148],[138.211562,-33.989398],[138.210564,-33.987708],[138.209687,-33.986394],[138.208858,-33.985122],[138.208186,-33.984054],[138.206895,-33.98198],[138.206386,-33.981171],[138.206088,-33.980751],[138.205902,-33.980524],[138.205662,-33.980256],[138.2054,-33.97999],[138.205024,-33.979661],[138.204657,-33.979372],[138.204337,-33.979152],[138.20404,-33.978968],[138.203602,-33.978724],[138.20308,-33.978452],[138.202076,-33.977912],[138.201353,-33.977481],[138.200756,-33.977071],[138.200261,-33.976693],[138.199292,-33.97594],[138.197964,-33.974902],[138.196659,-33.973897],[138.19597,-33.973348],[138.195375,-33.972882],[138.194793,-33.972466],[138.194175,-33.972065],[138.193264,-33.971561],[138.192713,-33.971307],[138.192259,-33.971117],[138.190775,-33.970524],[138.189657,-33.970039],[138.189002,-33.969712],[138.188442,-33.9694],[138.187532,-33.968852],[138.186439,-33.968144],[138.185794,-33.967663],[138.185099,-33.967126],[138.184568,-33.966654],[138.183839,-33.965938],[138.181993,-33.964118],[138.179735,-33.961885],[138.177042,-33.959219],[138.175138,-33.957364],[138.173775,-33.956002],[138.171796,-33.95404],[138.169961,-33.952233],[138.168829,-33.951139],[138.167263,-33.949573],[138.166737,-33.948967],[138.166295,-33.948403],[138.165889,-33.947744],[138.165611,-33.94708],[138.1654,-33.946235],[138.165348,-33.945819],[138.165332,-33.945465],[138.165326,-33.944518],[138.165361,-33.943479],[138.165433,-33.941562],[138.165417,-33.940668],[138.16531,-33.93972],[138.164835,-33.937216]]}},{"type":"Feature","properties":{"tier":"high"},"geometry":{"type":"LineString","coordinates":[[138.164835,-33.937216],[138.165041,-33.937941],[138.165259,-33.93867],[138.165378,-33.939145],[138.165428,-33.939415],[138.16551,-33.939916],[138.165599,-33.940664],[138.165651,-33.941093],[138.165864,-33.942795],[138.166063,-33.944721],[138.166166,-33.945624],[138.166285,-33.946226],[138.166461,-33.946785],[138.166612,-33.947178],[138.1668,-33.947579],[138.167066,-33.948053],[138.167116,-33.948145],[138.16733,-33.948446],[138.167662,-33.948878],[138.167936,-33.949183],[138.168254,-33.949515],[138.180849,-33.961996],[138.182792,-33.963921],[138.18475,-33.965832],[138.185735,-33.966725],[138.18651,-33.967369],[138.186959,-33.967694],[138.187526,-33.968091],[138.188747,-33.968834],[138.189918,-33.96944],[138.190735,-33.969799],[138.192681,-33.970578],[138.193227,-33.970819],[138.193844,-33.971121],[138.194358,-33.971403],[138.19477,-33.971648],[138.195208,-33.971926],[138.195753,-33.972313],[138.197147,-33.973472],[138.197378,-33.973666],[138.198312,-33.974472],[138.198799,-33.97489],[138.199259,-33.975281],[138.199788,-33.975726],[138.200324,-33.976171],[138.200549,-33.976362],[138.200851,-33.976599],[138.201658,-33.977157],[138.202086,-33.977419],[138.202546,-33.977676],[138.203786,-33.978338],[138.20462,-33.978826],[138.20511,-33.97918],[138.205551,-33.97954],[138.205952,-33.979927],[138.206411,-33.980434],[138.206681,-33.980789],[138.206909,-33.981117],[138.207122,-33.981465],[138.210142,-33.986198],[138.210842,-33.987281],[138.212651,-33.99032],[138.213017,-33.990986],[138.213844,-33.992401],[138.214665,-33.993785],[138.215115,-33.99463],[138.215349,-33.995143],[138.215542,-33.995677],[138.215704,-33.996234],[138.215834,-33.996809],[138.215923,-33.997489],[138.215948,-33.997866],[138.215959,-33.998348],[138.215925,-33.999119],[138.215869,-33.999593],[138.215803,-34.00002]]}},{"type":"Feature","properties":{"tier":"arterial"},"geometry":{"type":"LineString","coordinates":[[138.440156,-33.85615],[138.441059,-33.855837],[138.442325,-33.855437],[138.443029,-33.85525],[138.443733,-33.855108],[138.444545,-33.854987],[138.456497,-33.853463],[138.456708,-33.85344],[138.460488,-33.852821],[138.460872,-33.852728],[138.465101,-33.851699],[138.46814,-33.851133],[138.475756,-33.850058]]}},{"type":"Feature","properties":{"tier":"regional"},"geometry":{"type":"LineString","coordinates":[[138.225305,-33.531702],[138.225308,-33.531591],[138.225411,-33.525898],[138.225594,-33.517012],[138.225629,-33.49998]]}},{"type":"Feature","properties":{"tier":"high"},"geometry":{"type":"LineString","coordinates":[[138.164835,-33.937216],[138.164678,-33.936701],[138.164501,-33.936234]]}}]}
