{"type":"FeatureCollection","features":[{"type":"Feature","properties":{"tier":"arterial"},"geometry":{"type":"LineString","coordinates":[[138.29116,-30.053102],[138.291202,-30.05178],[138.290947,-30.050395],[138.290681,-30.049492],[138.289424,-30.046536],[138.288753,-30.045177],[138.287922,-30.043411],[138.286683,-30.040747],[138.285198,-30.037551],[138.283515,-30.033884],[138.283326,-30.033427],[138.282963,-30.032593],[138.282469,-30.029895]]}},{"type":"Feature","properties":{"tier":"arterial"},"geometry":{"type":"LineString","coordinates":[[138.359428,-30.489767],[138.359353,-30.488745],[138.359337,-30.488379],[138.359217,-30.485669],[138.359031,-30.483165],[138.358682,-30.477],[138.358678,-30.476903],[138.358607,-30.475135],[138.358373,-30.471701],[138.358291,-30.470432],[138.358137,-30.468043],[138.358132,-30.467963],[138.358097,-30.467419],[138.35806,-30.46597],[138.358059,-30.465953],[138.357998,-30.463604],[138.358172,-30.46205],[138.358421,-30.460678],[138.358607,-30.459864],[138.359005,-30.458503],[138.359614,-30.45682],[138.360286,-30.455502],[138.361231,-30.453712],[138.362654,-30.451248],[138.363009,-30.450635],[138.365098,-30.447023],[138.366018,-30.445094],[138.366602,-30.443722],[138.367,-30.442435],[138.367696,-30.439627],[138.368107,-30.438447],[138.368579,-30.43721],[138.369126,-30.436117],[138.369673,-30.43513],[138.370917,-30.433179],[138.371931,-30.431537],[138.372732,-30.430242],[138.373097,-30.429528],[138.374299,-30.427176],[138.37783,-30.420335],[138.377901,-30.420192],[138.381024,-30.413916],[138.381212,-30.413366],[138.381585,-30.4121],[138.381709,-30.410515],[138.381666,-30.409917],[138.381551,-30.409349],[138.381311,-30.408497],[138.379794,-30.403907],[138.377672,-30.397181],[138.377008,-30.395007],[138.376987,-30.394937],[138.376976,-30.394896],[138.376851,-30.394453],[138.376725,-30.393987],[138.376434,-30.392961],[138.376089,-30.391746],[138.375169,-30.389108],[138.372185,-30.381213],[138.371127,-30.377991],[138.368853,-30.371066],[138.367349,-30.366523],[138.361639,-30.34927],[138.36068,-30.346373],[138.360587,-30.346092],[138.360153,-30.344777],[138.359817,-30.34376],[138.354606,-30.327981],[138.351818,-30.319539],[138.350099,-30.315038],[138.349401,-30.313211],[138.348784,-30.311596],[138.347093,-30.30756],[138.346658,-30.30552],[138.346397,-30.304355],[138.346374,-30.303922],[138.34632,-30.302608],[138.346398,-30.301392],[138.34658,-30.300265],[138.347218,-30.297855],[138.347912,-30.295309],[138.348206,-30.294232]]}},{"type":"Feature","properties":{"tier":"arterial"},"geometry":{"type":"LineString","coordinates":[[138.34941,-30.287638],[138.349444,-30.287348],[138.349479,-30.287037],[138.349546,-30.286456]]}},{"type":"Feature","properties":{"tier":"arterial"},"geometry":{"type":"LineString","coordinates":[[138.381229,-30.27585],[138.377263,-30.277352],[138.376135,-30.277822],[138.375589,-30.278054],[138.375205,-30.278246],[138.374782,-30.278476],[138.374146,-30.278863],[138.373757,-30.279146],[138.3734,-30.279426],[138.372912,-30.279899],[138.372672,-30.280149],[138.372522,-30.280305],[138.371825,-30.28103],[138.371638,-30.281201],[138.368342,-30.284204],[138.367586,-30.284862],[138.367188,-30.285182],[138.36656,-30.285602],[138.365892,-30.285959],[138.365655,-30.286071],[138.36447,-30.286549],[138.363313,-30.286962],[138.362498,-30.287253],[138.361481,-30.287588],[138.361237,-30.287653],[138.360737,-30.287748],[138.360034,-30.287805],[138.354638,-30.287947],[138.354105,-30.287961],[138.353759,-30.287941]]}},{"type":"Feature","properties":{"tier":"arterial"},"geometry":{"type":"LineString","coordinates":[[138.349546,-30.286456],[138.349562,-30.286294],[138.349569,-30.286225],[138.349593,-30.28597],[138.349595,-30.285942],[138.34962,-30.285588]]}},{"type":"Feature","properties":{"tier":"arterial"},"geometry":{"type":"LineString","coordinates":[[138.353299,-30.287918],[138.352891,-30.287882],[138.352318,-30.287833],[138.351958,-30.287802],[138.350896,-30.287725],[138.350236,-30.287677],[138.350064,-30.287666],[138.349954,-30.287663]]}},{"type":"Feature","properties":{"tier":"arterial"},"geometry":{"type":"LineString","coordinates":[[138.349653,-30.285275],[138.349661,-30.285199],[138.349806,-30.283555],[138.349832,-30.283327],[138.349835,-30.2833],[138.349873,-30.282877],[138.349894,-30.282605],[138.34995,-30.281977],[138.349974,-30.281765],[138.350039,-30.281174],[138.350052,-30.280953],[138.350056,-30.280743],[138.350164,-30.27953],[138.350167,-30.279488],[138.350306,-30.277913],[138.350451,-30.276276],[138.350479,-30.275819],[138.350563,-30.274475],[138.350629,-30.27342],[138.350691,-30.27263],[138.350671,-30.272035],[138.350615,-30.271469],[138.350552,-30.27112],[138.350495,-30.270803],[138.350268,-30.269902],[138.350063,-30.269188],[138.34974,-30.268268],[138.349407,-30.267517],[138.346744,-30.261506],[138.345574,-30.258867],[138.344647,-30.256759],[138.344439,-30.256137],[138.344295,-30.255491],[138.344227,-30.254836],[138.344219,-30.254395],[138.344245,-30.25399],[138.344242,-30.253962],[138.344378,-30.253108],[138.344721,-30.251614],[138.346217,-30.245093],[138.346348,-30.24448]]}},{"type":"Feature","properties":{"tier":"arterial"},"geometry":{"type":"LineString","coordinates":[[138.348161,-30.236136],[138.349398,-30.23053],[138.349501,-30.229971],[138.349566,-30.229236],[138.349566,-30.228497],[138.349493,-30.227923],[138.349255,-30.227028],[138.348217,-30.223992],[138.346846,-30.219899],[138.346248,-30.218312],[138.346012,-30.217813],[138.342873,-30.211177],[138.340335,-30.205806],[138.339231,-30.203456],[138.338244,-30.201354],[138.337579,-30.199938],[138.335318,-30.195108],[138.327468,-30.178006],[138.326008,-30.174825],[138.324957,-30.17248],[138.32462,-30.171801],[138.324283,-30.171249],[138.323991,-30.170822],[138.323437,-30.170112],[138.320407,-30.166317],[138.317773,-30.163001],[138.313727,-30.157906],[138.307571,-30.150201],[138.297948,-30.138571],[138.293587,-30.132683],[138.291219,-30.129476],[138.28997,-30.127696],[138.289752,-30.12732],[138.28958,-30.126831],[138.289511,-30.126096],[138.289687,-30.125242],[138.289886,-30.124274],[138.290994,-30.119946],[138.291491,-30.117791],[138.291624,-30.117022],[138.291656,-30.116656],[138.291703,-30.11612],[138.291705,-30.115183],[138.291633,-30.114228],[138.290564,-30.106494],[138.28899,-30.095059],[138.288608,-30.093755],[138.28558,-30.086309],[138.283944,-30.082255],[138.283665,-30.081192],[138.283607,-30.080552],[138.283655,-30.080341],[138.283797,-30.079653]]}},{"type":"Feature","properties":{"tier":"arterial"},"geometry":{"type":"LineString","coordinates":[[138.348973,-30.291015],[138.348977,-30.290989],[138.349033,-30.290662],[138.349061,-30.290491],[138.34911,-30.290081],[138.349223,-30.289141],[138.349242,-30.288989],[138.349293,-30.288519],[138.349351,-30.287994]]}},{"type":"Feature","properties":{"tier":"arterial"},"geometry":{"type":"LineString","coordinates":[[138.348206,-30.294232],[138.348339,-30.293681],[138.348495,-30.293113],[138.348727,-30.292151]]}},{"type":"Feature","properties":{"tier":"arterial"},"geometry":{"type":"LineString","coordinates":[[138.290841,-30.063654],[138.290644,-30.069734],[138.290579,-30.07216],[138.290431,-30.072869],[138.290276,-30.073288],[138.289931,-30.074011],[138.28948,-30.074664],[138.288871,-30.075269],[138.288285,-30.075735],[138.287346,-30.076337],[138.286637,-30.076752],[138.285613,-30.07735],[138.284854,-30.077917],[138.284326,-30.078529],[138.284053,-30.078989],[138.28389,-30.079358],[138.283797,-30.079653]]}},{"type":"Feature","properties":{"tier":"regional"},"geometry":{"type":"LineString","coordinates":[[138.006338,-30.064318],[138.005958,-30.064447],[138.005527,-30.064301],[138.005018,-30.064111],[138.004425,-30.063997],[138.002988,-30.063872],[138.002012,-30.063752],[138.001487,-30.063789],[137.99998,-30.06407]]}},{"type":"Feature","properties":{"tier":"regional"},"geometry":{"type":"LineString","coordinates":[[138.283655,-30.080341],[138.282952,-30.080208],[138.282356,-30.0799],[138.281869,-30.079176],[138.280778,-30.077459],[138.280147,-30.076098],[138.277085,-30.069488],[138.276982,-30.068696],[138.276992,-30.067022],[138.277007,-30.066242],[138.277009,-30.066139],[138.277015,-30.06582],[138.276856,-30.065439],[138.276134,-30.064615],[138.27579,-30.064342],[138.274844,-30.063769],[138.274765,-30.063758],[138.274362,-30.063703],[138.274247,-30.063688],[138.272882,-30.06379],[138.272347,-30.063714],[138.272023,-30.063558],[138.271587,-30.0633],[138.271175,-30.063229],[138.270589,-30.063202],[138.269968,-30.063305],[138.268667,-30.063687],[138.261826,-30.064995],[138.256532,-30.066081],[138.256126,-30.066085],[138.255304,-30.065978],[138.254091,-30.065911],[138.253541,-30.065769],[138.252518,-30.065396],[138.251747,-30.065351],[138.249419,-30.065711],[138.24853,-30.065774],[138.248052,-30.065952],[138.247353,-30.066512],[138.24635,-30.066939],[138.242968,-30.06798],[138.241622,-30.06826],[138.24046,-30.068371],[138.237654,-30.068874],[138.235341,-30.069187],[138.234611,-30.069329],[138.233835,-30.069293],[138.233228,-30.069351],[138.23272,-30.069534],[138.23199,-30.069845],[138.231709,-30.06992],[138.230535,-30.070236],[138.22907,-30.070365],[138.227004,-30.070321],[138.22187,-30.070545],[138.220841,-30.07067],[138.220417,-30.070692],[138.220098,-30.070733],[138.219658,-30.070748],[138.219055,-30.070685],[138.218313,-30.070575],[138.213967,-30.069714],[138.204553,-30.068091],[138.196848,-30.067166],[138.195017,-30.06687],[138.19248,-30.066323],[138.191724,-30.06621],[138.188984,-30.065939],[138.188126,-30.065964],[138.186905,-30.066203],[138.175209,-30.067795],[138.173756,-30.06799],[138.173421,-30.067958],[138.172956,-30.067864],[138.165753,-30.06587],[138.165135,-30.065807],[138.164357,-30.065939],[138.159945,-30.066468],[138.159204,-30.066512],[138.158462,-30.066468],[138.155933,-30.066279],[138.152538,-30.066197],[138.148809,-30.066166],[138.147218,-30.065927],[138.146171,-30.065876],[138.144412,-30.065908],[138.141461,-30.06626],[138.134148,-30.067801],[138.131473,-30.067845],[138.131132,-30.067764],[138.130565,-30.067525],[138.129874,-30.067036],[138.129613,-30.066851],[138.127854,-30.066474],[138.127173,-30.066491],[138.126836,-30.066499],[138.119153,-30.066021],[138.112822,-30.064253],[138.110687,-30.063595],[138.10511,-30.061259],[138.101991,-30.059296],[138.100959,-30.058919],[138.096017,-30.057188],[138.095609,-30.057138],[138.095057,-30.057088],[138.093284,-30.056528],[138.09284,-30.056471],[138.091757,-30.056396],[138.090681,-30.055993],[138.089911,-30.055326],[138.089169,-30.054898],[138.087323,-30.053911],[138.086952,-30.053508],[138.086604,-30.053294],[138.086182,-30.053288],[138.085731,-30.0533],[138.084379,-30.053023],[138.082744,-30.052369],[138.081159,-30.051495],[138.08073,-30.051262],[138.080367,-30.051167],[138.078899,-30.051149],[138.078136,-30.051004],[138.077038,-30.050551],[138.075155,-30.049261],[138.073796,-30.047506],[138.072001,-30.045756],[138.071245,-30.045278],[138.06495,-30.041189],[138.057485,-30.035903],[138.050987,-30.031171],[138.050453,-30.030755],[138.050162,-30.030525],[138.049831,-30.030271],[138.049497,-30.029855],[138.048832,-30.028668],[138.048617,-30.028175],[138.048505,-30.027663],[138.048282,-30.026981],[138.048193,-30.026429],[138.047718,-30.02558],[138.047322,-30.025095],[138.045966,-30.024398],[138.044323,-30.023798],[138.044028,-30.023691],[138.043354,-30.023608],[138.042722,-30.02353],[138.041846,-30.023568],[138.041393,-30.02371],[138.040532,-30.024616],[138.040206,-30.025094],[138.039678,-30.025677],[138.039522,-30.025998],[138.039329,-30.027123],[138.038931,-30.027703],[138.038646,-30.028119],[138.037874,-30.02889],[138.03737,-30.02925],[138.036998,-30.029739],[138.036464,-30.030111],[138.036078,-30.03042],[138.035811,-30.03078],[138.035781,-30.030857],[138.035664,-30.030996],[138.033992,-30.032457],[138.033658,-30.033074],[138.033435,-30.03328],[138.032782,-30.033697],[138.032255,-30.034449],[138.031628,-30.035024],[138.030518,-30.036043],[138.030191,-30.036236],[138.029946,-30.036461],[138.029775,-30.036782],[138.02959,-30.037669],[138.028677,-30.039121],[138.026695,-30.040741],[138.026494,-30.041056],[138.026531,-30.041692],[138.026398,-30.042019],[138.025663,-30.043812],[138.025166,-30.045849],[138.025217,-30.046543],[138.025032,-30.047244],[138.024798,-30.047857],[138.02475,-30.047983],[138.024802,-30.048368],[138.024928,-30.048799],[138.024883,-30.049332],[138.024445,-30.050804],[138.024334,-30.05171],[138.024379,-30.053477],[138.024245,-30.054145],[138.02397,-30.054839],[138.023094,-30.055809],[138.0221,-30.056741],[138.021149,-30.0573],[138.020741,-30.057582],[138.019947,-30.057968],[138.019516,-30.058411],[138.017378,-30.059943],[138.016888,-30.060294],[138.01645,-30.060384],[138.015975,-30.060371],[138.015671,-30.0603],[138.013258,-30.060454],[138.012538,-30.060724],[138.008025,-30.063435],[138.007015,-30.063782],[138.006338,-30.064318]]}},{"type":"Feature","properties":{"tier":"arterial"},"geometry":{"type":"LineString","coordinates":[[138.282469,-30.029895],[138.282377,-30.029357],[138.282215,-30.028416],[138.280915,-30.020837],[138.279589,-30.012516],[138.279577,-30.012437],[138.279552,-30.012285],[138.278977,-30.008676],[138.277892,-30.002053],[138.277399,-29.99998]]}},{"type":"Feature","properties":{"tier":"arterial"},"geometry":{"type":"LineString","coordinates":[[138.29116,-30.053102],[138.29112,-30.056482],[138.290841,-30.063654]]}},{"type":"Feature","properties":{"tier":"arterial"},"geometry":{"type":"LineString","coordinates":[[138.365123,-30.50002],[138.3632,-30.49773],[138.361631,-30.495771],[138.360732,-30.494328],[138.360226,-30.493098],[138.360027,-30.492612],[138.359604,-30.491025],[138.359428,-30.489767]]}},{"type":"Feature","properties":{"tier":"arterial"},"geometry":{"type":"LineString","coordinates":[[138.353759,-30.287941],[138.353299,-30.287918]]}},{"type":"Feature","properties":{"tier":"arterial"},"geometry":{"type":"LineString","coordinates":[[138.346684,-30.242895],[138.347072,-30.24107],[138.348161,-30.236136]]}},{"type":"Feature","properties":{"tier":"arterial"},"geometry":{"type":"LineString","coordinates":[[138.346348,-30.24448],[138.346596,-30.243311]]}},{"type":"Feature","properties":{"tier":"arterial"},"geometry":{"type":"LineString","coordinates":[[138.349954,-30.287663],[138.349773,-30.287655],[138.34955,-30.287645]]}},{"type":"Feature","properties":{"tier":"arterial"},"geometry":{"type":"LineString","coordinates":[[138.34962,-30.285588],[138.349624,-30.285556],[138.349631,-30.285487]]}},{"type":"Feature","properties":{"tier":"arterial"},"geometry":{"type":"LineString","coordinates":[[138.349631,-30.285487],[138.349653,-30.285275]]}},{"type":"Feature","properties":{"tier":"arterial"},"geometry":{"type":"LineString","coordinates":[[138.34955,-30.287645],[138.349528,-30.287644],[138.34941,-30.287638]]}},{"type":"Feature","properties":{"tier":"arterial"},"geometry":{"type":"LineString","coordinates":[[138.348727,-30.292151],[138.348933,-30.291201]]}},{"type":"Feature","properties":{"tier":"arterial"},"geometry":{"type":"LineString","coordinates":[[138.348933,-30.291201],[138.348973,-30.291015]]}},{"type":"Feature","properties":{"tier":"arterial"},"geometry":{"type":"LineString","coordinates":[[138.346596,-30.243311],[138.346684,-30.242895]]}},{"type":"Feature","properties":{"tier":"arterial"},"geometry":{"type":"LineString","coordinates":[[138.50002,-30.225743],[138.499816,-30.225769],[138.492932,-30.226707],[138.484256,-30.227843],[138.47857,-30.228623],[138.475022,-30.229081],[138.473968,-30.22928],[138.473212,-30.229484],[138.472727,-30.229658],[138.47227,-30.229867],[138.472104,-30.229959],[138.471838,-30.230105],[138.471423,-30.23037],[138.470856,-30.230827],[138.470375,-30.231317],[138.470075,-30.231674],[138.469802,-30.232044],[138.468308,-30.234219],[138.46753,-30.23539],[138.465742,-30.237924],[138.465262,-30.238475],[138.464904,-30.238814],[138.464513,-30.239129],[138.463894,-30.239561],[138.463238,-30.239958],[138.460224,-30.241547],[138.459488,-30.241915],[138.45924,-30.242034],[138.456718,-30.243111],[138.454453,-30.244145],[138.450679,-30.245946],[138.447962,-30.247297],[138.446007,-30.248322],[138.44335,-30.249764],[138.442395,-30.250305],[138.440915,-30.251099],[138.439217,-30.252038],[138.435183,-30.254202],[138.433834,-30.254892],[138.432238,-30.255611],[138.430126,-30.25651],[138.428121,-30.257345],[138.424967,-30.258659],[138.421736,-30.259925],[138.417957,-30.261323],[138.413936,-30.262844],[138.412494,-30.263405],[138.409328,-30.264688],[138.404713,-30.266506],[138.401318,-30.267876],[138.398177,-30.269122],[138.39546,-30.270225],[138.394634,-30.270546],[138.393689,-30.270913],[138.392291,-30.271482],[138.390291,-30.272259],[138.388496,-30.272981],[138.386496,-30.273759],[138.385885,-30.273997],[138.381229,-30.27585]]}},{"type":"Feature","properties":{"tier":"arterial"},"geometry":{"type":"LineString","coordinates":[[138.349351,-30.287994],[138.349408,-30.287653],[138.34941,-30.287638]]}}]}
