{"type":"FeatureCollection","features":[{"type":"Feature","properties":{"tier":"arterial"},"geometry":{"type":"LineString","coordinates":[[138.50002,-35.609223],[138.49986,-35.609388],[138.499382,-35.609828],[138.499032,-35.610099],[138.498635,-35.610341],[138.497289,-35.611023],[138.496766,-35.611359],[138.49608,-35.611948],[138.495841,-35.612057],[138.495573,-35.612127],[138.494774,-35.612187],[138.493785,-35.612263],[138.492905,-35.61237]]}},{"type":"Feature","properties":{"tier":"arterial"},"geometry":{"type":"LineString","coordinates":[[138.255845,-35.502659],[138.255863,-35.502834],[138.255982,-35.503304],[138.256055,-35.50353],[138.256194,-35.503834],[138.256388,-35.504185],[138.256557,-35.504405],[138.256679,-35.50456],[138.25684,-35.504737],[138.256952,-35.50484],[138.257191,-35.505037],[138.257451,-35.505246],[138.257882,-35.505587],[138.258101,-35.505749],[138.258226,-35.505815],[138.258379,-35.505861],[138.258541,-35.505884],[138.258705,-35.505883],[138.258833,-35.505865],[138.259014,-35.505824],[138.259296,-35.505755],[138.25952,-35.505752],[138.259784,-35.505797],[138.260157,-35.50596],[138.260622,-35.506206],[138.260717,-35.506284]]}},{"type":"Feature","properties":{"tier":"arterial"},"geometry":{"type":"LineString","coordinates":[[138.253646,-35.49998],[138.253642,-35.499993],[138.253589,-35.500057],[138.2535,-35.500095],[138.252596,-35.500213],[138.252079,-35.500281],[138.251792,-35.50034],[138.251644,-35.500381],[138.251355,-35.50051],[138.251108,-35.500656],[138.250947,-35.500776],[138.250799,-35.500912],[138.250504,-35.501283],[138.250262,-35.501555],[138.250138,-35.501739],[138.249845,-35.502188],[138.249831,-35.502207],[138.249716,-35.502372],[138.249565,-35.502534],[138.24922,-35.502796],[138.249089,-35.502874],[138.248994,-35.502947],[138.248511,-35.503281],[138.247924,-35.503691],[138.247613,-35.503997],[138.247463,-35.504123],[138.247369,-35.504215],[138.247109,-35.504368],[138.246814,-35.504493],[138.246535,-35.504613],[138.24632,-35.504705],[138.246202,-35.504772],[138.246111,-35.504842],[138.246041,-35.504904],[138.245993,-35.504947],[138.245912,-35.505065],[138.245826,-35.505224],[138.245784,-35.505412],[138.245785,-35.505536],[138.245786,-35.505611],[138.245872,-35.505849],[138.245995,-35.506039],[138.246076,-35.50617],[138.246148,-35.506346],[138.246183,-35.506547],[138.246164,-35.506818],[138.246124,-35.506921],[138.246089,-35.50701],[138.245995,-35.507162],[138.245968,-35.507199],[138.24572,-35.507553],[138.245615,-35.507716],[138.245561,-35.507886],[138.245553,-35.508023],[138.245577,-35.508159],[138.245687,-35.508447],[138.245754,-35.508591],[138.245835,-35.508702],[138.245963,-35.508796],[138.246038,-35.508831],[138.246132,-35.50886],[138.246245,-35.508879],[138.246384,-35.508877],[138.246478,-35.50886],[138.246552,-35.508833],[138.246567,-35.508827],[138.246639,-35.508764],[138.24666,-35.508679]]}},{"type":"Feature","properties":{"tier":"arterial"},"geometry":{"type":"LineString","coordinates":[[138.206577,-35.563452],[138.206525,-35.563435],[138.206273,-35.563429],[138.204865,-35.563478],[138.202494,-35.563575],[138.20118,-35.563632],[138.200911,-35.563606],[138.200786,-35.563535],[138.200692,-35.563436],[138.200587,-35.563193],[138.20058,-35.562966],[138.200595,-35.562724],[138.200573,-35.562122],[138.200524,-35.561794],[138.200444,-35.561624],[138.200282,-35.561319],[138.200209,-35.561206],[138.199472,-35.560177],[138.198626,-35.558995],[138.198483,-35.558766],[138.19845,-35.558712],[138.19841,-35.558593],[138.198374,-35.558482],[138.198289,-35.558139],[138.198136,-35.557335],[138.198116,-35.557195],[138.198119,-35.557041],[138.198139,-35.55693],[138.198172,-35.556836],[138.198216,-35.556749],[138.198279,-35.556639],[138.198422,-35.556461],[138.199151,-35.555598],[138.199375,-35.555285],[138.199441,-35.555159],[138.199471,-35.555103],[138.199494,-35.555027],[138.1995,-35.554935],[138.199496,-35.554841],[138.199477,-35.554763],[138.199447,-35.554687],[138.199387,-35.554591],[138.199301,-35.554495],[138.199154,-35.554399],[138.198998,-35.554315],[138.198623,-35.554178],[138.19724,-35.553696],[138.196674,-35.553429],[138.196029,-35.552976],[138.195625,-35.552539],[138.195329,-35.552051],[138.195134,-35.551493],[138.195016,-35.551046],[138.193665,-35.545685],[138.193544,-35.545223],[138.193483,-35.544927],[138.193464,-35.544733],[138.193484,-35.544509],[138.193544,-35.54423],[138.194087,-35.542315],[138.194208,-35.54184],[138.194224,-35.541598],[138.194209,-35.541299],[138.194177,-35.541033],[138.194014,-35.53937],[138.193895,-35.538593],[138.193881,-35.538411],[138.193875,-35.538345],[138.193899,-35.538108],[138.193987,-35.537848],[138.194198,-35.537266],[138.194243,-35.537038],[138.194257,-35.536656],[138.194353,-35.535271],[138.19436,-35.534944],[138.19435,-35.534766],[138.19434,-35.534645],[138.194316,-35.534503],[138.194236,-35.534181],[138.194108,-35.533771],[138.194011,-35.533577],[138.193917,-35.533438],[138.193788,-35.533306],[138.193602,-35.533133],[138.192536,-35.53243],[138.192339,-35.53229],[138.192202,-35.532164],[138.192106,-35.532049],[138.192001,-35.531877],[138.191921,-35.531736],[138.19184,-35.53149],[138.19061,-35.527483]]}},{"type":"Feature","properties":{"tier":"high"},"geometry":{"type":"LineString","coordinates":[[138.214402,-35.560435],[138.213517,-35.560784],[138.212979,-35.561008],[138.212647,-35.561156],[138.212147,-35.561385],[138.211786,-35.561533],[138.211348,-35.561691],[138.210543,-35.561973],[138.209865,-35.562209],[138.209617,-35.562288],[138.209389,-35.562339],[138.209099,-35.562393],[138.208466,-35.562521],[138.208231,-35.56258],[138.208069,-35.562613],[138.207691,-35.562736],[138.207497,-35.562822],[138.207291,-35.562931],[138.207063,-35.563059],[138.20686,-35.563203],[138.20668,-35.563355],[138.206577,-35.563452],[138.206334,-35.56368],[138.205941,-35.564056],[138.205662,-35.564322],[138.205471,-35.564482],[138.20525,-35.564644],[138.20503,-35.564803],[138.204581,-35.565121],[138.20384,-35.565629],[138.20351,-35.56586],[138.202733,-35.566378],[138.202498,-35.566548],[138.201665,-35.567117],[138.201102,-35.567496]]}},{"type":"Feature","properties":{"tier":"arterial"},"geometry":{"type":"LineString","coordinates":[[138.19061,-35.527483],[138.190548,-35.527397],[138.190474,-35.527294],[138.190345,-35.527076],[138.190236,-35.526959],[138.189941,-35.526758],[138.189678,-35.526605],[138.189399,-35.526514],[138.189358,-35.526502],[138.188949,-35.526387],[138.188552,-35.526278],[138.188017,-35.526127],[138.187554,-35.526006],[138.187458,-35.525934]]}},{"type":"Feature","properties":{"tier":"arterial"},"geometry":{"type":"LineString","coordinates":[[138.255743,-35.502527],[138.255721,-35.502441],[138.255602,-35.501973],[138.255326,-35.500878],[138.255271,-35.50072],[138.255201,-35.500597],[138.255103,-35.500473],[138.255001,-35.500357],[138.254841,-35.500217],[138.254676,-35.500097],[138.25449,-35.500007],[138.254419,-35.49998]]}},{"type":"Feature","properties":{"tier":"arterial"},"geometry":{"type":"LineString","coordinates":[[138.250991,-35.49998],[138.250952,-35.500026],[138.250857,-35.500099],[138.250702,-35.500155],[138.250548,-35.500175],[138.250383,-35.500196],[138.25023,-35.500238],[138.250074,-35.500327],[138.249984,-35.500404],[138.249915,-35.500498],[138.249838,-35.50072],[138.249779,-35.50086],[138.249698,-35.500952],[138.2496,-35.50101],[138.249462,-35.501056],[138.248998,-35.501122],[138.248904,-35.501142],[138.248801,-35.501184],[138.248742,-35.501224],[138.248661,-35.501291],[138.248584,-35.501402],[138.248455,-35.501639],[138.248368,-35.501739],[138.248198,-35.501875],[138.248078,-35.501965],[138.247934,-35.502132],[138.247789,-35.50228],[138.247649,-35.502375],[138.247601,-35.502404],[138.247535,-35.502436],[138.247214,-35.502559],[138.246792,-35.502699],[138.246663,-35.502746],[138.246555,-35.502807],[138.246505,-35.50285],[138.246463,-35.502918],[138.246412,-35.503034],[138.246364,-35.503128],[138.24631,-35.503231],[138.246278,-35.503274],[138.246217,-35.503327],[138.246134,-35.503377],[138.246076,-35.503398],[138.246015,-35.503421],[138.245879,-35.503434],[138.24572,-35.503414],[138.245305,-35.503322],[138.245203,-35.503285],[138.24509,-35.503237],[138.244892,-35.503115],[138.244752,-35.503019],[138.244605,-35.502864],[138.244513,-35.502722],[138.244446,-35.502556],[138.244409,-35.502394],[138.244406,-35.502196],[138.244465,-35.502014],[138.244527,-35.50187],[138.244707,-35.501582],[138.244803,-35.501435],[138.244831,-35.501375],[138.244827,-35.501313],[138.244803,-35.501265],[138.244646,-35.501055]]}},{"type":"Feature","properties":{"tier":"arterial"},"geometry":{"type":"LineString","coordinates":[[138.255675,-35.502648],[138.255666,-35.502629],[138.255662,-35.502609],[138.255668,-35.502581],[138.255685,-35.502556],[138.255711,-35.502537],[138.255743,-35.502527],[138.255778,-35.502526],[138.255812,-35.502535],[138.25584,-35.502552],[138.255859,-35.502577],[138.255866,-35.502605],[138.255861,-35.502633],[138.255845,-35.502659],[138.255819,-35.502678],[138.255786,-35.502689],[138.255751,-35.50269],[138.255717,-35.502682],[138.255689,-35.502664],[138.255675,-35.502648]]}},{"type":"Feature","properties":{"tier":"arterial"},"geometry":{"type":"LineString","coordinates":[[138.187458,-35.525934],[138.187601,-35.52593],[138.187761,-35.525939],[138.188139,-35.526033],[138.188622,-35.526164],[138.189115,-35.526304],[138.189649,-35.526472],[138.189781,-35.526528],[138.189872,-35.526575],[138.190091,-35.526721],[138.190354,-35.526898],[138.190423,-35.526964],[138.190485,-35.527059],[138.19061,-35.527483]]}},{"type":"Feature","properties":{"tier":"arterial"},"geometry":{"type":"LineString","coordinates":[[138.49275,-35.612382],[138.492423,-35.612383],[138.491359,-35.61231],[138.490778,-35.612282],[138.489341,-35.612351],[138.487008,-35.612451],[138.485607,-35.612543],[138.480509,-35.612914],[138.480069,-35.612943],[138.477126,-35.613075],[138.473995,-35.613226],[138.472635,-35.61319],[138.469617,-35.613053],[138.468918,-35.613048],[138.468304,-35.613153],[138.467468,-35.613617],[138.467003,-35.61379],[138.466152,-35.614047],[138.465601,-35.614229],[138.464964,-35.614449],[138.464494,-35.614621],[138.463807,-35.614863],[138.462942,-35.615128],[138.461531,-35.615555],[138.461429,-35.615585],[138.461274,-35.615629],[138.461123,-35.615664],[138.460979,-35.615686],[138.460844,-35.615694],[138.460726,-35.615694],[138.460608,-35.615694],[138.460442,-35.615668],[138.460308,-35.615642],[138.46019,-35.615607],[138.460056,-35.615555],[138.459943,-35.615494],[138.45982,-35.615411],[138.459734,-35.615337],[138.459645,-35.615251],[138.459535,-35.615129],[138.45764,-35.612928],[138.457253,-35.612437],[138.45699,-35.611725],[138.456159,-35.609223],[138.45525,-35.606647],[138.455083,-35.606046],[138.455092,-35.605431],[138.455196,-35.604949],[138.455374,-35.604262],[138.455586,-35.603749],[138.45786,-35.598475],[138.458063,-35.597868],[138.45875,-35.593688],[138.458803,-35.593314],[138.458712,-35.592668],[138.458556,-35.592361],[138.456417,-35.590024],[138.45586,-35.589437],[138.455531,-35.58882],[138.454938,-35.587035],[138.454261,-35.584997],[138.454194,-35.584779],[138.454056,-35.584582],[138.453782,-35.584408],[138.451974,-35.58305],[138.451316,-35.582395],[138.449813,-35.580506],[138.449316,-35.579698],[138.448662,-35.578251],[138.448559,-35.578054],[138.448366,-35.577801],[138.448094,-35.57758],[138.447674,-35.577349],[138.446714,-35.57689],[138.446441,-35.576732],[138.446299,-35.57663],[138.446196,-35.576538],[138.446099,-35.576388],[138.446036,-35.576245],[138.446023,-35.576108],[138.446028,-35.575972],[138.446081,-35.575647]]}},{"type":"Feature","properties":{"tier":"arterial"},"geometry":{"type":"LineString","coordinates":[[138.492905,-35.61237],[138.492828,-35.612379],[138.49275,-35.612382]]}},{"type":"Feature","properties":{"tier":"high"},"geometry":{"type":"LineString","coordinates":[[138.101379,-35.603789],[138.100901,-35.603956],[138.100492,-35.604107],[138.098621,-35.604806],[138.097488,-35.605254],[138.096845,-35.605508],[138.096353,-35.605704],[138.096206,-35.605749],[138.096061,-35.605771],[138.095967,-35.605769],[138.095807,-35.605755]]}},{"type":"Feature","properties":{"tier":"high"},"geometry":{"type":"LineString","coordinates":[[138.214808,-35.560257],[138.214402,-35.560435]]}},{"type":"Feature","properties":{"tier":"high"},"geometry":{"type":"LineString","coordinates":[[138.241894,-35.525067],[138.241709,-35.5251],[138.241466,-35.52513],[138.236587,-35.525581],[138.236395,-35.525585],[138.236164,-35.525579],[138.236049,-35.525559],[138.235915,-35.525535],[138.235771,-35.525496],[138.235627,-35.525454],[138.235489,-35.525407],[138.234981,-35.525239],[138.234878,-35.525207],[138.23476,-35.525179],[138.234646,-35.525161],[138.234552,-35.525151],[138.234464,-35.525147],[138.234421,-35.525146],[138.234288,-35.525151],[138.234164,-35.525165],[138.234042,-35.525188],[138.23393,-35.525217],[138.23383,-35.52525],[138.233081,-35.525562],[138.232772,-35.52569],[138.232659,-35.525748],[138.23252,-35.525828],[138.232385,-35.525927],[138.232303,-35.526005],[138.232224,-35.526096],[138.232162,-35.526183],[138.232104,-35.526274],[138.232044,-35.526376]]}},{"type":"Feature","properties":{"tier":"high"},"geometry":{"type":"LineString","coordinates":[[138.242101,-35.525007],[138.241894,-35.525067]]}},{"type":"Feature","properties":{"tier":"arterial"},"geometry":{"type":"LineString","coordinates":[[138.361807,-35.561569],[138.361833,-35.561091],[138.361848,-35.560966],[138.36198,-35.560656],[138.362742,-35.559473],[138.362982,-35.558731],[138.363013,-35.558038],[138.363173,-35.557206],[138.363534,-35.556472],[138.363705,-35.555909],[138.363825,-35.555281],[138.363584,-35.554734],[138.363243,-35.554326],[138.36197,-35.553388],[138.360436,-35.551919],[138.360165,-35.551422],[138.360105,-35.550859],[138.360185,-35.550516],[138.360466,-35.550027],[138.360817,-35.5497],[138.361198,-35.549407],[138.36198,-35.549227],[138.364106,-35.548893],[138.364657,-35.548746],[138.36587,-35.547946],[138.368247,-35.546494],[138.368979,-35.546331],[138.370062,-35.546225],[138.37297,-35.546054],[138.373692,-35.545907],[138.374403,-35.545654],[138.375005,-35.545238],[138.375466,-35.544675],[138.375898,-35.54359],[138.376399,-35.542317],[138.3768,-35.541811],[138.379156,-35.539945],[138.37939,-35.539726],[138.379464,-35.539622],[138.379522,-35.539523],[138.379614,-35.539327],[138.37971,-35.538968],[138.379758,-35.538331],[138.379858,-35.535602],[138.380059,-35.535112],[138.38045,-35.5345],[138.381056,-35.533969],[138.382364,-35.532407],[138.383687,-35.531476],[138.386993,-35.529226],[138.387663,-35.528609],[138.389843,-35.525895],[138.393213,-35.521088],[138.393418,-35.520778]]}},{"type":"Feature","properties":{"tier":"arterial"},"geometry":{"type":"LineString","coordinates":[[138.50002,-35.561351],[138.499845,-35.561379],[138.499558,-35.561445],[138.499301,-35.561525],[138.499056,-35.56162],[138.498849,-35.561717],[138.498636,-35.561835],[138.498452,-35.561954],[138.498259,-35.5621],[138.498083,-35.562255],[138.497926,-35.562417],[138.497789,-35.562584],[138.497674,-35.562748],[138.49757,-35.562923],[138.497485,-35.563099],[138.497422,-35.563241],[138.497357,-35.563422],[138.497172,-35.564116],[138.497111,-35.564326],[138.497033,-35.564538],[138.496913,-35.56481],[138.496784,-35.565052],[138.496635,-35.565291],[138.496481,-35.565505],[138.496313,-35.565708],[138.496123,-35.565913],[138.49594,-35.566087],[138.495734,-35.566264],[138.495553,-35.566403],[138.494337,-35.567297],[138.494035,-35.567483],[138.493785,-35.567613],[138.493436,-35.567779],[138.493057,-35.567928],[138.492742,-35.56804],[138.492655,-35.568061],[138.492331,-35.568141],[138.491896,-35.568226],[138.489558,-35.568682],[138.489248,-35.568725],[138.488963,-35.568752],[138.488687,-35.568766],[138.4885,-35.568769],[138.488219,-35.568763],[138.487951,-35.568747],[138.487754,-35.568728],[138.48749,-35.568692],[138.487256,-35.568652],[138.487048,-35.568609],[138.486833,-35.568556],[138.486588,-35.568487],[138.486391,-35.568422],[138.486215,-35.568359],[138.48418,-35.567545],[138.484015,-35.567473],[138.483834,-35.5674],[138.483595,-35.567315],[138.483319,-35.56723],[138.483071,-35.567166],[138.482756,-35.5671],[138.482484,-35.567056],[138.482202,-35.567024],[138.481916,-35.567004],[138.481682,-35.566997],[138.481584,-35.566996],[138.47857,-35.567069],[138.478161,-35.567086],[138.477929,-35.567105],[138.477672,-35.567136],[138.477357,-35.567187],[138.477073,-35.567258],[138.476823,-35.567325],[138.476484,-35.567421],[138.473486,-35.568295],[138.469607,-35.569424],[138.469428,-35.56948],[138.469212,-35.569536],[138.468972,-35.569583],[138.46874,-35.569614],[138.468514,-35.569632],[138.468301,-35.569637],[138.468084,-35.569632],[138.46789,-35.569617],[138.467633,-35.569583],[138.467366,-35.56953],[138.467192,-35.569485],[138.467139,-35.569471],[138.466902,-35.569392],[138.466701,-35.569311],[138.466498,-35.569228],[138.465821,-35.568926],[138.464876,-35.568525],[138.464673,-35.568437],[138.46447,-35.568363],[138.46423,-35.568291],[138.464006,-35.568239],[138.463787,-35.568201],[138.46354,-35.568173],[138.463374,-35.568163],[138.46321,-35.56816],[138.462953,-35.568168],[138.462697,-35.568193],[138.462463,-35.56823],[138.462258,-35.568274],[138.46197,-35.568356],[138.461716,-35.568445],[138.461353,-35.568563],[138.46111,-35.568639],[138.460922,-35.568685],[138.460738,-35.568726],[138.460542,-35.568756],[138.460304,-35.56878],[138.460081,-35.568792],[138.458959,-35.56885],[138.458767,-35.568871],[138.458515,-35.568913],[138.458287,-35.568965],[138.458022,-35.569045],[138.457719,-35.569165],[138.457573,-35.569234],[138.457389,-35.569334],[138.457179,-35.569467],[138.456975,-35.56962],[138.456867,-35.569713],[138.456739,-35.569823],[138.455735,-35.570909],[138.455596,-35.571061],[138.45548,-35.571174],[138.455317,-35.571317],[138.455091,-35.571487],[138.454946,-35.571581],[138.454691,-35.571726],[138.454469,-35.571833],[138.454262,-35.571918],[138.454092,-35.571979],[138.453904,-35.572046],[138.453012,-35.572355],[138.452426,-35.57256],[138.451745,-35.572803],[138.451549,-35.572885],[138.451377,-35.572963],[138.451215,-35.573048],[138.451061,-35.573142],[138.450951,-35.57322],[138.450828,-35.57331],[138.450686,-35.573421],[138.450564,-35.573525],[138.449272,-35.574677],[138.448945,-35.57494],[138.448876,-35.574992],[138.448773,-35.575064],[138.448638,-35.575151],[138.448481,-35.57524],[138.448321,-35.575321],[138.448149,-35.575397],[138.447964,-35.575467],[138.447784,-35.575525],[138.447566,-35.575583],[138.447384,-35.575621],[138.447176,-35.575653],[138.446977,-35.575674],[138.446652,-35.575687],[138.446441,-35.575681],[138.446268,-35.575669],[138.446081,-35.575647],[138.445852,-35.575607],[138.445627,-35.575555],[138.445445,-35.575502],[138.445281,-35.575446],[138.445083,-35.575366],[138.44491,-35.575285],[138.444729,-35.575202],[138.444508,-35.575079],[138.44421,-35.574887],[138.44377,-35.574597],[138.443022,-35.574095],[138.442668,-35.573858],[138.442242,-35.573585],[138.441805,-35.573317],[138.441348,-35.573044],[138.438479,-35.571333],[138.438072,-35.571088],[138.437938,-35.571],[138.437828,-35.570921],[138.4377,-35.570822],[138.437549,-35.570693],[138.437428,-35.570578],[138.437323,-35.570469],[138.437228,-35.570362],[138.437108,-35.570211],[138.437015,-35.570079],[138.436948,-35.569975],[138.43688,-35.569859],[138.436817,-35.569738],[138.436775,-35.569648],[138.435661,-35.567474],[138.434393,-35.565041],[138.433187,-35.5626],[138.431815,-35.559933],[138.431569,-35.559426],[138.430637,-35.557551],[138.429874,-35.556091],[138.429098,-35.554543],[138.429008,-35.554357],[138.428932,-35.55418],[138.428866,-35.553931],[138.428803,-35.553593],[138.428762,-35.553385],[138.428713,-35.553207],[138.428641,-35.552996],[138.428537,-35.552753],[138.42844,-35.552567],[138.428308,-35.552313],[138.427407,-35.550641],[138.426146,-35.548262],[138.424829,-35.545789],[138.42459,-35.545358],[138.424423,-35.54511],[138.424306,-35.544955],[138.424146,-35.544785],[138.423945,-35.544602],[138.423775,-35.544461],[138.423078,-35.543983],[138.422934,-35.543896],[138.422766,-35.543818],[138.422598,-35.54376],[138.422412,-35.543716],[138.422229,-35.543692],[138.422081,-35.543684],[138.421978,-35.543689],[138.421842,-35.543696],[138.421627,-35.543733],[138.421386,-35.543805],[138.421231,-35.543873],[138.421057,-35.543973],[138.42091,-35.544082],[138.420783,-35.54418],[138.420627,-35.544335],[138.420566,-35.544433],[138.419645,-35.546297],[138.419066,-35.54745],[138.418934,-35.547684],[138.418816,-35.547864],[138.418736,-35.547977],[138.418525,-35.548203],[138.417988,-35.548775],[138.417531,-35.54927],[138.417416,-35.549387],[138.4173,-35.549497],[138.417173,-35.549607],[138.416981,-35.549756],[138.416827,-35.549865],[138.416686,-35.549955],[138.416471,-35.550078],[138.41629,-35.550171],[138.416105,-35.550255],[138.415951,-35.550319],[138.415756,-35.55039],[138.415525,-35.550463],[138.415341,-35.550512],[138.415145,-35.550557],[138.414903,-35.550601],[138.414684,-35.550631],[138.414483,-35.55065],[138.414272,-35.550662],[138.414051,-35.550666],[138.413901,-35.550663],[138.413692,-35.550652],[138.413472,-35.550632],[138.413217,-35.550597],[138.412934,-35.550555],[138.410967,-35.550244],[138.410687,-35.550213],[138.410406,-35.550199],[138.410143,-35.550196],[138.409755,-35.550213],[138.408311,-35.550304],[138.407932,-35.550323],[138.407821,-35.550322],[138.407629,-35.550308],[138.407411,-35.550275],[138.40721,-35.550227],[138.407023,-35.550167],[138.406847,-35.550095],[138.406743,-35.550044],[138.406518,-35.54991],[138.406365,-35.549796],[138.40625,-35.549694],[138.406138,-35.549576],[138.406041,-35.549455],[138.405952,-35.54932],[138.405874,-35.549171],[138.405813,-35.54902],[138.405775,-35.548887],[138.405752,-35.548768],[138.405523,-35.547506],[138.405454,-35.547219],[138.405402,-35.547064],[138.405333,-35.546928],[138.405236,-35.546768],[138.404872,-35.546257],[138.404248,-35.545382],[138.404031,-35.545156],[138.403904,-35.545061],[138.403759,-35.544975],[138.403616,-35.544908],[138.403469,-35.544855],[138.403335,-35.544819],[138.403088,-35.544778],[138.402891,-35.54477],[138.402629,-35.544789],[138.402449,-35.544823],[138.402288,-35.54487],[138.402044,-35.544963],[138.40167,-35.545121],[138.40114,-35.545346],[138.4008,-35.545468],[138.400475,-35.545555],[138.400118,-35.545623],[138.399785,-35.545651],[138.3994,-35.545659],[138.398801,-35.545657],[138.397338,-35.545645],[138.397046,-35.545656],[138.396857,-35.545677],[138.396645,-35.545713],[138.396497,-35.545747],[138.396327,-35.545796],[138.396135,-35.545864],[138.395903,-35.545968],[138.395702,-35.546078],[138.395525,-35.546196],[138.395409,-35.546285],[138.395306,-35.546374],[138.395181,-35.546497],[138.395051,-35.546647],[138.394928,-35.54682],[138.394807,-35.547022],[138.394736,-35.54716],[138.394655,-35.547373],[138.394605,-35.547581],[138.394584,-35.547788],[138.394644,-35.550277],[138.394633,-35.550427],[138.394612,-35.5506],[138.394584,-35.55077],[138.394545,-35.55094],[138.394531,-35.550981],[138.394481,-35.551127],[138.394421,-35.551309],[138.394361,-35.551427],[138.394269,-35.551583],[138.394155,-35.551767],[138.392951,-35.553686],[138.392448,-35.55449],[138.392314,-35.554674],[138.392172,-35.55483],[138.392023,-35.554985],[138.391861,-35.555135],[138.391662,-35.555293],[138.391319,-35.555507],[138.38743,-35.55786],[138.386675,-35.558319],[138.385415,-35.559085],[138.385051,-35.559318],[138.384587,-35.559575],[138.384208,-35.559779],[138.38379,-35.559969],[138.381674,-35.560807],[138.380967,-35.561087],[138.378351,-35.562095],[138.377639,-35.562356],[138.377483,-35.562406],[138.377333,-35.562448],[138.377112,-35.562499],[138.376923,-35.562532],[138.376672,-35.562563],[138.376462,-35.562577],[138.376275,-35.562582],[138.375975,-35.562571],[138.37571,-35.562544],[138.375414,-35.562494],[138.375201,-35.562444],[138.374997,-35.562385],[138.374761,-35.562301],[138.374394,-35.56218],[138.374161,-35.5621],[138.373939,-35.562039],[138.373747,-35.561997],[138.37355,-35.561963],[138.373384,-35.561942],[138.37322,-35.561928],[138.372925,-35.561918],[138.372747,-35.561922],[138.372544,-35.561935],[138.372372,-35.561954],[138.372184,-35.561983],[138.371999,-35.562026],[138.371755,-35.562083],[138.37076,-35.562314],[138.370558,-35.562354],[138.370339,-35.562386],[138.370175,-35.562404],[138.370021,-35.562415],[138.3699,-35.562421],[138.369752,-35.562423],[138.369599,-35.562421],[138.369452,-35.562414],[138.369301,-35.562402],[138.369139,-35.562384],[138.368951,-35.562356],[138.368762,-35.56232],[138.368696,-35.562304],[138.368608,-35.562284],[138.368432,-35.562236],[138.366795,-35.561747],[138.366261,-35.5616],[138.366005,-35.561534],[138.365747,-35.561482],[138.36545,-35.561439],[138.365173,-35.561418],[138.364819,-35.56141],[138.361807,-35.561569],[138.359849,-35.561694],[138.35939,-35.561724],[138.354808,-35.562],[138.354585,-35.562006],[138.354383,-35.562003],[138.35416,-35.56198],[138.353961,-35.561951],[138.353738,-35.561905],[138.353522,-35.561845],[138.351504,-35.561179],[138.351182,-35.561053],[138.351019,-35.56096],[138.350863,-35.560865],[138.350672,-35.560736],[138.350466,-35.560586],[138.350268,-35.560419],[138.349764,-35.559998],[138.349646,-35.559904],[138.349521,-35.559814],[138.34939,-35.559729],[138.349213,-35.559627],[138.349045,-35.559542],[138.348924,-35.559488],[138.3487,-35.5594],[138.348456,-35.559322],[138.348233,-35.559266],[138.348031,-35.559227],[138.347836,-35.559199],[138.347679,-35.559184],[138.347405,-35.559157],[138.346518,-35.559068],[138.346252,-35.559033],[138.346025,-35.558981],[138.34577,-35.558909],[138.345576,-35.558843],[138.345427,-35.558782],[138.345257,-35.558693],[138.34468,-35.55837],[138.344489,-35.558258],[138.344336,-35.558189],[138.344117,-35.558091],[138.343918,-35.558019],[138.34349,-35.55786],[138.341658,-35.557298],[138.341379,-35.557223],[138.341084,-35.557149],[138.340825,-35.557093],[138.340612,-35.557059],[138.3405,-35.557044],[138.340137,-35.557006],[138.339943,-35.556996],[138.339723,-35.556992],[138.339429,-35.556991],[138.339136,-35.55701],[138.338914,-35.557028],[138.338665,-35.557055],[138.338466,-35.557083],[138.338246,-35.557131],[138.33796,-35.557205],[138.337721,-35.557276],[138.3369,-35.557546],[138.336676,-35.557607],[138.336416,-35.557667],[138.33618,-35.557711],[138.335954,-35.557745],[138.335728,-35.557772],[138.335508,-35.55779],[138.335193,-35.557809],[138.33384,-35.557849],[138.333323,-35.557855],[138.333003,-35.557875],[138.332758,-35.5579],[138.33257,-35.55793],[138.3324,-35.557966],[138.332173,-35.558026],[138.331971,-35.558094],[138.33181,-35.558158],[138.331632,-35.55824],[138.331191,-35.558454],[138.330695,-35.558699],[138.330345,-35.558877],[138.330086,-35.559001],[138.329835,-35.559114],[138.32959,-35.5592],[138.329321,-35.559272],[138.328956,-35.55935],[138.325979,-35.56],[138.325405,-35.560114],[138.32518,-35.560144],[138.324842,-35.560182],[138.324529,-35.560219],[138.324228,-35.560242],[138.32353,-35.560283],[138.322997,-35.560299],[138.322789,-35.560318],[138.322586,-35.560336],[138.322404,-35.56037],[138.322206,-35.560419],[138.321984,-35.560462],[138.321775,-35.560531],[138.321581,-35.560606],[138.32142,-35.560676],[138.321267,-35.560751],[138.321151,-35.560813],[138.321004,-35.560899],[138.320871,-35.560985],[138.320722,-35.561091],[138.320599,-35.561187],[138.320322,-35.56144],[138.320107,-35.561675],[138.319844,-35.561961],[138.319667,-35.562131],[138.319481,-35.562304],[138.31931,-35.56244],[138.319115,-35.562572],[138.318861,-35.562715],[138.318664,-35.562807],[138.318492,-35.562876],[138.318265,-35.562952],[138.318071,-35.563004],[138.317811,-35.563056],[138.317727,-35.563068],[138.317551,-35.563091],[138.31731,-35.563107],[138.317129,-35.563109],[138.316842,-35.563096],[138.316549,-35.56306],[138.316319,-35.563016],[138.316071,-35.562952],[138.315883,-35.562899],[138.315305,-35.562709],[138.314738,-35.562522],[138.314373,-35.562415],[138.314072,-35.562343],[138.313768,-35.562297],[138.313428,-35.562257],[138.313116,-35.562242],[138.312836,-35.562245],[138.308988,-35.562283],[138.308381,-35.562288],[138.307928,-35.562296],[138.30775,-35.562306],[138.307576,-35.562322],[138.307319,-35.562358],[138.307086,-35.562405],[138.306927,-35.562444],[138.306703,-35.562511],[138.306495,-35.562585],[138.306283,-35.562674],[138.306141,-35.562742],[138.306005,-35.562814],[138.305835,-35.562911],[138.30561,-35.563042],[138.305386,-35.563156],[138.305165,-35.563252],[138.304994,-35.563317],[138.304808,-35.563378],[138.304668,-35.563417],[138.304579,-35.563439],[138.304475,-35.563464],[138.304276,-35.563503],[138.30406,-35.563535],[138.303884,-35.563554],[138.303658,-35.563568],[138.303471,-35.563571],[138.302217,-35.56354],[138.302074,-35.563538],[138.301903,-35.56354],[138.301695,-35.56355],[138.301509,-35.563565],[138.30134,-35.563584],[138.301167,-35.563608],[138.300914,-35.563655],[138.300786,-35.563683],[138.29609,-35.564763],[138.294007,-35.565238],[138.293667,-35.565319],[138.293427,-35.565388],[138.293122,-35.565503],[138.292832,-35.565633],[138.292453,-35.565835],[138.290725,-35.566814],[138.29048,-35.566944],[138.290292,-35.567042],[138.290158,-35.567093],[138.288628,-35.567635],[138.287743,-35.567952],[138.287559,-35.568024],[138.287364,-35.568113],[138.28676,-35.568356],[138.285087,-35.569121],[138.282774,-35.570164],[138.282424,-35.570334],[138.28219,-35.570467],[138.280171,-35.571538],[138.27971,-35.571807],[138.279642,-35.571846],[138.278952,-35.572218],[138.27846,-35.57248],[138.277912,-35.572739],[138.277342,-35.573024],[138.277175,-35.573102],[138.276942,-35.573196],[138.276758,-35.573258],[138.276574,-35.573311],[138.276438,-35.573345],[138.276226,-35.573387],[138.276034,-35.573417],[138.275813,-35.57344],[138.275612,-35.573451],[138.275454,-35.573453],[138.275348,-35.573456],[138.275247,-35.573465],[138.27505,-35.573478],[138.274793,-35.573509],[138.274541,-35.573556],[138.274273,-35.573624],[138.27415,-35.573663],[138.27399,-35.573719],[138.273813,-35.573791],[138.273617,-35.573884],[138.273436,-35.573983],[138.273299,-35.574069],[138.273122,-35.574192],[138.273015,-35.574276],[138.272836,-35.574434],[138.271979,-35.575219],[138.271853,-35.575326],[138.271687,-35.575456],[138.271491,-35.575594],[138.271249,-35.575746],[138.270995,-35.575886],[138.270797,-35.575983],[138.27068,-35.576034],[138.270425,-35.576137],[138.270114,-35.576243],[138.269807,-35.576328],[138.26953,-35.576389],[138.269237,-35.576439],[138.268947,-35.576474],[138.268725,-35.57649],[138.268368,-35.576526],[138.266789,-35.576656],[138.266346,-35.576697],[138.265996,-35.576743],[138.265471,-35.576826],[138.264703,-35.576968],[138.263641,-35.577158],[138.263134,-35.577238],[138.262592,-35.57731],[138.262061,-35.577386],[138.2618,-35.577438],[138.261586,-35.57749],[138.261324,-35.577568],[138.261159,-35.577626],[138.260976,-35.577697],[138.260842,-35.577755],[138.260674,-35.577834],[138.260472,-35.577941],[138.260285,-35.578052],[138.260124,-35.578158],[138.259989,-35.578254],[138.259845,-35.578367],[138.257907,-35.57994],[138.257715,-35.580113],[138.257635,-35.580171],[138.257501,-35.580263],[138.257315,-35.580379],[138.257156,-35.580469],[138.257049,-35.580525],[138.256811,-35.580637],[138.256579,-35.580733],[138.256394,-35.5808],[138.256157,-35.580875],[138.254924,-35.58123],[138.254263,-35.581426],[138.250545,-35.582543],[138.24875,-35.583065],[138.248616,-35.5831],[138.24823,-35.583177],[138.247976,-35.58321],[138.247701,-35.58323],[138.2475,-35.583234],[138.24734,-35.583231],[138.247133,-35.583219],[138.246912,-35.583197],[138.246731,-35.58317],[138.246565,-35.58314],[138.246308,-35.58308],[138.246082,-35.58302],[138.245866,-35.582937],[138.245671,-35.582858],[138.245473,-35.582764],[138.245277,-35.582659],[138.245095,-35.582547],[138.2449,-35.582411],[138.244777,-35.582315],[138.244626,-35.582198],[138.243724,-35.581498],[138.243473,-35.581314],[138.243214,-35.581144],[138.242924,-35.580971],[138.242588,-35.580801],[138.242258,-35.58066],[138.241925,-35.580539],[138.241617,-35.58045],[138.241256,-35.58034],[138.239561,-35.579877],[138.239242,-35.57981],[138.239001,-35.579775],[138.238781,-35.579757],[138.238564,-35.57975],[138.238353,-35.579754],[138.238112,-35.579771],[138.237819,-35.579811],[138.237546,-35.579868],[138.237302,-35.579936],[138.237022,-35.580035],[138.23681,-35.580127],[138.236665,-35.580199],[138.236441,-35.580328],[138.23624,-35.580464],[138.236083,-35.580585],[138.235932,-35.580718],[138.235764,-35.580889],[138.235604,-35.581082],[138.235461,-35.581291],[138.235338,-35.581513],[138.235241,-35.581737],[138.235178,-35.581931],[138.235068,-35.582313],[138.234645,-35.583767],[138.234579,-35.583958],[138.234501,-35.584141],[138.234404,-35.584327],[138.234293,-35.584508],[138.234158,-35.584696],[138.233952,-35.584934],[138.233779,-35.585103],[138.233645,-35.585219],[138.23343,-35.585383],[138.233204,-35.58553],[138.232964,-35.585664],[138.232678,-35.585797],[138.232446,-35.585887],[138.232317,-35.585931],[138.232125,-35.585987],[138.231926,-35.586036],[138.231667,-35.586086],[138.23147,-35.586129],[138.231227,-35.586155],[138.230943,-35.586166],[138.230653,-35.586158],[138.230388,-35.586135],[138.230143,-35.586103],[138.229839,-35.586061],[138.229665,-35.586022],[138.229477,-35.585968],[138.229276,-35.585904],[138.229045,-35.585812],[138.228819,-35.585714],[138.228624,-35.585605],[138.22719,-35.584738],[138.226701,-35.584444],[138.226418,-35.584303],[138.226159,-35.584191],[138.225851,-35.584084],[138.225575,-35.584006],[138.225345,-35.583943],[138.225179,-35.583908],[138.224915,-35.583862],[138.224727,-35.583838],[138.224538,-35.58382],[138.224376,-35.583809],[138.224204,-35.583803],[138.224095,-35.583802],[138.223902,-35.583805],[138.223699,-35.583815],[138.223494,-35.583832],[138.223233,-35.583865],[138.222971,-35.583911],[138.222808,-35.583946],[138.222681,-35.583976],[138.222499,-35.584026],[138.22229,-35.584091],[138.22209,-35.584163],[138.221888,-35.584245],[138.221744,-35.584309],[138.221571,-35.584394],[138.221374,-35.584501],[138.221212,-35.584599],[138.221065,-35.584694],[138.220429,-35.585118],[138.220383,-35.585155],[138.219491,-35.58576],[138.21925,-35.585947],[138.219038,-35.586123],[138.218847,-35.586301],[138.218634,-35.586529],[138.21721,-35.588127],[138.216122,-35.589349],[138.215929,-35.589542],[138.215769,-35.589686],[138.215658,-35.58978],[138.215594,-35.589832],[138.21542,-35.589963],[138.215215,-35.590105],[138.2151,-35.590179],[138.215017,-35.590229],[138.214845,-35.590328],[138.214662,-35.590425],[138.214449,-35.590527],[138.214253,-35.590612],[138.214004,-35.590709],[138.213727,-35.590803],[138.21346,-35.59088],[138.213269,-35.590927],[138.212168,-35.591167],[138.211916,-35.591206],[138.21168,-35.591231],[138.211482,-35.591242],[138.21136,-35.591244],[138.211078,-35.591238],[138.210821,-35.591217],[138.210626,-35.591192],[138.210413,-35.591153],[138.210185,-35.591101],[138.20996,-35.591037],[138.20973,-35.590956],[138.209492,-35.590857],[138.209299,-35.590764],[138.209089,-35.590647],[138.208946,-35.590556],[138.20878,-35.590439],[138.208648,-35.590336],[138.208477,-35.590186],[138.208437,-35.590146]]}},{"type":"Feature","properties":{"tier":"regional"},"geometry":{"type":"LineString","coordinates":[[138.131506,-35.842284],[138.131407,-35.842358],[138.131317,-35.842516],[138.131238,-35.842564],[138.131174,-35.842589],[138.130166,-35.842841],[138.130032,-35.842852],[138.12944,-35.842897],[138.128681,-35.842844],[138.128162,-35.842664],[138.127698,-35.842471],[138.127305,-35.842221],[138.12664,-35.841316],[138.126209,-35.841008],[138.12573,-35.840801],[138.12234,-35.839837],[138.121973,-35.839726],[138.118183,-35.838573],[138.107144,-35.835215],[138.10628,-35.834943],[138.092793,-35.831959],[138.089452,-35.83122],[138.084647,-35.830157],[138.084293,-35.829974],[138.084056,-35.829721],[138.07824,-35.820414],[138.078103,-35.820195],[138.072531,-35.811449],[138.072406,-35.811253],[138.070602,-35.808382],[138.068698,-35.805351],[138.066775,-35.802289],[138.06643,-35.801864],[138.066042,-35.80139],[138.065964,-35.801293],[138.06548,-35.800683],[138.065109,-35.800036],[138.06481,-35.799472],[138.064441,-35.798775],[138.064155,-35.798023],[138.063876,-35.796374],[138.063673,-35.795025],[138.063771,-35.794523],[138.064209,-35.793547],[138.064338,-35.792893],[138.06437,-35.79231],[138.064428,-35.790773],[138.064256,-35.790229],[138.064216,-35.790096],[138.064203,-35.790056],[138.063816,-35.789063],[138.063607,-35.788595],[138.063432,-35.788202],[138.063284,-35.788046],[138.061289,-35.785946],[138.061185,-35.785836],[138.054671,-35.778976],[138.054167,-35.778393],[138.05392,-35.777897],[138.053791,-35.777392],[138.053759,-35.777079],[138.053759,-35.776582],[138.053765,-35.776539],[138.053834,-35.776025],[138.054544,-35.774542],[138.054703,-35.770158],[138.054843,-35.769819],[138.055551,-35.768705],[138.056141,-35.767695],[138.056345,-35.767286],[138.056452,-35.766659],[138.056441,-35.76618],[138.056346,-35.765739],[138.056292,-35.765622],[138.054735,-35.762271],[138.053384,-35.760722],[138.050422,-35.75898],[138.049875,-35.758763],[138.049464,-35.758711],[138.042386,-35.758391],[138.042314,-35.758388],[138.03886,-35.758232],[138.038257,-35.758114],[138.038166,-35.758096],[138.037971,-35.758059],[138.037574,-35.757857],[138.02886,-35.753602],[138.010373,-35.744575],[138.009224,-35.744126],[138.008993,-35.744008],[138.008816,-35.743917],[138.008441,-35.743525],[138.008151,-35.743246],[138.004932,-35.738466],[138.004674,-35.73817],[138.004373,-35.73792],[138.003935,-35.737645],[138.003482,-35.737439],[138.00291,-35.737246]]}},{"type":"Feature","properties":{"tier":"regional"},"geometry":{"type":"LineString","coordinates":[[137.99998,-35.826688],[138.014033,-35.826351],[138.014425,-35.826341],[138.02404,-35.826064],[138.024676,-35.82604],[138.025215,-35.825846],[138.035384,-35.822693],[138.036217,-35.822441],[138.036773,-35.822414],[138.041729,-35.822357],[138.047529,-35.822258],[138.048352,-35.82225],[138.048987,-35.822131],[138.049168,-35.822078],[138.049811,-35.821893],[138.050917,-35.821489],[138.053028,-35.820331],[138.054278,-35.81952],[138.067992,-35.812998],[138.069217,-35.8124],[138.070837,-35.811608],[138.071029,-35.811572],[138.071789,-35.811431],[138.072406,-35.811253]]}},{"type":"Feature","properties":{"tier":"arterial"},"geometry":{"type":"LineString","coordinates":[[138.227862,-35.528047],[138.227794,-35.52789],[138.227777,-35.527749],[138.227788,-35.527386],[138.227782,-35.527003],[138.227734,-35.526798],[138.227642,-35.526646],[138.227561,-35.526539],[138.227466,-35.526436],[138.227241,-35.526269],[138.226724,-35.526073],[138.226175,-35.525845],[138.225723,-35.525586],[138.225318,-35.52521],[138.225012,-35.524735],[138.22418,-35.523433],[138.223746,-35.52276],[138.223531,-35.522525],[138.223298,-35.52227]]}},{"type":"Feature","properties":{"tier":"arterial"},"geometry":{"type":"LineString","coordinates":[[138.50002,-35.613615],[138.499967,-35.613891],[138.499948,-35.613991],[138.49867,-35.620934],[138.498625,-35.621177],[138.49827,-35.6231],[138.497695,-35.626479],[138.497535,-35.62744],[138.497347,-35.627752],[138.497225,-35.627863],[138.496971,-35.627958],[138.496649,-35.628035],[138.496376,-35.628178],[138.496176,-35.628431],[138.496062,-35.628683],[138.496023,-35.62904],[138.49594,-35.629433],[138.495718,-35.629815],[138.495689,-35.63014],[138.496011,-35.631379],[138.496022,-35.631871],[138.496159,-35.632342],[138.496353,-35.632683],[138.496715,-35.632853],[138.496995,-35.632944],[138.498642,-35.633476]]}},{"type":"Feature","properties":{"tier":"arterial"},"geometry":{"type":"LineString","coordinates":[[138.402777,-35.49998],[138.403638,-35.500336],[138.405404,-35.500616],[138.406862,-35.501402],[138.408348,-35.501766],[138.41003,-35.501598],[138.410724,-35.501554],[138.411768,-35.501402],[138.412575,-35.501377],[138.413373,-35.501464],[138.41474,-35.501794],[138.41659,-35.502523],[138.417954,-35.503011],[138.418525,-35.503143],[138.419029,-35.503],[138.419969,-35.502375],[138.420803,-35.501862],[138.421693,-35.501345],[138.422547,-35.500833],[138.423415,-35.500212],[138.423659,-35.49998]]}},{"type":"Feature","properties":{"tier":"arterial"},"geometry":{"type":"LineString","coordinates":[[138.208437,-35.590146],[138.208338,-35.590047],[138.208231,-35.589928],[138.208131,-35.589804],[138.208042,-35.589682],[138.207951,-35.589541],[138.207845,-35.589388],[138.207305,-35.588323],[138.206919,-35.587528],[138.206336,-35.586361],[138.206236,-35.586134],[138.206183,-35.585999],[138.206151,-35.585866],[138.206116,-35.585731],[138.206084,-35.585506],[138.206048,-35.585302],[138.206027,-35.584994],[138.205999,-35.584798],[138.20596,-35.584628],[138.2059,-35.584429],[138.205797,-35.584184],[138.204993,-35.582428],[138.204924,-35.58225],[138.20489,-35.58216],[138.20484,-35.582009],[138.2048,-35.581859],[138.204771,-35.58172],[138.204749,-35.581567],[138.204736,-35.581426],[138.204732,-35.581271],[138.204734,-35.581164],[138.204747,-35.580996],[138.204768,-35.580844],[138.204807,-35.580658],[138.204863,-35.580461],[138.205009,-35.580025],[138.205049,-35.57982],[138.20507,-35.579657],[138.20509,-35.579481],[138.205081,-35.579417],[138.205076,-35.579241],[138.205058,-35.579062],[138.205035,-35.578921],[138.204998,-35.57875],[138.204948,-35.57858],[138.204894,-35.578429],[138.204831,-35.57828],[138.204782,-35.578177],[138.204703,-35.578038],[138.204618,-35.577897],[138.204508,-35.577739],[138.204005,-35.577068],[138.203859,-35.576903],[138.203656,-35.5767],[138.203509,-35.576573],[138.203322,-35.576431],[138.203144,-35.57631],[138.202995,-35.576221],[138.202849,-35.576141],[138.202605,-35.576025],[138.202403,-35.575943],[138.202188,-35.575868],[138.201958,-35.575801],[138.201749,-35.575752],[138.201609,-35.575721],[138.201235,-35.575606],[138.201101,-35.575562],[138.200941,-35.575503],[138.200773,-35.575433],[138.200624,-35.575363],[138.200394,-35.57524],[138.200235,-35.575144],[138.200071,-35.575033],[138.19994,-35.574935],[138.199891,-35.574895],[138.199758,-35.574782],[138.199617,-35.574648],[138.199458,-35.574475],[138.199324,-35.574309],[138.199216,-35.574155],[138.199085,-35.573935],[138.199036,-35.573837],[138.198992,-35.573748],[138.198928,-35.573592],[138.198876,-35.573438],[138.198618,-35.572604],[138.198391,-35.571999],[138.198122,-35.571306],[138.198087,-35.571216],[138.19792,-35.570786],[138.197775,-35.570492],[138.19769,-35.570377],[138.197584,-35.570256],[138.197362,-35.570042]]}},{"type":"Feature","properties":{"tier":"arterial"},"geometry":{"type":"LineString","coordinates":[[138.217577,-35.512428],[138.217565,-35.512398],[138.217508,-35.512334],[138.217385,-35.512205],[138.217341,-35.512135],[138.217336,-35.512057]]}},{"type":"Feature","properties":{"tier":"arterial"},"geometry":{"type":"LineString","coordinates":[[138.217606,-35.512562],[138.217577,-35.512428]]}},{"type":"Feature","properties":{"tier":"arterial"},"geometry":{"type":"LineString","coordinates":[[138.00291,-35.737246],[138.00225,-35.737137],[137.99998,-35.737067]]}},{"type":"Feature","properties":{"tier":"high"},"geometry":{"type":"LineString","coordinates":[[138.178713,-35.58395],[138.17851,-35.584174],[138.178329,-35.584382],[138.178033,-35.584693],[138.177898,-35.584826],[138.177762,-35.584943],[138.177664,-35.58502],[138.177513,-35.585127],[138.177383,-35.58521],[138.177257,-35.585282],[138.177087,-35.585369],[138.1769,-35.585451],[138.176772,-35.585501],[138.176546,-35.585576],[138.176347,-35.585629],[138.176187,-35.585664],[138.175959,-35.585702],[138.175834,-35.585718],[138.175659,-35.585732],[138.17548,-35.58574],[138.175019,-35.585754],[138.174514,-35.585781],[138.174251,-35.585805],[138.17399,-35.585844],[138.17379,-35.585893],[138.173554,-35.585964],[138.173291,-35.586062],[138.173055,-35.586163],[138.172883,-35.586254],[138.172694,-35.586366],[138.172478,-35.586522],[138.172317,-35.586652],[138.172228,-35.586738],[138.172081,-35.586888],[138.171963,-35.587018],[138.171852,-35.587176],[138.171723,-35.587388]]}},{"type":"Feature","properties":{"tier":"high"},"geometry":{"type":"LineString","coordinates":[[138.201102,-35.567496],[138.200912,-35.567624],[138.200498,-35.567903],[138.200003,-35.568244],[138.19958,-35.568539],[138.199286,-35.568736],[138.198687,-35.569146],[138.198272,-35.569427],[138.197776,-35.569766],[138.197362,-35.570042]]}},{"type":"Feature","properties":{"tier":"high"},"geometry":{"type":"LineString","coordinates":[[138.223834,-35.533672],[138.223683,-35.533786],[138.223541,-35.533876],[138.223325,-35.534005],[138.222988,-35.534206],[138.222825,-35.534321],[138.22272,-35.534406],[138.222621,-35.534496],[138.222541,-35.534583],[138.222463,-35.534679],[138.222393,-35.534781],[138.22233,-35.534887],[138.222265,-35.535008],[138.222194,-35.535128],[138.222092,-35.535326],[138.221691,-35.536086],[138.221631,-35.536212],[138.221562,-35.536373],[138.221502,-35.536539],[138.221471,-35.536666],[138.221439,-35.536814],[138.221375,-35.537087],[138.221334,-35.537229],[138.221274,-35.537379],[138.221213,-35.53752],[138.221127,-35.537678],[138.221074,-35.537776],[138.220991,-35.537939],[138.220916,-35.53809],[138.220858,-35.538239],[138.220813,-35.538402],[138.220765,-35.538614],[138.220673,-35.539052],[138.220632,-35.539226],[138.220566,-35.539416],[138.220491,-35.539576],[138.22038,-35.539755],[138.220256,-35.539932],[138.22008,-35.540146],[138.219903,-35.540378],[138.219773,-35.540559],[138.219686,-35.540745],[138.219622,-35.540904],[138.219578,-35.541067],[138.219545,-35.541265],[138.219531,-35.541449],[138.219492,-35.541899],[138.219468,-35.542366],[138.219454,-35.542658],[138.219466,-35.542937],[138.219502,-35.543407],[138.219593,-35.544508],[138.219612,-35.544767],[138.21962,-35.544911],[138.219612,-35.545087],[138.219595,-35.5453],[138.219489,-35.54633],[138.219448,-35.546743],[138.219436,-35.546942],[138.219449,-35.547114],[138.219487,-35.547298],[138.219545,-35.547474],[138.219605,-35.547616],[138.220025,-35.548592],[138.220105,-35.548733],[138.220188,-35.548862],[138.220315,-35.54903],[138.220551,-35.549325],[138.220693,-35.549522],[138.220786,-35.549676],[138.220847,-35.549803],[138.220895,-35.54992],[138.22095,-35.550096],[138.221009,-35.550326],[138.221142,-35.550903],[138.221168,-35.551062],[138.221173,-35.551238],[138.221173,-35.55126],[138.221171,-35.551317],[138.221165,-35.551382],[138.221152,-35.551456],[138.221134,-35.551528],[138.221107,-35.551603],[138.221091,-35.551642],[138.221068,-35.55169],[138.22103,-35.551758],[138.220993,-35.551815],[138.220938,-35.551886],[138.220878,-35.551953],[138.220781,-35.552054],[138.220429,-35.552346],[138.220001,-35.552705],[138.219758,-35.552919],[138.219723,-35.552952],[138.219605,-35.553063],[138.219507,-35.553188],[138.219461,-35.55326],[138.219362,-35.553433],[138.219088,-35.553998],[138.218584,-35.555039],[138.217916,-35.556415],[138.217448,-35.557257],[138.21717,-35.557712],[138.217029,-35.557911],[138.216454,-35.558826],[138.21618,-35.559247],[138.216085,-35.559368],[138.215948,-35.55953],[138.215786,-35.559677],[138.215662,-35.559775],[138.215522,-35.559889],[138.215356,-35.559993],[138.215106,-35.560127],[138.214896,-35.560224],[138.214808,-35.560257]]}},{"type":"Feature","properties":{"tier":"high"},"geometry":{"type":"LineString","coordinates":[[138.23053,-35.527455],[138.230412,-35.527472],[138.230293,-35.527483],[138.230209,-35.527487],[138.230109,-35.527488],[138.230037,-35.527487],[138.229934,-35.527481],[138.229813,-35.527468],[138.229697,-35.527451],[138.229603,-35.52744],[138.229287,-35.527409],[138.229187,-35.527399],[138.229094,-35.527396],[138.22899,-35.527399],[138.228892,-35.527407],[138.228783,-35.527424],[138.228688,-35.527445],[138.22861,-35.527467],[138.228512,-35.527501],[138.228414,-35.527543],[138.228341,-35.52758],[138.228269,-35.527622],[138.22819,-35.527677],[138.228136,-35.527719]]}},{"type":"Feature","properties":{"tier":"arterial"},"geometry":{"type":"LineString","coordinates":[[138.223298,-35.52227],[138.223052,-35.522009],[138.22292,-35.521831],[138.22285,-35.521716],[138.222761,-35.52154],[138.22267,-35.521312],[138.222614,-35.521138],[138.222513,-35.520853],[138.222413,-35.520664],[138.222308,-35.520468],[138.222197,-35.520275],[138.221879,-35.519755],[138.221587,-35.519286],[138.221144,-35.518571],[138.220766,-35.517957],[138.220409,-35.517377],[138.2203,-35.517206]]}},{"type":"Feature","properties":{"tier":"arterial"},"geometry":{"type":"LineString","coordinates":[[138.2203,-35.517206],[138.220001,-35.516688],[138.219791,-35.516334],[138.219776,-35.516309],[138.219627,-35.516083],[138.219159,-35.515311],[138.218812,-35.514736],[138.218544,-35.514288],[138.218316,-35.513907],[138.218191,-35.513735],[138.217773,-35.513177],[138.217706,-35.513088],[138.217665,-35.513009],[138.217644,-35.51291],[138.217606,-35.512562]]}},{"type":"Feature","properties":{"tier":"high"},"geometry":{"type":"LineString","coordinates":[[138.095807,-35.605755],[138.095685,-35.605724],[138.095585,-35.605682],[138.095491,-35.605635],[138.095422,-35.605586],[138.095358,-35.605526],[138.095306,-35.605477],[138.095264,-35.60543],[138.095231,-35.605353],[138.095211,-35.605222],[138.095208,-35.605191],[138.095193,-35.60503],[138.095173,-35.604926]]}},{"type":"Feature","properties":{"tier":"arterial"},"geometry":{"type":"LineString","coordinates":[[138.260717,-35.506284],[138.260584,-35.506247],[138.260091,-35.506013],[138.259858,-35.505914],[138.259685,-35.505859],[138.259489,-35.505836],[138.259317,-35.505838],[138.259161,-35.50587],[138.258858,-35.505956],[138.258643,-35.505979],[138.258496,-35.505973],[138.258298,-35.505933],[138.258104,-35.505855],[138.257933,-35.505737],[138.256836,-35.504848],[138.25676,-35.504765],[138.256701,-35.504701],[138.256644,-35.504641],[138.256451,-35.504422],[138.256306,-35.504205],[138.256154,-35.503947],[138.255993,-35.503622],[138.2559,-35.503323],[138.255823,-35.503052],[138.255782,-35.502844],[138.255717,-35.502682]]}},{"type":"Feature","properties":{"tier":"arterial"},"geometry":{"type":"LineString","coordinates":[[138.260717,-35.506284],[138.261268,-35.506594],[138.261332,-35.506631],[138.261517,-35.506764],[138.261636,-35.506892],[138.261772,-35.50711],[138.261819,-35.507256],[138.261857,-35.507443],[138.261831,-35.507633],[138.261732,-35.507914],[138.261616,-35.508295],[138.261538,-35.50889],[138.261494,-35.509221],[138.261472,-35.509526],[138.261491,-35.509719],[138.261597,-35.509909],[138.262523,-35.510991]]}},{"type":"Feature","properties":{"tier":"high"},"geometry":{"type":"LineString","coordinates":[[138.119419,-35.604676],[138.116192,-35.604463],[138.116119,-35.604458],[138.115848,-35.604441],[138.114106,-35.604326],[138.113753,-35.604303],[138.113086,-35.604261],[138.112945,-35.604249]]}},{"type":"Feature","properties":{"tier":"high"},"geometry":{"type":"LineString","coordinates":[[138.112945,-35.604249],[138.112892,-35.604245],[138.112187,-35.604197],[138.111354,-35.604139],[138.110665,-35.604091],[138.110023,-35.604047],[138.109536,-35.604013],[138.109178,-35.60399],[138.108214,-35.603926],[138.107871,-35.603903],[138.107789,-35.603898],[138.107338,-35.603868],[138.106831,-35.603834],[138.106779,-35.603831],[138.10579,-35.603765],[138.105223,-35.603728],[138.104747,-35.603697],[138.103828,-35.603638],[138.103334,-35.603607],[138.102859,-35.603574],[138.102681,-35.60357],[138.102602,-35.603571],[138.102387,-35.603581],[138.102205,-35.603599],[138.102082,-35.603612],[138.101979,-35.603632],[138.101875,-35.603652],[138.101643,-35.603703],[138.101612,-35.603713],[138.101379,-35.603789]]}},{"type":"Feature","properties":{"tier":"arterial"},"geometry":{"type":"LineString","coordinates":[[138.394113,-35.51983],[138.393912,-35.51968],[138.393162,-35.518915],[138.392671,-35.518408],[138.392415,-35.518104],[138.392174,-35.517704],[138.392018,-35.517343],[138.391924,-35.517075],[138.391817,-35.516813],[138.391617,-35.516518],[138.391396,-35.516275],[138.391208,-35.516094],[138.389958,-35.515116],[138.389083,-35.514409],[138.387521,-35.51311],[138.387091,-35.5128],[138.385904,-35.511845],[138.383191,-35.509627],[138.382215,-35.508733],[138.381307,-35.507862],[138.379746,-35.50643],[138.37945,-35.506096],[138.379297,-35.505881],[138.379153,-35.505604],[138.379055,-35.50527],[138.379039,-35.504991],[138.379028,-35.504798],[138.379038,-35.504658],[138.379065,-35.504398],[138.379121,-35.504179],[138.379143,-35.503954],[138.379147,-35.5037],[138.379086,-35.503189],[138.378941,-35.502273],[138.378823,-35.501462],[138.378682,-35.50059],[138.378657,-35.500407],[138.378594,-35.49998]]}},{"type":"Feature","properties":{"tier":"arterial"},"geometry":{"type":"LineString","coordinates":[[138.393489,-35.520674],[138.393687,-35.520384],[138.393847,-35.52019],[138.393972,-35.520009],[138.394113,-35.51983]]}},{"type":"Feature","properties":{"tier":"arterial"},"geometry":{"type":"LineString","coordinates":[[138.393418,-35.520778],[138.393489,-35.520674]]}},{"type":"Feature","properties":{"tier":"high"},"geometry":{"type":"LineString","coordinates":[[138.262523,-35.510991],[138.262633,-35.511015],[138.262743,-35.511009],[138.262896,-35.510934]]}},{"type":"Feature","properties":{"tier":"arterial"},"geometry":{"type":"LineString","coordinates":[[138.262758,-35.511501],[138.262671,-35.511249],[138.262607,-35.511129],[138.262523,-35.510991]]}},{"type":"Feature","properties":{"tier":"high"},"geometry":{"type":"LineString","coordinates":[[138.227862,-35.528047],[138.227697,-35.528281],[138.227544,-35.528528],[138.227515,-35.528574],[138.227166,-35.529125],[138.227073,-35.529255],[138.226926,-35.529441],[138.226782,-35.529604],[138.22631,-35.530125],[138.226106,-35.530364],[138.225896,-35.530599],[138.225507,-35.531035],[138.225109,-35.531484],[138.224922,-35.531696]]}},{"type":"Feature","properties":{"tier":"arterial"},"geometry":{"type":"LineString","coordinates":[[138.262523,-35.510991],[138.262606,-35.511052],[138.262689,-35.511099],[138.262805,-35.511139]]}},{"type":"Feature","properties":{"tier":"high"},"geometry":{"type":"LineString","coordinates":[[138.262896,-35.510934],[138.262805,-35.511139]]}},{"type":"Feature","properties":{"tier":"high"},"geometry":{"type":"LineString","coordinates":[[138.277627,-35.49998],[138.277524,-35.500176],[138.277381,-35.500404],[138.277244,-35.5006],[138.27711,-35.500781],[138.276995,-35.50092],[138.276257,-35.501774],[138.276141,-35.501897],[138.276015,-35.502019],[138.275882,-35.50213],[138.275701,-35.502262],[138.275344,-35.502508],[138.27483,-35.502859],[138.274578,-35.503036],[138.274384,-35.5032],[138.274256,-35.503326],[138.274144,-35.503474],[138.274067,-35.503592],[138.274003,-35.503719],[138.273948,-35.503861],[138.273891,-35.50405],[138.273741,-35.504595],[138.273689,-35.504748],[138.273641,-35.50486],[138.27359,-35.504962],[138.273527,-35.50507],[138.273456,-35.505176],[138.273377,-35.505282],[138.273299,-35.505376],[138.273223,-35.50545],[138.273132,-35.505518],[138.273055,-35.505573],[138.272956,-35.505643],[138.272845,-35.505702],[138.272725,-35.505758],[138.2726,-35.505811],[138.272479,-35.505849],[138.272347,-35.505886],[138.272206,-35.50592],[138.271967,-35.50597],[138.271506,-35.506062],[138.271169,-35.506125],[138.270827,-35.50621],[138.270626,-35.506268],[138.270146,-35.506412],[138.26992,-35.506495],[138.269697,-35.506581],[138.269376,-35.506725],[138.268609,-35.507062],[138.267394,-35.507611],[138.26654,-35.50799],[138.266142,-35.508167],[138.265718,-35.508372],[138.265516,-35.508484],[138.265337,-35.508594],[138.265164,-35.508718],[138.264988,-35.508867],[138.264837,-35.509031],[138.264566,-35.509354],[138.264197,-35.509775],[138.264001,-35.509941],[138.263829,-35.510073],[138.263422,-35.510402],[138.263136,-35.510641],[138.263004,-35.510778],[138.262896,-35.510934]]}},{"type":"Feature","properties":{"tier":"high"},"geometry":{"type":"LineString","coordinates":[[138.193759,-35.571893],[138.193301,-35.571958],[138.19288,-35.572025],[138.192561,-35.572097],[138.192109,-35.57223],[138.19175,-35.572366],[138.191467,-35.572492],[138.191213,-35.572623],[138.190957,-35.572768],[138.190728,-35.572936],[138.190496,-35.57311],[138.190307,-35.573266],[138.189924,-35.573578],[138.189636,-35.573813],[138.188981,-35.574349],[138.188734,-35.574556],[138.188561,-35.574703],[138.188262,-35.574947],[138.188206,-35.575]]}},{"type":"Feature","properties":{"tier":"high"},"geometry":{"type":"LineString","coordinates":[[138.197362,-35.570042],[138.197136,-35.570193],[138.196811,-35.570412],[138.196326,-35.57076],[138.195954,-35.571008],[138.195486,-35.571322],[138.195236,-35.571485],[138.195085,-35.571561],[138.194864,-35.571659],[138.194648,-35.571735],[138.194419,-35.571786],[138.194158,-35.571835],[138.193759,-35.571893]]}},{"type":"Feature","properties":{"tier":"high"},"geometry":{"type":"LineString","coordinates":[[138.224922,-35.531696],[138.224796,-35.531855],[138.224705,-35.531992],[138.224623,-35.532138],[138.224561,-35.532275],[138.224518,-35.532395],[138.224458,-35.532576],[138.224362,-35.532882],[138.224299,-35.533049],[138.22423,-35.533194],[138.224172,-35.5333],[138.224085,-35.533416],[138.22397,-35.533547],[138.223834,-35.533672]]}},{"type":"Feature","properties":{"tier":"high"},"geometry":{"type":"LineString","coordinates":[[138.13224,-35.605506],[138.131218,-35.605449],[138.130391,-35.6054],[138.128884,-35.605313],[138.128113,-35.605264],[138.126592,-35.605172],[138.126139,-35.605144],[138.12262,-35.604905],[138.122545,-35.604898],[138.119419,-35.604676]]}},{"type":"Feature","properties":{"tier":"high"},"geometry":{"type":"LineString","coordinates":[[138.141774,-35.60402],[138.141583,-35.604139],[138.141427,-35.604246],[138.14128,-35.604344],[138.141142,-35.604438],[138.140995,-35.604518],[138.140758,-35.604635],[138.140513,-35.604762],[138.140404,-35.604831],[138.140224,-35.60496],[138.140126,-35.60505],[138.139997,-35.605197],[138.139892,-35.605356],[138.139805,-35.605521],[138.139749,-35.605693],[138.139569,-35.606256],[138.139469,-35.606504],[138.139357,-35.606678],[138.139233,-35.606827],[138.139065,-35.606977],[138.138894,-35.607097],[138.138698,-35.607194],[138.138542,-35.607251],[138.138351,-35.607298],[138.13813,-35.60733],[138.137972,-35.607341],[138.137774,-35.607343],[138.137506,-35.607323],[138.136112,-35.607236],[138.135923,-35.607214],[138.135793,-35.607191],[138.135607,-35.607147],[138.135412,-35.607088],[138.135295,-35.607045],[138.135165,-35.60699],[138.13503,-35.606923],[138.134862,-35.606827],[138.134718,-35.60673],[138.134613,-35.606648],[138.13457,-35.606612],[138.134003,-35.606141],[138.133978,-35.60612],[138.133887,-35.60605],[138.133765,-35.605964],[138.133652,-35.605895],[138.133541,-35.605834],[138.1334,-35.605767],[138.133317,-35.605731],[138.133209,-35.60569],[138.1331,-35.605653],[138.132981,-35.605618],[138.132855,-35.605587],[138.132732,-35.605563],[138.132617,-35.605545],[138.132469,-35.605528],[138.13224,-35.605506]]}},{"type":"Feature","properties":{"tier":"high"},"geometry":{"type":"LineString","coordinates":[[138.162651,-35.604621],[138.1621,-35.604809],[138.161976,-35.60486],[138.161797,-35.604936],[138.161659,-35.604987],[138.161503,-35.605034],[138.161394,-35.605061],[138.161344,-35.605072],[138.161158,-35.605095],[138.16094,-35.605112],[138.160724,-35.605112],[138.160387,-35.605097],[138.160178,-35.605063],[138.159986,-35.605023],[138.159737,-35.604954],[138.159525,-35.604882],[138.159291,-35.604769],[138.158815,-35.604498]]}},{"type":"Feature","properties":{"tier":"high"},"geometry":{"type":"LineString","coordinates":[[138.171723,-35.587388],[138.171262,-35.588248],[138.170715,-35.589291],[138.170486,-35.589728],[138.170164,-35.590319],[138.169914,-35.590806],[138.169669,-35.591319],[138.168968,-35.592804],[138.168308,-35.594196],[138.168137,-35.594574],[138.168052,-35.59481],[138.167994,-35.595042],[138.167965,-35.595252],[138.167954,-35.595467],[138.167993,-35.59571],[138.168035,-35.59618],[138.168048,-35.596505],[138.168041,-35.596748],[138.168015,-35.597018],[138.167985,-35.597274],[138.167942,-35.597479],[138.167895,-35.597691],[138.167841,-35.59784],[138.167769,-35.598075],[138.167676,-35.5983],[138.167527,-35.598624],[138.167306,-35.599102],[138.167232,-35.599245],[138.16713,-35.599479],[138.166526,-35.600749],[138.165929,-35.602035],[138.165662,-35.602589]]}},{"type":"Feature","properties":{"tier":"high"},"geometry":{"type":"LineString","coordinates":[[138.179425,-35.583236],[138.179305,-35.583325],[138.179206,-35.583422],[138.179,-35.583624],[138.178902,-35.583739],[138.178713,-35.58395]]}},{"type":"Feature","properties":{"tier":"high"},"geometry":{"type":"LineString","coordinates":[[138.182551,-35.580885],[138.182515,-35.581029],[138.182441,-35.58123],[138.182364,-35.581388],[138.182296,-35.581517],[138.182176,-35.581694],[138.182052,-35.58185],[138.181922,-35.581984],[138.181875,-35.582033],[138.181713,-35.582163],[138.181495,-35.582319],[138.181279,-35.582448],[138.181058,-35.582556],[138.180829,-35.582645],[138.180597,-35.582718],[138.180547,-35.582733],[138.180172,-35.582848],[138.179984,-35.582921],[138.179773,-35.58302],[138.179595,-35.583122],[138.179425,-35.583236]]}},{"type":"Feature","properties":{"tier":"high"},"geometry":{"type":"LineString","coordinates":[[138.188206,-35.575],[138.187979,-35.575214],[138.187752,-35.575453],[138.187582,-35.575648],[138.187431,-35.57585],[138.1873,-35.576034],[138.187166,-35.576252],[138.186992,-35.576531],[138.186865,-35.57673],[138.186743,-35.576911],[138.186616,-35.577076],[138.186498,-35.577216],[138.186364,-35.577357],[138.186219,-35.5775],[138.186025,-35.577672],[138.185894,-35.577781],[138.185749,-35.577886],[138.185585,-35.577998],[138.185393,-35.578129],[138.185155,-35.578279],[138.184874,-35.578457],[138.184076,-35.578964]]}},{"type":"Feature","properties":{"tier":"high"},"geometry":{"type":"LineString","coordinates":[[138.158815,-35.604498],[138.158291,-35.604184],[138.157494,-35.603702],[138.157398,-35.603649],[138.1573,-35.603599],[138.157175,-35.603543],[138.157041,-35.603489],[138.156909,-35.603445],[138.156788,-35.60341],[138.156697,-35.603387],[138.156535,-35.603353],[138.156421,-35.603335],[138.156277,-35.603318],[138.156106,-35.603306],[138.155967,-35.603304],[138.155718,-35.603314],[138.155142,-35.60335],[138.154709,-35.603384],[138.154313,-35.603426],[138.15397,-35.603442],[138.153763,-35.603453],[138.153039,-35.603504],[138.152738,-35.603518],[138.152399,-35.603516],[138.152181,-35.603498],[138.151965,-35.603473],[138.151673,-35.603429],[138.151448,-35.603377],[138.151221,-35.603316],[138.151092,-35.603273],[138.150929,-35.603219],[138.150749,-35.603147],[138.150466,-35.603031],[138.149843,-35.602786],[138.148732,-35.602351],[138.148379,-35.602212],[138.147098,-35.60171],[138.146784,-35.601596],[138.146571,-35.60153],[138.146421,-35.601497],[138.146265,-35.601474],[138.146122,-35.601461],[138.145985,-35.601457],[138.145866,-35.60146],[138.145703,-35.601474],[138.145617,-35.601485],[138.145498,-35.601507],[138.145356,-35.601541],[138.145209,-35.601586],[138.145058,-35.601645],[138.144913,-35.601715],[138.144801,-35.601779],[138.144686,-35.601854],[138.144575,-35.60194],[138.1445,-35.602005],[138.144271,-35.602214],[138.143895,-35.602578],[138.143614,-35.602851],[138.143371,-35.603045],[138.143117,-35.603226],[138.142801,-35.603431],[138.142667,-35.603514],[138.142489,-35.603603],[138.142331,-35.603685],[138.142146,-35.603799],[138.141774,-35.60402]]}},{"type":"Feature","properties":{"tier":"high"},"geometry":{"type":"LineString","coordinates":[[138.165662,-35.602589],[138.165535,-35.602839],[138.165377,-35.603069],[138.165147,-35.603344],[138.164974,-35.603505],[138.164827,-35.60363],[138.164635,-35.603782],[138.164441,-35.603913],[138.164239,-35.604032],[138.164029,-35.604134],[138.163858,-35.604215],[138.163664,-35.604293],[138.163303,-35.604409],[138.162651,-35.604621]]}},{"type":"Feature","properties":{"tier":"high"},"geometry":{"type":"LineString","coordinates":[[138.232044,-35.526376],[138.231946,-35.526543],[138.231873,-35.526648],[138.231806,-35.52674],[138.231756,-35.5268],[138.231689,-35.526874],[138.231613,-35.526947],[138.231547,-35.527004],[138.231497,-35.527044],[138.231406,-35.52711],[138.231334,-35.527157],[138.231229,-35.527218],[138.231106,-35.527279],[138.231021,-35.527316],[138.230963,-35.527339],[138.230892,-35.527364],[138.230812,-35.527389],[138.230664,-35.527428],[138.23053,-35.527455]]}},{"type":"Feature","properties":{"tier":"high"},"geometry":{"type":"LineString","coordinates":[[138.262532,-35.512921],[138.26242,-35.512993],[138.26233,-35.513037],[138.26224,-35.51307],[138.262151,-35.513088],[138.262074,-35.513104],[138.261972,-35.513116],[138.261873,-35.513124],[138.261576,-35.513131],[138.261248,-35.51314],[138.261007,-35.513154],[138.260834,-35.513181],[138.260634,-35.513223],[138.260472,-35.513281],[138.260342,-35.513337],[138.260218,-35.513395],[138.260075,-35.513478],[138.259929,-35.513567],[138.259821,-35.513634],[138.258398,-35.514562],[138.258296,-35.51463],[138.258102,-35.514759],[138.257917,-35.514895],[138.257665,-35.51511],[138.257247,-35.515466],[138.25698,-35.515692],[138.256418,-35.516159],[138.256283,-35.516257],[138.256105,-35.516385],[138.255873,-35.516549],[138.255452,-35.516845],[138.254498,-35.517449],[138.253942,-35.517799],[138.253622,-35.518008],[138.253348,-35.518193],[138.253048,-35.518407],[138.252684,-35.518661],[138.252244,-35.518973],[138.251967,-35.519164],[138.251581,-35.519407],[138.251401,-35.519504],[138.251209,-35.519608],[138.250932,-35.519746],[138.250402,-35.520012],[138.249902,-35.520266],[138.24931,-35.52058],[138.248647,-35.520947],[138.248173,-35.521219],[138.247785,-35.52145],[138.245313,-35.523079],[138.244992,-35.523299],[138.243818,-35.524103],[138.243283,-35.524446],[138.243056,-35.524596],[138.242846,-35.524723],[138.24268,-35.524795],[138.242511,-35.524867],[138.242285,-35.524948],[138.242101,-35.525007]]}},{"type":"Feature","properties":{"tier":"high"},"geometry":{"type":"LineString","coordinates":[[138.262758,-35.511501],[138.26285,-35.512104],[138.262861,-35.512246],[138.262854,-35.512372],[138.262825,-35.512508],[138.262764,-35.512647],[138.262689,-35.512766],[138.262618,-35.512844]]}},{"type":"Feature","properties":{"tier":"high"},"geometry":{"type":"LineString","coordinates":[[138.262618,-35.512844],[138.262532,-35.512921]]}},{"type":"Feature","properties":{"tier":"high"},"geometry":{"type":"LineString","coordinates":[[138.262805,-35.511139],[138.262773,-35.511293],[138.262758,-35.511501]]}},{"type":"Feature","properties":{"tier":"high"},"geometry":{"type":"LineString","coordinates":[[138.228065,-35.527782],[138.228,-35.52785],[138.227862,-35.528047]]}},{"type":"Feature","properties":{"tier":"high"},"geometry":{"type":"LineString","coordinates":[[138.228136,-35.527719],[138.228065,-35.527782]]}},{"type":"Feature","properties":{"tier":"high"},"geometry":{"type":"LineString","coordinates":[[138.184076,-35.578964],[138.183647,-35.579257],[138.183457,-35.579384],[138.183288,-35.579527],[138.18313,-35.579683],[138.183009,-35.579816],[138.18288,-35.579989],[138.182758,-35.580205],[138.182702,-35.580343],[138.182651,-35.580497],[138.182608,-35.580658],[138.182588,-35.580741]]}},{"type":"Feature","properties":{"tier":"high"},"geometry":{"type":"LineString","coordinates":[[138.182588,-35.580741],[138.182551,-35.580885]]}}]}
