{"type":"FeatureCollection","features":[{"type":"Feature","properties":{"tier":"regional"},"geometry":{"type":"LineString","coordinates":[[138.266226,-26.70308],[138.265891,-26.70277],[138.265723,-26.70261],[138.265527,-26.702463],[138.265318,-26.702341],[138.265187,-26.702279],[138.264953,-26.702192],[138.2648,-26.70215],[138.264606,-26.702112],[138.264423,-26.702102],[138.263838,-26.702102],[138.262089,-26.702068],[138.254255,-26.70197],[138.249899,-26.70185],[138.243874,-26.701793],[138.235356,-26.701615],[138.227695,-26.701496],[138.221178,-26.701381],[138.203829,-26.701069],[138.199328,-26.700945],[138.185273,-26.700738],[138.174158,-26.700595],[138.173397,-26.700633],[138.172967,-26.700609],[138.172721,-26.700552],[138.172495,-26.700441],[138.172318,-26.70025],[138.171954,-26.699665],[138.171186,-26.698387],[138.171015,-26.697916],[138.170806,-26.697259],[138.17013,-26.695232],[138.169974,-26.694714],[138.169674,-26.694063],[138.169121,-26.693061],[138.169017,-26.692745],[138.169014,-26.692332],[138.16903,-26.691278],[138.169164,-26.690133],[138.169266,-26.689438],[138.169234,-26.688915],[138.169175,-26.688488],[138.16918,-26.688057],[138.169287,-26.687607],[138.169363,-26.687295],[138.169385,-26.687043],[138.169314,-26.686672],[138.169003,-26.685047],[138.16867,-26.683719],[138.168381,-26.682627],[138.168322,-26.682099],[138.168102,-26.68116],[138.167812,-26.680029],[138.167458,-26.678677],[138.167136,-26.6778],[138.167034,-26.677488],[138.166927,-26.677047],[138.166586,-26.674769],[138.166595,-26.674286],[138.166621,-26.673711],[138.166629,-26.673519],[138.166664,-26.673284],[138.166729,-26.673078],[138.166769,-26.672896],[138.166758,-26.672709],[138.166731,-26.672541],[138.166686,-26.672316],[138.166603,-26.671993],[138.166455,-26.670684],[138.166337,-26.669397],[138.166222,-26.668711],[138.166026,-26.667662],[138.165782,-26.66688],[138.165358,-26.66566],[138.164578,-26.663687],[138.164325,-26.663088],[138.163934,-26.662249],[138.163553,-26.661631],[138.163317,-26.66119],[138.163043,-26.660806],[138.162442,-26.66025],[138.160978,-26.659032],[138.160356,-26.658519],[138.159723,-26.658074],[138.159336,-26.657762],[138.158918,-26.657388],[138.158575,-26.657105],[138.158341,-26.656937],[138.15807,-26.656813],[138.157789,-26.656705],[138.157328,-26.656532],[138.156912,-26.656369],[138.156622,-26.656295],[138.156241,-26.656244],[138.155721,-26.656187],[138.155316,-26.656122],[138.155048,-26.656038],[138.154758,-26.65594],[138.154522,-26.655907],[138.154358,-26.655921],[138.154179,-26.655962],[138.153846,-26.656046],[138.15342,-26.656105],[138.153047,-26.656089],[138.152631,-26.656081],[138.152258,-26.656029],[138.15207,-26.655981],[138.151848,-26.65594],[138.151617,-26.655935],[138.15133,-26.655964],[138.150096,-26.656024],[138.148235,-26.656055],[138.147894,-26.65606],[138.147685,-26.65607],[138.147473,-26.656103],[138.147041,-26.656228],[138.146835,-26.656312],[138.146548,-26.656422],[138.146151,-26.656511],[138.14591,-26.656531],[138.145689,-26.656547],[138.14537,-26.656542],[138.145024,-26.656523],[138.144689,-26.656455],[138.144329,-26.656372],[138.144082,-26.656271],[138.143887,-26.656177],[138.143584,-26.655914],[138.143184,-26.655477],[138.142959,-26.655242],[138.142709,-26.655046],[138.142406,-26.6549],[138.142095,-26.654799],[138.141765,-26.654718],[138.141411,-26.654655],[138.141057,-26.654641],[138.140593,-26.654672],[138.14029,-26.65472],[138.140003,-26.654789],[138.139625,-26.654909],[138.139145,-26.655055],[138.138732,-26.655144],[138.138362,-26.65518],[138.137889,-26.655195],[138.137329,-26.655173],[138.136688,-26.655101],[138.135886,-26.655087],[138.13495,-26.655044],[138.134588,-26.654996],[138.134303,-26.654897],[138.134065,-26.654737],[138.133856,-26.654564],[138.133625,-26.654219],[138.133163,-26.653653],[138.132823,-26.653294],[138.132482,-26.653056],[138.131994,-26.652769],[138.131385,-26.652447],[138.130956,-26.652189],[138.130428,-26.651774],[138.129658,-26.651163],[138.128896,-26.650609],[138.128727,-26.650499],[138.128488,-26.650398],[138.128301,-26.65035],[138.128014,-26.650307],[138.127692,-26.65023],[138.127413,-26.65011],[138.127115,-26.64993],[138.126335,-26.649496],[138.125299,-26.648844],[138.124586,-26.648322],[138.124154,-26.647871],[138.123888,-26.647555],[138.123644,-26.647305],[138.123347,-26.64701],[138.122759,-26.646445],[138.121901,-26.64567],[138.121246,-26.645114],[138.12064,-26.644656],[138.120077,-26.644194],[138.119538,-26.643712],[138.118878,-26.643088],[138.118304,-26.642522],[138.117961,-26.642132],[138.117725,-26.641849],[138.117416,-26.641384],[138.117019,-26.640912],[138.116448,-26.640365],[138.115858,-26.639936],[138.115214,-26.639523],[138.114324,-26.638953],[138.113758,-26.638476],[138.113524,-26.638248],[138.113398,-26.637982],[138.113339,-26.637711],[138.113109,-26.637243],[138.112771,-26.636562],[138.112116,-26.635253],[138.111912,-26.634951],[138.111754,-26.634743],[138.111668,-26.634501],[138.111545,-26.634114],[138.111027,-26.632673],[138.110697,-26.631806],[138.110408,-26.631247],[138.110142,-26.630779],[138.109863,-26.630285],[138.109667,-26.629765],[138.109493,-26.629103],[138.109281,-26.628598],[138.109099,-26.628295],[138.108975,-26.628132],[138.108801,-26.628029],[138.10849,-26.627952],[138.107792,-26.627806],[138.107299,-26.627646],[138.10695,-26.627439],[138.106492,-26.627087],[138.105896,-26.626483],[138.10544,-26.625898],[138.105234,-26.625528],[138.105038,-26.624905],[138.104703,-26.623183],[138.10455,-26.622512],[138.104332,-26.621908],[138.103809,-26.620759],[138.103337,-26.619867],[138.103066,-26.61938],[138.102943,-26.619061],[138.10289,-26.61884],[138.10254,-26.617],[138.102466,-26.616512],[138.102369,-26.615733],[138.102353,-26.615452],[138.102407,-26.615016],[138.102551,-26.614275],[138.102696,-26.61352],[138.10279,-26.612899],[138.102803,-26.612179],[138.102857,-26.611378],[138.102833,-26.610971],[138.102718,-26.610671],[138.102412,-26.610198],[138.102071,-26.609601],[138.101811,-26.609074],[138.10164,-26.60865],[138.101513,-26.608261],[138.101326,-26.608014],[138.101108,-26.607635],[138.100899,-26.607155],[138.10077,-26.60681],[138.100626,-26.606268],[138.10059,-26.60595],[138.100559,-26.605707],[138.100626,-26.605337],[138.100754,-26.605054],[138.100821,-26.60474],[138.100808,-26.604457],[138.10077,-26.604148],[138.100663,-26.603846],[138.100473,-26.603534],[138.100215,-26.6031],[138.099998,-26.602651],[138.099923,-26.602414],[138.099891,-26.602076],[138.099918,-26.60174],[138.099918,-26.601368],[138.099869,-26.601176],[138.099732,-26.600862],[138.09959,-26.600608],[138.09951,-26.600385],[138.099384,-26.599917],[138.09924,-26.59947],[138.099169,-26.599234],[138.099148,-26.599073],[138.099164,-26.598696],[138.09914,-26.598171],[138.099113,-26.596497],[138.09905,-26.5959],[138.098925,-26.594828],[138.09893,-26.593991],[138.098863,-26.593482],[138.09881,-26.593214],[138.09872,-26.59297],[138.098592,-26.592744],[138.09841,-26.592624],[138.098169,-26.592432],[138.097879,-26.591911],[138.097318,-26.59089],[138.09718,-26.59067],[138.096999,-26.590405],[138.096629,-26.589904],[138.096248,-26.589393],[138.095704,-26.588827],[138.095175,-26.588294],[138.094778,-26.588009],[138.093574,-26.587172],[138.092957,-26.586745],[138.092415,-26.586392],[138.092147,-26.586172],[138.09197,-26.585944],[138.091868,-26.585644],[138.091809,-26.58539],[138.091796,-26.585313],[138.091756,-26.585244],[138.091699,-26.585193],[138.091613,-26.58515],[138.091426,-26.585092],[138.091141,-26.585037],[138.090873,-26.585018],[138.090589,-26.584934],[138.090141,-26.584665],[138.089438,-26.584284],[138.088572,-26.583898],[138.086796,-26.58326],[138.085737,-26.582874],[138.08519,-26.58272],[138.084953,-26.582646],[138.084685,-26.582487],[138.084522,-26.582351],[138.08428,-26.582132],[138.084087,-26.582053],[138.08354,-26.581938],[138.082894,-26.581809],[138.082456,-26.58183],[138.08203,-26.581823],[138.081606,-26.581717],[138.081217,-26.58155],[138.081013,-26.581382],[138.08089,-26.58127],[138.080791,-26.581079],[138.080547,-26.58071],[138.08038,-26.580544],[138.080206,-26.580401],[138.079991,-26.580324],[138.079753,-26.580293],[138.079586,-26.580311],[138.078575,-26.580669],[138.07813,-26.580806],[138.077837,-26.580842],[138.077489,-26.580828],[138.077119,-26.580765],[138.07658,-26.580604],[138.074613,-26.579986],[138.072932,-26.57942],[138.072631,-26.579343],[138.072342,-26.579273],[138.071856,-26.579117],[138.071041,-26.578861],[138.070641,-26.578745],[138.070279,-26.578659],[138.069863,-26.578628],[138.069002,-26.578585],[138.068361,-26.578554],[138.067857,-26.578546],[138.067439,-26.578594],[138.067165,-26.57863],[138.066736,-26.578626],[138.066237,-26.578645],[138.065703,-26.578714],[138.065255,-26.578769],[138.064992,-26.578777],[138.064826,-26.57875],[138.064711,-26.57869],[138.064561,-26.578575],[138.064249,-26.578299],[138.064043,-26.578129],[138.063753,-26.577985],[138.063415,-26.577817],[138.063077,-26.577659],[138.06285,-26.57752],[138.062694,-26.577357],[138.062592,-26.577294],[138.062273,-26.577157],[138.062098,-26.577098],[138.061972,-26.577021],[138.06172,-26.576788],[138.061615,-26.576656],[138.061361,-26.576462],[138.061058,-26.576272],[138.060725,-26.576136],[138.06035,-26.575996],[138.060081,-26.575975],[138.059754,-26.575958],[138.059515,-26.575872],[138.059269,-26.575699],[138.059014,-26.575409],[138.058142,-26.574699],[138.057882,-26.574519],[138.0573,-26.574305],[138.056777,-26.574121],[138.056541,-26.574118],[138.056307,-26.574085],[138.056031,-26.573981],[138.055763,-26.573857],[138.055186,-26.573612],[138.054856,-26.573394],[138.054513,-26.573159],[138.05414,-26.573024],[138.053731,-26.572927],[138.05351,-26.572952],[138.053282,-26.573017],[138.052949,-26.573142],[138.052456,-26.57329],[138.052072,-26.573341],[138.051826,-26.573341],[138.051533,-26.5733],[138.051125,-26.573219],[138.050664,-26.573046],[138.050136,-26.572828],[138.049669,-26.572655],[138.049411,-26.572633],[138.048964,-26.572686],[138.048722,-26.572691],[138.048446,-26.572669],[138.048111,-26.572597],[138.047888,-26.572492],[138.047668,-26.572345],[138.047397,-26.572086],[138.047169,-26.571902],[138.046753,-26.571417],[138.04655,-26.571165],[138.046365,-26.57082],[138.046128,-26.570311],[138.045847,-26.569987],[138.045479,-26.569639],[138.045214,-26.569508],[138.044935,-26.569364],[138.044583,-26.569229],[138.044173,-26.569119],[138.043824,-26.568941],[138.043543,-26.568778],[138.043178,-26.568591],[138.042921,-26.568512],[138.042628,-26.568493],[138.042349,-26.568555],[138.041858,-26.568687],[138.041378,-26.568874],[138.04107,-26.569001],[138.04074,-26.569037],[138.040295,-26.569042],[138.039887,-26.569059],[138.039603,-26.569128],[138.039246,-26.569172],[138.03827,-26.569241],[138.037572,-26.569299],[138.037001,-26.569397],[138.03611,-26.569582],[138.035365,-26.56969],[138.035048,-26.56975],[138.034077,-26.570004],[138.033538,-26.570194],[138.033133,-26.570342],[138.032873,-26.570354],[138.032562,-26.570275],[138.03232,-26.570105],[138.031891,-26.569944],[138.031527,-26.569838],[138.031186,-26.569798],[138.030733,-26.569745],[138.030322,-26.569637],[138.029611,-26.569407],[138.029029,-26.569167],[138.028233,-26.568766],[138.027503,-26.568272],[138.026725,-26.567804],[138.026328,-26.567584],[138.0262,-26.56754],[138.026028,-26.567511],[138.025851,-26.567516],[138.02561,-26.567571],[138.023799,-26.568061],[138.023362,-26.568195],[138.022839,-26.568334],[138.022369,-26.568397],[138.02179,-26.568387],[138.020929,-26.568272],[138.020036,-26.568176],[138.019757,-26.56814],[138.019497,-26.568051],[138.01933,-26.567965],[138.019132,-26.567821],[138.01892,-26.567555],[138.018512,-26.567097],[138.017885,-26.56642],[138.01654,-26.56494],[138.016222,-26.564414],[138.015782,-26.56368],[138.015677,-26.563313],[138.01566,-26.56305],[138.015707,-26.562714],[138.015801,-26.562078],[138.015774,-26.561751],[138.015659,-26.561209],[138.015586,-26.561048],[138.015465,-26.560885],[138.015216,-26.560636],[138.014865,-26.560439],[138.013998,-26.560137],[138.013009,-26.559933],[138.012024,-26.559947],[138.010849,-26.560026],[138.010447,-26.560074],[138.00994,-26.560245],[138.009438,-26.560403],[138.008755,-26.560521],[138.008151,-26.560516],[138.00788,-26.560571],[138.007499,-26.560703],[138.007277,-26.560854],[138.007041,-26.561159],[138.006917,-26.561377],[138.006705,-26.561605],[138.006499,-26.561737],[138.006247,-26.5619],[138.005619,-26.562277],[138.005091,-26.562572],[138.00468,-26.562761],[138.004211,-26.562922],[138.003971,-26.563038],[138.003755,-26.563167],[138.003556,-26.563376],[138.003464,-26.563522],[138.003387,-26.563757],[138.003331,-26.564026],[138.003264,-26.564309],[138.003151,-26.564532],[138.003079,-26.56464],[138.00295,-26.564757],[138.002722,-26.564921],[138.002577,-26.564991],[138.002331,-26.565024],[138.002044,-26.56501],[138.001775,-26.564952],[138.001386,-26.564856],[138.001164,-26.56475],[138.000952,-26.564611],[138.000804,-26.564441],[138.000633,-26.564045],[138.000279,-26.562963],[138.000222,-26.562749],[138.000131,-26.562531],[137.99998,-26.562313]]}},{"type":"Feature","properties":{"tier":"regional"},"geometry":{"type":"LineString","coordinates":[[138.231472,-26.583029],[138.230914,-26.582013],[138.229412,-26.580919],[138.228554,-26.580439],[138.22776,-26.579863],[138.227266,-26.579499],[138.225678,-26.576524],[138.225421,-26.575545],[138.224326,-26.574144],[138.223146,-26.573166],[138.222009,-26.572187],[138.221473,-26.570709],[138.221129,-26.56975],[138.219413,-26.567524],[138.219091,-26.566199],[138.21922,-26.56428],[138.218232,-26.56213],[138.217267,-26.559866],[138.216516,-26.558292],[138.215593,-26.55547],[138.215421,-26.554299],[138.215357,-26.553513],[138.2154,-26.553052],[138.215379,-26.552342],[138.214434,-26.548733],[138.213512,-26.544645],[138.212975,-26.543627],[138.213061,-26.542187],[138.211924,-26.539174],[138.211774,-26.534566],[138.211516,-26.532915],[138.210915,-26.531687],[138.209885,-26.53042],[138.208877,-26.528576],[138.207182,-26.525294],[138.20628,-26.523892],[138.205873,-26.523105],[138.205336,-26.522663],[138.204564,-26.521089],[138.20362,-26.518996],[138.203298,-26.517786],[138.202912,-26.516078],[138.203105,-26.514004],[138.203641,-26.511969],[138.203427,-26.510625],[138.203362,-26.509799],[138.202933,-26.508551],[138.202547,-26.507437],[138.202375,-26.505862],[138.202804,-26.503174],[138.20259,-26.501734],[138.202332,-26.500294],[138.202354,-26.49998]]}},{"type":"Feature","properties":{"tier":"regional"},"geometry":{"type":"LineString","coordinates":[[138.266226,-26.70308],[138.264881,-26.697782],[138.264002,-26.694101],[138.262542,-26.687889],[138.261813,-26.686279],[138.260246,-26.68139],[138.257672,-26.673107],[138.256406,-26.671132],[138.255054,-26.669272],[138.254453,-26.667815],[138.254496,-26.663577],[138.253831,-26.655082],[138.253466,-26.651477],[138.252672,-26.646759],[138.2519,-26.642674],[138.249646,-26.63573],[138.249174,-26.63433],[138.245612,-26.625948],[138.243123,-26.623128],[138.240913,-26.618735],[138.239991,-26.615014],[138.23954,-26.614227],[138.238596,-26.610582],[138.237974,-26.608069],[138.23733,-26.606304],[138.236836,-26.603733],[138.236514,-26.602774],[138.236085,-26.600145],[138.236128,-26.599071],[138.235163,-26.597651],[138.234454,-26.596058],[138.233725,-26.595157],[138.233424,-26.594427],[138.233296,-26.593315],[138.233103,-26.592432],[138.233081,-26.590724],[138.232888,-26.588825],[138.232673,-26.587865],[138.232588,-26.585409],[138.232201,-26.584565],[138.231751,-26.583433],[138.231472,-26.583029],[138.231536,-26.582089],[138.231064,-26.580784],[138.230206,-26.580055],[138.229283,-26.579959],[138.228725,-26.579767],[138.22776,-26.579863]]}}]}
