{"type":"FeatureCollection","features":[{"type":"Feature","properties":{"tier":"arterial"},"geometry":{"type":"LineString","coordinates":[[138.322048,-30.842362],[138.322147,-30.842624],[138.322185,-30.84273],[138.322226,-30.842846],[138.322347,-30.843212],[138.322437,-30.84351],[138.322531,-30.843857],[138.322593,-30.844106],[138.322662,-30.844413],[138.322708,-30.844636],[138.322755,-30.844896],[138.3228,-30.845171],[138.322843,-30.845485],[138.322879,-30.845799],[138.322903,-30.846073],[138.322924,-30.846375],[138.322935,-30.846612],[138.322943,-30.847068],[138.322926,-30.847729],[138.322203,-30.878144],[138.321818,-30.89893],[138.321766,-30.902642],[138.321638,-30.907694],[138.321535,-30.91209],[138.321539,-30.912202],[138.321566,-30.912912],[138.32163,-30.913725],[138.321699,-30.914305],[138.32179,-30.914942],[138.321903,-30.915551],[138.322024,-30.916089],[138.322204,-30.916756],[138.32238,-30.917285],[138.322968,-30.91876],[138.322988,-30.918798],[138.322996,-30.918815],[138.323053,-30.918927],[138.323912,-30.92061],[138.324574,-30.921624],[138.325134,-30.922367],[138.325938,-30.923334],[138.327113,-30.924483],[138.328787,-30.925896],[138.330787,-30.927185],[138.331612,-30.927695],[138.332748,-30.928398],[138.333349,-30.928789],[138.334305,-30.929398],[138.337181,-30.931161],[138.338383,-30.931823],[138.339713,-30.932361],[138.341155,-30.932928],[138.343215,-30.93359],[138.34761,-30.935085],[138.347928,-30.935194],[138.350399,-30.936042],[138.351987,-30.936609],[138.353446,-30.93733],[138.354648,-30.93803],[138.356167,-30.939141],[138.359454,-30.942056],[138.363986,-30.945973],[138.367282,-30.948829],[138.37015,-30.951368],[138.370475,-30.951751],[138.3719,-30.953223],[138.373101,-30.954673],[138.374192,-30.956146],[138.375239,-30.957912],[138.376243,-30.959796],[138.377187,-30.962166],[138.377525,-30.963358],[138.377599,-30.963617],[138.377668,-30.963859],[138.378062,-30.965802],[138.37844,-30.968599],[138.379551,-30.978324],[138.379573,-30.978519],[138.379812,-30.980931],[138.380806,-30.991011],[138.38158,-31.00002]]}},{"type":"Feature","properties":{"tier":"arterial"},"geometry":{"type":"LineString","coordinates":[[138.322048,-30.842362],[138.321602,-30.841081],[138.321307,-30.840228],[138.320313,-30.837358],[138.317073,-30.8285],[138.315751,-30.826268],[138.31412,-30.823467],[138.313624,-30.822371],[138.313275,-30.82129],[138.312859,-30.819143],[138.312847,-30.817304],[138.313132,-30.815668],[138.31387,-30.811865],[138.314515,-30.808672]]}},{"type":"Feature","properties":{"tier":"arterial"},"geometry":{"type":"LineString","coordinates":[[138.422731,-30.558361],[138.422456,-30.557833],[138.422326,-30.557595],[138.42201,-30.556951],[138.421695,-30.55644],[138.421312,-30.555905],[138.421038,-30.555513],[138.420718,-30.555105],[138.420287,-30.554621],[138.420091,-30.554429],[138.419098,-30.553411],[138.418196,-30.552572],[138.416626,-30.551424],[138.415801,-30.550925],[138.415086,-30.550546],[138.414267,-30.550153],[138.413905,-30.549999],[138.413299,-30.549765],[138.412593,-30.549527],[138.412049,-30.549359],[138.411317,-30.549139],[138.410748,-30.548984],[138.410053,-30.548774],[138.401806,-30.546443],[138.400283,-30.54603],[138.399597,-30.545844],[138.398054,-30.545239],[138.397232,-30.54479],[138.395886,-30.543921],[138.39444,-30.542536],[138.391237,-30.539026],[138.390053,-30.537383],[138.387232,-30.532451]]}},{"type":"Feature","properties":{"tier":"arterial"},"geometry":{"type":"LineString","coordinates":[[138.426626,-30.55799],[138.425748,-30.558031],[138.425527,-30.558038],[138.424793,-30.558087],[138.424619,-30.558098],[138.424292,-30.558117],[138.423955,-30.558144],[138.423447,-30.558207],[138.422731,-30.558361]]}},{"type":"Feature","properties":{"tier":"arterial"},"geometry":{"type":"LineString","coordinates":[[138.403068,-30.597945],[138.403669,-30.597234],[138.404699,-30.596017],[138.405957,-30.594523],[138.408451,-30.591549],[138.410231,-30.589237],[138.410488,-30.588836],[138.411572,-30.587394],[138.413076,-30.585173],[138.413988,-30.583808],[138.415845,-30.580776],[138.417062,-30.578767]]}},{"type":"Feature","properties":{"tier":"arterial"},"geometry":{"type":"LineString","coordinates":[[138.50002,-30.547897],[138.498997,-30.54741],[138.495253,-30.545737],[138.491551,-30.544104],[138.491176,-30.543968],[138.490978,-30.543924],[138.490558,-30.543891],[138.489636,-30.543896],[138.487661,-30.543953],[138.484813,-30.544006],[138.484545,-30.544031],[138.484163,-30.54409],[138.483971,-30.544141],[138.483604,-30.544288],[138.483436,-30.544385],[138.483285,-30.544495],[138.482844,-30.544886],[138.482235,-30.545427],[138.481921,-30.545675],[138.481583,-30.545907],[138.480842,-30.546336],[138.480361,-30.546588],[138.479907,-30.546825],[138.479565,-30.547027],[138.479206,-30.547211],[138.478839,-30.547388],[138.478454,-30.547551],[138.478074,-30.547691],[138.477664,-30.547814],[138.476999,-30.547971],[138.476562,-30.548052],[138.474812,-30.548317],[138.471912,-30.548682],[138.471461,-30.548719],[138.470009,-30.548773],[138.468065,-30.548886],[138.466531,-30.548952],[138.466111,-30.548954],[138.465451,-30.548909],[138.464997,-30.548855],[138.464343,-30.548731],[138.463338,-30.54846],[138.46216,-30.548048],[138.461279,-30.547799],[138.46012,-30.547451],[138.459566,-30.547303],[138.459181,-30.54722],[138.458682,-30.547162],[138.458595,-30.547152],[138.458391,-30.547149],[138.457979,-30.547173],[138.457561,-30.547237],[138.456946,-30.547408],[138.456519,-30.547561],[138.454188,-30.548465],[138.452991,-30.548954],[138.452638,-30.549118],[138.452315,-30.549293],[138.452258,-30.549326],[138.451538,-30.549752],[138.450163,-30.550682],[138.449598,-30.551006],[138.449205,-30.551211],[138.44837,-30.551573],[138.446249,-30.552317],[138.445182,-30.552759],[138.444161,-30.55323],[138.443544,-30.553547],[138.442318,-30.554144],[138.441509,-30.554506],[138.441105,-30.554664],[138.439864,-30.555023],[138.439155,-30.555283],[138.43823,-30.555638],[138.438022,-30.555718],[138.433795,-30.557114],[138.433147,-30.557319],[138.432714,-30.557434],[138.432008,-30.557572],[138.431834,-30.557606],[138.431533,-30.557647],[138.431388,-30.557667],[138.430277,-30.557767],[138.42889,-30.557864],[138.428076,-30.557921],[138.42716,-30.557965],[138.426828,-30.55798],[138.426626,-30.55799]]}},{"type":"Feature","properties":{"tier":"arterial"},"geometry":{"type":"LineString","coordinates":[[138.403068,-30.597945],[138.402566,-30.598518],[138.402206,-30.598921],[138.401646,-30.599403],[138.401101,-30.599806],[138.400359,-30.600314],[138.3997,-30.600829],[138.399137,-30.601417],[138.398738,-30.602025],[138.398301,-30.60287],[138.397802,-30.603814],[138.39718,-30.604653],[138.395815,-30.60631],[138.395067,-30.607114],[138.393022,-30.609202],[138.392432,-30.609909],[138.392079,-30.610371],[138.39168,-30.61111],[138.391419,-30.611744],[138.39112,-30.612695],[138.390295,-30.615372],[138.389338,-30.618017],[138.388691,-30.619699]]}},{"type":"Feature","properties":{"tier":"arterial"},"geometry":{"type":"LineString","coordinates":[[138.422731,-30.558361],[138.423066,-30.559234],[138.423432,-30.560319],[138.423747,-30.561587],[138.423851,-30.56234],[138.4239,-30.563272],[138.423893,-30.564514],[138.42377,-30.565703],[138.423632,-30.566555],[138.423356,-30.567711],[138.422965,-30.56886],[138.422527,-30.569871],[138.422418,-30.570062],[138.421729,-30.571265],[138.418845,-30.575915],[138.417062,-30.578767]]}},{"type":"Feature","properties":{"tier":"arterial"},"geometry":{"type":"LineString","coordinates":[[138.368544,-30.504068],[138.36849,-30.504004]]}},{"type":"Feature","properties":{"tier":"arterial"},"geometry":{"type":"LineString","coordinates":[[138.36849,-30.504004],[138.365485,-30.500452],[138.365089,-30.49998]]}},{"type":"Feature","properties":{"tier":"arterial"},"geometry":{"type":"LineString","coordinates":[[138.387232,-30.532451],[138.387181,-30.532362]]}},{"type":"Feature","properties":{"tier":"arterial"},"geometry":{"type":"LineString","coordinates":[[138.383355,-30.524865],[138.382423,-30.522921],[138.381054,-30.519991],[138.379683,-30.517607],[138.377489,-30.514633],[138.369724,-30.505463],[138.368544,-30.504068]]}},{"type":"Feature","properties":{"tier":"arterial"},"geometry":{"type":"LineString","coordinates":[[138.314525,-30.80862],[138.315418,-30.804198],[138.316132,-30.800722],[138.316739,-30.798667],[138.317346,-30.797297],[138.318762,-30.795252],[138.319788,-30.793782],[138.32169,-30.791039],[138.32319,-30.789117],[138.324749,-30.787471],[138.326559,-30.786223],[138.32851,-30.785017],[138.341294,-30.777235],[138.342683,-30.776361],[138.342874,-30.776241],[138.344413,-30.775159],[138.345627,-30.773952],[138.34665,-30.772725],[138.348221,-30.770444],[138.352483,-30.764144],[138.356791,-30.757731],[138.357442,-30.75649],[138.357949,-30.755295],[138.359395,-30.751183],[138.360859,-30.747081],[138.362537,-30.742299],[138.364317,-30.737485],[138.366251,-30.73284],[138.36638,-30.732525],[138.371202,-30.720731],[138.37472,-30.711982],[138.376384,-30.708027],[138.376732,-30.707211],[138.378098,-30.703872],[138.379205,-30.701211],[138.380431,-30.698581],[138.382574,-30.694446],[138.384645,-30.690925],[138.385988,-30.688799],[138.386216,-30.688438],[138.387525,-30.686524],[138.391358,-30.681396],[138.392983,-30.679524],[138.393357,-30.679092],[138.394836,-30.677284],[138.395424,-30.676555],[138.39619,-30.675571],[138.397964,-30.672684],[138.398779,-30.671193],[138.399404,-30.669725],[138.400082,-30.668097],[138.400927,-30.665405],[138.401308,-30.663542],[138.401713,-30.661002],[138.401784,-30.658699],[138.40172,-30.657457],[138.401685,-30.656774],[138.40167,-30.656492],[138.401499,-30.654675],[138.401165,-30.652545],[138.400618,-30.650261],[138.399556,-30.647456],[138.397583,-30.643257],[138.395405,-30.63955],[138.393345,-30.636334],[138.392429,-30.635034],[138.391089,-30.633393],[138.390715,-30.632934],[138.389644,-30.631398],[138.389096,-30.63022],[138.388846,-30.628981],[138.388632,-30.627434],[138.388239,-30.625483],[138.387918,-30.623993],[138.387811,-30.623071],[138.387942,-30.621985],[138.388183,-30.621083],[138.388691,-30.619699]]}},{"type":"Feature","properties":{"tier":"arterial"},"geometry":{"type":"LineString","coordinates":[[138.314515,-30.808672],[138.314525,-30.80862]]}},{"type":"Feature","properties":{"tier":"arterial"},"geometry":{"type":"LineString","coordinates":[[138.387181,-30.532362],[138.386712,-30.531543],[138.385155,-30.528623],[138.383668,-30.525518]]}},{"type":"Feature","properties":{"tier":"arterial"},"geometry":{"type":"LineString","coordinates":[[138.383668,-30.525518],[138.383355,-30.524865]]}}]}
