{"type":"FeatureCollection","features":[{"type":"Feature","properties":{"tier":"arterial"},"geometry":{"type":"LineString","coordinates":[[138.065427,-32.658109],[138.065293,-32.658083],[138.064231,-32.657838],[138.063747,-32.65779],[138.06334,-32.657806],[138.062838,-32.657911],[138.058788,-32.658977],[138.058308,-32.659087],[138.058071,-32.659117],[138.057834,-32.659122],[138.057601,-32.6591],[138.057368,-32.65905],[138.057146,-32.658972],[138.056938,-32.658873],[138.056739,-32.658753],[138.054896,-32.657018],[138.054373,-32.656566],[138.05409,-32.656359],[138.053604,-32.656133],[138.052969,-32.655903],[138.052471,-32.655674],[138.051987,-32.655362],[138.051531,-32.655057],[138.05118,-32.654615],[138.051005,-32.654097],[138.050966,-32.653693],[138.050909,-32.653416],[138.050784,-32.653017],[138.050475,-32.652437],[138.050362,-32.652152],[138.050094,-32.651476],[138.049822,-32.650979],[138.04942,-32.650549],[138.048926,-32.650118],[138.048377,-32.649871],[138.047727,-32.649771],[138.047081,-32.649694],[138.046695,-32.649589],[138.046416,-32.649457],[138.046245,-32.649343]]}},{"type":"Feature","properties":{"tier":"regional"},"geometry":{"type":"LineString","coordinates":[[137.99998,-32.848563],[138.001606,-32.8484],[138.004602,-32.848123],[138.004818,-32.848085],[138.005482,-32.847859],[138.006213,-32.847548],[138.00994,-32.845645],[138.011768,-32.844701],[138.012101,-32.844499],[138.012206,-32.844375],[138.012359,-32.844104],[138.01263,-32.843768],[138.012852,-32.843623],[138.013139,-32.843532],[138.013631,-32.843388],[138.014536,-32.843118],[138.015684,-32.842512],[138.01595,-32.842405],[138.016122,-32.84238],[138.016274,-32.84237],[138.016399,-32.842358],[138.016506,-32.842366],[138.016776,-32.842393],[138.017153,-32.842365],[138.018349,-32.842307],[138.01882,-32.842048],[138.019358,-32.841413],[138.019807,-32.841174],[138.020289,-32.841077],[138.020882,-32.841107],[138.021598,-32.84134],[138.022005,-32.841651],[138.022357,-32.841925],[138.022787,-32.842112],[138.023362,-32.842258],[138.024022,-32.842324],[138.02464,-32.842307],[138.025344,-32.842387],[138.026381,-32.8423],[138.027653,-32.842628],[138.029576,-32.843024],[138.030257,-32.843179],[138.030518,-32.843228],[138.030778,-32.843246],[138.031043,-32.843242],[138.031351,-32.843217],[138.031664,-32.843126],[138.031971,-32.843008],[138.032148,-32.84294],[138.032545,-32.842763],[138.033062,-32.84253],[138.033612,-32.842358],[138.034709,-32.842148],[138.035443,-32.841885],[138.036065,-32.841676]]}},{"type":"Feature","properties":{"tier":"arterial"},"geometry":{"type":"LineString","coordinates":[[138.22716,-32.963118],[138.224911,-32.969841],[138.224119,-32.972271],[138.223972,-32.972909],[138.223861,-32.973762],[138.223838,-32.974295],[138.223896,-32.974934],[138.224073,-32.975681],[138.22439,-32.976379],[138.22494,-32.977042],[138.225371,-32.977443],[138.225719,-32.977843],[138.22606,-32.978422],[138.226243,-32.979065],[138.226278,-32.979563],[138.226203,-32.980068],[138.22537,-32.983076],[138.225247,-32.983689],[138.2252,-32.98411],[138.225211,-32.984681],[138.225275,-32.985116],[138.225374,-32.985571],[138.225582,-32.986116],[138.225834,-32.986591],[138.226662,-32.987871],[138.229899,-32.992526],[138.231385,-32.994484],[138.231672,-32.994931],[138.231936,-32.995463],[138.23216,-32.995994],[138.232718,-32.998102],[138.232863,-32.998539],[138.233192,-32.999249],[138.233522,-32.999817],[138.23367,-33.00002]]}},{"type":"Feature","properties":{"tier":"arterial"},"geometry":{"type":"LineString","coordinates":[[138.233764,-32.853076],[138.233961,-32.853375],[138.234167,-32.853741],[138.234271,-32.853949],[138.234332,-32.854074],[138.234426,-32.854276],[138.234588,-32.854652],[138.234773,-32.855169],[138.234886,-32.85556]]}},{"type":"Feature","properties":{"tier":"arterial"},"geometry":{"type":"LineString","coordinates":[[138.191012,-32.821406],[138.190511,-32.822021],[138.190041,-32.82255],[138.189384,-32.823322],[138.189188,-32.823569],[138.188666,-32.824163],[138.188254,-32.824646],[138.188044,-32.824859],[138.188003,-32.824914],[138.187927,-32.825054],[138.187871,-32.825186],[138.187519,-32.825725]]}},{"type":"Feature","properties":{"tier":"arterial"},"geometry":{"type":"LineString","coordinates":[[138.207432,-32.803459],[138.206536,-32.804158],[138.204348,-32.805882],[138.198275,-32.810667],[138.198011,-32.810877],[138.197886,-32.810986],[138.19768,-32.811166],[138.197587,-32.811247]]}},{"type":"Feature","properties":{"tier":"arterial"},"geometry":{"type":"LineString","coordinates":[[138.101158,-32.654208],[138.101085,-32.654118],[138.100767,-32.653689],[138.100573,-32.653432],[138.099922,-32.65257],[138.099488,-32.651994],[138.099114,-32.651498],[138.099029,-32.651385]]}},{"type":"Feature","properties":{"tier":"arterial"},"geometry":{"type":"LineString","coordinates":[[138.127209,-32.616903],[138.127586,-32.616633],[138.128021,-32.6163],[138.128473,-32.615879],[138.129006,-32.615188],[138.132587,-32.610148],[138.133311,-32.608992],[138.136878,-32.603807],[138.136898,-32.60377],[138.138128,-32.601448],[138.139128,-32.599503],[138.140962,-32.595784],[138.141236,-32.595046],[138.141684,-32.590884],[138.141672,-32.584831],[138.141392,-32.578696],[138.141248,-32.5763],[138.140842,-32.57039],[138.140685,-32.568972],[138.140146,-32.566105],[138.13858,-32.560182],[138.13857,-32.560145],[138.137237,-32.555546],[138.135539,-32.550038],[138.135227,-32.548634],[138.135126,-32.547795],[138.134691,-32.538922],[138.134607,-32.537141],[138.134418,-32.535861],[138.134037,-32.53447],[138.131063,-32.527007],[138.130488,-32.525432],[138.127899,-32.518858],[138.127556,-32.517922],[138.127382,-32.517212],[138.127217,-32.516189],[138.126591,-32.512047],[138.126549,-32.511015],[138.126586,-32.509906],[138.126666,-32.50893],[138.127431,-32.49998]]}},{"type":"Feature","properties":{"tier":"arterial"},"geometry":{"type":"LineString","coordinates":[[138.024593,-33.00002],[138.026609,-32.99919],[138.028595,-32.998368],[138.032337,-32.996858],[138.033837,-32.996233],[138.037354,-32.994835],[138.03809,-32.994489],[138.03928,-32.993898],[138.041669,-32.992758],[138.042381,-32.992434],[138.044722,-32.991301],[138.045422,-32.991013],[138.045895,-32.990838],[138.046648,-32.990676],[138.047423,-32.990543],[138.049749,-32.990106],[138.063781,-32.987377],[138.069306,-32.98632],[138.070065,-32.986148],[138.072853,-32.985401],[138.073362,-32.985276],[138.077377,-32.984439],[138.07813,-32.984282],[138.078642,-32.984175],[138.079063,-32.984114],[138.079489,-32.984088],[138.079916,-32.984129],[138.08012,-32.984183],[138.080531,-32.984343],[138.080658,-32.984407],[138.081442,-32.984801],[138.081755,-32.984932],[138.081901,-32.984974],[138.082048,-32.984991],[138.082185,-32.984981],[138.082325,-32.98494],[138.082453,-32.984871],[138.082701,-32.984674],[138.083238,-32.984213],[138.083604,-32.983891],[138.083866,-32.983733],[138.084003,-32.983687],[138.084147,-32.983681],[138.084303,-32.983719],[138.084451,-32.983778],[138.085003,-32.984098],[138.085143,-32.984139],[138.085281,-32.984135],[138.085414,-32.984096],[138.086132,-32.983804],[138.086403,-32.983641],[138.086517,-32.983539],[138.086611,-32.983425],[138.086672,-32.983291],[138.086717,-32.983153],[138.086765,-32.982814],[138.086813,-32.982742],[138.086886,-32.982677],[138.086989,-32.982641],[138.087107,-32.982634],[138.08737,-32.98268],[138.087647,-32.982795]]}},{"type":"Feature","properties":{"tier":"arterial"},"geometry":{"type":"LineString","coordinates":[[138.139789,-32.970647],[138.140038,-32.970703],[138.140387,-32.970763],[138.141357,-32.970901],[138.14176,-32.970944],[138.142204,-32.970975],[138.142526,-32.970927],[138.142873,-32.970827],[138.143222,-32.970701],[138.143521,-32.970642],[138.143883,-32.970625],[138.145497,-32.970602],[138.145863,-32.970575],[138.146141,-32.970525],[138.146394,-32.970436],[138.146593,-32.970337],[138.146755,-32.970265],[138.1469,-32.970183],[138.14714,-32.97003],[138.147525,-32.969704],[138.148298,-32.969108],[138.148839,-32.9686],[138.14911,-32.968369],[138.149362,-32.968115],[138.149482,-32.967983],[138.149928,-32.967449],[138.150048,-32.967319],[138.150178,-32.967198],[138.150478,-32.966978],[138.150639,-32.966881],[138.150976,-32.966705],[138.151147,-32.966627],[138.151336,-32.966553],[138.151908,-32.966362],[138.153562,-32.965852],[138.153895,-32.965757],[138.154213,-32.965678],[138.15474,-32.965599],[138.155138,-32.965525],[138.156872,-32.965251],[138.157307,-32.9652],[138.157531,-32.965189],[138.15775,-32.965188],[138.159487,-32.965265],[138.160097,-32.965284],[138.160484,-32.965328],[138.160671,-32.96536],[138.160925,-32.965429],[138.161041,-32.96546],[138.161811,-32.965712],[138.162823,-32.96606],[138.163244,-32.966197],[138.163443,-32.966273],[138.164043,-32.966477],[138.164437,-32.966621],[138.165036,-32.966809],[138.16562,-32.967015],[138.166026,-32.96712],[138.166235,-32.96715],[138.166443,-32.967165],[138.166653,-32.967157],[138.1679,-32.967024],[138.168107,-32.967008],[138.168942,-32.966912],[138.16935,-32.966857],[138.169541,-32.966804],[138.170083,-32.966625],[138.170254,-32.966547],[138.170612,-32.966405],[138.170786,-32.966346],[138.171132,-32.966206],[138.171481,-32.966092],[138.171839,-32.966018],[138.17202,-32.965998],[138.172202,-32.965996],[138.172383,-32.966012],[138.172561,-32.966037],[138.172742,-32.966074],[138.172914,-32.96613],[138.173089,-32.9662],[138.173262,-32.96628],[138.173424,-32.966366],[138.173579,-32.966467],[138.173727,-32.966582],[138.174278,-32.967074],[138.174524,-32.96733],[138.174765,-32.967608],[138.175215,-32.968185],[138.175895,-32.969087],[138.176248,-32.969527],[138.176382,-32.969673],[138.176522,-32.969809],[138.176678,-32.969929],[138.176844,-32.970031],[138.177027,-32.970119],[138.177222,-32.9702],[138.180477,-32.971445],[138.180879,-32.971589],[138.181083,-32.971648],[138.181295,-32.9717],[138.181506,-32.971737],[138.181944,-32.971782],[138.183053,-32.971877],[138.183699,-32.971925],[138.183915,-32.971938],[138.184127,-32.971936],[138.184336,-32.971913],[138.184551,-32.971872],[138.186261,-32.971506],[138.187837,-32.971199],[138.190922,-32.970552],[138.191026,-32.970532],[138.191577,-32.970427],[138.193366,-32.970067],[138.194519,-32.969847],[138.196841,-32.969371],[138.198028,-32.969145],[138.199022,-32.968947],[138.19965,-32.968814],[138.200469,-32.968654],[138.200841,-32.968579],[138.201808,-32.968399],[138.20328,-32.968094],[138.205554,-32.967654],[138.206326,-32.967534],[138.207108,-32.967446],[138.211322,-32.966924],[138.211761,-32.966859],[138.212001,-32.966777],[138.212109,-32.966746],[138.212371,-32.966651],[138.212554,-32.966564],[138.212746,-32.966441],[138.212963,-32.966304],[138.213874,-32.965751],[138.215007,-32.965019],[138.215195,-32.964889],[138.216174,-32.964271],[138.216567,-32.964011],[138.216797,-32.963828],[138.217249,-32.963427],[138.217892,-32.96279],[138.218222,-32.962483],[138.219033,-32.961795],[138.219498,-32.961425],[138.219653,-32.961321],[138.219819,-32.961224],[138.219993,-32.961147],[138.220405,-32.961003],[138.220613,-32.960945],[138.221419,-32.960749],[138.22261,-32.960505],[138.224384,-32.960095],[138.225471,-32.959834],[138.226129,-32.959694],[138.226352,-32.959664],[138.22657,-32.959644],[138.226789,-32.959637],[138.227207,-32.959651],[138.227393,-32.959675],[138.227741,-32.959746],[138.227891,-32.959788],[138.228521,-32.960022]]}},{"type":"Feature","properties":{"tier":"arterial"},"geometry":{"type":"LineString","coordinates":[[138.233764,-32.853076],[138.234028,-32.852961],[138.234252,-32.85289],[138.23452,-32.852833],[138.234824,-32.852801],[138.23502,-32.852798],[138.235305,-32.852818],[138.235606,-32.852873],[138.235837,-32.85294],[138.236182,-32.853087],[138.236613,-32.853322],[138.239655,-32.854976],[138.241452,-32.855923],[138.242485,-32.85647],[138.242581,-32.856528],[138.243041,-32.856869],[138.246203,-32.859112],[138.246835,-32.859459],[138.247063,-32.859551],[138.247547,-32.85968],[138.24805,-32.85974],[138.248302,-32.859746],[138.249077,-32.859694],[138.250126,-32.859579],[138.250387,-32.859563],[138.250915,-32.859565],[138.251175,-32.859596],[138.251424,-32.859648],[138.251904,-32.859799],[138.252134,-32.859899],[138.252582,-32.860136],[138.252789,-32.860278],[138.256058,-32.862728],[138.260584,-32.866064],[138.261402,-32.866649],[138.261826,-32.86692],[138.26205,-32.867043],[138.262506,-32.867266],[138.263216,-32.867533],[138.263943,-32.867736],[138.264706,-32.867903],[138.265214,-32.867965],[138.265738,-32.867995],[138.266799,-32.867964],[138.267065,-32.867966],[138.267594,-32.868003],[138.268124,-32.868079],[138.268385,-32.868133],[138.268882,-32.868266],[138.269356,-32.868436],[138.270017,-32.868758],[138.270843,-32.869264],[138.271492,-32.869634],[138.273976,-32.870993],[138.282271,-32.875603],[138.282701,-32.87586],[138.283109,-32.876135],[138.28369,-32.876596],[138.285377,-32.878035],[138.289939,-32.881867]]}},{"type":"Feature","properties":{"tier":"regional"},"geometry":{"type":"LineString","coordinates":[[138.003572,-32.609478],[138.00303,-32.609056],[138.002782,-32.608895],[138.002462,-32.608739],[138.00211,-32.608652],[138.001301,-32.60847],[138.000901,-32.608348],[138.00072,-32.608245],[138.000453,-32.608092],[137.99998,-32.607741]]}},{"type":"Feature","properties":{"tier":"regional"},"geometry":{"type":"LineString","coordinates":[[138.000656,-32.608418],[138.00072,-32.608245]]}},{"type":"Feature","properties":{"tier":"regional"},"geometry":{"type":"LineString","coordinates":[[137.99998,-32.608741],[138.000656,-32.608418],[138.000901,-32.608348]]}},{"type":"Feature","properties":{"tier":"regional"},"geometry":{"type":"LineString","coordinates":[[138.195325,-32.5738],[138.203212,-32.569144],[138.203314,-32.569084],[138.212858,-32.563417],[138.226552,-32.555415],[138.242384,-32.546163],[138.257795,-32.537218],[138.25812,-32.537084],[138.27283,-32.530914],[138.273656,-32.530564],[138.291865,-32.526228],[138.310695,-32.521737]]}},{"type":"Feature","properties":{"tier":"arterial"},"geometry":{"type":"LineString","coordinates":[[138.351224,-32.886225],[138.35055,-32.885055],[138.350424,-32.884602],[138.350322,-32.88409],[138.350255,-32.883542],[138.350242,-32.883282],[138.350211,-32.882117],[138.350208,-32.88096]]}},{"type":"Feature","properties":{"tier":"arterial"},"geometry":{"type":"LineString","coordinates":[[138.364304,-32.949711],[138.365057,-32.953307],[138.365625,-32.955988],[138.366031,-32.958157],[138.366525,-32.961045],[138.366654,-32.961888],[138.367313,-32.966196],[138.367342,-32.966385],[138.367746,-32.96903],[138.367879,-32.969748],[138.372001,-32.985451],[138.372518,-32.987386],[138.372791,-32.988352],[138.372873,-32.988592],[138.373352,-32.989781],[138.373547,-32.990236],[138.374453,-32.992347],[138.375614,-32.995114],[138.375991,-32.99598],[138.376611,-32.997405],[138.377179,-32.998789],[138.377707,-33.00002]]}},{"type":"Feature","properties":{"tier":"regional"},"geometry":{"type":"LineString","coordinates":[[138.350263,-32.876086],[138.350253,-32.875688],[138.35027,-32.873789],[138.350184,-32.869687],[138.35006,-32.864041],[138.35002,-32.862964],[138.349957,-32.862092]]}},{"type":"Feature","properties":{"tier":"arterial"},"geometry":{"type":"LineString","coordinates":[[138.345474,-32.882102],[138.345598,-32.882072],[138.346301,-32.881898],[138.346396,-32.881875],[138.346889,-32.881761],[138.347122,-32.881697],[138.347329,-32.881646],[138.347592,-32.881581],[138.347739,-32.881545],[138.347795,-32.881531],[138.348826,-32.881309],[138.348982,-32.881276],[138.349198,-32.88122],[138.350208,-32.88096]]}},{"type":"Feature","properties":{"tier":"arterial"},"geometry":{"type":"LineString","coordinates":[[138.110915,-32.665441],[138.110639,-32.665074]]}},{"type":"Feature","properties":{"tier":"arterial"},"geometry":{"type":"LineString","coordinates":[[138.09482,-32.647144],[138.093399,-32.647457]]}},{"type":"Feature","properties":{"tier":"arterial"},"geometry":{"type":"LineString","coordinates":[[138.095654,-32.646923],[138.095887,-32.647221],[138.09615,-32.647569]]}},{"type":"Feature","properties":{"tier":"arterial"},"geometry":{"type":"LineString","coordinates":[[138.192693,-32.776481],[138.179069,-32.769824],[138.178613,-32.769509],[138.178542,-32.76946],[138.178126,-32.769104],[138.175319,-32.765491],[138.170984,-32.759911],[138.170655,-32.759394],[138.166116,-32.75094],[138.165051,-32.749223],[138.164954,-32.749061],[138.164894,-32.748965],[138.163562,-32.746546],[138.163371,-32.74614],[138.160218,-32.739166],[138.159297,-32.737101],[138.156327,-32.730481],[138.156307,-32.730437],[138.154211,-32.725755],[138.153793,-32.724975],[138.149568,-32.718837],[138.146359,-32.714193],[138.145884,-32.713505]]}},{"type":"Feature","properties":{"tier":"arterial"},"geometry":{"type":"LineString","coordinates":[[138.095654,-32.646923],[138.095802,-32.646712],[138.096659,-32.645429],[138.097669,-32.643947],[138.098368,-32.642809]]}},{"type":"Feature","properties":{"tier":"arterial"},"geometry":{"type":"LineString","coordinates":[[138.189582,-32.828175],[138.189781,-32.828273],[138.19109,-32.829002]]}},{"type":"Feature","properties":{"tier":"arterial"},"geometry":{"type":"LineString","coordinates":[[138.187032,-32.826797],[138.187332,-32.826959],[138.187499,-32.82705],[138.188577,-32.827647]]}},{"type":"Feature","properties":{"tier":"arterial"},"geometry":{"type":"LineString","coordinates":[[138.188513,-32.827762],[138.187398,-32.827171],[138.187237,-32.827088],[138.187056,-32.826999]]}},{"type":"Feature","properties":{"tier":"arterial"},"geometry":{"type":"LineString","coordinates":[[138.233578,-32.852821],[138.233764,-32.853076]]}},{"type":"Feature","properties":{"tier":"regional"},"geometry":{"type":"LineString","coordinates":[[138.349784,-32.861518],[138.348258,-32.856678],[138.348067,-32.856221],[138.347925,-32.855933],[138.347788,-32.855698],[138.347628,-32.855444],[138.34741,-32.855185],[138.345943,-32.853485],[138.342208,-32.849353],[138.34199,-32.849051],[138.341462,-32.848088],[138.340884,-32.846924],[138.340184,-32.845702],[138.340053,-32.8455],[138.339202,-32.844335],[138.337559,-32.841991],[138.337026,-32.841011],[138.336029,-32.839016],[138.335423,-32.837671],[138.335211,-32.837135],[138.333954,-32.831279],[138.332874,-32.826003],[138.332362,-32.823186],[138.332328,-32.822899],[138.332321,-32.822598],[138.333105,-32.805986],[138.333746,-32.793167],[138.334868,-32.785133],[138.334866,-32.784887],[138.334839,-32.784587],[138.334772,-32.784334],[138.334707,-32.784156],[138.334647,-32.784019],[138.33456,-32.783861],[138.334469,-32.783714],[138.334335,-32.783534],[138.334174,-32.78334],[138.332991,-32.782145],[138.33275,-32.781873],[138.332623,-32.78169],[138.332436,-32.781321],[138.332312,-32.780992],[138.332191,-32.780553],[138.332108,-32.780063],[138.332071,-32.779508],[138.332076,-32.779062],[138.332044,-32.778764],[138.331992,-32.778492],[138.329459,-32.768746],[138.327395,-32.759854],[138.327459,-32.757128],[138.32746,-32.756152],[138.327499,-32.740158],[138.327557,-32.722479],[138.327566,-32.713503],[138.327591,-32.702306],[138.327591,-32.692988],[138.327591,-32.692428],[138.327591,-32.689611],[138.327585,-32.689548],[138.327516,-32.689048],[138.327428,-32.688048],[138.327413,-32.686793]]}},{"type":"Feature","properties":{"tier":"arterial"},"geometry":{"type":"LineString","coordinates":[[138.099029,-32.651385],[138.098633,-32.65085],[138.09816,-32.650196],[138.09729,-32.649038],[138.096536,-32.648072]]}},{"type":"Feature","properties":{"tier":"arterial"},"geometry":{"type":"LineString","coordinates":[[138.189582,-32.828175],[138.189467,-32.828124],[138.189349,-32.828076],[138.189198,-32.828015],[138.189065,-32.827961],[138.188891,-32.827893],[138.188741,-32.827838],[138.188626,-32.827796],[138.188532,-32.827761],[138.188513,-32.827762]]}},{"type":"Feature","properties":{"tier":"arterial"},"geometry":{"type":"LineString","coordinates":[[138.300368,-32.890532],[138.300162,-32.890614],[138.299692,-32.890802],[138.299213,-32.890993],[138.296879,-32.892696],[138.296343,-32.893191],[138.29453,-32.895489],[138.29343,-32.89702],[138.292834,-32.89784],[138.289525,-32.901308],[138.28901,-32.901821],[138.288356,-32.902146],[138.288004,-32.902301],[138.287663,-32.902452],[138.287301,-32.902532],[138.286805,-32.902641],[138.285528,-32.90283],[138.284713,-32.902992],[138.283468,-32.903335],[138.282653,-32.903623],[138.280132,-32.905253],[138.279424,-32.905839],[138.278909,-32.906415],[138.278469,-32.907181],[138.277997,-32.908757],[138.277771,-32.909307],[138.277155,-32.910144],[138.276677,-32.91064],[138.276125,-32.911036],[138.275432,-32.911414],[138.272906,-32.912423],[138.271715,-32.913063],[138.268025,-32.915368],[138.266211,-32.916746],[138.265375,-32.91726],[138.265056,-32.917373],[138.260981,-32.918827],[138.258583,-32.919457],[138.257901,-32.919682],[138.256416,-32.920448],[138.252994,-32.922375],[138.252301,-32.922933],[138.251896,-32.923401],[138.251685,-32.923645],[138.250484,-32.925718],[138.248852,-32.928535],[138.246529,-32.931516],[138.246014,-32.932065],[138.242404,-32.935289],[138.240663,-32.936815],[138.240577,-32.936852],[138.240425,-32.936884]]}},{"type":"Feature","properties":{"tier":"arterial"},"geometry":{"type":"LineString","coordinates":[[138.468584,-33.00002],[138.468961,-32.99911],[138.469361,-32.998094],[138.469648,-32.997365],[138.470391,-32.995599],[138.471164,-32.994826],[138.475176,-32.990596],[138.477221,-32.986214],[138.47788,-32.984891],[138.47828,-32.984447],[138.478881,-32.984043],[138.479376,-32.983814],[138.480524,-32.983392],[138.480861,-32.9833],[138.481365,-32.98325],[138.481801,-32.983247],[138.483406,-32.983355],[138.485782,-32.98328],[138.48641,-32.983253],[138.486941,-32.983175],[138.487863,-32.983004],[138.488404,-32.982857],[138.490982,-32.98191],[138.491395,-32.981743],[138.491762,-32.98155],[138.492131,-32.981333],[138.492536,-32.981039],[138.492875,-32.980776],[138.49325,-32.980412]]}},{"type":"Feature","properties":{"tier":"arterial"},"geometry":{"type":"LineString","coordinates":[[138.50002,-32.962087],[138.499617,-32.962236],[138.499079,-32.962255]]}},{"type":"Feature","properties":{"tier":"arterial"},"geometry":{"type":"LineString","coordinates":[[138.499079,-32.962255],[138.498933,-32.959216],[138.498964,-32.958721],[138.499151,-32.956997],[138.499352,-32.954772],[138.499424,-32.954443],[138.499581,-32.95405],[138.50002,-32.953067]]}},{"type":"Feature","properties":{"tier":"arterial"},"geometry":{"type":"LineString","coordinates":[[138.300368,-32.890532],[138.300557,-32.890532],[138.301264,-32.890374],[138.301525,-32.890333],[138.301929,-32.890298],[138.30287,-32.890289],[138.306201,-32.890305],[138.306819,-32.890251],[138.307243,-32.89018],[138.307318,-32.890163],[138.307664,-32.890085],[138.308075,-32.889948],[138.308277,-32.889865],[138.311233,-32.888446],[138.311683,-32.888236],[138.31215,-32.888049],[138.312633,-32.8879],[138.313128,-32.887775],[138.313376,-32.887725],[138.313886,-32.887652],[138.314135,-32.887631],[138.314648,-32.887626],[138.317238,-32.887835],[138.321091,-32.888107],[138.321594,-32.888115],[138.321849,-32.888101],[138.322601,-32.888005],[138.32308,-32.887891],[138.32354,-32.887734],[138.32547,-32.886975],[138.325523,-32.886954],[138.326634,-32.886537],[138.327299,-32.886232],[138.327462,-32.886141],[138.3282,-32.885729],[138.329,-32.885282],[138.329675,-32.884968],[138.335352,-32.882693],[138.335791,-32.882539],[138.33623,-32.882406],[138.336681,-32.882307],[138.337138,-32.882243],[138.337612,-32.882209],[138.33809,-32.882208],[138.338562,-32.882237],[138.342088,-32.882544],[138.34293,-32.882617],[138.343272,-32.88263],[138.343437,-32.882619],[138.343913,-32.882529],[138.345474,-32.882102]]}},{"type":"Feature","properties":{"tier":"arterial"},"geometry":{"type":"LineString","coordinates":[[138.50002,-32.72379],[138.49992,-32.723777],[138.499696,-32.72374],[138.499457,-32.723694],[138.499191,-32.723633],[138.498941,-32.723561],[138.498636,-32.723464],[138.498382,-32.723365],[138.498114,-32.723251],[138.497882,-32.723148],[138.497674,-32.72304],[138.497442,-32.722911],[138.497214,-32.722778],[138.497031,-32.722655],[138.496176,-32.722047],[138.49599,-32.721919],[138.495833,-32.721812],[138.495675,-32.721709],[138.495527,-32.721627],[138.495381,-32.721552],[138.495204,-32.721469],[138.494476,-32.721182],[138.494007,-32.721014],[138.492989,-32.720646],[138.491848,-32.720235],[138.491571,-32.720134],[138.491431,-32.720081],[138.491025,-32.719935],[138.489184,-32.719278],[138.488975,-32.719208],[138.488617,-32.719102],[138.488247,-32.718996],[138.486323,-32.718442],[138.485347,-32.718156]]}},{"type":"Feature","properties":{"tier":"arterial"},"geometry":{"type":"LineString","coordinates":[[138.187519,-32.825725],[138.187121,-32.826441]]}},{"type":"Feature","properties":{"tier":"arterial"},"geometry":{"type":"LineString","coordinates":[[138.046245,-32.649343],[138.046146,-32.649279],[138.045784,-32.648958],[138.044799,-32.647847],[138.044401,-32.647493],[138.042573,-32.64615],[138.042129,-32.645777],[138.04125,-32.644934],[138.039367,-32.643436],[138.038991,-32.64308],[138.038672,-32.642646],[138.03851,-32.642407],[138.038061,-32.641745],[138.037766,-32.641431],[138.037697,-32.641358],[138.037252,-32.641002],[138.037095,-32.640856],[138.036875,-32.640649],[138.036565,-32.640061],[138.036282,-32.639583],[138.036152,-32.639424],[138.035998,-32.639236],[138.035781,-32.638997],[138.035565,-32.638654],[138.035353,-32.638085],[138.034963,-32.63743],[138.034619,-32.637024],[138.034303,-32.636717],[138.033994,-32.636296],[138.033836,-32.636002],[138.033549,-32.635387],[138.033463,-32.635072],[138.033349,-32.634369],[138.033283,-32.634143],[138.033185,-32.633979],[138.033029,-32.633825],[138.032841,-32.633702],[138.032529,-32.63357],[138.032371,-32.633476],[138.032234,-32.633352],[138.032083,-32.633164],[138.031722,-32.632863],[138.031357,-32.632638],[138.031014,-32.632405],[138.030744,-32.6323],[138.030457,-32.632217],[138.030209,-32.632142],[138.030072,-32.632064],[138.029944,-32.631896],[138.029751,-32.631568],[138.029599,-32.631434],[138.029374,-32.631299],[138.028686,-32.630587],[138.028224,-32.630151],[138.027983,-32.629969],[138.027793,-32.629837],[138.027662,-32.62969],[138.027493,-32.629404],[138.027411,-32.629122],[138.027284,-32.628799],[138.02705,-32.6285],[138.026739,-32.6281],[138.026397,-32.627738],[138.025681,-32.627174],[138.025412,-32.626956],[138.025269,-32.62679],[138.025158,-32.626606],[138.024976,-32.625737],[138.02487,-32.625478],[138.024723,-32.625307],[138.024555,-32.62518],[138.024265,-32.62503],[138.024053,-32.62486],[138.023904,-32.62459],[138.023684,-32.624131],[138.023411,-32.623724],[138.023244,-32.623361],[138.023142,-32.622832],[138.022809,-32.6218],[138.022676,-32.621449],[138.022505,-32.621196],[138.02222,-32.620851],[138.021728,-32.620323],[138.021008,-32.619577],[138.020065,-32.61868],[138.019867,-32.618426],[138.019723,-32.618192],[138.01938,-32.617353],[138.018813,-32.616142],[138.018698,-32.615929],[138.018556,-32.615714],[138.018403,-32.615561],[138.018194,-32.615413],[138.017902,-32.615246],[138.017391,-32.61507],[138.01703,-32.614917],[138.01678,-32.614791],[138.016578,-32.614652],[138.016319,-32.614403],[138.016087,-32.614085],[138.015794,-32.61347],[138.01541,-32.612562],[138.015273,-32.612312],[138.014445,-32.611334],[138.01434,-32.610927],[138.014249,-32.610511]]}},{"type":"Feature","properties":{"tier":"arterial"},"geometry":{"type":"LineString","coordinates":[[138.145884,-32.713505],[138.145687,-32.713222]]}},{"type":"Feature","properties":{"tier":"arterial"},"geometry":{"type":"LineString","coordinates":[[138.112993,-32.668231],[138.111358,-32.66603]]}},{"type":"Feature","properties":{"tier":"high"},"geometry":{"type":"LineString","coordinates":[[137.99998,-32.995493],[138.000238,-32.995621],[138.000673,-32.995846],[138.001102,-32.996098],[138.001419,-32.996287],[138.001835,-32.996538],[138.002546,-32.997009],[138.002932,-32.997283],[138.003229,-32.997503],[138.003659,-32.99783],[138.004078,-32.998162],[138.004606,-32.998608],[138.005106,-32.999069],[138.005389,-32.99935],[138.005593,-32.999552],[138.005797,-32.999763],[138.006038,-33.00002]]}},{"type":"Feature","properties":{"tier":"regional"},"geometry":{"type":"LineString","coordinates":[[138.310695,-32.521737],[138.312334,-32.521355],[138.31406,-32.520935],[138.315862,-32.520486],[138.317342,-32.520095]]}},{"type":"Feature","properties":{"tier":"regional"},"geometry":{"type":"LineString","coordinates":[[138.317342,-32.520095],[138.323358,-32.518527],[138.327188,-32.517275],[138.327397,-32.517218],[138.32785,-32.517076],[138.328068,-32.517009],[138.331167,-32.515942],[138.341136,-32.509139],[138.34281,-32.508306],[138.347145,-32.506506],[138.347553,-32.506217],[138.3479,-32.505848],[138.348297,-32.505311],[138.348847,-32.504213],[138.349224,-32.503748],[138.349608,-32.503433],[138.350292,-32.503035],[138.3601,-32.49998]]}},{"type":"Feature","properties":{"tier":"arterial"},"geometry":{"type":"LineString","coordinates":[[138.014249,-32.610511],[138.014236,-32.610459],[138.014199,-32.610306],[138.014143,-32.610109]]}},{"type":"Feature","properties":{"tier":"arterial"},"geometry":{"type":"LineString","coordinates":[[138.014143,-32.610109],[138.014085,-32.609956],[138.013978,-32.609775],[138.013811,-32.609597],[138.013597,-32.609459],[138.013383,-32.609357],[138.012986,-32.609273],[138.012682,-32.609257],[138.012405,-32.609297],[138.012119,-32.609426],[138.011835,-32.609623],[138.011789,-32.609658],[138.011493,-32.609882],[138.01118,-32.610069],[138.010794,-32.610215],[138.010453,-32.610292],[138.010133,-32.610325],[138.009765,-32.610321],[138.009435,-32.610267],[138.008808,-32.610136],[138.008013,-32.609943],[138.006565,-32.609623],[138.006032,-32.609539],[138.005781,-32.609499],[138.005097,-32.609481],[138.004397,-32.609473],[138.003572,-32.609478],[138.003204,-32.60953],[138.002672,-32.609606],[138.002179,-32.609715],[138.001623,-32.609852]]}},{"type":"Feature","properties":{"tier":"arterial"},"geometry":{"type":"LineString","coordinates":[[138.240663,-32.936815],[138.240575,-32.936926],[138.240514,-32.937047],[138.240479,-32.937213]]}},{"type":"Feature","properties":{"tier":"arterial"},"geometry":{"type":"LineString","coordinates":[[138.110915,-32.665441],[138.111325,-32.665811],[138.111491,-32.665904],[138.11167,-32.665962],[138.111894,-32.665996],[138.112248,-32.666041]]}},{"type":"Feature","properties":{"tier":"arterial"},"geometry":{"type":"LineString","coordinates":[[138.457694,-32.714034],[138.45387,-32.713825],[138.453454,-32.713797],[138.453104,-32.713772],[138.452818,-32.713743],[138.452537,-32.7137],[138.452196,-32.713643],[138.451385,-32.713483],[138.448889,-32.712943],[138.447936,-32.712732],[138.443531,-32.711784],[138.439545,-32.710932],[138.436833,-32.710345],[138.433252,-32.709572],[138.426997,-32.70823],[138.422694,-32.707301],[138.417784,-32.706235],[138.416269,-32.705911],[138.411505,-32.704892],[138.403927,-32.703257],[138.397996,-32.70198],[138.385753,-32.69934],[138.381349,-32.698391],[138.379838,-32.698065],[138.378182,-32.697712],[138.375233,-32.697077],[138.36995,-32.695935],[138.363017,-32.694438],[138.346204,-32.690811],[138.335516,-32.68847],[138.333711,-32.688086],[138.332722,-32.687922],[138.331369,-32.687666],[138.327413,-32.686793],[138.326751,-32.68665],[138.325064,-32.686269],[138.324373,-32.686086],[138.321313,-32.685273],[138.318535,-32.68458],[138.31602,-32.68403],[138.312405,-32.68326],[138.305911,-32.681896],[138.299485,-32.680518],[138.287963,-32.678031],[138.279331,-32.676169],[138.269462,-32.674031],[138.266219,-32.673298],[138.260897,-32.672174],[138.258174,-32.671581],[138.24644,-32.669062],[138.243802,-32.668457],[138.243343,-32.668358],[138.242894,-32.668267],[138.242602,-32.668217],[138.242323,-32.668176],[138.241984,-32.668135],[138.239067,-32.667904],[138.237381,-32.667759],[138.229929,-32.667198],[138.226892,-32.667058],[138.226162,-32.667025],[138.225348,-32.666986],[138.224372,-32.666949],[138.22316,-32.666895],[138.221541,-32.666848]]}},{"type":"Feature","properties":{"tier":"arterial"},"geometry":{"type":"LineString","coordinates":[[138.485347,-32.718156],[138.484924,-32.718032]]}},{"type":"Feature","properties":{"tier":"arterial"},"geometry":{"type":"LineString","coordinates":[[138.239555,-32.932049],[138.239931,-32.934109],[138.240297,-32.936164],[138.240306,-32.936214],[138.240425,-32.936884],[138.240479,-32.937213],[138.24049,-32.937282],[138.240525,-32.937726],[138.240489,-32.938152],[138.240266,-32.938922]]}},{"type":"Feature","properties":{"tier":"arterial"},"geometry":{"type":"LineString","coordinates":[[138.239037,-32.944606],[138.238978,-32.94492],[138.23884,-32.945552]]}},{"type":"Feature","properties":{"tier":"arterial"},"geometry":{"type":"LineString","coordinates":[[138.49325,-32.980412],[138.493726,-32.979815],[138.493757,-32.979774],[138.494003,-32.979392],[138.494153,-32.979088],[138.494219,-32.978956],[138.494764,-32.977495],[138.496165,-32.974016],[138.497565,-32.970513],[138.497713,-32.970074],[138.497879,-32.9695],[138.497957,-32.969127],[138.498228,-32.966701],[138.498488,-32.964692],[138.4986,-32.964211],[138.498951,-32.963145],[138.499036,-32.96273],[138.499079,-32.962255]]}},{"type":"Feature","properties":{"tier":"arterial"},"geometry":{"type":"LineString","coordinates":[[138.364281,-32.949567],[138.364304,-32.949711]]}},{"type":"Feature","properties":{"tier":"arterial"},"geometry":{"type":"LineString","coordinates":[[138.351224,-32.886225],[138.351737,-32.888975],[138.352804,-32.893947],[138.353402,-32.896791],[138.354764,-32.903786],[138.355723,-32.908215],[138.355992,-32.909602],[138.356566,-32.912426],[138.357956,-32.919262],[138.358415,-32.921518],[138.359487,-32.926922],[138.359642,-32.927608],[138.360101,-32.928979],[138.360237,-32.929439],[138.36035,-32.929899],[138.361729,-32.936823],[138.36303,-32.943206],[138.363174,-32.943913],[138.364281,-32.949567]]}},{"type":"Feature","properties":{"tier":"arterial"},"geometry":{"type":"LineString","coordinates":[[138.350208,-32.88096],[138.350622,-32.88086]]}},{"type":"Feature","properties":{"tier":"arterial"},"geometry":{"type":"LineString","coordinates":[[138.350622,-32.88086],[138.350667,-32.88199],[138.35067,-32.882105],[138.350715,-32.883271],[138.350716,-32.883635],[138.350753,-32.884025],[138.350964,-32.884988],[138.351224,-32.886225]]}},{"type":"Feature","properties":{"tier":"arterial"},"geometry":{"type":"LineString","coordinates":[[138.112248,-32.666041],[138.111358,-32.66603]]}},{"type":"Feature","properties":{"tier":"arterial"},"geometry":{"type":"LineString","coordinates":[[138.111358,-32.66603],[138.110915,-32.665441]]}},{"type":"Feature","properties":{"tier":"arterial"},"geometry":{"type":"LineString","coordinates":[[138.186867,-32.826699],[138.186877,-32.826675],[138.186892,-32.826645],[138.186907,-32.826627],[138.186925,-32.826608],[138.18695,-32.826583],[138.187034,-32.826502],[138.187072,-32.826462],[138.187121,-32.826441]]}},{"type":"Feature","properties":{"tier":"arterial"},"geometry":{"type":"LineString","coordinates":[[138.230865,-32.957923],[138.230245,-32.958317],[138.229636,-32.958815],[138.229004,-32.959434],[138.228521,-32.960022]]}},{"type":"Feature","properties":{"tier":"arterial"},"geometry":{"type":"LineString","coordinates":[[138.095654,-32.646923],[138.095439,-32.64702],[138.095367,-32.647038],[138.095051,-32.647099],[138.09482,-32.647144]]}},{"type":"Feature","properties":{"tier":"arterial"},"geometry":{"type":"LineString","coordinates":[[138.001623,-32.609852],[138.000907,-32.610064],[138.000089,-32.61037],[137.99998,-32.610423]]}},{"type":"Feature","properties":{"tier":"arterial"},"geometry":{"type":"LineString","coordinates":[[138.145687,-32.713222],[138.145589,-32.713079],[138.142088,-32.707964],[138.14094,-32.706113],[138.135578,-32.698908],[138.135486,-32.698784],[138.131611,-32.693577],[138.126704,-32.686937],[138.126633,-32.68684],[138.121877,-32.6804],[138.118991,-32.676347],[138.117064,-32.673735],[138.11617,-32.672524],[138.11413,-32.669761],[138.112993,-32.668231]]}},{"type":"Feature","properties":{"tier":"arterial"},"geometry":{"type":"LineString","coordinates":[[138.103257,-32.656611],[138.102472,-32.655731],[138.102149,-32.655383],[138.102,-32.655237]]}},{"type":"Feature","properties":{"tier":"arterial"},"geometry":{"type":"LineString","coordinates":[[138.108305,-32.662189],[138.107299,-32.661075],[138.10692,-32.660642],[138.106242,-32.659888],[138.106126,-32.659762]]}},{"type":"Feature","properties":{"tier":"arterial"},"geometry":{"type":"LineString","coordinates":[[138.207758,-32.803204],[138.20862,-32.802428],[138.20913,-32.801639],[138.209225,-32.801382],[138.209368,-32.800995],[138.20938,-32.800362],[138.209343,-32.800237],[138.209088,-32.799363]]}},{"type":"Feature","properties":{"tier":"arterial"},"geometry":{"type":"LineString","coordinates":[[138.207758,-32.803204],[138.207432,-32.803459]]}},{"type":"Feature","properties":{"tier":"arterial"},"geometry":{"type":"LineString","coordinates":[[138.192896,-32.818478],[138.192453,-32.819239],[138.192273,-32.819565],[138.192215,-32.819671],[138.191766,-32.82044],[138.191745,-32.820473],[138.191707,-32.820534],[138.191652,-32.820615],[138.191561,-32.820736],[138.191341,-32.821014]]}},{"type":"Feature","properties":{"tier":"arterial"},"geometry":{"type":"LineString","coordinates":[[138.191341,-32.821014],[138.191012,-32.821406]]}},{"type":"Feature","properties":{"tier":"arterial"},"geometry":{"type":"LineString","coordinates":[[138.239641,-32.897661],[138.23946,-32.898296],[138.239428,-32.898743],[138.239286,-32.90073],[138.238989,-32.904261],[138.238349,-32.909587],[138.237937,-32.913014],[138.237897,-32.913638],[138.238429,-32.920365],[138.238451,-32.92065],[138.238642,-32.922332],[138.238652,-32.922415],[138.23872,-32.922927],[138.238952,-32.92467],[138.239006,-32.925202],[138.239025,-32.927937]]}},{"type":"Feature","properties":{"tier":"arterial"},"geometry":{"type":"LineString","coordinates":[[138.19109,-32.829002],[138.191192,-32.829055],[138.191955,-32.829451]]}},{"type":"Feature","properties":{"tier":"arterial"},"geometry":{"type":"LineString","coordinates":[[138.191955,-32.829451],[138.192024,-32.829487],[138.194694,-32.830884],[138.195458,-32.831283],[138.19553,-32.831321],[138.198283,-32.832806],[138.202237,-32.834934],[138.203577,-32.835655],[138.204246,-32.836015],[138.204493,-32.836148],[138.209212,-32.838666],[138.211932,-32.840145],[138.212339,-32.840361],[138.217946,-32.843351],[138.21839,-32.843587],[138.218843,-32.843829]]}},{"type":"Feature","properties":{"tier":"arterial"},"geometry":{"type":"LineString","coordinates":[[138.235218,-32.861923],[138.235224,-32.862113],[138.235236,-32.862323],[138.235266,-32.862533],[138.23531,-32.862756],[138.236713,-32.86869],[138.236916,-32.869575],[138.23753,-32.87224]]}},{"type":"Feature","properties":{"tier":"arterial"},"geometry":{"type":"LineString","coordinates":[[138.228521,-32.960022],[138.22815,-32.960613],[138.227924,-32.961032],[138.227681,-32.961604]]}},{"type":"Feature","properties":{"tier":"arterial"},"geometry":{"type":"LineString","coordinates":[[138.227681,-32.961604],[138.227551,-32.961948],[138.22716,-32.963118]]}},{"type":"Feature","properties":{"tier":"arterial"},"geometry":{"type":"LineString","coordinates":[[138.23884,-32.945552],[138.238163,-32.947594],[138.237931,-32.948293],[138.237634,-32.949187],[138.237401,-32.94989],[138.236925,-32.950814],[138.236544,-32.951288],[138.235288,-32.952343],[138.234943,-32.952685],[138.234663,-32.953037],[138.234424,-32.953428],[138.234289,-32.953718],[138.234182,-32.954008],[138.233879,-32.955062],[138.233691,-32.955521],[138.233434,-32.95598],[138.233061,-32.956466],[138.232657,-32.956859],[138.232149,-32.957251],[138.230865,-32.957923]]}},{"type":"Feature","properties":{"tier":"arterial"},"geometry":{"type":"LineString","coordinates":[[138.239224,-32.943165],[138.239049,-32.944477],[138.239037,-32.944606]]}},{"type":"Feature","properties":{"tier":"arterial"},"geometry":{"type":"LineString","coordinates":[[138.239025,-32.927937],[138.239102,-32.92877],[138.239294,-32.930629],[138.239382,-32.931107]]}},{"type":"Feature","properties":{"tier":"arterial"},"geometry":{"type":"LineString","coordinates":[[138.240083,-32.939354],[138.239788,-32.940048],[138.239604,-32.940718],[138.239497,-32.941176],[138.239241,-32.943036],[138.239224,-32.943165]]}},{"type":"Feature","properties":{"tier":"arterial"},"geometry":{"type":"LineString","coordinates":[[138.093399,-32.647457],[138.092793,-32.647569],[138.092468,-32.647619],[138.09171,-32.647735],[138.089938,-32.647959],[138.089369,-32.648046],[138.088485,-32.648234],[138.085929,-32.648886],[138.082796,-32.649945],[138.082427,-32.650095],[138.081899,-32.650355],[138.081011,-32.650901],[138.080322,-32.651367],[138.080001,-32.651637],[138.078945,-32.652724],[138.078635,-32.653026],[138.078326,-32.653258],[138.077889,-32.653486],[138.077496,-32.653614],[138.077168,-32.653672],[138.076894,-32.653698],[138.076372,-32.653703],[138.075851,-32.653669],[138.075233,-32.653656],[138.074562,-32.653667],[138.074222,-32.653694],[138.073994,-32.653735],[138.073592,-32.653842],[138.07332,-32.653938],[138.072934,-32.654113],[138.072622,-32.654295],[138.072219,-32.654572],[138.068218,-32.657622]]}},{"type":"Feature","properties":{"tier":"arterial"},"geometry":{"type":"LineString","coordinates":[[138.098368,-32.642809],[138.098376,-32.642796],[138.098977,-32.641818],[138.100656,-32.639084],[138.101105,-32.638467]]}},{"type":"Feature","properties":{"tier":"arterial"},"geometry":{"type":"LineString","coordinates":[[138.067841,-32.65781],[138.067619,-32.65793],[138.067359,-32.658035],[138.067054,-32.658118],[138.06672,-32.65818]]}},{"type":"Feature","properties":{"tier":"arterial"},"geometry":{"type":"LineString","coordinates":[[138.068218,-32.657622],[138.068079,-32.657715],[138.067841,-32.65781]]}},{"type":"Feature","properties":{"tier":"arterial"},"geometry":{"type":"LineString","coordinates":[[138.102,-32.655237],[138.101318,-32.654404],[138.101223,-32.654287],[138.101158,-32.654208]]}},{"type":"Feature","properties":{"tier":"arterial"},"geometry":{"type":"LineString","coordinates":[[138.240266,-32.938922],[138.240083,-32.939354]]}},{"type":"Feature","properties":{"tier":"arterial"},"geometry":{"type":"LineString","coordinates":[[138.239382,-32.931107],[138.239555,-32.932049]]}},{"type":"Feature","properties":{"tier":"arterial"},"geometry":{"type":"LineString","coordinates":[[138.194864,-32.778528],[138.19438,-32.777875],[138.194278,-32.777741],[138.194159,-32.777589],[138.193605,-32.777084],[138.192693,-32.776481]]}},{"type":"Feature","properties":{"tier":"arterial"},"geometry":{"type":"LineString","coordinates":[[138.208595,-32.798109],[138.208116,-32.797388],[138.207086,-32.795969],[138.204889,-32.79262],[138.201161,-32.78738],[138.194864,-32.778528]]}},{"type":"Feature","properties":{"tier":"arterial"},"geometry":{"type":"LineString","coordinates":[[138.232472,-32.851534],[138.232895,-32.851965],[138.233254,-32.852396],[138.233475,-32.852674],[138.233578,-32.852821]]}},{"type":"Feature","properties":{"tier":"arterial"},"geometry":{"type":"LineString","coordinates":[[138.10984,-32.664096],[138.108722,-32.66262]]}},{"type":"Feature","properties":{"tier":"arterial"},"geometry":{"type":"LineString","coordinates":[[138.106126,-32.659762],[138.105336,-32.658897],[138.10412,-32.657536]]}},{"type":"Feature","properties":{"tier":"arterial"},"geometry":{"type":"LineString","coordinates":[[138.223492,-32.846307],[138.223696,-32.846416],[138.229508,-32.849527],[138.230244,-32.849911],[138.230615,-32.850127],[138.231139,-32.850466],[138.231669,-32.850839],[138.23223,-32.851314],[138.232472,-32.851534]]}},{"type":"Feature","properties":{"tier":"arterial"},"geometry":{"type":"LineString","coordinates":[[138.220384,-32.84465],[138.223492,-32.846307]]}},{"type":"Feature","properties":{"tier":"arterial"},"geometry":{"type":"LineString","coordinates":[[138.19754,-32.811295],[138.195778,-32.81347],[138.195344,-32.814006],[138.195058,-32.814467],[138.192896,-32.818478]]}},{"type":"Feature","properties":{"tier":"arterial"},"geometry":{"type":"LineString","coordinates":[[138.188577,-32.827647],[138.188695,-32.827712],[138.189582,-32.828175]]}},{"type":"Feature","properties":{"tier":"arterial"},"geometry":{"type":"LineString","coordinates":[[138.208999,-32.799061],[138.20896,-32.798926],[138.208595,-32.798109]]}},{"type":"Feature","properties":{"tier":"arterial"},"geometry":{"type":"LineString","coordinates":[[138.209088,-32.799363],[138.208999,-32.799061]]}},{"type":"Feature","properties":{"tier":"arterial"},"geometry":{"type":"LineString","coordinates":[[138.101105,-32.638467],[138.101649,-32.63778],[138.102189,-32.637277],[138.102655,-32.636977],[138.103534,-32.636507],[138.110402,-32.633209],[138.110976,-32.632895],[138.111325,-32.632651],[138.111722,-32.632337],[138.11231,-32.631808],[138.1124,-32.631687],[138.112781,-32.631175],[138.115219,-32.627274],[138.118594,-32.622749],[138.119348,-32.622056],[138.120908,-32.621024],[138.126329,-32.617419],[138.1271,-32.616981],[138.127136,-32.616955]]}},{"type":"Feature","properties":{"tier":"arterial"},"geometry":{"type":"LineString","coordinates":[[138.127136,-32.616955],[138.127209,-32.616903]]}},{"type":"Feature","properties":{"tier":"arterial"},"geometry":{"type":"LineString","coordinates":[[138.06672,-32.65818],[138.066373,-32.658195],[138.066051,-32.658194],[138.065661,-32.658155],[138.065539,-32.658131]]}},{"type":"Feature","properties":{"tier":"arterial"},"geometry":{"type":"LineString","coordinates":[[138.065539,-32.658131],[138.065427,-32.658109]]}},{"type":"Feature","properties":{"tier":"arterial"},"geometry":{"type":"LineString","coordinates":[[138.188695,-32.827712],[138.188626,-32.827796]]}},{"type":"Feature","properties":{"tier":"arterial"},"geometry":{"type":"LineString","coordinates":[[138.188513,-32.827762],[138.188577,-32.827647]]}},{"type":"Feature","properties":{"tier":"arterial"},"geometry":{"type":"LineString","coordinates":[[138.187499,-32.82705],[138.187398,-32.827171]]}},{"type":"Feature","properties":{"tier":"arterial"},"geometry":{"type":"LineString","coordinates":[[138.187237,-32.827088],[138.187332,-32.826959]]}},{"type":"Feature","properties":{"tier":"arterial"},"geometry":{"type":"LineString","coordinates":[[138.187121,-32.826441],[138.187111,-32.826483],[138.187077,-32.826549],[138.187034,-32.82661],[138.187021,-32.826632],[138.187012,-32.826648],[138.187003,-32.826668],[138.187001,-32.826692],[138.187002,-32.826723],[138.187007,-32.826749],[138.187017,-32.826771],[138.187032,-32.826797]]}},{"type":"Feature","properties":{"tier":"arterial"},"geometry":{"type":"LineString","coordinates":[[138.186867,-32.826699],[138.187032,-32.826797]]}},{"type":"Feature","properties":{"tier":"arterial"},"geometry":{"type":"LineString","coordinates":[[138.187056,-32.826999],[138.18702,-32.826976],[138.186998,-32.826961],[138.186972,-32.826939],[138.186951,-32.82692],[138.186932,-32.826897],[138.186907,-32.826863],[138.18689,-32.826834],[138.186877,-32.826807],[138.186867,-32.826781],[138.186863,-32.82676],[138.186862,-32.826741],[138.186863,-32.826724],[138.186865,-32.826709],[138.186867,-32.826699]]}},{"type":"Feature","properties":{"tier":"arterial"},"geometry":{"type":"LineString","coordinates":[[138.234886,-32.85556],[138.234951,-32.855823],[138.235022,-32.856169],[138.235078,-32.856551],[138.235123,-32.857016],[138.235145,-32.857902],[138.235213,-32.861709]]}},{"type":"Feature","properties":{"tier":"arterial"},"geometry":{"type":"LineString","coordinates":[[138.235213,-32.861709],[138.235218,-32.861923]]}},{"type":"Feature","properties":{"tier":"arterial"},"geometry":{"type":"LineString","coordinates":[[138.290175,-32.882065],[138.293776,-32.885089],[138.297802,-32.888491],[138.299911,-32.890248],[138.300021,-32.890328],[138.300053,-32.890352],[138.300223,-32.890476],[138.300368,-32.890532]]}},{"type":"Feature","properties":{"tier":"arterial"},"geometry":{"type":"LineString","coordinates":[[138.289939,-32.881867],[138.290175,-32.882065]]}},{"type":"Feature","properties":{"tier":"regional"},"geometry":{"type":"LineString","coordinates":[[138.349957,-32.862092],[138.349906,-32.86202],[138.349877,-32.861901],[138.349784,-32.861518]]}},{"type":"Feature","properties":{"tier":"arterial"},"geometry":{"type":"LineString","coordinates":[[138.108722,-32.66262],[138.108305,-32.662189]]}},{"type":"Feature","properties":{"tier":"arterial"},"geometry":{"type":"LineString","coordinates":[[138.10412,-32.657536],[138.103532,-32.656878],[138.103257,-32.656611]]}},{"type":"Feature","properties":{"tier":"arterial"},"geometry":{"type":"LineString","coordinates":[[138.09641,-32.647908],[138.09615,-32.647569]]}},{"type":"Feature","properties":{"tier":"arterial"},"geometry":{"type":"LineString","coordinates":[[138.096476,-32.647995],[138.09641,-32.647908]]}},{"type":"Feature","properties":{"tier":"arterial"},"geometry":{"type":"LineString","coordinates":[[138.096536,-32.648072],[138.09649,-32.648013],[138.096476,-32.647995]]}},{"type":"Feature","properties":{"tier":"arterial"},"geometry":{"type":"LineString","coordinates":[[138.218959,-32.84389],[138.219126,-32.84398],[138.219399,-32.844125],[138.220384,-32.84465]]}},{"type":"Feature","properties":{"tier":"arterial"},"geometry":{"type":"LineString","coordinates":[[138.218843,-32.843829],[138.218959,-32.84389]]}},{"type":"Feature","properties":{"tier":"arterial"},"geometry":{"type":"LineString","coordinates":[[138.220926,-32.66683],[138.2196,-32.666791],[138.213914,-32.666553],[138.211061,-32.666451],[138.21025,-32.666424],[138.209695,-32.666415],[138.207833,-32.666403],[138.203091,-32.666372],[138.200228,-32.666379],[138.199728,-32.666376],[138.199218,-32.666376],[138.198351,-32.666376],[138.196251,-32.666373],[138.193773,-32.666366],[138.189929,-32.666359],[138.185064,-32.666349],[138.181324,-32.666339],[138.178587,-32.666333],[138.17214,-32.666318],[138.165344,-32.666308],[138.158222,-32.666289],[138.157298,-32.666288],[138.15143,-32.666277],[138.150834,-32.666275],[138.149381,-32.666273],[138.146589,-32.666264],[138.145305,-32.666263],[138.141235,-32.666249],[138.139445,-32.666247],[138.137507,-32.666245],[138.134792,-32.666242],[138.131383,-32.666238],[138.128682,-32.66623],[138.124281,-32.66621],[138.122577,-32.666176],[138.122031,-32.666156],[138.120206,-32.666091],[138.11883,-32.666068],[138.117145,-32.666057],[138.116664,-32.666052],[138.116424,-32.666055],[138.112481,-32.666043],[138.112248,-32.666041]]}},{"type":"Feature","properties":{"tier":"arterial"},"geometry":{"type":"LineString","coordinates":[[138.221541,-32.666848],[138.220926,-32.66683]]}},{"type":"Feature","properties":{"tier":"arterial"},"geometry":{"type":"LineString","coordinates":[[138.484924,-32.718032],[138.48337,-32.717577],[138.48048,-32.716717],[138.479984,-32.716577],[138.479524,-32.716463],[138.47898,-32.716342],[138.472828,-32.715047],[138.472497,-32.714973],[138.472229,-32.714919],[138.471948,-32.714862],[138.471678,-32.714815],[138.47143,-32.714778],[138.471224,-32.714753],[138.47096,-32.714729],[138.470582,-32.714706],[138.46876,-32.714612],[138.464343,-32.714385],[138.462577,-32.714285],[138.458103,-32.714055]]}},{"type":"Feature","properties":{"tier":"arterial"},"geometry":{"type":"LineString","coordinates":[[138.458103,-32.714055],[138.457727,-32.714036],[138.457694,-32.714034]]}},{"type":"Feature","properties":{"tier":"arterial"},"geometry":{"type":"LineString","coordinates":[[138.110639,-32.665074],[138.109966,-32.664255]]}},{"type":"Feature","properties":{"tier":"arterial"},"geometry":{"type":"LineString","coordinates":[[138.109966,-32.664255],[138.109904,-32.664181],[138.10984,-32.664096]]}},{"type":"Feature","properties":{"tier":"regional"},"geometry":{"type":"LineString","coordinates":[[138.133311,-32.608992],[138.139483,-32.605761],[138.145498,-32.602593],[138.15166,-32.599322],[138.152571,-32.598769],[138.156675,-32.59649],[138.156858,-32.596388],[138.18862,-32.57775],[138.190987,-32.57636],[138.193627,-32.574802],[138.195146,-32.573906]]}},{"type":"Feature","properties":{"tier":"regional"},"geometry":{"type":"LineString","coordinates":[[138.195146,-32.573906],[138.195325,-32.5738]]}},{"type":"Feature","properties":{"tier":"arterial"},"geometry":{"type":"LineString","coordinates":[[138.23753,-32.87224],[138.237789,-32.873365],[138.237865,-32.873934],[138.237419,-32.875303],[138.237442,-32.875917],[138.239073,-32.881702],[138.240384,-32.888261],[138.239979,-32.895371],[138.239931,-32.896207],[138.239906,-32.896426],[138.239845,-32.896948],[138.239664,-32.897581]]}},{"type":"Feature","properties":{"tier":"arterial"},"geometry":{"type":"LineString","coordinates":[[138.239664,-32.897581],[138.239641,-32.897661]]}},{"type":"Feature","properties":{"tier":"arterial"},"geometry":{"type":"LineString","coordinates":[[138.113524,-32.968592],[138.114151,-32.968873],[138.114275,-32.968916],[138.114311,-32.968922],[138.114394,-32.968935],[138.114512,-32.96893],[138.114629,-32.9689],[138.114745,-32.968839],[138.114839,-32.968759],[138.115013,-32.968574],[138.115266,-32.968263],[138.115445,-32.967934],[138.115531,-32.96769],[138.115639,-32.967455],[138.115712,-32.967355],[138.115914,-32.967181],[138.116561,-32.966737],[138.117077,-32.966342],[138.117296,-32.966153],[138.117423,-32.96607],[138.1177,-32.965935],[138.11815,-32.965782],[138.118298,-32.965715],[138.118565,-32.965561],[138.119117,-32.965298],[138.119421,-32.965203],[138.119749,-32.965136],[138.1202,-32.965045],[138.1215,-32.964752],[138.121946,-32.964696],[138.122755,-32.964633],[138.123568,-32.964551],[138.124061,-32.964456],[138.124387,-32.964351],[138.124531,-32.964305],[138.124937,-32.964077],[138.12516,-32.963892],[138.125255,-32.963786],[138.125334,-32.963668],[138.125387,-32.963532],[138.125459,-32.962856],[138.125476,-32.962743],[138.125518,-32.962635],[138.125582,-32.962542],[138.125675,-32.962467],[138.125787,-32.9624],[138.125914,-32.962357],[138.126061,-32.962332],[138.126209,-32.962332],[138.126497,-32.962397],[138.12662,-32.962467],[138.126739,-32.962548],[138.127503,-32.963216],[138.127807,-32.963429],[138.127969,-32.963516],[138.128793,-32.963838],[138.129056,-32.964032],[138.129256,-32.964269],[138.129475,-32.964563],[138.129587,-32.96465],[138.129716,-32.964731],[138.129803,-32.96478],[138.129914,-32.964837],[138.130113,-32.964892],[138.130276,-32.964939],[138.130466,-32.964978],[138.130636,-32.964988],[138.130887,-32.964987],[138.131155,-32.964982],[138.131262,-32.964987],[138.13146,-32.964996],[138.131934,-32.965055],[138.132274,-32.965146],[138.13244,-32.96521],[138.132704,-32.965372],[138.133615,-32.965943],[138.133876,-32.966061],[138.13413,-32.966158],[138.134892,-32.966426],[138.135076,-32.966508],[138.13541,-32.966697],[138.135733,-32.96693],[138.136181,-32.967331],[138.137481,-32.968655],[138.137895,-32.968994],[138.138061,-32.969158],[138.138418,-32.96951],[138.138507,-32.969597],[138.13861,-32.969719],[138.139001,-32.970194],[138.139118,-32.970349],[138.139281,-32.970481],[138.139401,-32.970533],[138.139597,-32.970605],[138.139789,-32.970647]]}},{"type":"Feature","properties":{"tier":"arterial"},"geometry":{"type":"LineString","coordinates":[[138.087647,-32.982795],[138.087936,-32.982936],[138.088205,-32.983118],[138.088431,-32.98333],[138.088629,-32.983543],[138.088727,-32.983617],[138.088833,-32.983654],[138.088947,-32.983656],[138.089068,-32.983634],[138.08978,-32.983395],[138.090094,-32.983304],[138.090748,-32.983214],[138.09106,-32.983124],[138.091208,-32.983054],[138.09147,-32.982879],[138.091588,-32.982777],[138.091684,-32.982667],[138.091761,-32.982543],[138.091984,-32.982012],[138.092229,-32.98152],[138.092247,-32.981408],[138.092198,-32.981142],[138.092225,-32.981052],[138.092295,-32.980989],[138.092624,-32.980798],[138.092861,-32.980632],[138.093344,-32.980183],[138.093462,-32.980125],[138.093583,-32.980088],[138.093705,-32.980071],[138.093953,-32.980064],[138.094075,-32.980049],[138.094187,-32.980016],[138.094374,-32.979891],[138.094538,-32.979718],[138.094689,-32.979585],[138.094863,-32.979493],[138.095081,-32.979414],[138.095205,-32.979345],[138.095317,-32.979245],[138.095354,-32.979178],[138.095369,-32.979108],[138.09536,-32.979042],[138.095327,-32.978982],[138.094969,-32.978652],[138.094685,-32.978423],[138.094166,-32.978072],[138.094069,-32.978001],[138.093987,-32.977914],[138.093919,-32.977814],[138.093847,-32.9776],[138.093849,-32.977493],[138.093878,-32.97739],[138.093939,-32.977301],[138.094027,-32.977234],[138.094135,-32.977182],[138.094503,-32.977062],[138.094617,-32.977002],[138.094796,-32.976854],[138.09484,-32.976771],[138.094836,-32.976692],[138.094798,-32.976627],[138.094498,-32.976398],[138.094456,-32.976319],[138.094459,-32.976109],[138.094546,-32.97586],[138.094851,-32.97535],[138.094926,-32.975241],[138.095016,-32.975149],[138.095133,-32.975065],[138.09525,-32.975006],[138.095603,-32.974858],[138.095691,-32.974797],[138.09575,-32.974717],[138.095787,-32.974625],[138.09588,-32.97434],[138.09592,-32.974158],[138.095902,-32.97396],[138.095792,-32.973685],[138.095771,-32.973589],[138.095778,-32.973495],[138.095853,-32.973189],[138.095794,-32.972758],[138.095796,-32.972507],[138.095842,-32.972279],[138.096022,-32.971802],[138.096127,-32.971228],[138.096154,-32.97113],[138.096198,-32.971047],[138.096276,-32.970992],[138.096383,-32.97097],[138.096492,-32.970954],[138.096865,-32.97095],[138.097113,-32.97091],[138.097334,-32.9708],[138.097634,-32.970571],[138.097853,-32.970434],[138.098083,-32.970365],[138.098353,-32.97028],[138.098577,-32.970203],[138.098649,-32.970137],[138.098654,-32.970057],[138.098622,-32.969932],[138.098561,-32.969798],[138.098273,-32.969448],[138.098222,-32.969356],[138.098204,-32.969273],[138.098227,-32.969185],[138.098281,-32.969117],[138.098372,-32.969068],[138.098401,-32.969062],[138.098474,-32.969049],[138.098578,-32.969051],[138.09882,-32.969123],[138.098981,-32.969125],[138.09916,-32.969097],[138.099405,-32.969048],[138.100089,-32.968886],[138.100189,-32.968865],[138.100325,-32.96888],[138.100422,-32.968908],[138.100529,-32.968969],[138.100915,-32.969216],[138.101026,-32.969275],[138.101137,-32.969317],[138.10137,-32.969352],[138.101603,-32.969349],[138.101802,-32.969257],[138.101873,-32.969186],[138.101923,-32.969091],[138.102089,-32.968322],[138.102158,-32.968135],[138.102214,-32.968063],[138.102304,-32.968017],[138.102413,-32.968003],[138.102533,-32.968019],[138.102707,-32.968066],[138.103176,-32.968208],[138.103333,-32.968243],[138.103478,-32.968253],[138.103751,-32.968248],[138.10405,-32.968217],[138.104363,-32.968185],[138.104685,-32.968171],[138.105449,-32.968168],[138.105752,-32.968191],[138.106029,-32.968268],[138.106146,-32.96833],[138.106555,-32.968665],[138.106665,-32.968739],[138.106782,-32.968792],[138.106906,-32.968819],[138.107026,-32.968803],[138.10713,-32.96876],[138.107226,-32.968696],[138.107302,-32.968611],[138.107486,-32.968329],[138.107576,-32.968261],[138.107691,-32.968204],[138.107811,-32.968179],[138.10808,-32.968209],[138.108798,-32.968357],[138.109074,-32.968389],[138.109212,-32.968371],[138.109331,-32.968335],[138.1095,-32.968247],[138.109802,-32.968089],[138.110023,-32.968013],[138.110199,-32.967953],[138.110334,-32.96792],[138.110614,-32.967883],[138.110884,-32.967877],[138.111014,-32.96789],[138.111686,-32.968046],[138.112612,-32.968333],[138.113155,-32.968452],[138.113524,-32.968592]]}},{"type":"Feature","properties":{"tier":"arterial"},"geometry":{"type":"LineString","coordinates":[[138.197587,-32.811247],[138.19754,-32.811295]]}}]}
