{"type":"FeatureCollection","features":[{"type":"Feature","properties":{"tier":"arterial"},"geometry":{"type":"LineString","coordinates":[[138.071503,-29.651394],[138.071558,-29.651314],[138.074552,-29.647942],[138.074727,-29.647731]]}},{"type":"Feature","properties":{"tier":"arterial"},"geometry":{"type":"LineString","coordinates":[[138.111498,-29.714616],[138.111067,-29.71372],[138.103896,-29.699159],[138.103545,-29.698384],[138.103379,-29.697985],[138.103171,-29.69736],[138.103015,-29.696873],[138.095743,-29.672415],[138.095552,-29.671847],[138.095377,-29.671441],[138.095216,-29.671107],[138.094817,-29.670505],[138.09442,-29.67003],[138.094164,-29.66977],[138.093877,-29.669515],[138.075331,-29.654956]]}},{"type":"Feature","properties":{"tier":"arterial"},"geometry":{"type":"LineString","coordinates":[[138.273209,-29.981066],[138.272729,-29.978911],[138.271909,-29.975233],[138.271397,-29.97294],[138.263802,-29.938871],[138.262124,-29.931206],[138.262056,-29.930897],[138.261451,-29.92813],[138.260773,-29.925074],[138.26037,-29.924191],[138.260091,-29.923609],[138.259321,-29.922657],[138.251694,-29.915323],[138.249092,-29.912821],[138.247257,-29.911012]]}},{"type":"Feature","properties":{"tier":"arterial"},"geometry":{"type":"LineString","coordinates":[[138.247257,-29.911012],[138.241386,-29.905264],[138.236419,-29.900377],[138.232664,-29.896681],[138.225583,-29.889802],[138.224025,-29.888068],[138.222599,-29.885865],[138.212825,-29.869663],[138.211828,-29.868011],[138.206154,-29.858339],[138.201325,-29.849989],[138.200687,-29.849185],[138.199864,-29.848461],[138.198196,-29.847336],[138.197433,-29.846802],[138.194707,-29.844894],[138.191456,-29.842641],[138.182595,-29.836413],[138.172297,-29.829152],[138.170071,-29.827619],[138.168663,-29.826614],[138.168062,-29.82619],[138.167688,-29.825936],[138.167341,-29.825665],[138.16716,-29.825508],[138.166902,-29.825259],[138.166732,-29.825078],[138.166569,-29.82489],[138.166493,-29.824796],[138.166384,-29.824654],[138.166251,-29.824468],[138.166096,-29.824228],[138.16593,-29.823936],[138.165797,-29.823667],[138.165641,-29.823358],[138.165299,-29.822648],[138.147332,-29.786344],[138.145471,-29.782567],[138.141026,-29.773546],[138.13838,-29.768179],[138.137316,-29.766019],[138.134766,-29.760848],[138.127898,-29.747017],[138.12751,-29.746235],[138.125007,-29.741403],[138.124473,-29.740372],[138.122301,-29.736179],[138.118954,-29.729666],[138.111498,-29.714616]]}},{"type":"Feature","properties":{"tier":"arterial"},"geometry":{"type":"LineString","coordinates":[[138.205674,-29.49998],[138.202047,-29.504501],[138.190086,-29.517062],[138.184048,-29.523392],[138.179045,-29.529724],[138.170557,-29.543766],[138.169245,-29.545936],[138.165808,-29.551622],[138.161286,-29.55935],[138.155593,-29.56893],[138.150635,-29.577166],[138.149861,-29.57827],[138.149045,-29.57922],[138.143906,-29.583767],[138.138136,-29.588881],[138.137018,-29.589824],[138.13407,-29.591874],[138.126084,-29.597362],[138.118031,-29.602682],[138.111235,-29.607102],[138.104375,-29.610616],[138.103516,-29.611139],[138.102764,-29.611652],[138.102349,-29.61202],[138.101978,-29.612445],[138.100958,-29.613904],[138.089722,-29.629981],[138.088125,-29.632223],[138.087763,-29.632744],[138.080878,-29.640727],[138.074727,-29.647731]]}},{"type":"Feature","properties":{"tier":"arterial"},"geometry":{"type":"LineString","coordinates":[[138.071503,-29.651394],[138.069738,-29.649731],[138.069194,-29.649309],[138.067392,-29.648138]]}},{"type":"Feature","properties":{"tier":"arterial"},"geometry":{"type":"LineString","coordinates":[[138.067392,-29.648138],[138.066734,-29.647741],[138.0667,-29.64772],[138.065264,-29.646822],[138.063999,-29.645871]]}},{"type":"Feature","properties":{"tier":"arterial"},"geometry":{"type":"LineString","coordinates":[[138.075331,-29.654956],[138.074528,-29.654328],[138.073797,-29.653589],[138.073234,-29.653051],[138.071503,-29.651394]]}},{"type":"Feature","properties":{"tier":"arterial"},"geometry":{"type":"LineString","coordinates":[[138.060707,-29.643349],[138.059649,-29.642583],[138.058653,-29.641942],[138.05761,-29.641507],[138.056556,-29.641205],[138.05605,-29.641113],[138.055752,-29.641086],[138.055549,-29.641068],[138.054736,-29.641054],[138.052315,-29.641035],[138.050358,-29.640914],[138.050016,-29.640892],[138.049428,-29.640821],[138.04922,-29.640804],[138.04817,-29.640718],[138.047735,-29.640675],[138.046264,-29.640523],[138.042061,-29.64005],[138.032735,-29.63913],[138.031058,-29.639069],[138.029469,-29.639096],[138.028899,-29.63913],[138.027942,-29.639187],[138.021912,-29.639546],[138.017533,-29.639832],[138.012681,-29.64015],[138.007244,-29.640461],[137.99998,-29.64091]]}},{"type":"Feature","properties":{"tier":"arterial"},"geometry":{"type":"LineString","coordinates":[[138.277408,-30.00002],[138.276855,-29.997695],[138.276334,-29.995505],[138.273783,-29.983749],[138.273209,-29.981066]]}},{"type":"Feature","properties":{"tier":"arterial"},"geometry":{"type":"LineString","coordinates":[[138.063999,-29.645871],[138.063891,-29.645787],[138.063442,-29.645434],[138.062752,-29.644893],[138.06185,-29.644189],[138.061058,-29.643607],[138.060707,-29.643349]]}}]}
