{"type":"FeatureCollection","features":[{"type":"Feature","properties":{"tier":"arterial"},"geometry":{"type":"LineString","coordinates":[[138.381576,-30.99998],[138.381667,-31.001041],[138.381999,-31.004525],[138.382047,-31.005035],[138.382083,-31.005415],[138.382109,-31.005689],[138.382167,-31.006291],[138.382612,-31.010973],[138.38321,-31.016973]]}},{"type":"Feature","properties":{"tier":"arterial"},"geometry":{"type":"LineString","coordinates":[[138.418717,-31.398731],[138.418815,-31.399887],[138.418916,-31.401073],[138.418959,-31.401533],[138.419792,-31.410524],[138.420377,-31.417677],[138.420557,-31.419881],[138.420564,-31.419973],[138.420657,-31.421319],[138.420751,-31.422682],[138.421267,-31.430191],[138.421294,-31.430578],[138.42192,-31.438941],[138.422109,-31.440157],[138.42241,-31.441651],[138.422758,-31.442762],[138.422899,-31.44321],[138.42321,-31.443969],[138.423236,-31.444033],[138.423452,-31.44456],[138.423568,-31.444843],[138.424581,-31.446601],[138.426014,-31.448827],[138.427431,-31.451082],[138.427817,-31.451961],[138.428246,-31.453132],[138.428478,-31.45404],[138.428701,-31.455087],[138.42877,-31.456127],[138.428684,-31.457833],[138.428647,-31.458516],[138.428529,-31.459714],[138.428523,-31.459804],[138.42834,-31.462474],[138.428358,-31.4635],[138.428392,-31.464934],[138.428547,-31.466033],[138.428761,-31.46735],[138.429233,-31.469107],[138.430177,-31.472475],[138.430675,-31.47462],[138.430779,-31.475194],[138.430864,-31.475754],[138.43095,-31.476867],[138.43095,-31.478206],[138.43089,-31.479546],[138.430675,-31.481208],[138.430289,-31.483425],[138.429988,-31.484977],[138.429594,-31.487173],[138.429267,-31.489186],[138.42901,-31.490818],[138.428968,-31.491315],[138.42889,-31.492238],[138.428804,-31.493321],[138.428752,-31.494653],[138.428768,-31.495754],[138.428778,-31.496431],[138.42883,-31.498356],[138.42886,-31.50002]]}},{"type":"Feature","properties":{"tier":"arterial"},"geometry":{"type":"LineString","coordinates":[[138.397305,-31.13179],[138.399657,-31.131826],[138.405872,-31.13201],[138.410807,-31.132142],[138.413187,-31.132229],[138.413433,-31.132237],[138.413941,-31.132241],[138.414618,-31.132245],[138.415296,-31.132245],[138.416412,-31.132208],[138.418695,-31.132127],[138.42139,-31.132002],[138.424385,-31.13187],[138.427235,-31.131753],[138.43005,-31.13162],[138.433544,-31.131459],[138.438462,-31.131253],[138.4438,-31.131033],[138.44998,-31.130775],[138.457679,-31.130467],[138.460892,-31.130328],[138.464322,-31.13018],[138.471438,-31.129894],[138.475781,-31.129695],[138.478167,-31.129556],[138.480682,-31.129372],[138.482982,-31.129196],[138.483866,-31.129159],[138.484553,-31.129174],[138.485217,-31.129209],[138.485789,-31.12924],[138.486305,-31.129298],[138.487363,-31.129456],[138.488717,-31.129686],[138.489917,-31.129769],[138.491343,-31.129709],[138.49143,-31.129701],[138.491899,-31.129683],[138.493668,-31.129548],[138.494861,-31.129409],[138.495118,-31.129313],[138.495685,-31.129093],[138.496859,-31.128602],[138.496951,-31.128563],[138.497359,-31.128468],[138.498506,-31.128396],[138.499111,-31.128304],[138.50002,-31.128067]]}},{"type":"Feature","properties":{"tier":"arterial"},"geometry":{"type":"LineString","coordinates":[[138.397333,-31.132807],[138.397347,-31.133187],[138.397366,-31.133698],[138.39742,-31.135131],[138.397443,-31.135815],[138.397514,-31.13686],[138.397518,-31.136921],[138.397658,-31.13929],[138.397726,-31.140642],[138.397733,-31.140703],[138.397898,-31.142302],[138.398001,-31.143206],[138.398173,-31.144219],[138.398774,-31.147635],[138.399537,-31.151962],[138.400361,-31.156766],[138.401014,-31.160401],[138.401383,-31.162531],[138.401675,-31.164463],[138.401803,-31.165733],[138.401829,-31.165985],[138.401932,-31.166967],[138.401958,-31.167386],[138.401924,-31.169009],[138.401846,-31.172527],[138.401692,-31.176331],[138.401537,-31.18045],[138.401366,-31.185106],[138.401357,-31.186655],[138.4014,-31.188182],[138.401486,-31.189732],[138.402009,-31.195473],[138.402771,-31.203427],[138.403039,-31.206324],[138.403511,-31.211389],[138.404069,-31.217504],[138.404584,-31.222958],[138.405185,-31.229204],[138.40564,-31.234106],[138.405977,-31.237702],[138.406103,-31.239053],[138.406286,-31.241005],[138.406312,-31.241291],[138.406507,-31.243375],[138.407022,-31.249033],[138.407382,-31.252841],[138.408076,-31.260407],[138.4081,-31.26067],[138.408189,-31.261638],[138.408395,-31.263106],[138.40867,-31.26483],[138.408996,-31.266348],[138.409356,-31.26783],[138.410026,-31.270647],[138.41115,-31.275269],[138.411451,-31.276722],[138.411682,-31.278101],[138.411803,-31.279201],[138.411863,-31.280301],[138.412,-31.283984],[138.412129,-31.28892],[138.412382,-31.296335],[138.412438,-31.29935],[138.412573,-31.304159],[138.412651,-31.306183],[138.412728,-31.30828],[138.412799,-31.311477],[138.412968,-31.316515],[138.413269,-31.324947],[138.413304,-31.326616],[138.413339,-31.327652],[138.413382,-31.32828],[138.413425,-31.328715],[138.413528,-31.32948],[138.413702,-31.330422],[138.413815,-31.331039],[138.413835,-31.331148],[138.414419,-31.3342],[138.414875,-31.336633],[138.415543,-31.340189],[138.41653,-31.345577],[138.416788,-31.347139],[138.417011,-31.348868],[138.417045,-31.349946],[138.417045,-31.351434],[138.416942,-31.352709],[138.416642,-31.354835],[138.416101,-31.357745],[138.415869,-31.359123],[138.415758,-31.359944],[138.415642,-31.360796],[138.415629,-31.361043],[138.415599,-31.361606],[138.415586,-31.361849],[138.415586,-31.362856],[138.415586,-31.363154],[138.415929,-31.367419],[138.416138,-31.369688],[138.416308,-31.371543],[138.416324,-31.371721],[138.417388,-31.383753],[138.418161,-31.392208],[138.41852,-31.396424],[138.418717,-31.398731]]}},{"type":"Feature","properties":{"tier":"arterial"},"geometry":{"type":"LineString","coordinates":[[138.383246,-31.017331],[138.383693,-31.022043],[138.384671,-31.032252],[138.384731,-31.032918],[138.385208,-31.038207],[138.385967,-31.046641],[138.38644,-31.051703],[138.386714,-31.053998],[138.386869,-31.055328],[138.387028,-31.056228],[138.387517,-31.058987],[138.387929,-31.061308],[138.388427,-31.06412],[138.389019,-31.067456],[138.389083,-31.06782],[138.38974,-31.07156],[138.391075,-31.079156],[138.392431,-31.086734],[138.393976,-31.095334],[138.395119,-31.102005],[138.395156,-31.102201],[138.395932,-31.106623],[138.396199,-31.108298],[138.396336,-31.109606],[138.396439,-31.111355],[138.396602,-31.115169],[138.396834,-31.120107],[138.397046,-31.125157],[138.39711,-31.126581],[138.397289,-31.131326],[138.397305,-31.13179],[138.397333,-31.132807]]}},{"type":"Feature","properties":{"tier":"arterial"},"geometry":{"type":"LineString","coordinates":[[138.38321,-31.016973],[138.383227,-31.017147],[138.38323,-31.01717],[138.383246,-31.017331]]}}]}
