{"type":"FeatureCollection","features":[{"type":"Feature","properties":{"tier":"regional"},"geometry":{"type":"LineString","coordinates":[[137.99998,-25.924255],[138.00038,-25.92499],[138.00062,-25.9261],[138.00075,-25.92778],[138.00066,-25.92831],[138.00006,-25.92958],[138.00004,-25.93029],[138.0003,-25.93102],[138.00066,-25.93155],[138.00131,-25.93323],[138.00178,-25.9349],[138.00193,-25.93578],[138.00193,-25.93636],[138.00174,-25.937],[138.00109,-25.93808],[138.00083,-25.93904],[138.00098,-25.94057],[138.00143,-25.94155],[138.00156,-25.94194],[138.00163,-25.9426],[138.0021,-25.94396],[138.0021,-25.9443],[138.00195,-25.94456],[138.00146,-25.94503],[138.00139,-25.94535],[138.00154,-25.94563],[138.00161,-25.94623],[138.00204,-25.94702],[138.00294,-25.94911],[138.00322,-25.94962],[138.00332,-25.95024],[138.00345,-25.95054],[138.00425,-25.95175],[138.00476,-25.95228],[138.00543,-25.95318],[138.00605,-25.95441],[138.00667,-25.95529],[138.00691,-25.95599],[138.00721,-25.95662],[138.00785,-25.95762],[138.008,-25.95797],[138.00807,-25.95868],[138.00847,-25.96076],[138.00905,-25.96243],[138.00925,-25.96267],[138.00972,-25.96393],[138.01004,-25.96458],[138.01116,-25.96655],[138.01137,-25.9672],[138.01236,-25.96925],[138.01251,-25.96981],[138.01324,-25.9717],[138.01407,-25.97297],[138.01497,-25.97468],[138.01658,-25.97737],[138.01684,-25.97885],[138.01682,-25.97947],[138.01708,-25.98005],[138.01742,-25.98127],[138.01749,-25.9823],[138.01794,-25.98372],[138.01894,-25.98513],[138.0198,-25.98563],[138.01995,-25.98591],[138.02004,-25.98623],[138.01997,-25.98694],[138.01961,-25.9876],[138.01916,-25.98807],[138.01903,-25.9884],[138.01897,-25.98908],[138.01916,-25.99033],[138.01952,-25.99133],[138.02002,-25.9935],[138.02019,-25.99565],[138.01972,-25.99809],[138.01929,-25.99925],[138.018844,-26.00002]]}}]}
