{"type":"FeatureCollection","features":[{"type":"Feature","properties":{"tier":"regional"},"geometry":{"type":"LineString","coordinates":[[138.73408,-35.224166],[138.733821,-35.22384],[138.733154,-35.223152],[138.73299,-35.222766],[138.733463,-35.218243],[138.735295,-35.216121],[138.738913,-35.211932],[138.738881,-35.20626],[138.738766,-35.2042],[138.738765,-35.204131],[138.738769,-35.19346],[138.738733,-35.1897],[138.738734,-35.18949],[138.738747,-35.184175],[138.738746,-35.184094],[138.738739,-35.183202],[138.738739,-35.183066],[138.738731,-35.182983],[138.738699,-35.182922],[138.738659,-35.182882],[138.738616,-35.182859]]}},{"type":"Feature","properties":{"tier":"arterial"},"geometry":{"type":"LineString","coordinates":[[138.700725,-35.213885],[138.700078,-35.213397],[138.699861,-35.213235],[138.699676,-35.213095],[138.6988,-35.212437],[138.697413,-35.211421],[138.696505,-35.210745],[138.696268,-35.210624],[138.696107,-35.210549],[138.695905,-35.210494],[138.695721,-35.210481],[138.695544,-35.210485]]}},{"type":"Feature","properties":{"tier":"regional"},"geometry":{"type":"LineString","coordinates":[[138.631756,-35.163802],[138.629439,-35.164917],[138.627742,-35.167786],[138.626243,-35.17032],[138.62498,-35.171017]]}},{"type":"Feature","properties":{"tier":"regional"},"geometry":{"type":"LineString","coordinates":[[138.642543,-35.164006],[138.642004,-35.164012],[138.640976,-35.164117],[138.640811,-35.164118],[138.640556,-35.164152],[138.640183,-35.16415],[138.639873,-35.16409],[138.639015,-35.16382],[138.638672,-35.163768],[138.638092,-35.16376],[138.637845,-35.163729],[138.637219,-35.163727],[138.636996,-35.163695],[138.636655,-35.163695],[138.636388,-35.163662],[138.635443,-35.163662],[138.635251,-35.16369],[138.634812,-35.163695],[138.634532,-35.163728],[138.63395,-35.163732],[138.633673,-35.163767],[138.633112,-35.163766],[138.632814,-35.163801],[138.632088,-35.163801],[138.631756,-35.163802],[138.631634,-35.163718],[138.62691,-35.162069],[138.626626,-35.161957],[138.626482,-35.161885],[138.626308,-35.161765],[138.626207,-35.161673],[138.62498,-35.160296]]}},{"type":"Feature","properties":{"tier":"regional"},"geometry":{"type":"LineString","coordinates":[[138.725936,-35.249017],[138.726035,-35.248804],[138.726854,-35.248234],[138.727271,-35.247956],[138.727776,-35.247731],[138.728083,-35.247666],[138.728342,-35.247706],[138.728817,-35.247917],[138.729338,-35.248046],[138.729883,-35.248085],[138.730566,-35.248081],[138.730867,-35.248157],[138.73111,-35.248331],[138.731677,-35.248829],[138.731993,-35.249073],[138.732399,-35.24933],[138.732951,-35.249736],[138.733343,-35.249998],[138.733364,-35.25002]]}},{"type":"Feature","properties":{"tier":"regional"},"geometry":{"type":"LineString","coordinates":[[138.707479,-35.249077],[138.709862,-35.249678],[138.71032,-35.249725],[138.711214,-35.249595],[138.714354,-35.248898],[138.717164,-35.248351],[138.717644,-35.248507],[138.718538,-35.249042],[138.72017,-35.25002]]}},{"type":"Feature","properties":{"tier":"regional"},"geometry":{"type":"LineString","coordinates":[[138.723472,-35.25002],[138.725936,-35.249017]]}},{"type":"Feature","properties":{"tier":"regional"},"geometry":{"type":"LineString","coordinates":[[138.62498,-35.24548],[138.626134,-35.245352],[138.62634,-35.245261],[138.626477,-35.245114],[138.626563,-35.244966],[138.62658,-35.244791],[138.626503,-35.244469],[138.626357,-35.243908],[138.626126,-35.242878],[138.625825,-35.241511],[138.625696,-35.241041],[138.625696,-35.240838],[138.625756,-35.240655],[138.626203,-35.240102],[138.62731,-35.238784],[138.628649,-35.237157],[138.62882,-35.236821],[138.629035,-35.23647],[138.629181,-35.23612],[138.629438,-35.235208],[138.629653,-35.234227],[138.629765,-35.233897],[138.629936,-35.233778],[138.630185,-35.233687],[138.630769,-35.233547],[138.631593,-35.233294],[138.631765,-35.233203],[138.632297,-35.23279],[138.633301,-35.231991],[138.634442,-35.23117],[138.634794,-35.230869],[138.634975,-35.230644],[138.635181,-35.230147],[138.635618,-35.229088],[138.635867,-35.228436],[138.636047,-35.227742],[138.636193,-35.227076],[138.636279,-35.226788],[138.636357,-35.22662],[138.636708,-35.226059],[138.637155,-35.225316],[138.637318,-35.225],[138.637395,-35.224797],[138.637378,-35.224517],[138.637369,-35.22418],[138.637292,-35.22378],[138.637129,-35.223121],[138.636631,-35.220976],[138.636468,-35.220169],[138.636519,-35.219959],[138.636631,-35.219798],[138.636897,-35.219496],[138.637747,-35.218634],[138.637896,-35.218483],[138.638442,-35.217933],[138.639,-35.217273],[138.639575,-35.216502],[138.639927,-35.215948],[138.640167,-35.215275],[138.64033,-35.214805],[138.640674,-35.213403],[138.641223,-35.211292],[138.641309,-35.210885],[138.641455,-35.210731],[138.641695,-35.210647],[138.643498,-35.21024],[138.645223,-35.20984],[138.64621,-35.209609],[138.646905,-35.209525],[138.648004,-35.209462],[138.648725,-35.209419],[138.64918,-35.209335],[138.649411,-35.209146],[138.649652,-35.208957],[138.650003,-35.208746],[138.65075,-35.208578],[138.651317,-35.208417],[138.651609,-35.208311],[138.651849,-35.208143],[138.652089,-35.207989],[138.652355,-35.207491],[138.652604,-35.206979],[138.65281,-35.205913],[138.652905,-35.205338],[138.652932,-35.204861],[138.652932,-35.204777]]}},{"type":"Feature","properties":{"tier":"arterial"},"geometry":{"type":"LineString","coordinates":[[138.644951,-35.12498],[138.645351,-35.125176],[138.645978,-35.125435],[138.646656,-35.125618],[138.648021,-35.126081],[138.648647,-35.126322],[138.649154,-35.126546],[138.64972,-35.126862],[138.650098,-35.127136],[138.650407,-35.127403],[138.650707,-35.127789],[138.651068,-35.128196],[138.651664,-35.128943],[138.651733,-35.129018],[138.651814,-35.129066],[138.651873,-35.129102],[138.652078,-35.129147],[138.652401,-35.129129],[138.652612,-35.129108],[138.652766,-35.129101],[138.65292,-35.129107],[138.653154,-35.12917],[138.653411,-35.129268],[138.653547,-35.12937],[138.653737,-35.129641],[138.654305,-35.130542],[138.654981,-35.13192],[138.655329,-35.133315],[138.657198,-35.135737]]}},{"type":"Feature","properties":{"tier":"arterial"},"geometry":{"type":"LineString","coordinates":[[138.711355,-35.169271],[138.711796,-35.169922],[138.712444,-35.170856],[138.714095,-35.173598],[138.714421,-35.174047],[138.714832,-35.174259],[138.715134,-35.174391],[138.715941,-35.174706],[138.718759,-35.175812],[138.719992,-35.17632],[138.724112,-35.177969],[138.728747,-35.179821],[138.735207,-35.181594]]}},{"type":"Feature","properties":{"tier":"arterial"},"geometry":{"type":"LineString","coordinates":[[138.711239,-35.169115],[138.711355,-35.169271]]}},{"type":"Feature","properties":{"tier":"arterial"},"geometry":{"type":"LineString","coordinates":[[138.67167,-35.156141],[138.672062,-35.156401],[138.672517,-35.156704],[138.672946,-35.157151],[138.673416,-35.157844],[138.673677,-35.158098],[138.674172,-35.158397],[138.675056,-35.158699],[138.675152,-35.158732],[138.675993,-35.158991],[138.67667,-35.159108],[138.677238,-35.159082],[138.677976,-35.158921],[138.678576,-35.15893],[138.678825,-35.158979],[138.679041,-35.159048],[138.679599,-35.159336],[138.680156,-35.159524],[138.680688,-35.159735],[138.681482,-35.159994],[138.681942,-35.16023],[138.682468,-35.160579],[138.682928,-35.160855],[138.683453,-35.161034],[138.686387,-35.161672],[138.68734,-35.161952],[138.687853,-35.162138],[138.68837,-35.162289],[138.688868,-35.162338],[138.689348,-35.16231],[138.68988,-35.162254],[138.69091,-35.162258],[138.691425,-35.162275],[138.691624,-35.162241]]}},{"type":"Feature","properties":{"tier":"arterial"},"geometry":{"type":"LineString","coordinates":[[138.738749,-35.182536],[138.738981,-35.182551],[138.739201,-35.182556],[138.739718,-35.18256],[138.745059,-35.182503],[138.7452,-35.182501],[138.745814,-35.182495]]}},{"type":"Feature","properties":{"tier":"arterial"},"geometry":{"type":"LineString","coordinates":[[138.630525,-35.142549],[138.630929,-35.142879],[138.632199,-35.14441],[138.63359,-35.14615],[138.63383,-35.146389],[138.634431,-35.146782],[138.636662,-35.147877],[138.637195,-35.147989],[138.638843,-35.147877],[138.640397,-35.147933],[138.640786,-35.147988],[138.641338,-35.148375],[138.64158,-35.14857]]}},{"type":"Feature","properties":{"tier":"arterial"},"geometry":{"type":"LineString","coordinates":[[138.642536,-35.12498],[138.642504,-35.125197],[138.642417,-35.125642],[138.642297,-35.126171],[138.642073,-35.127031],[138.64193,-35.127682],[138.64188,-35.12809],[138.64188,-35.128413],[138.641956,-35.129023],[138.642079,-35.129723],[138.642105,-35.129989],[138.642079,-35.130254],[138.642,-35.130465],[138.6419,-35.130603],[138.641718,-35.130755],[138.640955,-35.13118],[138.640671,-35.131389],[138.640322,-35.131694],[138.639888,-35.132105],[138.639769,-35.132233],[138.639528,-35.132547],[138.639417,-35.132727],[138.639026,-35.133362],[138.63865,-35.133896],[138.637871,-35.134916],[138.637759,-35.135047],[138.637592,-35.135186],[138.637345,-35.135298],[138.636479,-35.135571],[138.635627,-35.135879],[138.634435,-35.136281],[138.63385,-35.136499],[138.633443,-35.136688],[138.633162,-35.136841],[138.632936,-35.136981],[138.6327,-35.137152],[138.632589,-35.137252],[138.632417,-35.137447],[138.632283,-35.137641],[138.632119,-35.137942],[138.630724,-35.141308],[138.630605,-35.141631],[138.630505,-35.142037],[138.630475,-35.142357],[138.630525,-35.142549]]}},{"type":"Feature","properties":{"tier":"arterial"},"geometry":{"type":"LineString","coordinates":[[138.652932,-35.204777],[138.652864,-35.204557],[138.652699,-35.204096],[138.652398,-35.203402],[138.652055,-35.202659],[138.651806,-35.202077],[138.651497,-35.201396],[138.651205,-35.201018],[138.650785,-35.200653],[138.65039,-35.200337],[138.650227,-35.200106],[138.650204,-35.20002],[138.650167,-35.199881],[138.650218,-35.199573],[138.65033,-35.199152],[138.650527,-35.198633],[138.650656,-35.19838],[138.650544,-35.198212],[138.650364,-35.198261],[138.650184,-35.19838],[138.650055,-35.198563],[138.649849,-35.198822],[138.6496,-35.199012],[138.649386,-35.199082],[138.649111,-35.199047],[138.648819,-35.198977],[138.648467,-35.198956],[138.647969,-35.199047],[138.647532,-35.199047],[138.647025,-35.1989],[138.646493,-35.198773],[138.646038,-35.198724],[138.645515,-35.198759],[138.645206,-35.198801],[138.644957,-35.198928],[138.644691,-35.199047],[138.644485,-35.199033],[138.644313,-35.198942],[138.644098,-35.198794],[138.643807,-35.198703],[138.643549,-35.198717],[138.642957,-35.198773],[138.642468,-35.198794],[138.642039,-35.198689],[138.641566,-35.19857],[138.641069,-35.1985],[138.640056,-35.198331],[138.639438,-35.198233],[138.638992,-35.198219],[138.638734,-35.198149],[138.638425,-35.198065],[138.638065,-35.197981],[138.637618,-35.197981],[138.637086,-35.19784],[138.636683,-35.197735],[138.636202,-35.19763],[138.63585,-35.197483],[138.635387,-35.197202],[138.63482,-35.196992],[138.634374,-35.196922],[138.634151,-35.196971],[138.634013,-35.197069],[138.633936,-35.197174],[138.63403,-35.197385],[138.634614,-35.197995],[138.635395,-35.198935],[138.635387,-35.199075],[138.635292,-35.199166],[138.635163,-35.199201],[138.634975,-35.199138],[138.634863,-35.199075],[138.634751,-35.198963],[138.634717,-35.198808],[138.634648,-35.198654],[138.63452,-35.198528],[138.634322,-35.198416],[138.633876,-35.198177],[138.633378,-35.197925],[138.632657,-35.197595],[138.631816,-35.197321],[138.631387,-35.197251],[138.631018,-35.197251],[138.630649,-35.197244],[138.630426,-35.197195],[138.630245,-35.197104],[138.630031,-35.196964],[138.629773,-35.196901],[138.62955,-35.196922],[138.626538,-35.197402],[138.62649,-35.19741]]}},{"type":"Feature","properties":{"tier":"arterial"},"geometry":{"type":"LineString","coordinates":[[138.714185,-35.202843],[138.717637,-35.200771],[138.718393,-35.200307],[138.718574,-35.200239],[138.718926,-35.200025],[138.719255,-35.199796],[138.719557,-35.199605],[138.720106,-35.199237],[138.720899,-35.198702],[138.724363,-35.196311],[138.725831,-35.195358],[138.726859,-35.194657],[138.727124,-35.194466],[138.727376,-35.194307],[138.727564,-35.194161],[138.72763,-35.194109],[138.735283,-35.186303],[138.738227,-35.183301],[138.738535,-35.182974],[138.738616,-35.182859],[138.738648,-35.182812],[138.738696,-35.182713],[138.738731,-35.182628],[138.738749,-35.182536]]}},{"type":"Feature","properties":{"tier":"arterial"},"geometry":{"type":"LineString","coordinates":[[138.66568,-35.25002],[138.665688,-35.250009],[138.666148,-35.249348],[138.666974,-35.248143],[138.66783,-35.246944],[138.669292,-35.244838],[138.670569,-35.242998],[138.670812,-35.24266],[138.671053,-35.242367],[138.671254,-35.242178],[138.671732,-35.241726],[138.673282,-35.240272],[138.675444,-35.23832],[138.675714,-35.238076],[138.678513,-35.235524],[138.681225,-35.23291]]}},{"type":"Feature","properties":{"tier":"arterial"},"geometry":{"type":"LineString","coordinates":[[138.632065,-35.186754],[138.632949,-35.185264],[138.634106,-35.183333],[138.635434,-35.181116],[138.635807,-35.180493],[138.637026,-35.178466],[138.637189,-35.178038],[138.637243,-35.177763],[138.637318,-35.177386],[138.637567,-35.17627],[138.637841,-35.175786],[138.638168,-35.175274],[138.638281,-35.175135],[138.638717,-35.1746],[138.639618,-35.173457],[138.64021,-35.172678],[138.640382,-35.172124],[138.640576,-35.17116],[138.640588,-35.171099],[138.641086,-35.169191],[138.641257,-35.168826],[138.641747,-35.168096],[138.642201,-35.167423],[138.642373,-35.166742],[138.642442,-35.165879],[138.642442,-35.165058],[138.642493,-35.164279],[138.642524,-35.164043],[138.642543,-35.164006],[138.642639,-35.163157],[138.642914,-35.160652],[138.643034,-35.159571],[138.642991,-35.159045],[138.642871,-35.158596],[138.642474,-35.157817]]}},{"type":"Feature","properties":{"tier":"arterial"},"geometry":{"type":"LineString","coordinates":[[138.681225,-35.23291],[138.681978,-35.232289],[138.682881,-35.231379],[138.68471,-35.22967],[138.68497,-35.229414],[138.685213,-35.229174],[138.688475,-35.225946],[138.692165,-35.222297],[138.693282,-35.221191]]}},{"type":"Feature","properties":{"tier":"regional"},"geometry":{"type":"LineString","coordinates":[[138.707255,-35.25002],[138.707382,-35.249487],[138.707479,-35.249077],[138.709001,-35.245252],[138.711604,-35.237259],[138.71222,-35.235368],[138.712322,-35.235202],[138.712428,-35.235132],[138.712702,-35.235004],[138.714222,-35.234505],[138.715097,-35.234191],[138.715399,-35.234085],[138.717333,-35.232926],[138.718248,-35.232612],[138.719582,-35.232155],[138.721789,-35.231631],[138.722749,-35.23106],[138.724224,-35.228741],[138.724468,-35.228493],[138.724654,-35.228304],[138.72541,-35.228102],[138.726569,-35.228251],[138.727259,-35.228038],[138.727755,-35.227463],[138.72827,-35.226727],[138.729043,-35.22577],[138.729414,-35.225468],[138.729604,-35.225407],[138.729858,-35.225325],[138.730591,-35.225194],[138.731264,-35.225121],[138.732051,-35.225121],[138.732758,-35.225154],[138.733059,-35.225049],[138.733334,-35.224904],[138.73408,-35.224166]]}},{"type":"Feature","properties":{"tier":"arterial"},"geometry":{"type":"LineString","coordinates":[[138.661222,-35.148508],[138.661339,-35.148398],[138.661373,-35.148316],[138.661374,-35.1482]]}},{"type":"Feature","properties":{"tier":"arterial"},"geometry":{"type":"LineString","coordinates":[[138.660952,-35.148567],[138.661084,-35.148522],[138.661222,-35.148508],[138.661459,-35.148484],[138.661568,-35.148491]]}},{"type":"Feature","properties":{"tier":"arterial"},"geometry":{"type":"LineString","coordinates":[[138.695544,-35.210485],[138.695443,-35.210487]]}},{"type":"Feature","properties":{"tier":"arterial"},"geometry":{"type":"LineString","coordinates":[[138.693282,-35.221191],[138.696124,-35.218414],[138.700013,-35.214613],[138.700725,-35.213885],[138.703373,-35.211208],[138.70766,-35.206967],[138.708002,-35.206649],[138.708317,-35.206405],[138.708578,-35.206234],[138.708709,-35.206153],[138.709383,-35.20574],[138.710238,-35.20521],[138.71301,-35.203559],[138.713662,-35.203172]]}},{"type":"Feature","properties":{"tier":"arterial"},"geometry":{"type":"LineString","coordinates":[[138.713662,-35.203172],[138.714185,-35.202843]]}},{"type":"Feature","properties":{"tier":"arterial"},"geometry":{"type":"LineString","coordinates":[[138.738749,-35.182536],[138.73875,-35.182531]]}},{"type":"Feature","properties":{"tier":"arterial"},"geometry":{"type":"LineString","coordinates":[[138.661568,-35.148491],[138.661665,-35.148568],[138.661818,-35.148673],[138.662049,-35.148791],[138.662649,-35.149023],[138.663509,-35.149381],[138.663709,-35.149479],[138.664216,-35.149741]]}},{"type":"Feature","properties":{"tier":"arterial"},"geometry":{"type":"LineString","coordinates":[[138.65914,-35.138979],[138.659348,-35.139613],[138.659622,-35.140395],[138.659913,-35.141181],[138.660201,-35.142035],[138.660602,-35.143376],[138.66073,-35.145364],[138.660797,-35.146631],[138.660815,-35.146826],[138.660835,-35.146957],[138.660868,-35.147075],[138.660908,-35.147187],[138.661319,-35.148072],[138.661374,-35.1482]]}},{"type":"Feature","properties":{"tier":"arterial"},"geometry":{"type":"LineString","coordinates":[[138.697369,-35.161906],[138.697871,-35.162086],[138.698489,-35.162352],[138.698856,-35.162565],[138.69915,-35.162822],[138.699434,-35.163279],[138.699719,-35.163946],[138.699982,-35.164669],[138.700129,-35.165371],[138.700253,-35.166335],[138.700386,-35.166683],[138.700704,-35.167147],[138.701245,-35.167531],[138.701842,-35.167786],[138.702431,-35.168083],[138.703051,-35.168286],[138.703321,-35.168309],[138.703768,-35.168274],[138.70454,-35.168106],[138.705175,-35.168022],[138.705802,-35.168134],[138.706437,-35.168401],[138.707046,-35.168576],[138.707742,-35.168618],[138.708497,-35.168632],[138.709965,-35.16859],[138.710319,-35.168633],[138.710895,-35.168855],[138.711239,-35.169115]]}},{"type":"Feature","properties":{"tier":"arterial"},"geometry":{"type":"LineString","coordinates":[[138.691624,-35.162241],[138.692069,-35.162165]]}},{"type":"Feature","properties":{"tier":"arterial"},"geometry":{"type":"LineString","coordinates":[[138.735331,-35.181628],[138.736849,-35.182045],[138.738141,-35.182392],[138.738179,-35.182402],[138.738578,-35.182503],[138.73875,-35.182531]]}},{"type":"Feature","properties":{"tier":"arterial"},"geometry":{"type":"LineString","coordinates":[[138.735207,-35.181594],[138.735331,-35.181628]]}},{"type":"Feature","properties":{"tier":"arterial"},"geometry":{"type":"LineString","coordinates":[[138.62498,-35.199324],[138.62519,-35.199145],[138.625945,-35.198289],[138.626452,-35.19749],[138.62649,-35.19741],[138.627576,-35.195154],[138.629335,-35.191682],[138.630717,-35.189024],[138.632041,-35.186794]]}},{"type":"Feature","properties":{"tier":"arterial"},"geometry":{"type":"LineString","coordinates":[[138.632041,-35.186794],[138.632065,-35.186754]]}},{"type":"Feature","properties":{"tier":"arterial"},"geometry":{"type":"LineString","coordinates":[[138.642419,-35.15771],[138.641798,-35.156491],[138.641652,-35.156048],[138.641575,-35.155614],[138.641346,-35.153483],[138.641223,-35.152343],[138.641051,-35.150561],[138.641094,-35.149929],[138.641163,-35.149396],[138.64158,-35.14857],[138.642039,-35.148246],[138.64252,-35.147974],[138.643501,-35.147929],[138.652454,-35.148301]]}},{"type":"Feature","properties":{"tier":"arterial"},"geometry":{"type":"LineString","coordinates":[[138.642474,-35.157817],[138.642419,-35.15771]]}},{"type":"Feature","properties":{"tier":"arterial"},"geometry":{"type":"LineString","coordinates":[[138.666154,-35.150836],[138.666504,-35.151198],[138.6668,-35.15163],[138.667058,-35.151904],[138.667438,-35.152221],[138.667921,-35.152367],[138.668391,-35.152481],[138.669006,-35.152739],[138.6694,-35.152956]]}},{"type":"Feature","properties":{"tier":"arterial"},"geometry":{"type":"LineString","coordinates":[[138.6694,-35.152956],[138.66959,-35.153061]]}},{"type":"Feature","properties":{"tier":"arterial"},"geometry":{"type":"LineString","coordinates":[[138.66959,-35.153061],[138.670752,-35.153802],[138.670963,-35.153981],[138.671125,-35.154167],[138.671238,-35.154458],[138.671315,-35.154872],[138.671428,-35.155779],[138.671492,-35.155884]]}},{"type":"Feature","properties":{"tier":"arterial"},"geometry":{"type":"LineString","coordinates":[[138.671492,-35.155884],[138.671631,-35.156115],[138.67167,-35.156141]]}},{"type":"Feature","properties":{"tier":"arterial"},"geometry":{"type":"LineString","coordinates":[[138.692069,-35.162165],[138.692653,-35.162065],[138.693399,-35.161975],[138.694069,-35.16198],[138.694653,-35.162016],[138.695272,-35.161983],[138.695982,-35.161871],[138.696704,-35.161826],[138.697262,-35.161868],[138.697293,-35.161879]]}},{"type":"Feature","properties":{"tier":"arterial"},"geometry":{"type":"LineString","coordinates":[[138.697293,-35.161879],[138.697369,-35.161906]]}},{"type":"Feature","properties":{"tier":"arterial"},"geometry":{"type":"LineString","coordinates":[[138.745895,-35.182495],[138.75002,-35.182459]]}},{"type":"Feature","properties":{"tier":"arterial"},"geometry":{"type":"LineString","coordinates":[[138.745814,-35.182495],[138.745895,-35.182495]]}},{"type":"Feature","properties":{"tier":"arterial"},"geometry":{"type":"LineString","coordinates":[[138.657198,-35.135737],[138.65914,-35.138979]]}},{"type":"Feature","properties":{"tier":"arterial"},"geometry":{"type":"LineString","coordinates":[[138.695443,-35.210487],[138.692578,-35.210552],[138.69217,-35.210335],[138.689331,-35.208828]]}},{"type":"Feature","properties":{"tier":"arterial"},"geometry":{"type":"LineString","coordinates":[[138.661568,-35.148491],[138.661478,-35.148547],[138.661097,-35.148588],[138.660952,-35.148567]]}},{"type":"Feature","properties":{"tier":"arterial"},"geometry":{"type":"LineString","coordinates":[[138.661097,-35.148588],[138.661015,-35.148664],[138.660935,-35.148748]]}},{"type":"Feature","properties":{"tier":"arterial"},"geometry":{"type":"LineString","coordinates":[[138.661374,-35.1482],[138.661473,-35.148378],[138.661568,-35.148491]]}},{"type":"Feature","properties":{"tier":"arterial"},"geometry":{"type":"LineString","coordinates":[[138.664216,-35.149741],[138.665659,-35.150499],[138.666154,-35.150836]]}},{"type":"Feature","properties":{"tier":"arterial"},"geometry":{"type":"LineString","coordinates":[[138.652454,-35.148301],[138.653735,-35.148341],[138.655638,-35.148399],[138.656059,-35.148412],[138.658417,-35.148483],[138.659455,-35.148514],[138.660535,-35.14856],[138.660952,-35.148567]]}}]}
