{"type":"FeatureCollection","features":[{"type":"Feature","properties":{"tier":"arterial"},"geometry":{"type":"LineString","coordinates":[[138.554252,-35.27168],[138.554298,-35.2718]]}},{"type":"Feature","properties":{"tier":"arterial"},"geometry":{"type":"LineString","coordinates":[[138.554252,-35.27168],[138.55416,-35.271684],[138.55387,-35.271698],[138.553785,-35.271703],[138.551453,-35.271815],[138.551288,-35.271824],[138.550278,-35.271889],[138.549919,-35.271912],[138.549609,-35.271933],[138.54864,-35.271996],[138.54859,-35.271999],[138.547733,-35.27206],[138.544754,-35.272198]]}},{"type":"Feature","properties":{"tier":"arterial"},"geometry":{"type":"LineString","coordinates":[[138.628878,-35.498648],[138.628379,-35.498596],[138.628073,-35.498561],[138.627821,-35.498519],[138.627534,-35.498436],[138.627277,-35.498323],[138.627033,-35.498183],[138.62685,-35.498052],[138.62674,-35.497943],[138.624658,-35.495557],[138.619718,-35.489821],[138.619634,-35.489725],[138.617985,-35.487822],[138.616427,-35.485851],[138.615391,-35.484543],[138.614148,-35.483139],[138.613392,-35.482638],[138.613017,-35.482418],[138.612506,-35.482151],[138.61224,-35.482015],[138.612016,-35.481899],[138.611557,-35.481657],[138.610691,-35.48116],[138.609319,-35.480324],[138.608886,-35.47998],[138.608652,-35.479692],[138.608502,-35.479427],[138.608394,-35.479126],[138.608336,-35.478882],[138.60829,-35.478488],[138.60824,-35.47759],[138.608162,-35.477361],[138.607385,-35.475967],[138.607234,-35.475772],[138.60701,-35.47554],[138.606822,-35.475378],[138.606606,-35.475215],[138.606397,-35.475083],[138.606181,-35.474971],[138.605727,-35.474758],[138.605378,-35.474585],[138.605157,-35.474449],[138.604937,-35.474286],[138.604672,-35.474063],[138.604455,-35.473827],[138.604277,-35.473591],[138.604109,-35.473318],[138.603993,-35.473062],[138.603933,-35.472844],[138.603887,-35.472609],[138.603864,-35.472407],[138.60386,-35.472195],[138.603867,-35.472006],[138.603896,-35.471813],[138.603962,-35.471597],[138.604224,-35.470902],[138.604235,-35.470871],[138.604432,-35.470323],[138.604992,-35.468856],[138.60557,-35.4673],[138.605638,-35.467061],[138.605701,-35.466816],[138.605746,-35.466624],[138.605754,-35.466426],[138.605752,-35.466259],[138.605655,-35.465407],[138.605395,-35.4638],[138.605275,-35.463025],[138.605239,-35.462762],[138.605225,-35.462522],[138.605237,-35.462268],[138.605271,-35.462082],[138.605407,-35.461394],[138.605534,-35.460673],[138.605577,-35.460346],[138.605574,-35.460119],[138.605552,-35.459901],[138.605504,-35.45965],[138.605422,-35.459362],[138.604901,-35.457684],[138.604849,-35.457475],[138.604814,-35.457288],[138.604785,-35.457048],[138.604785,-35.456831],[138.604805,-35.456592],[138.604848,-35.456363],[138.604917,-35.456128],[138.605101,-35.45575],[138.606151,-35.454199],[138.606303,-35.453954],[138.60643,-35.453677],[138.606529,-35.453397],[138.60659,-35.453091],[138.606605,-35.452864],[138.606567,-35.452184],[138.606507,-35.45138],[138.606479,-35.451076],[138.606434,-35.450857],[138.606336,-35.450599],[138.606237,-35.450381],[138.606101,-35.450164],[138.605958,-35.449981],[138.605702,-35.449716],[138.604517,-35.448517],[138.604361,-35.44834],[138.604245,-35.448174],[138.604128,-35.447953],[138.603903,-35.447221],[138.603457,-35.44574],[138.60313,-35.444616],[138.602788,-35.443459],[138.602693,-35.44321],[138.60258,-35.442986],[138.602446,-35.442747],[138.602284,-35.442541],[138.602056,-35.442301],[138.601829,-35.442097],[138.60161,-35.441947],[138.601315,-35.441778],[138.601131,-35.441683],[138.60063,-35.441474],[138.599042,-35.440805],[138.596939,-35.439913],[138.596708,-35.439801],[138.596531,-35.439703],[138.596349,-35.439578],[138.596194,-35.439458],[138.596035,-35.439324],[138.595556,-35.438838],[138.595321,-35.438607],[138.594492,-35.437872],[138.593686,-35.437185],[138.593545,-35.437069],[138.593363,-35.436934],[138.593154,-35.436802],[138.591844,-35.436061],[138.59164,-35.43593],[138.591613,-35.435911],[138.591471,-35.435808],[138.591294,-35.435659],[138.591146,-35.435507],[138.590904,-35.435241],[138.589349,-35.433478],[138.5891,-35.433192],[138.588918,-35.433037],[138.588731,-35.432906],[138.588498,-35.432766],[138.58814,-35.432564],[138.587661,-35.432322],[138.586195,-35.431568],[138.584829,-35.430835],[138.583998,-35.43035],[138.583604,-35.43011],[138.583382,-35.429936],[138.583213,-35.429774],[138.583068,-35.429604],[138.58295,-35.42942],[138.582865,-35.429258],[138.582813,-35.429106],[138.582767,-35.428885],[138.582729,-35.428724],[138.582679,-35.428525],[138.582607,-35.428337],[138.582545,-35.428216],[138.582414,-35.428015],[138.582236,-35.427793],[138.582095,-35.427665],[138.581978,-35.427571],[138.581842,-35.427479],[138.581638,-35.427367],[138.581035,-35.427099],[138.580822,-35.427011]]}},{"type":"Feature","properties":{"tier":"arterial"},"geometry":{"type":"LineString","coordinates":[[138.60161,-35.441947],[138.60189,-35.441835],[138.602082,-35.441741],[138.602235,-35.441635],[138.602962,-35.440944],[138.603457,-35.440318],[138.603642,-35.440096],[138.603771,-35.439949],[138.603994,-35.439708],[138.604138,-35.439526],[138.604268,-35.439379],[138.604321,-35.439315],[138.604442,-35.439174],[138.604593,-35.439],[138.604673,-35.438908],[138.604865,-35.438696],[138.604955,-35.438604],[138.605042,-35.43853],[138.605143,-35.438455],[138.605241,-35.438388],[138.605319,-35.438338],[138.605407,-35.438288],[138.60552,-35.438226],[138.605612,-35.43817],[138.605724,-35.438115],[138.605909,-35.438031],[138.6063,-35.437863],[138.606456,-35.437801],[138.606696,-35.437718],[138.606751,-35.437701],[138.606949,-35.437657],[138.607035,-35.437646],[138.60716,-35.437636],[138.607224,-35.437637],[138.607314,-35.437643],[138.607405,-35.437653],[138.60749,-35.43767],[138.607558,-35.437691],[138.607641,-35.437719],[138.60771,-35.437743],[138.607994,-35.437852],[138.608144,-35.437908],[138.608352,-35.437985],[138.609004,-35.438229],[138.609877,-35.438556],[138.610031,-35.438615],[138.610353,-35.438735],[138.610564,-35.438818],[138.610817,-35.438914],[138.61125,-35.439081],[138.611343,-35.439115],[138.611416,-35.439139],[138.611473,-35.439157],[138.611543,-35.439175],[138.611598,-35.439189],[138.611708,-35.439213],[138.611972,-35.439258],[138.612583,-35.439368],[138.613147,-35.439468],[138.613289,-35.439494],[138.613568,-35.439545],[138.613781,-35.439582],[138.614046,-35.43962],[138.614147,-35.439631],[138.614462,-35.439695],[138.614885,-35.439769],[138.615011,-35.439791],[138.615096,-35.439805],[138.61522,-35.439821],[138.615483,-35.439865],[138.615534,-35.439876],[138.615763,-35.439921],[138.616497,-35.440051],[138.616738,-35.440092],[138.617085,-35.440157],[138.617482,-35.440225],[138.617616,-35.440251],[138.61787,-35.440296],[138.618365,-35.440388],[138.618664,-35.440436],[138.618908,-35.440477],[138.61931,-35.440547],[138.620316,-35.440727],[138.62118,-35.440868],[138.621335,-35.440897],[138.621542,-35.440925],[138.621857,-35.440978],[138.622263,-35.441049],[138.622687,-35.441127],[138.623091,-35.441203],[138.623283,-35.441231],[138.623464,-35.441261],[138.623598,-35.441283],[138.623698,-35.4413],[138.623785,-35.441315],[138.623881,-35.441333],[138.623954,-35.441348],[138.624048,-35.441368],[138.624132,-35.441388],[138.624185,-35.441405],[138.624237,-35.441426],[138.624297,-35.441451],[138.624339,-35.441473],[138.62438,-35.441497],[138.624435,-35.441532],[138.624487,-35.441567],[138.624541,-35.441612],[138.624971,-35.441966],[138.62533,-35.442249],[138.625469,-35.442371],[138.625738,-35.4426],[138.625921,-35.44275],[138.626155,-35.442941],[138.626562,-35.443298],[138.627004,-35.443654],[138.627427,-35.444013],[138.627562,-35.444129],[138.627879,-35.444401],[138.628227,-35.444725],[138.628703,-35.445087],[138.628894,-35.445233],[138.628992,-35.445317],[138.629041,-35.445364],[138.629091,-35.445422],[138.629126,-35.445471],[138.629159,-35.445527],[138.62919,-35.445584],[138.629213,-35.445645],[138.62923,-35.445707],[138.629248,-35.445786],[138.629263,-35.445859],[138.629314,-35.446246],[138.629359,-35.446639],[138.629397,-35.447004],[138.629424,-35.44718],[138.629448,-35.447389],[138.62948,-35.447708],[138.629499,-35.447824],[138.629529,-35.448068],[138.629583,-35.448448],[138.629629,-35.448801],[138.629653,-35.448854],[138.629715,-35.448974],[138.629852,-35.449171],[138.629986,-35.449322],[138.630176,-35.449495],[138.630351,-35.449641],[138.631788,-35.450707],[138.631906,-35.450779],[138.632027,-35.450838],[138.632134,-35.450869],[138.632236,-35.450895],[138.632424,-35.45093],[138.634345,-35.451284],[138.635452,-35.451483],[138.635648,-35.451533],[138.635806,-35.451594],[138.635943,-35.451686],[138.636051,-35.45176],[138.636136,-35.451846],[138.636203,-35.451959],[138.636249,-35.452051],[138.636287,-35.452189],[138.636498,-35.453058],[138.636549,-35.453202],[138.636649,-35.453353],[138.636756,-35.453482],[138.636914,-35.453626],[138.63708,-35.453733],[138.637209,-35.453799],[138.637335,-35.453851],[138.637484,-35.453901],[138.637632,-35.453935],[138.638093,-35.454003],[138.638711,-35.454098],[138.639258,-35.454186],[138.639701,-35.454247],[138.639869,-35.454271],[138.640473,-35.454365],[138.640873,-35.454417],[138.641025,-35.454429],[138.641121,-35.454431],[138.641279,-35.454425],[138.641902,-35.454341],[138.642098,-35.454304],[138.642294,-35.454268],[138.64255,-35.45422],[138.642689,-35.454175],[138.642882,-35.454107],[138.642983,-35.454071],[138.643099,-35.454023],[138.643229,-35.453967],[138.643385,-35.453911],[138.643561,-35.453858],[138.643853,-35.453778]]}},{"type":"Feature","properties":{"tier":"high"},"geometry":{"type":"LineString","coordinates":[[138.621754,-35.350881],[138.621736,-35.35074],[138.621423,-35.349476],[138.62134,-35.349119],[138.621277,-35.348953],[138.621222,-35.34883],[138.621054,-35.348433],[138.621017,-35.34838],[138.620646,-35.347839],[138.620532,-35.347732],[138.620508,-35.347712],[138.620042,-35.347308]]}},{"type":"Feature","properties":{"tier":"high"},"geometry":{"type":"LineString","coordinates":[[138.623232,-35.357154],[138.622296,-35.353141],[138.621754,-35.350881]]}},{"type":"Feature","properties":{"tier":"high"},"geometry":{"type":"LineString","coordinates":[[138.617974,-35.346303],[138.617143,-35.345943],[138.617009,-35.345877],[138.61655,-35.34561],[138.61634,-35.345467],[138.616127,-35.345297],[138.615506,-35.344802],[138.615154,-35.344523],[138.614883,-35.344327],[138.61476,-35.344244],[138.61463,-35.344171],[138.614383,-35.344055],[138.614198,-35.343976],[138.613877,-35.343847],[138.613676,-35.343766],[138.613441,-35.343697],[138.613174,-35.343616],[138.612834,-35.343544],[138.612545,-35.343495],[138.612194,-35.34345],[138.611935,-35.343436],[138.611522,-35.343438],[138.611055,-35.343435],[138.610012,-35.343471]]}},{"type":"Feature","properties":{"tier":"high"},"geometry":{"type":"LineString","coordinates":[[138.610012,-35.343471],[138.609211,-35.343511],[138.608914,-35.343517],[138.60807,-35.34354],[138.606379,-35.343559],[138.605907,-35.343528],[138.605478,-35.343473],[138.605201,-35.343448],[138.604832,-35.343385],[138.604468,-35.34331],[138.603984,-35.343183],[138.603485,-35.343005],[138.602788,-35.342689],[138.602457,-35.3425]]}},{"type":"Feature","properties":{"tier":"regional"},"geometry":{"type":"LineString","coordinates":[[138.625314,-35.365244],[138.626632,-35.364975],[138.627257,-35.364854],[138.628624,-35.364201],[138.629011,-35.364159],[138.629347,-35.364179],[138.629828,-35.364384]]}},{"type":"Feature","properties":{"tier":"arterial"},"geometry":{"type":"LineString","coordinates":[[138.629534,-35.37828],[138.629743,-35.378278],[138.629913,-35.378296],[138.630049,-35.37833],[138.630288,-35.378424],[138.630519,-35.378545],[138.630906,-35.378756],[138.631602,-35.379123],[138.632073,-35.379295],[138.632401,-35.379351],[138.634858,-35.379545],[138.634993,-35.379557],[138.635759,-35.379617],[138.636219,-35.379695],[138.638541,-35.380196],[138.639399,-35.380455],[138.639847,-35.380614],[138.640244,-35.380789],[138.640559,-35.380951],[138.640959,-35.381158],[138.641319,-35.381354],[138.641655,-35.381551],[138.642004,-35.381767],[138.642409,-35.382047],[138.642809,-35.382348],[138.645053,-35.384786],[138.645529,-35.385131],[138.646001,-35.38539],[138.647156,-35.385835],[138.6495,-35.387095],[138.652224,-35.388554],[138.652914,-35.389019],[138.653531,-35.389488],[138.654225,-35.39004],[138.654734,-35.390492],[138.654915,-35.390683],[138.655103,-35.390923],[138.65542,-35.391353],[138.656429,-35.392718],[138.657537,-35.394226],[138.658051,-35.394811],[138.659033,-35.395643],[138.659578,-35.396097],[138.65986,-35.396306],[138.661799,-35.397927],[138.662201,-35.398294],[138.662607,-35.398782],[138.66391,-35.400859],[138.664232,-35.401328],[138.66472,-35.401759],[138.665271,-35.4021],[138.665835,-35.402335],[138.666461,-35.402499],[138.671147,-35.403533],[138.671403,-35.403603],[138.671676,-35.403703],[138.672126,-35.403917],[138.672545,-35.404222],[138.672816,-35.404481],[138.672903,-35.404568],[138.673012,-35.404696],[138.673664,-35.405467],[138.673999,-35.405786],[138.674391,-35.406056],[138.675982,-35.406948],[138.680448,-35.409378],[138.68088,-35.409626],[138.681328,-35.40991],[138.681499,-35.410048],[138.681623,-35.410157],[138.681718,-35.410246],[138.681884,-35.410417],[138.682809,-35.411621],[138.684187,-35.413383],[138.684806,-35.414164],[138.684937,-35.414295],[138.685072,-35.414418],[138.685218,-35.414543],[138.685352,-35.414646],[138.685567,-35.414792],[138.685921,-35.414987],[138.69016,-35.417288],[138.690491,-35.417488],[138.693661,-35.419816],[138.697863,-35.422912],[138.699384,-35.42406],[138.700135,-35.424631],[138.700469,-35.424994],[138.70089,-35.425505],[138.701248,-35.425997],[138.701324,-35.426148],[138.70138,-35.426316],[138.701386,-35.426693],[138.701217,-35.427531],[138.701189,-35.427864],[138.701281,-35.428152],[138.701364,-35.428293],[138.701465,-35.428434],[138.701707,-35.428621],[138.701882,-35.428711],[138.702097,-35.428797],[138.702332,-35.428851],[138.70424,-35.429125],[138.704885,-35.429224],[138.705546,-35.429374],[138.705897,-35.429475],[138.706439,-35.429667],[138.706932,-35.429877],[138.707607,-35.430252],[138.708316,-35.430769],[138.709459,-35.431902],[138.710196,-35.432739],[138.710357,-35.433045],[138.710654,-35.433752],[138.710858,-35.434012],[138.711013,-35.434104],[138.711068,-35.434133],[138.711281,-35.434205],[138.711409,-35.43423],[138.711628,-35.43425],[138.711757,-35.434242],[138.712077,-35.434188],[138.712875,-35.434076],[138.713725,-35.433928],[138.716155,-35.433724],[138.716476,-35.433716],[138.716682,-35.433746],[138.716787,-35.433762],[138.71708,-35.433859],[138.717233,-35.433926],[138.717435,-35.43404],[138.717661,-35.43423],[138.717943,-35.43462],[138.718139,-35.434972],[138.718972,-35.436267],[138.719858,-35.437838],[138.720093,-35.438316],[138.720192,-35.438754],[138.720184,-35.438926]]}},{"type":"Feature","properties":{"tier":"arterial"},"geometry":{"type":"LineString","coordinates":[[138.620508,-35.347712],[138.621473,-35.347127],[138.621533,-35.347091],[138.622119,-35.346736],[138.622419,-35.346593],[138.622682,-35.346499],[138.622962,-35.346434],[138.623247,-35.346407],[138.623525,-35.346401],[138.623794,-35.346426],[138.624165,-35.346484],[138.625801,-35.346793],[138.626261,-35.346887],[138.6266,-35.34697],[138.627005,-35.34709],[138.627276,-35.347183],[138.629357,-35.347986],[138.630529,-35.348444],[138.632259,-35.349111],[138.632623,-35.349254],[138.632928,-35.349352],[138.633204,-35.34942],[138.633501,-35.349473],[138.633755,-35.349499],[138.634002,-35.349514],[138.634274,-35.34951],[138.634561,-35.349477],[138.634837,-35.349429],[138.636167,-35.349097],[138.638302,-35.348535],[138.638711,-35.348449],[138.639129,-35.348379],[138.639556,-35.348336],[138.642781,-35.348075],[138.643199,-35.348021],[138.643427,-35.347972],[138.643641,-35.347912],[138.643897,-35.347827],[138.644228,-35.34771],[138.645828,-35.347112],[138.646052,-35.347015],[138.646273,-35.346905],[138.646465,-35.346796],[138.646659,-35.346671],[138.646863,-35.34651],[138.647095,-35.346279],[138.648304,-35.344963],[138.648874,-35.344326],[138.649093,-35.344051],[138.649256,-35.343803],[138.649413,-35.34349],[138.649601,-35.343061],[138.649791,-35.342643],[138.649944,-35.342365],[138.650097,-35.342121],[138.650402,-35.34174],[138.650586,-35.341555],[138.650793,-35.341369],[138.651046,-35.341167],[138.651326,-35.340975],[138.651668,-35.340777],[138.652055,-35.340601],[138.652322,-35.3405],[138.652632,-35.3404],[138.653085,-35.34028],[138.653729,-35.340133],[138.654313,-35.339992],[138.65735,-35.339287],[138.657375,-35.339281],[138.658509,-35.339016],[138.659308,-35.33883],[138.659573,-35.338781],[138.659858,-35.338752],[138.660134,-35.338745],[138.660413,-35.338757],[138.660678,-35.338788],[138.660958,-35.338835],[138.661251,-35.338909],[138.661554,-35.339017],[138.661765,-35.339116],[138.661968,-35.339225],[138.662185,-35.339359],[138.662377,-35.339499],[138.662579,-35.339673],[138.662734,-35.33982],[138.662967,-35.340123],[138.663079,-35.340299],[138.663166,-35.340485],[138.663253,-35.340713],[138.663336,-35.34105],[138.663408,-35.341493],[138.66358,-35.342677],[138.663617,-35.342863],[138.66367,-35.343012],[138.663755,-35.343169],[138.663865,-35.343301],[138.663992,-35.343431],[138.664133,-35.343533],[138.664283,-35.343617],[138.664484,-35.343694],[138.66472,-35.343746],[138.665044,-35.343795],[138.666788,-35.343836]]}},{"type":"Feature","properties":{"tier":"regional"},"geometry":{"type":"LineString","coordinates":[[138.581502,-35.322581],[138.583057,-35.321749],[138.58581,-35.320088],[138.58631,-35.319813],[138.586727,-35.319624],[138.587045,-35.319507],[138.58742,-35.319405],[138.587661,-35.31935],[138.588005,-35.319293],[138.588053,-35.319285],[138.588472,-35.31924],[138.588864,-35.319234],[138.589216,-35.31925],[138.589621,-35.319286],[138.591118,-35.319428],[138.591574,-35.319442],[138.592006,-35.319438],[138.596363,-35.319317],[138.598576,-35.319262],[138.60035,-35.319218],[138.601007,-35.319173],[138.60173,-35.319104],[138.602941,-35.318969],[138.603633,-35.318898],[138.604069,-35.31887],[138.604396,-35.318867],[138.604705,-35.318883],[138.605211,-35.318931],[138.605498,-35.318973],[138.606453,-35.319153],[138.6079,-35.319411],[138.608724,-35.319523],[138.61027,-35.319674],[138.611642,-35.319818],[138.612323,-35.31988],[138.612778,-35.319909],[138.613151,-35.319905],[138.614576,-35.31983],[138.615314,-35.319774],[138.615991,-35.319699],[138.620527,-35.319052],[138.622303,-35.318807],[138.624042,-35.318562],[138.627572,-35.318064],[138.633981,-35.3172]]}},{"type":"Feature","properties":{"tier":"arterial"},"geometry":{"type":"LineString","coordinates":[[138.580708,-35.292666],[138.580805,-35.29287],[138.581476,-35.294547],[138.581596,-35.294852],[138.581694,-35.29505],[138.582193,-35.295831],[138.582243,-35.295941],[138.582283,-35.296064],[138.582296,-35.29618],[138.58229,-35.296291],[138.582258,-35.296428],[138.58218,-35.296559],[138.582061,-35.296673],[138.581933,-35.296786],[138.581499,-35.297033]]}},{"type":"Feature","properties":{"tier":"high"},"geometry":{"type":"LineString","coordinates":[[138.581499,-35.297033],[138.581066,-35.29644],[138.580719,-35.296004],[138.580408,-35.295624],[138.579671,-35.294681],[138.579222,-35.294109],[138.57851,-35.293229],[138.578024,-35.292591],[138.577771,-35.29228],[138.577027,-35.291342],[138.576478,-35.29069],[138.575962,-35.290042],[138.575377,-35.289298],[138.574853,-35.28873],[138.574234,-35.2882],[138.573919,-35.287956],[138.573625,-35.287754],[138.573004,-35.287375],[138.572591,-35.287148],[138.572225,-35.286972],[138.571791,-35.286784]]}},{"type":"Feature","properties":{"tier":"high"},"geometry":{"type":"LineString","coordinates":[[138.582232,-35.309716],[138.582347,-35.309133],[138.582472,-35.308551],[138.582623,-35.30769],[138.582808,-35.306764],[138.582984,-35.305829],[138.58308,-35.305293],[138.583182,-35.304719],[138.58336,-35.303534],[138.583396,-35.302934],[138.583412,-35.302509],[138.583411,-35.302236],[138.583372,-35.301751],[138.583306,-35.301229],[138.583246,-35.3009],[138.583178,-35.300584],[138.583081,-35.300243],[138.582989,-35.299935]]}},{"type":"Feature","properties":{"tier":"high"},"geometry":{"type":"LineString","coordinates":[[138.539371,-35.272695],[138.539005,-35.272122]]}},{"type":"Feature","properties":{"tier":"high"},"geometry":{"type":"LineString","coordinates":[[138.538792,-35.271804],[138.538617,-35.271477],[138.538107,-35.2707]]}},{"type":"Feature","properties":{"tier":"regional"},"geometry":{"type":"LineString","coordinates":[[138.58242,-35.291023],[138.582385,-35.290946],[138.582377,-35.290878],[138.5824,-35.29081],[138.582511,-35.290591],[138.582566,-35.290482],[138.582884,-35.289921],[138.583416,-35.289011],[138.585502,-35.285424],[138.586103,-35.284548],[138.586772,-35.283714],[138.587339,-35.283189],[138.587759,-35.282894],[138.588266,-35.282649],[138.589278,-35.282194],[138.589587,-35.281998],[138.589931,-35.281668],[138.59018,-35.281248],[138.591458,-35.278957],[138.592137,-35.277814],[138.592488,-35.277464],[138.592576,-35.277379],[138.592655,-35.2773],[138.592737,-35.277219],[138.594222,-35.276014],[138.596402,-35.274157],[138.597457,-35.273312],[138.59817,-35.272741],[138.59838,-35.272543],[138.598908,-35.272041],[138.599183,-35.271508],[138.599621,-35.270534],[138.599921,-35.269931],[138.600239,-35.269553],[138.600479,-35.269364],[138.600908,-35.269111],[138.601372,-35.268838],[138.601732,-35.268572],[138.602213,-35.268137],[138.603312,-35.267156],[138.604324,-35.266189],[138.605019,-35.265585],[138.605569,-35.265117],[138.605887,-35.264984],[138.607286,-35.26443],[138.607629,-35.264143],[138.610393,-35.26183],[138.611302,-35.261164],[138.611543,-35.260919],[138.611594,-35.260716],[138.611619,-35.260585],[138.611766,-35.259798],[138.611972,-35.259069],[138.612092,-35.258817],[138.613096,-35.257948],[138.613483,-35.257625],[138.613732,-35.257541],[138.613963,-35.257499],[138.614341,-35.257492],[138.614684,-35.257499],[138.614993,-35.257478],[138.615242,-35.257331],[138.615422,-35.257148],[138.615766,-35.256518],[138.616358,-35.255466],[138.617336,-35.253868],[138.61768,-35.253203],[138.617937,-35.25246],[138.618469,-35.250925],[138.618789,-35.24998]]}},{"type":"Feature","properties":{"tier":"arterial"},"geometry":{"type":"LineString","coordinates":[[138.556781,-35.273244],[138.556951,-35.273338],[138.557334,-35.273547],[138.557793,-35.273784]]}},{"type":"Feature","properties":{"tier":"arterial"},"geometry":{"type":"LineString","coordinates":[[138.592815,-35.462753],[138.592257,-35.46248],[138.591707,-35.462263],[138.591347,-35.4619],[138.591192,-35.461522],[138.591261,-35.461019],[138.591381,-35.460173],[138.591519,-35.459795],[138.591767,-35.459243],[138.591733,-35.458984],[138.591647,-35.458523],[138.591664,-35.458278],[138.59181,-35.457999],[138.592068,-35.457565],[138.592428,-35.45688],[138.592514,-35.456461],[138.592626,-35.455908],[138.592887,-35.455146],[138.593098,-35.454727],[138.593244,-35.454524],[138.593439,-35.454284],[138.593534,-35.454156],[138.593557,-35.45402],[138.593501,-35.453433],[138.593536,-35.452972],[138.59345,-35.452489],[138.593106,-35.451336],[138.592746,-35.450357],[138.592111,-35.449644],[138.591973,-35.449217],[138.591776,-35.448245],[138.591757,-35.447921],[138.591733,-35.447511],[138.591939,-35.446735],[138.592137,-35.446232],[138.592437,-35.44591],[138.592832,-35.445364],[138.592995,-35.445001],[138.593209,-35.444225],[138.593321,-35.443463],[138.59351,-35.443078],[138.59393,-35.44256],[138.594257,-35.442141],[138.59448,-35.441547],[138.594634,-35.440847],[138.594926,-35.439959],[138.595325,-35.439091],[138.595556,-35.438838]]}},{"type":"Feature","properties":{"tier":"arterial"},"geometry":{"type":"LineString","coordinates":[[138.545613,-35.50002],[138.546123,-35.499593],[138.546486,-35.499245],[138.546612,-35.499119],[138.547101,-35.49851],[138.54721,-35.498326],[138.547451,-35.498038],[138.547811,-35.497734],[138.548079,-35.497608],[138.548364,-35.497435],[138.548929,-35.497133],[138.549551,-35.496723],[138.550697,-35.495994],[138.552423,-35.494604],[138.552486,-35.494554],[138.552586,-35.494476],[138.554706,-35.492815],[138.554982,-35.492622],[138.555307,-35.492395],[138.555779,-35.492186],[138.556669,-35.491906],[138.556836,-35.491853],[138.557349,-35.491703],[138.557727,-35.491445],[138.557864,-35.491277],[138.558062,-35.490844],[138.558569,-35.489747],[138.558765,-35.48932],[138.559349,-35.488028],[138.559796,-35.487014],[138.560087,-35.486735],[138.560311,-35.486595],[138.560928,-35.48635],[138.561564,-35.48605],[138.561847,-35.485819],[138.56213,-35.485288],[138.562405,-35.484694],[138.562542,-35.483995],[138.562743,-35.482875],[138.56286,-35.482227],[138.563006,-35.481626],[138.563229,-35.481367],[138.563624,-35.481018],[138.563984,-35.480717],[138.564345,-35.480514],[138.56455,-35.480402],[138.56504,-35.480291],[138.565572,-35.48013],[138.566121,-35.479997],[138.566439,-35.47999],[138.566731,-35.480067],[138.567263,-35.480214],[138.567975,-35.480389],[138.56855,-35.480577],[138.568851,-35.480598],[138.568969,-35.48057],[138.569057,-35.480549],[138.569485,-35.480211],[138.570164,-35.479793],[138.570322,-35.479587],[138.570495,-35.479165]]}},{"type":"Feature","properties":{"tier":"regional"},"geometry":{"type":"LineString","coordinates":[[138.648957,-35.461919],[138.649083,-35.461886],[138.64918,-35.461877],[138.64933,-35.461886],[138.649561,-35.461928],[138.649933,-35.46203],[138.650441,-35.462172],[138.651205,-35.462403],[138.651637,-35.462557],[138.65198,-35.462727],[138.652846,-35.463407],[138.65432,-35.464609],[138.654542,-35.464782],[138.655671,-35.465604],[138.655786,-35.465669],[138.655896,-35.465711],[138.656947,-35.465884],[138.657875,-35.466],[138.658176,-35.466098],[138.658329,-35.466188],[138.658452,-35.466343],[138.658535,-35.466485],[138.658704,-35.467029],[138.658881,-35.46752],[138.65919,-35.468248],[138.659756,-35.469119],[138.660689,-35.470596],[138.661298,-35.471524],[138.661464,-35.471728],[138.661593,-35.471855],[138.661633,-35.471895],[138.661864,-35.472124],[138.662234,-35.47249],[138.662768,-35.473108],[138.662854,-35.473202],[138.662905,-35.473283],[138.662918,-35.473416],[138.662929,-35.473956],[138.662937,-35.47491],[138.662934,-35.475148],[138.662921,-35.475371],[138.662862,-35.475482],[138.662325,-35.476162],[138.661593,-35.477116],[138.661505,-35.477269],[138.661405,-35.477719],[138.661311,-35.478133],[138.661177,-35.478715],[138.660698,-35.48064],[138.660532,-35.481874],[138.660472,-35.482326],[138.660428,-35.482658],[138.660346,-35.483293],[138.660244,-35.484226],[138.660091,-35.485554],[138.660075,-35.485654],[138.660008,-35.485781],[138.659724,-35.486073],[138.659241,-35.486598],[138.659118,-35.486876],[138.65904,-35.48713],[138.658613,-35.488415],[138.65835,-35.489216],[138.658144,-35.489817],[138.657755,-35.491081],[138.657613,-35.491699],[138.657387,-35.493088],[138.657265,-35.493682],[138.657103,-35.494811],[138.657107,-35.494985],[138.657108,-35.495193],[138.657132,-35.495418],[138.657192,-35.495637],[138.657261,-35.495824],[138.657421,-35.496116],[138.657452,-35.496172],[138.657548,-35.496259],[138.657623,-35.496318],[138.65776,-35.496388],[138.659166,-35.496849],[138.660136,-35.497183],[138.662752,-35.498069],[138.663108,-35.498192],[138.663294,-35.498257],[138.663463,-35.498357],[138.663723,-35.498576],[138.663913,-35.498746],[138.664906,-35.499659],[138.665302,-35.50002]]}},{"type":"Feature","properties":{"tier":"regional"},"geometry":{"type":"LineString","coordinates":[[138.520462,-35.24998],[138.52062,-35.252136],[138.520623,-35.252176],[138.520627,-35.252243],[138.521106,-35.259156],[138.52135,-35.262668],[138.522125,-35.273298],[138.522128,-35.273337],[138.522131,-35.273376]]}},{"type":"Feature","properties":{"tier":"arterial"},"geometry":{"type":"LineString","coordinates":[[138.554252,-35.27168],[138.554245,-35.271131],[138.554227,-35.270924],[138.554151,-35.270045],[138.554114,-35.269516],[138.554101,-35.269354],[138.55406,-35.268848],[138.554004,-35.268305]]}},{"type":"Feature","properties":{"tier":"high"},"geometry":{"type":"LineString","coordinates":[[138.55523,-35.278933],[138.554207,-35.278744]]}},{"type":"Feature","properties":{"tier":"high"},"geometry":{"type":"LineString","coordinates":[[138.554207,-35.278744],[138.553344,-35.278649],[138.551205,-35.278416],[138.550791,-35.278355],[138.549423,-35.278208],[138.548758,-35.278122],[138.547768,-35.27795],[138.547133,-35.277808],[138.546456,-35.277623],[138.545835,-35.277412],[138.545366,-35.277249],[138.544907,-35.277059],[138.54456,-35.276911]]}},{"type":"Feature","properties":{"tier":"regional"},"geometry":{"type":"LineString","coordinates":[[138.71685,-35.274262],[138.717154,-35.274686],[138.717189,-35.274939],[138.71737,-35.275116],[138.717918,-35.275195],[138.718194,-35.2754],[138.718178,-35.276113],[138.718204,-35.276607],[138.71808,-35.2769],[138.717468,-35.277606],[138.717445,-35.277763],[138.717541,-35.277909],[138.718478,-35.278338],[138.71886,-35.278657],[138.718942,-35.278873],[138.718882,-35.279087],[138.718511,-35.279313],[138.71844,-35.279533],[138.718614,-35.279919],[138.718738,-35.280067],[138.719007,-35.280179],[138.719808,-35.280152],[138.71999,-35.280182],[138.7202,-35.280252],[138.7207,-35.28068],[138.721013,-35.280783],[138.721384,-35.280799],[138.721663,-35.280768],[138.721984,-35.280614],[138.722282,-35.280175],[138.722534,-35.279942],[138.722881,-35.279784],[138.723255,-35.279709],[138.724315,-35.279525],[138.725099,-35.279356],[138.725479,-35.279242],[138.725804,-35.279039],[138.726742,-35.278188],[138.727769,-35.277626],[138.728361,-35.27721],[138.729034,-35.276835],[138.729909,-35.276415],[138.730678,-35.276049],[138.731207,-35.275791],[138.73239,-35.275249],[138.73327,-35.274887],[138.734211,-35.274572],[138.735036,-35.274294],[138.735272,-35.274082],[138.735649,-35.273504],[138.736124,-35.273085],[138.737389,-35.271999],[138.738227,-35.271395],[138.740604,-35.270052],[138.741178,-35.269792],[138.741588,-35.269485],[138.741745,-35.269186],[138.742035,-35.26839],[138.742153,-35.26815],[138.742369,-35.267793],[138.743724,-35.265861],[138.744484,-35.26543],[138.745915,-35.264705],[138.746559,-35.264388],[138.746768,-35.264249],[138.74697,-35.264038],[138.74718,-35.263838],[138.747375,-35.263765],[138.747615,-35.263809],[138.747788,-35.263898],[138.74794,-35.26405],[138.748123,-35.264319],[138.748266,-35.264441],[138.748511,-35.264471],[138.748709,-35.264369],[138.749094,-35.263989],[138.749477,-35.263585],[138.749855,-35.263206],[138.75002,-35.263109]]}},{"type":"Feature","properties":{"tier":"high"},"geometry":{"type":"LineString","coordinates":[[138.526419,-35.24998],[138.526423,-35.250034],[138.526493,-35.250699],[138.526637,-35.251421],[138.526869,-35.252147],[138.527009,-35.252474],[138.527097,-35.25265],[138.527173,-35.25281],[138.527522,-35.253437],[138.527912,-35.254079],[138.528773,-35.255485],[138.532262,-35.261179],[138.533995,-35.263967],[138.534238,-35.264368]]}},{"type":"Feature","properties":{"tier":"arterial"},"geometry":{"type":"LineString","coordinates":[[138.537486,-35.251309],[138.542934,-35.25102],[138.545312,-35.250893],[138.550517,-35.250617],[138.552573,-35.250507],[138.552684,-35.250502]]}},{"type":"Feature","properties":{"tier":"high"},"geometry":{"type":"LineString","coordinates":[[138.534696,-35.265123],[138.534827,-35.265237],[138.535271,-35.265963],[138.535625,-35.26655],[138.535732,-35.266728],[138.536492,-35.267936],[138.537285,-35.269258],[138.537887,-35.270266],[138.538107,-35.2707]]}},{"type":"Feature","properties":{"tier":"high"},"geometry":{"type":"LineString","coordinates":[[138.538107,-35.2707],[138.537832,-35.270283],[138.53721,-35.269289],[138.536637,-35.268376],[138.5365,-35.268167],[138.53637,-35.267968],[138.536114,-35.267522],[138.535914,-35.267196],[138.53576,-35.266967],[138.53574,-35.266933],[138.535639,-35.266758],[138.535198,-35.265989],[138.534761,-35.26526],[138.534696,-35.265123]]}},{"type":"Feature","properties":{"tier":"high"},"geometry":{"type":"LineString","coordinates":[[138.536492,-35.267936],[138.536795,-35.268312],[138.537411,-35.269188],[138.537679,-35.2695],[138.537991,-35.269792],[138.538197,-35.26996],[138.538484,-35.270156],[138.539483,-35.270712],[138.53979,-35.270928],[138.539986,-35.271129],[138.54012,-35.271388],[138.540178,-35.271694],[138.540217,-35.272266],[138.54023,-35.272456]]}},{"type":"Feature","properties":{"tier":"high"},"geometry":{"type":"LineString","coordinates":[[138.537009,-35.272587],[138.537,-35.272459],[138.536905,-35.270985],[138.536766,-35.269411],[138.536718,-35.269138],[138.536651,-35.268836],[138.536452,-35.268283],[138.536285,-35.267904],[138.53576,-35.266967]]}},{"type":"Feature","properties":{"tier":"high"},"geometry":{"type":"LineString","coordinates":[[138.538792,-35.271804],[138.53828,-35.271187],[138.538096,-35.271055],[138.537899,-35.270969],[138.537701,-35.27092],[138.537521,-35.270913],[138.537349,-35.270962],[138.537219,-35.27104],[138.537103,-35.271155],[138.537027,-35.271271],[138.537003,-35.271389],[138.537003,-35.271511]]}},{"type":"Feature","properties":{"tier":"high"},"geometry":{"type":"LineString","coordinates":[[138.537052,-35.272099],[138.53713,-35.27229],[138.537179,-35.272375],[138.537207,-35.272398],[138.537262,-35.272442],[138.53735,-35.272488],[138.537606,-35.272559]]}},{"type":"Feature","properties":{"tier":"high"},"geometry":{"type":"LineString","coordinates":[[138.541163,-35.272751],[138.541256,-35.273753],[138.541302,-35.27417],[138.541357,-35.27442],[138.541459,-35.274636],[138.541586,-35.274844],[138.541726,-35.27501],[138.542095,-35.275393]]}},{"type":"Feature","properties":{"tier":"high"},"geometry":{"type":"LineString","coordinates":[[138.541557,-35.272393],[138.541283,-35.272519],[138.541226,-35.272581],[138.541163,-35.272751]]}},{"type":"Feature","properties":{"tier":"high"},"geometry":{"type":"LineString","coordinates":[[138.540498,-35.274074],[138.539915,-35.273399],[138.539371,-35.272695]]}},{"type":"Feature","properties":{"tier":"high"},"geometry":{"type":"LineString","coordinates":[[138.540498,-35.274074],[138.540771,-35.274335],[138.541271,-35.274769],[138.541805,-35.275192],[138.542095,-35.275393]]}},{"type":"Feature","properties":{"tier":"high"},"geometry":{"type":"LineString","coordinates":[[138.582989,-35.299935],[138.582843,-35.299518],[138.582704,-35.299151],[138.582551,-35.298825],[138.582402,-35.298502],[138.582229,-35.298172],[138.582055,-35.297864],[138.581804,-35.297457],[138.581499,-35.297033]]}},{"type":"Feature","properties":{"tier":"high"},"geometry":{"type":"LineString","coordinates":[[138.631291,-35.490185],[138.630987,-35.489782],[138.630857,-35.489581],[138.630741,-35.489344],[138.630163,-35.487652],[138.630081,-35.487257],[138.629849,-35.485634],[138.629739,-35.485056],[138.629653,-35.48444],[138.629661,-35.484038],[138.62971,-35.483665],[138.629822,-35.483247],[138.629969,-35.482921],[138.630005,-35.482843],[138.630806,-35.481652],[138.630997,-35.481369],[138.631155,-35.481157],[138.631303,-35.480989],[138.632207,-35.480091],[138.632373,-35.479875],[138.632614,-35.479536],[138.633312,-35.478516],[138.634036,-35.477416],[138.634755,-35.476356],[138.635361,-35.475456],[138.6356,-35.475155],[138.63572,-35.475015],[138.635852,-35.474891],[138.636038,-35.474737],[138.636297,-35.474532],[138.636603,-35.474366],[138.63689,-35.474183],[138.637182,-35.473945],[138.637405,-35.473748],[138.637544,-35.473608],[138.63767,-35.473414],[138.638395,-35.472158],[138.638912,-35.471221],[138.6395,-35.470132],[138.639847,-35.469627],[138.640028,-35.469432],[138.640194,-35.469274],[138.640369,-35.469143],[138.640624,-35.468975],[138.641082,-35.468752],[138.641297,-35.468661],[138.641687,-35.468537],[138.642142,-35.468425],[138.642914,-35.468211],[138.643129,-35.468106],[138.643292,-35.46801],[138.643437,-35.467905],[138.643595,-35.467772],[138.643834,-35.467544],[138.644016,-35.467372],[138.644164,-35.467245],[138.644371,-35.467107],[138.645106,-35.466735],[138.645403,-35.466603],[138.646565,-35.466037],[138.646841,-35.465899],[138.647042,-35.465777],[138.647243,-35.465642],[138.647557,-35.46539],[138.64804,-35.464837],[138.64903,-35.463533],[138.649148,-35.463316],[138.649228,-35.463027],[138.649236,-35.462821],[138.649239,-35.462673],[138.649215,-35.462505],[138.649142,-35.462255],[138.649056,-35.462077],[138.648957,-35.461919]]}},{"type":"Feature","properties":{"tier":"high"},"geometry":{"type":"LineString","coordinates":[[138.629043,-35.377402],[138.629013,-35.377195],[138.628738,-35.376282],[138.628495,-35.375546],[138.628429,-35.375343],[138.627858,-35.373402],[138.627564,-35.372547],[138.627067,-35.370893],[138.626441,-35.368808],[138.625314,-35.365244]]}},{"type":"Feature","properties":{"tier":"high"},"geometry":{"type":"LineString","coordinates":[[138.583171,-35.324456],[138.582962,-35.324221],[138.582357,-35.323542],[138.581502,-35.322581],[138.581303,-35.32235],[138.580939,-35.321936],[138.580412,-35.321344],[138.579895,-35.320753],[138.579571,-35.320373],[138.579279,-35.31995],[138.579018,-35.319471],[138.578912,-35.319197],[138.578823,-35.318929],[138.578742,-35.3186],[138.578685,-35.318255],[138.578668,-35.31786],[138.578682,-35.317662],[138.5787,-35.317463],[138.578754,-35.317198],[138.578805,-35.316962],[138.578862,-35.316726],[138.57894,-35.316497],[138.57901,-35.316325],[138.579082,-35.316187],[138.579203,-35.315952],[138.579329,-35.315725],[138.579442,-35.315568],[138.579559,-35.315415],[138.579731,-35.315204],[138.579991,-35.314928],[138.580452,-35.314429],[138.58066,-35.314187],[138.580834,-35.31398],[138.581001,-35.313753],[138.581121,-35.313553],[138.581236,-35.313361],[138.581332,-35.313178],[138.581446,-35.312946],[138.581529,-35.312731],[138.581605,-35.312501],[138.58167,-35.312276],[138.581737,-35.312013],[138.581796,-35.31178],[138.581956,-35.310971],[138.582033,-35.310602]]}},{"type":"Feature","properties":{"tier":"high"},"geometry":{"type":"LineString","coordinates":[[138.648957,-35.461919],[138.648836,-35.461757],[138.648695,-35.461607],[138.648534,-35.461491],[138.648364,-35.46138],[138.647962,-35.461162],[138.646725,-35.460511],[138.646338,-35.460304],[138.646052,-35.460125],[138.645758,-35.45987],[138.645515,-35.459628],[138.645254,-35.459217],[138.645044,-35.458841],[138.644876,-35.458536],[138.644702,-35.458297],[138.644514,-35.45809],[138.644327,-35.457911],[138.643888,-35.457555],[138.643514,-35.457214],[138.643356,-35.457013],[138.643232,-35.456781],[138.643134,-35.456523],[138.643092,-35.456283],[138.643088,-35.456058],[138.643117,-35.455834],[138.643194,-35.455604],[138.643306,-35.45537],[138.643542,-35.454928],[138.643776,-35.454465],[138.643824,-35.454312],[138.643853,-35.454138],[138.643858,-35.453952],[138.643853,-35.453785],[138.643853,-35.453778],[138.643848,-35.453698],[138.64383,-35.45353],[138.643533,-35.452087],[138.643424,-35.451482],[138.643321,-35.450931],[138.643154,-35.45007],[138.643092,-35.449741],[138.643026,-35.449405],[138.642974,-35.449091],[138.642949,-35.448817],[138.642948,-35.448455],[138.642955,-35.448051],[138.64296,-35.447913],[138.642958,-35.447783],[138.64294,-35.447552],[138.642922,-35.447444],[138.642906,-35.447352],[138.642858,-35.447162],[138.64277,-35.446898],[138.64272,-35.446784],[138.642664,-35.446658],[138.64253,-35.446419],[138.642287,-35.445992],[138.642094,-35.445734],[138.64181,-35.445012],[138.641708,-35.444625],[138.641622,-35.444201],[138.641562,-35.443771],[138.641566,-35.443574],[138.641644,-35.443358],[138.641815,-35.442132],[138.64187,-35.441702],[138.641907,-35.441251],[138.641896,-35.440956],[138.641866,-35.440727],[138.64181,-35.440408],[138.641734,-35.440121],[138.641548,-35.439662],[138.641356,-35.439151],[138.64109,-35.438472],[138.640796,-35.437927],[138.640629,-35.437699],[138.64056,-35.437611],[138.640479,-35.437519],[138.64038,-35.43742],[138.640271,-35.437326],[138.6401,-35.437176],[138.639918,-35.437035],[138.639517,-35.436799],[138.639041,-35.436509],[138.63836,-35.436145],[138.637417,-35.43559],[138.636237,-35.43488],[138.635931,-35.434639],[138.635597,-35.434324],[138.63536,-35.434072],[138.635107,-35.433741],[138.634855,-35.433329],[138.634729,-35.433037],[138.634596,-35.432687],[138.634521,-35.432457],[138.634461,-35.43216],[138.634425,-35.431924],[138.634413,-35.431683],[138.634427,-35.431184],[138.634463,-35.430144],[138.634564,-35.428962],[138.63459,-35.428244],[138.634633,-35.427037],[138.634633,-35.426748],[138.634607,-35.426237]]}},{"type":"Feature","properties":{"tier":"high"},"geometry":{"type":"LineString","coordinates":[[138.630029,-35.397747],[138.629982,-35.397615],[138.629926,-35.397407],[138.629921,-35.39739],[138.62981,-35.396968],[138.628699,-35.39296],[138.627894,-35.390492],[138.627788,-35.389834],[138.627887,-35.389117],[138.62818,-35.388409],[138.62867,-35.387346],[138.629451,-35.386249],[138.629857,-35.38539],[138.629943,-35.384915],[138.629867,-35.383698],[138.629339,-35.379616],[138.629203,-35.378485],[138.629173,-35.378293]]}},{"type":"Feature","properties":{"tier":"high"},"geometry":{"type":"LineString","coordinates":[[138.634607,-35.426237],[138.634479,-35.425402],[138.634373,-35.424561],[138.634246,-35.423002],[138.634209,-35.422715],[138.634158,-35.422411],[138.634091,-35.422156],[138.634026,-35.421949],[138.633935,-35.421687],[138.633835,-35.421455],[138.633622,-35.420996],[138.633398,-35.420563],[138.633237,-35.420179],[138.633166,-35.41995],[138.633116,-35.419693],[138.633026,-35.41931],[138.632996,-35.418996],[138.632986,-35.418741],[138.633007,-35.418409],[138.633015,-35.418224],[138.633033,-35.418029],[138.633095,-35.417687],[138.633142,-35.417488],[138.6332,-35.417305],[138.633332,-35.416955],[138.633483,-35.41657],[138.633646,-35.416123],[138.633699,-35.415957],[138.633738,-35.415799],[138.633791,-35.415502],[138.633814,-35.415325],[138.633826,-35.415132],[138.633826,-35.41486],[138.633816,-35.414699],[138.633796,-35.41451],[138.633767,-35.414293],[138.633724,-35.414102],[138.63367,-35.413913],[138.633565,-35.413615],[138.633432,-35.413325],[138.63327,-35.413034],[138.633151,-35.412779],[138.632981,-35.412385],[138.632882,-35.412072],[138.632753,-35.411514],[138.632735,-35.41144],[138.632676,-35.41091],[138.632542,-35.409873],[138.632427,-35.408994],[138.632381,-35.408611],[138.63237,-35.408426],[138.632351,-35.408104],[138.632365,-35.407875],[138.632381,-35.407707],[138.632391,-35.407641],[138.632411,-35.407522],[138.632474,-35.407242],[138.632563,-35.406874],[138.632666,-35.406499],[138.632707,-35.406295],[138.632745,-35.406072],[138.63276,-35.40583],[138.632765,-35.405623],[138.632763,-35.405379],[138.632734,-35.405139],[138.632661,-35.404742],[138.632639,-35.404624],[138.632607,-35.404507],[138.632575,-35.404406],[138.632515,-35.404236],[138.6321,-35.403381],[138.631911,-35.403066],[138.631743,-35.402685],[138.631663,-35.402458],[138.631587,-35.402127],[138.631456,-35.401513],[138.631383,-35.401198],[138.631305,-35.400883],[138.631214,-35.400609],[138.631007,-35.400102],[138.630772,-35.399615],[138.630077,-35.397878],[138.630029,-35.397747]]}},{"type":"Feature","properties":{"tier":"arterial"},"geometry":{"type":"LineString","coordinates":[[138.723418,-35.448324],[138.723375,-35.448367],[138.723206,-35.448535],[138.723,-35.448763],[138.722884,-35.448885],[138.722788,-35.44901],[138.722659,-35.449239],[138.722589,-35.449401],[138.722522,-35.449652],[138.722474,-35.449868],[138.722293,-35.450681],[138.721654,-35.453559],[138.718908,-35.465773],[138.718203,-35.468991],[138.717791,-35.47087],[138.717671,-35.471391],[138.717489,-35.472183],[138.717105,-35.473902],[138.716015,-35.478633],[138.714148,-35.486738],[138.712423,-35.49422],[138.711756,-35.497114],[138.711098,-35.50002]]}},{"type":"Feature","properties":{"tier":"arterial"},"geometry":{"type":"LineString","coordinates":[[138.720184,-35.438926],[138.720183,-35.438989],[138.720179,-35.439074]]}},{"type":"Feature","properties":{"tier":"arterial"},"geometry":{"type":"LineString","coordinates":[[138.720179,-35.439074],[138.719897,-35.440205],[138.719897,-35.440582],[138.71998,-35.440837],[138.720183,-35.441204],[138.722059,-35.443413],[138.722661,-35.444118],[138.722924,-35.44445],[138.723076,-35.44472],[138.72314,-35.444832],[138.72326,-35.445194],[138.723343,-35.44556],[138.72333,-35.446201],[138.723196,-35.446866],[138.723174,-35.447339],[138.723169,-35.447432],[138.723238,-35.447845],[138.723378,-35.448222],[138.723418,-35.448324],[138.723507,-35.44846],[138.72359,-35.448605],[138.72382,-35.44892],[138.724174,-35.449335],[138.724724,-35.449964],[138.725263,-35.450575],[138.726248,-35.451692],[138.726988,-35.452558],[138.727967,-35.453689],[138.728538,-35.454131],[138.728826,-35.454283],[138.729417,-35.454482],[138.729676,-35.454537],[138.732476,-35.454916],[138.733363,-35.455073],[138.733614,-35.455138],[138.734111,-35.455312],[138.734608,-35.455588],[138.73567,-35.456497],[138.737004,-35.457709],[138.737378,-35.458047],[138.737518,-35.458146],[138.737782,-35.458284],[138.738424,-35.458519],[138.738899,-35.458618],[138.739333,-35.458682],[138.746212,-35.459705],[138.747794,-35.459941],[138.75002,-35.460257]]}},{"type":"Feature","properties":{"tier":"arterial"},"geometry":{"type":"LineString","coordinates":[[138.725938,-35.488806],[138.723653,-35.498903]]}},{"type":"Feature","properties":{"tier":"arterial"},"geometry":{"type":"LineString","coordinates":[[138.725938,-35.488806],[138.725981,-35.488674],[138.726071,-35.488405],[138.726211,-35.488106],[138.726338,-35.487865],[138.726544,-35.487548],[138.726722,-35.487288],[138.726919,-35.48699],[138.727089,-35.486697],[138.727233,-35.486393],[138.727349,-35.486084],[138.72744,-35.485764]]}},{"type":"Feature","properties":{"tier":"arterial"},"geometry":{"type":"LineString","coordinates":[[138.609319,-35.480324],[138.609106,-35.48027],[138.608896,-35.480166],[138.608693,-35.480031],[138.608493,-35.479875],[138.608335,-35.479697],[138.608207,-35.479479],[138.60805,-35.479109],[138.60788,-35.478554],[138.607778,-35.478349],[138.607628,-35.478141],[138.607455,-35.477942],[138.607271,-35.477761],[138.607052,-35.477577],[138.606582,-35.477274],[138.606364,-35.477108],[138.605931,-35.476753],[138.605506,-35.476447],[138.605107,-35.4761],[138.604641,-35.475877],[138.604381,-35.475772],[138.603821,-35.47557],[138.603569,-35.475439],[138.603132,-35.475123],[138.602293,-35.474455],[138.602068,-35.474299],[138.60159,-35.474041],[138.601097,-35.47379],[138.600405,-35.473364],[138.599701,-35.472899],[138.599525,-35.472709],[138.598899,-35.471492],[138.59884,-35.471382],[138.598629,-35.47095],[138.598501,-35.470751],[138.598354,-35.470561],[138.598197,-35.470377],[138.597726,-35.469817],[138.597335,-35.469372],[138.596955,-35.468907],[138.596752,-35.468652],[138.59627,-35.468177],[138.596014,-35.46796],[138.595702,-35.467728],[138.595449,-35.467491],[138.59519,-35.467248],[138.594984,-35.466961],[138.594826,-35.466654],[138.594656,-35.466348],[138.594453,-35.466023],[138.594284,-35.465682],[138.59412,-35.465352],[138.593925,-35.46496],[138.593747,-35.464601],[138.59366,-35.464277],[138.59352,-35.463921],[138.593261,-35.463428],[138.593042,-35.463011],[138.592922,-35.462827],[138.592815,-35.462753]]}},{"type":"Feature","properties":{"tier":"arterial"},"geometry":{"type":"LineString","coordinates":[[138.580521,-35.50002],[138.578468,-35.499229],[138.578038,-35.499019],[138.577679,-35.498783],[138.577373,-35.498517],[138.576424,-35.497421],[138.575442,-35.49625],[138.575158,-35.495792],[138.574975,-35.49539],[138.574922,-35.495263],[138.574793,-35.494844],[138.574734,-35.494342],[138.574755,-35.493883],[138.574836,-35.493433],[138.575007,-35.492883],[138.57527,-35.492341],[138.57607,-35.490904],[138.576483,-35.490171],[138.576536,-35.489943],[138.576515,-35.489712],[138.576445,-35.489515],[138.576257,-35.489266],[138.575378,-35.488533],[138.574149,-35.487497],[138.573119,-35.48665],[138.571574,-35.485357],[138.570174,-35.484178],[138.569112,-35.483295],[138.56901,-35.48316],[138.568983,-35.482937],[138.568981,-35.482481],[138.568973,-35.480836],[138.568969,-35.48057]]}},{"type":"Feature","properties":{"tier":"regional"},"geometry":{"type":"LineString","coordinates":[[138.65735,-35.339287],[138.657348,-35.33591],[138.657377,-35.335588],[138.657509,-35.335288],[138.657671,-35.335044],[138.657882,-35.334817],[138.658514,-35.334179],[138.659613,-35.332954],[138.662202,-35.330145],[138.662975,-35.329306],[138.663375,-35.328593],[138.663435,-35.328143],[138.663344,-35.327572],[138.663392,-35.327274],[138.663516,-35.326991],[138.663678,-35.326741],[138.663886,-35.326522],[138.664422,-35.326285],[138.666477,-35.325459],[138.666853,-35.325284],[138.667452,-35.324433],[138.667991,-35.323533],[138.668161,-35.322666],[138.66801,-35.321938],[138.667978,-35.321812],[138.667315,-35.321839],[138.666926,-35.32159],[138.666624,-35.321337],[138.663378,-35.318834],[138.662226,-35.31786],[138.660043,-35.316226],[138.659582,-35.315898],[138.658491,-35.315471],[138.656791,-35.314793],[138.656445,-35.314679],[138.656057,-35.31469],[138.653822,-35.314903],[138.651272,-35.315152],[138.650076,-35.315285],[138.648894,-35.315494],[138.647893,-35.315673],[138.647424,-35.31572],[138.646949,-35.315681],[138.645119,-35.315355],[138.644683,-35.315318],[138.644387,-35.315448],[138.642822,-35.316338],[138.642564,-35.316471],[138.642322,-35.316575],[138.642023,-35.316663],[138.641725,-35.316718],[138.640233,-35.316964],[138.639829,-35.317005],[138.639414,-35.316987],[138.638074,-35.316727],[138.637785,-35.316687],[138.637314,-35.316723],[138.633981,-35.3172]]}},{"type":"Feature","properties":{"tier":"regional"},"geometry":{"type":"LineString","coordinates":[[138.733316,-35.24998],[138.733343,-35.249998],[138.73359,-35.250263],[138.733748,-35.250475],[138.733875,-35.250722],[138.734074,-35.251141],[138.734236,-35.251629],[138.734303,-35.251773],[138.734417,-35.251883],[138.734862,-35.252192],[138.735001,-35.252311],[138.735121,-35.252459],[138.735328,-35.252728],[138.735833,-35.253219],[138.735925,-35.253355],[138.73599,-35.253794],[138.73606,-35.254024],[138.736185,-35.254261],[138.736312,-35.25445],[138.736542,-35.254689],[138.736731,-35.254832],[138.736831,-35.254971],[138.736932,-35.255179],[138.737097,-35.255426],[138.737279,-35.255622],[138.73749,-35.255809],[138.7377,-35.255989],[138.737811,-35.256112],[138.737889,-35.256229],[138.737944,-35.256456],[138.737948,-35.256945],[138.737992,-35.257103],[138.73809,-35.257271],[138.738194,-35.257422],[138.738341,-35.257557],[138.738479,-35.257671],[138.738556,-35.257781],[138.738594,-35.257966],[138.73859,-35.258323],[138.738636,-35.258455],[138.738923,-35.258953],[138.739061,-35.259099],[138.739276,-35.259236],[138.739779,-35.25954],[138.74037,-35.259802],[138.740506,-35.259907],[138.740564,-35.260064],[138.740603,-35.260352],[138.740602,-35.261029],[138.74033,-35.262231],[138.740303,-35.263015],[138.74033,-35.263315],[138.7404,-35.263488],[138.74053,-35.263597],[138.740799,-35.263822],[138.74097,-35.26402],[138.741349,-35.264538],[138.741606,-35.264797],[138.742577,-35.265438],[138.743126,-35.265675],[138.743724,-35.265861]]}},{"type":"Feature","properties":{"tier":"regional"},"geometry":{"type":"LineString","coordinates":[[138.720103,-35.24998],[138.720624,-35.250292],[138.721506,-35.25082],[138.72357,-35.24998]]}},{"type":"Feature","properties":{"tier":"regional"},"geometry":{"type":"LineString","coordinates":[[138.677645,-35.303508],[138.680355,-35.300771],[138.682015,-35.299288],[138.68394,-35.297147],[138.684776,-35.296304]]}},{"type":"Feature","properties":{"tier":"regional"},"geometry":{"type":"LineString","coordinates":[[138.598446,-35.391971],[138.598436,-35.391896],[138.59838,-35.390849],[138.598385,-35.39063],[138.598396,-35.390486],[138.598412,-35.390401],[138.598431,-35.390329],[138.598476,-35.390206],[138.598667,-35.389834],[138.598795,-35.389541],[138.598951,-35.389185],[138.598988,-35.389122],[138.59904,-35.389058],[138.59909,-35.388993],[138.599139,-35.388955],[138.599882,-35.388286],[138.60001,-35.388155],[138.600056,-35.388076],[138.600094,-35.388011],[138.600126,-35.387928],[138.600158,-35.387799],[138.600196,-35.387615],[138.600391,-35.386491],[138.600429,-35.386388],[138.600469,-35.386307],[138.600534,-35.386235],[138.600593,-35.386187],[138.600651,-35.386148],[138.601161,-35.385887],[138.602103,-35.385422],[138.602175,-35.385371],[138.602274,-35.385258],[138.602336,-35.385166],[138.602953,-35.384193],[138.603261,-35.383722],[138.603352,-35.383596],[138.603468,-35.383449],[138.603597,-35.3833],[138.603822,-35.383091],[138.60405,-35.382885],[138.604243,-35.382732],[138.604844,-35.382314],[138.60548,-35.381796],[138.606209,-35.381083],[138.606989,-35.380322],[138.607362,-35.379948],[138.607714,-35.379598],[138.607762,-35.379533],[138.607805,-35.379441],[138.607829,-35.379375],[138.607875,-35.3792],[138.608272,-35.37765],[138.608422,-35.377144],[138.608467,-35.377004],[138.608556,-35.376895],[138.608628,-35.376825],[138.608915,-35.376622],[138.609256,-35.376355],[138.609312,-35.376296],[138.609361,-35.376243],[138.609707,-35.375813],[138.610619,-35.374715],[138.611096,-35.37412],[138.611118,-35.374059],[138.611118,-35.373984],[138.611107,-35.37393],[138.611064,-35.373842],[138.610774,-35.373372],[138.610503,-35.372917],[138.610297,-35.372543],[138.610203,-35.3723],[138.610157,-35.372154],[138.610144,-35.372016],[138.610144,-35.371917],[138.610155,-35.371821],[138.610173,-35.371716],[138.610216,-35.371603],[138.61045,-35.371027],[138.610517,-35.370894],[138.610611,-35.370747],[138.610686,-35.370664],[138.610753,-35.370607],[138.610773,-35.370591],[138.610954,-35.370461],[138.612064,-35.369728],[138.61296,-35.369133],[138.61345,-35.368812],[138.61392,-35.368503],[138.614728,-35.367961],[138.615127,-35.367694],[138.615231,-35.367638],[138.615256,-35.367624],[138.615811,-35.367335],[138.616214,-35.367136],[138.616498,-35.366999],[138.616629,-35.366948],[138.616747,-35.3669],[138.616871,-35.366867],[138.617029,-35.366832],[138.617284,-35.366778],[138.619084,-35.366428],[138.619989,-35.366255],[138.620326,-35.366191],[138.620739,-35.366113],[138.622858,-35.365712],[138.624148,-35.365467],[138.624217,-35.365454],[138.62429,-35.36543],[138.624376,-35.365395],[138.624443,-35.365347],[138.624504,-35.365301],[138.624571,-35.36526],[138.624641,-35.365231],[138.624711,-35.365205],[138.625269,-35.365098]]}},{"type":"Feature","properties":{"tier":"arterial"},"geometry":{"type":"LineString","coordinates":[[138.50909,-35.394752],[138.507761,-35.394192],[138.506154,-35.393255],[138.5043,-35.391938],[138.5026,-35.390654],[138.50135,-35.389736],[138.49998,-35.388859]]}},{"type":"Feature","properties":{"tier":"regional"},"geometry":{"type":"LineString","coordinates":[[138.629828,-35.364384],[138.631413,-35.365115],[138.63272,-35.365586],[138.63453,-35.366179],[138.634882,-35.366333],[138.635145,-35.366488],[138.636289,-35.367269],[138.638203,-35.36804],[138.640989,-35.369124],[138.641608,-35.369437],[138.642303,-35.369813],[138.645215,-35.370777],[138.646912,-35.371316],[138.648155,-35.371698],[138.648595,-35.37177],[138.649588,-35.371895],[138.650453,-35.371902],[138.651075,-35.371884],[138.651359,-35.371858],[138.652029,-35.371793],[138.652383,-35.371777],[138.652792,-35.371772],[138.653146,-35.371804],[138.653576,-35.371877],[138.654301,-35.372165],[138.65494,-35.372314],[138.655401,-35.372478],[138.656093,-35.372613],[138.65643,-35.372747],[138.656795,-35.372978],[138.657891,-35.373574],[138.658312,-35.37372],[138.658967,-35.373867],[138.659336,-35.373972],[138.66002,-35.374186],[138.660483,-35.374095],[138.661321,-35.373539],[138.661584,-35.373411],[138.661818,-35.37334],[138.66267,-35.373179],[138.662978,-35.373181],[138.663269,-35.37323],[138.66386,-35.373426],[138.66438,-35.373683],[138.665314,-35.374296],[138.66597,-35.374587],[138.667399,-35.375142],[138.667681,-35.375285],[138.668856,-35.376242],[138.669091,-35.376359],[138.669397,-35.376396],[138.669644,-35.376338],[138.670166,-35.376076],[138.670432,-35.375977],[138.670722,-35.375935],[138.671014,-35.375977],[138.671298,-35.376081],[138.671546,-35.376221],[138.6741,-35.377911],[138.674375,-35.378057],[138.674637,-35.378125],[138.674908,-35.378118],[138.675124,-35.378063],[138.675294,-35.378001],[138.675427,-35.377958],[138.675636,-35.377834],[138.675796,-35.377202],[138.676585,-35.374466],[138.676937,-35.373696],[138.677418,-35.373283],[138.67819,-35.373031],[138.679976,-35.372835],[138.682791,-35.372653],[138.685194,-35.372534],[138.686688,-35.372429],[138.687306,-35.372282],[138.688602,-35.371484],[138.689803,-35.370924],[138.690662,-35.370595],[138.691788,-35.370146],[138.691889,-35.370106],[138.69249,-35.369924],[138.692825,-35.369854],[138.693357,-35.369903],[138.694754,-35.370025]]}},{"type":"Feature","properties":{"tier":"high"},"geometry":{"type":"LineString","coordinates":[[138.625269,-35.365098],[138.624902,-35.363921],[138.624503,-35.362609],[138.623758,-35.359615],[138.623232,-35.357154]]}},{"type":"Feature","properties":{"tier":"high"},"geometry":{"type":"LineString","coordinates":[[138.625314,-35.365244],[138.625269,-35.365098]]}},{"type":"Feature","properties":{"tier":"high"},"geometry":{"type":"LineString","coordinates":[[138.542039,-35.275484],[138.541739,-35.275275],[138.5412,-35.274825],[138.540704,-35.274344],[138.540498,-35.274074]]}},{"type":"Feature","properties":{"tier":"regional"},"geometry":{"type":"LineString","coordinates":[[138.744857,-35.379459],[138.744106,-35.379489],[138.742432,-35.379745],[138.741676,-35.379949],[138.741054,-35.380119],[138.740711,-35.380119],[138.739917,-35.380062],[138.739599,-35.37999],[138.738865,-35.379218],[138.738538,-35.37896],[138.738189,-35.378798],[138.737395,-35.37833],[138.736981,-35.378065],[138.735625,-35.376415],[138.733732,-35.375067],[138.733426,-35.374884],[138.733141,-35.374744],[138.731779,-35.374245],[138.729093,-35.373242],[138.728865,-35.373178],[138.728769,-35.373178],[138.72863,-35.373178],[138.728335,-35.37323],[138.722906,-35.373921],[138.719881,-35.374337],[138.719274,-35.374367],[138.718089,-35.37421],[138.716097,-35.373948],[138.715283,-35.373821],[138.714213,-35.37358],[138.711147,-35.372845],[138.71067,-35.37274],[138.710321,-35.372732],[138.709871,-35.372775],[138.709543,-35.372828],[138.709179,-35.372832],[138.70861,-35.372692],[138.708133,-35.372522],[138.707843,-35.372316],[138.70766,-35.372067],[138.707462,-35.371682],[138.707102,-35.371043],[138.706765,-35.370728],[138.706389,-35.37047],[138.706035,-35.370286],[138.703734,-35.369556],[138.703433,-35.369508],[138.703149,-35.36949],[138.702269,-35.369521],[138.699238,-35.369643],[138.698793,-35.36967],[138.698476,-35.369705],[138.698117,-35.369783],[138.697398,-35.369985],[138.696889,-35.370125],[138.696631,-35.370155],[138.694754,-35.370025]]}},{"type":"Feature","properties":{"tier":"arterial"},"geometry":{"type":"LineString","coordinates":[[138.72744,-35.485764],[138.728298,-35.482031],[138.728484,-35.481173],[138.728603,-35.480621],[138.728765,-35.48003],[138.72903,-35.479543],[138.729333,-35.479144],[138.729504,-35.478983],[138.729606,-35.478898],[138.729739,-35.478792],[138.729962,-35.478634],[138.730085,-35.478563],[138.730176,-35.47851],[138.730277,-35.478455],[138.730387,-35.478401],[138.730499,-35.478352],[138.730722,-35.478265],[138.730945,-35.47819],[138.731186,-35.478134],[138.731448,-35.478082],[138.731698,-35.478046],[138.73196,-35.47803],[138.732204,-35.478033],[138.73246,-35.478043],[138.732696,-35.478059],[138.732947,-35.478074],[138.733191,-35.478081],[138.73342,-35.478078],[138.73368,-35.478058],[138.733846,-35.478029],[138.733988,-35.478007],[138.734159,-35.477973],[138.734307,-35.477938],[138.734652,-35.477828],[138.734933,-35.477716],[138.735405,-35.477487],[138.73644,-35.476986],[138.737763,-35.476347],[138.738896,-35.475802],[138.739756,-35.475384],[138.740629,-35.474966],[138.741392,-35.474594],[138.742642,-35.473981],[138.743196,-35.473715],[138.746102,-35.472309],[138.75002,-35.470413]]}},{"type":"Feature","properties":{"tier":"arterial"},"geometry":{"type":"LineString","coordinates":[[138.583253,-35.290709],[138.583572,-35.290626],[138.583871,-35.290569],[138.584252,-35.290532],[138.584734,-35.290525],[138.585407,-35.29056],[138.586016,-35.290611],[138.587765,-35.290831],[138.588704,-35.290965],[138.589098,-35.291144],[138.589807,-35.291376],[138.590471,-35.291604],[138.59089,-35.291742],[138.591334,-35.291818],[138.591937,-35.291863],[138.592543,-35.291871]]}},{"type":"Feature","properties":{"tier":"regional"},"geometry":{"type":"LineString","coordinates":[[138.620527,-35.319052],[138.618824,-35.313944],[138.617931,-35.311218],[138.617764,-35.310693],[138.617673,-35.31048],[138.617539,-35.310313],[138.614586,-35.307343],[138.614329,-35.307156],[138.613981,-35.306927],[138.613536,-35.306621],[138.613223,-35.306301],[138.612978,-35.305761],[138.612701,-35.30521],[138.612104,-35.304343],[138.611618,-35.303516],[138.611058,-35.302619],[138.608612,-35.298789],[138.608446,-35.29853],[138.607364,-35.296843],[138.607306,-35.29663],[138.607345,-35.29644],[138.608196,-35.295321],[138.609361,-35.29389],[138.60949,-35.293672],[138.609487,-35.293383],[138.608664,-35.290134],[138.608576,-35.289946],[138.608397,-35.289767],[138.607164,-35.288713]]}},{"type":"Feature","properties":{"tier":"arterial"},"geometry":{"type":"LineString","coordinates":[[138.74345,-35.374289],[138.746165,-35.375476],[138.747367,-35.375791],[138.75002,-35.375699]]}},{"type":"Feature","properties":{"tier":"arterial"},"geometry":{"type":"LineString","coordinates":[[138.595975,-35.50002],[138.596428,-35.499731],[138.596707,-35.4996],[138.596953,-35.499565],[138.597248,-35.499587],[138.598504,-35.499976],[138.598799,-35.500011],[138.599137,-35.500002],[138.600784,-35.499849],[138.601186,-35.499757],[138.602753,-35.499251],[138.603997,-35.498849],[138.604206,-35.49881],[138.604512,-35.498823],[138.605231,-35.498901],[138.605488,-35.498897],[138.605821,-35.498853],[138.606143,-35.498775],[138.606502,-35.498622],[138.606733,-35.498469],[138.607065,-35.498141],[138.60743,-35.497744],[138.607586,-35.497512],[138.607688,-35.497259],[138.608165,-35.495744],[138.608621,-35.494189],[138.608767,-35.493726],[138.609115,-35.492625],[138.609324,-35.491931],[138.609753,-35.49052],[138.609973,-35.490061],[138.610029,-35.489959],[138.610092,-35.489885],[138.610204,-35.48979],[138.610429,-35.48966],[138.610596,-35.48961],[138.610749,-35.489582],[138.610922,-35.489563],[138.613347,-35.489362],[138.615399,-35.489284],[138.61572,-35.489292]]}},{"type":"Feature","properties":{"tier":"arterial"},"geometry":{"type":"LineString","coordinates":[[138.553942,-35.267672],[138.553821,-35.266126]]}},{"type":"Feature","properties":{"tier":"high"},"geometry":{"type":"LineString","coordinates":[[138.628653,-35.50002],[138.628784,-35.49922],[138.628878,-35.498648],[138.628956,-35.49822],[138.629023,-35.497744],[138.629111,-35.497362],[138.629144,-35.497104],[138.62922,-35.496783],[138.629401,-35.496403],[138.629565,-35.496132],[138.630233,-35.495169],[138.630887,-35.494291],[138.631847,-35.492961],[138.631944,-35.492761],[138.632,-35.492577],[138.63207,-35.492329],[138.632099,-35.492049],[138.632095,-35.49178],[138.632046,-35.491463],[138.631965,-35.491197],[138.631898,-35.491066],[138.631846,-35.490955],[138.631777,-35.490808],[138.631611,-35.49055],[138.63144,-35.490354],[138.631291,-35.490185]]}},{"type":"Feature","properties":{"tier":"high"},"geometry":{"type":"LineString","coordinates":[[138.629043,-35.377402],[138.629237,-35.378084],[138.629264,-35.37816],[138.629291,-35.378202],[138.629331,-35.378231],[138.629394,-35.37825],[138.629534,-35.37828]]}},{"type":"Feature","properties":{"tier":"high"},"geometry":{"type":"LineString","coordinates":[[138.629534,-35.37828],[138.629364,-35.378358],[138.629297,-35.378399],[138.629257,-35.378429],[138.629203,-35.378485]]}},{"type":"Feature","properties":{"tier":"high"},"geometry":{"type":"LineString","coordinates":[[138.582033,-35.310602],[138.581989,-35.310427],[138.581978,-35.310389],[138.581955,-35.310363],[138.581921,-35.310344],[138.581892,-35.310332],[138.581836,-35.310318]]}},{"type":"Feature","properties":{"tier":"high"},"geometry":{"type":"LineString","coordinates":[[138.581836,-35.310318],[138.582016,-35.310063],[138.582089,-35.309949],[138.582139,-35.309856],[138.582232,-35.309716]]}},{"type":"Feature","properties":{"tier":"arterial"},"geometry":{"type":"LineString","coordinates":[[138.581836,-35.310318],[138.581557,-35.310422],[138.58121,-35.310553],[138.579542,-35.311177],[138.5767,-35.312022],[138.576155,-35.312193],[138.574753,-35.312626],[138.573625,-35.312972],[138.572875,-35.31329],[138.570499,-35.31462],[138.568762,-35.315592],[138.568198,-35.315993],[138.567275,-35.316652],[138.56627,-35.317316],[138.565805,-35.317544],[138.565065,-35.317845],[138.562841,-35.318532],[138.561337,-35.319038],[138.560388,-35.319522],[138.559729,-35.31998],[138.559271,-35.320381],[138.557221,-35.322478],[138.555895,-35.323883],[138.555791,-35.323976],[138.555615,-35.324136],[138.555416,-35.324297],[138.555048,-35.324556],[138.554697,-35.324788],[138.554284,-35.325015],[138.551949,-35.326032],[138.549722,-35.326982],[138.548993,-35.327371],[138.548551,-35.327671],[138.547832,-35.328229],[138.546226,-35.329488],[138.545345,-35.330213],[138.54402,-35.331504],[138.543305,-35.332193],[138.542747,-35.332678],[138.54244,-35.33289],[138.542141,-35.333093],[138.541659,-35.333358],[138.540841,-35.333721],[138.540093,-35.334084],[138.539376,-35.334405],[138.539058,-35.33453],[138.538797,-35.334609],[138.53846,-35.334692],[138.538055,-35.334739],[138.537118,-35.334815],[138.536391,-35.33495],[138.535967,-35.335062],[138.535418,-35.335255],[138.534725,-35.335612],[138.534342,-35.335875],[138.533301,-35.336658],[138.531993,-35.337631],[138.531536,-35.337916],[138.530989,-35.338181],[138.52791,-35.339574],[138.527273,-35.339868],[138.527024,-35.339982],[138.52653,-35.340204],[138.526152,-35.340404],[138.525858,-35.340599],[138.525478,-35.340887],[138.524655,-35.341554],[138.524352,-35.341776],[138.523767,-35.342163],[138.523009,-35.342574],[138.522707,-35.342766],[138.522487,-35.342937],[138.521738,-35.34356],[138.519283,-35.34562],[138.518888,-35.346079],[138.518287,-35.346814],[138.517824,-35.347331],[138.517584,-35.347529],[138.516027,-35.348671],[138.514996,-35.349387],[138.514756,-35.349488],[138.513801,-35.349856],[138.512962,-35.350191],[138.512144,-35.35051],[138.511871,-35.350616],[138.511553,-35.350775],[138.511267,-35.350954],[138.509355,-35.352273],[138.507859,-35.35332],[138.507579,-35.353539],[138.507292,-35.353812],[138.506696,-35.354494],[138.50622,-35.355029],[138.505969,-35.355269],[138.505459,-35.355661],[138.504146,-35.356645],[138.503898,-35.356861],[138.503767,-35.356991],[138.503426,-35.357312],[138.50313,-35.357546],[138.500362,-35.359561],[138.49998,-35.359848]]}},{"type":"Feature","properties":{"tier":"arterial"},"geometry":{"type":"LineString","coordinates":[[138.592543,-35.291871],[138.593446,-35.291866],[138.59449,-35.291854],[138.59549,-35.291881],[138.59717,-35.29212],[138.597363,-35.292138],[138.597586,-35.292142],[138.599753,-35.292109],[138.600774,-35.29209],[138.601618,-35.292039],[138.602053,-35.291939],[138.602455,-35.291801],[138.603518,-35.291321],[138.604103,-35.291047],[138.604565,-35.290799],[138.607164,-35.288713],[138.610321,-35.286073],[138.612792,-35.284014],[138.615232,-35.282036],[138.615898,-35.281505],[138.616351,-35.281189],[138.617773,-35.280334],[138.618601,-35.279801],[138.618921,-35.279581],[138.619261,-35.279329],[138.61962,-35.278971],[138.620032,-35.278514],[138.620684,-35.27785],[138.621817,-35.276719],[138.62196,-35.276552],[138.622081,-35.276387],[138.622318,-35.276004],[138.622727,-35.275261],[138.622936,-35.274995],[138.623135,-35.274746],[138.623307,-35.274554],[138.623553,-35.274342],[138.624525,-35.273528],[138.625535,-35.272738],[138.626595,-35.271956],[138.627657,-35.271224],[138.627848,-35.271102],[138.628272,-35.270776],[138.628588,-35.270476],[138.629207,-35.269735],[138.629539,-35.269375],[138.629703,-35.26921],[138.629874,-35.269088],[138.630273,-35.268844],[138.630475,-35.268747],[138.63068,-35.268666],[138.630901,-35.268605],[138.631139,-35.268562],[138.63158,-35.268511],[138.631972,-35.268521],[138.63228,-35.268539],[138.632706,-35.268555],[138.633043,-35.268553],[138.633259,-35.268544],[138.634519,-35.268395],[138.635424,-35.268284]]}},{"type":"Feature","properties":{"tier":"arterial"},"geometry":{"type":"LineString","coordinates":[[138.666788,-35.343836],[138.667746,-35.343845],[138.668306,-35.343823],[138.668836,-35.343773],[138.669349,-35.343731],[138.669691,-35.343712],[138.669978,-35.343712],[138.67032,-35.34373],[138.670695,-35.343787],[138.671035,-35.343867],[138.673391,-35.34461],[138.675881,-35.345381]]}},{"type":"Feature","properties":{"tier":"regional"},"geometry":{"type":"LineString","coordinates":[[138.688343,-35.292429],[138.68988,-35.289649],[138.690265,-35.289121],[138.690894,-35.288851],[138.691138,-35.288665],[138.692116,-35.286826],[138.692675,-35.286227],[138.693636,-35.285657]]}},{"type":"Feature","properties":{"tier":"regional"},"geometry":{"type":"LineString","coordinates":[[138.693636,-35.285657],[138.694655,-35.285161],[138.694689,-35.285145],[138.695548,-35.284777],[138.697758,-35.284146],[138.698101,-35.283148],[138.698487,-35.28243],[138.700278,-35.278509],[138.700826,-35.277423],[138.701106,-35.27651],[138.701355,-35.275852],[138.701395,-35.275325],[138.701436,-35.274736],[138.701387,-35.273876],[138.701379,-35.273635]]}},{"type":"Feature","properties":{"tier":"arterial"},"geometry":{"type":"LineString","coordinates":[[138.651858,-35.263516],[138.652284,-35.26348],[138.652805,-35.263445],[138.653715,-35.263461],[138.654285,-35.263471],[138.654532,-35.263466],[138.654723,-35.263446],[138.655104,-35.263378],[138.655535,-35.263252],[138.655791,-35.263161],[138.656026,-35.263061],[138.65638,-35.262865],[138.656624,-35.2627],[138.656875,-35.262502],[138.657147,-35.262237],[138.657717,-35.261441],[138.662115,-35.255153],[138.662137,-35.255114],[138.663251,-35.253508]]}},{"type":"Feature","properties":{"tier":"arterial"},"geometry":{"type":"LineString","coordinates":[[138.635693,-35.268251],[138.635974,-35.268216],[138.636422,-35.268113],[138.637526,-35.26786],[138.638665,-35.267555],[138.638981,-35.267471],[138.643155,-35.266356],[138.645786,-35.265457],[138.648386,-35.264488],[138.649705,-35.263993],[138.650458,-35.263767],[138.650798,-35.263681],[138.651218,-35.263597]]}},{"type":"Feature","properties":{"tier":"arterial"},"geometry":{"type":"LineString","coordinates":[[138.651218,-35.263597],[138.651858,-35.263516]]}},{"type":"Feature","properties":{"tier":"arterial"},"geometry":{"type":"LineString","coordinates":[[138.635424,-35.268284],[138.635693,-35.268251]]}},{"type":"Feature","properties":{"tier":"arterial"},"geometry":{"type":"LineString","coordinates":[[138.556781,-35.273244],[138.554612,-35.27203],[138.554383,-35.271902]]}},{"type":"Feature","properties":{"tier":"arterial"},"geometry":{"type":"LineString","coordinates":[[138.615938,-35.489322],[138.617365,-35.489511],[138.619634,-35.489725]]}},{"type":"Feature","properties":{"tier":"arterial"},"geometry":{"type":"LineString","coordinates":[[138.61572,-35.489292],[138.615938,-35.489322]]}},{"type":"Feature","properties":{"tier":"arterial"},"geometry":{"type":"LineString","coordinates":[[138.75002,-35.38766],[138.749791,-35.387437],[138.74803,-35.3861],[138.747424,-35.385557],[138.747368,-35.385477],[138.747095,-35.38499],[138.746918,-35.384502],[138.746293,-35.382427],[138.746145,-35.382028],[138.746,-35.381715],[138.745598,-35.380923],[138.744857,-35.379459],[138.744376,-35.378167],[138.744088,-35.376985],[138.74345,-35.374289],[138.742465,-35.370276],[138.742315,-35.36987],[138.741513,-35.368592],[138.741138,-35.367973],[138.741005,-35.367616],[138.740926,-35.367278],[138.740915,-35.3668],[138.740938,-35.365514],[138.740871,-35.364468],[138.740561,-35.363561],[138.740424,-35.363142],[138.740138,-35.362268],[138.738783,-35.358683],[138.735669,-35.354249],[138.735011,-35.35329],[138.734845,-35.352983],[138.734706,-35.35246],[138.734687,-35.352134],[138.734695,-35.351659],[138.734769,-35.351294],[138.734989,-35.35085],[138.735051,-35.350735],[138.735143,-35.350582],[138.735356,-35.350282],[138.735594,-35.349962],[138.735734,-35.349755],[138.73591,-35.349511],[138.737176,-35.347663],[138.737639,-35.347146],[138.740486,-35.344219],[138.741255,-35.34337],[138.74147,-35.343038],[138.741737,-35.342542],[138.742083,-35.34174],[138.743646,-35.338117],[138.743859,-35.337755],[138.744142,-35.337399],[138.744447,-35.337112],[138.744774,-35.336867],[138.745117,-35.336673],[138.745533,-35.336492],[138.746442,-35.336218],[138.747104,-35.336035],[138.747554,-35.335888],[138.748049,-35.335651],[138.748486,-35.335358],[138.748736,-35.335153],[138.748914,-35.334982],[138.749049,-35.33482],[138.749209,-35.334588],[138.749368,-35.334313],[138.749498,-35.334021],[138.749605,-35.333609],[138.749676,-35.332998],[138.749724,-35.332311],[138.749667,-35.331732],[138.749591,-35.331329],[138.749468,-35.33101],[138.749007,-35.329726],[138.74889,-35.329278],[138.748861,-35.328892],[138.748866,-35.328444],[138.748975,-35.327709],[138.749824,-35.323134],[138.749826,-35.322886],[138.749695,-35.322151],[138.749418,-35.321282],[138.749124,-35.320507],[138.748928,-35.319918],[138.748857,-35.319488],[138.748871,-35.318977],[138.748952,-35.31836],[138.749066,-35.317952],[138.749308,-35.317344],[138.749719,-35.316267],[138.75002,-35.315604]]}},{"type":"Feature","properties":{"tier":"arterial"},"geometry":{"type":"LineString","coordinates":[[138.559588,-35.274808],[138.560191,-35.275152],[138.560213,-35.275165],[138.561246,-35.275728],[138.561413,-35.275861],[138.561538,-35.276014],[138.56171,-35.276406],[138.56186,-35.276731],[138.561979,-35.276937],[138.562125,-35.277123],[138.562609,-35.277574],[138.562712,-35.27771],[138.562774,-35.27787]]}},{"type":"Feature","properties":{"tier":"arterial"},"geometry":{"type":"LineString","coordinates":[[138.66547,-35.250322],[138.665688,-35.250009],[138.665708,-35.24998]]}},{"type":"Feature","properties":{"tier":"arterial"},"geometry":{"type":"LineString","coordinates":[[138.663251,-35.253508],[138.664782,-35.251311],[138.66547,-35.250322]]}},{"type":"Feature","properties":{"tier":"arterial"},"geometry":{"type":"LineString","coordinates":[[138.562774,-35.27787],[138.562809,-35.278052],[138.562817,-35.278242],[138.562806,-35.278392],[138.56286,-35.278571],[138.563021,-35.27882],[138.563152,-35.279097],[138.563584,-35.279938],[138.563665,-35.280247],[138.563811,-35.28101],[138.563924,-35.281213],[138.564168,-35.281543],[138.564265,-35.281678],[138.564355,-35.281752],[138.564428,-35.281799],[138.564518,-35.281823],[138.564638,-35.281831],[138.564774,-35.281832],[138.564827,-35.28183],[138.565179,-35.281824],[138.565321,-35.281815],[138.565428,-35.281825],[138.565518,-35.281858],[138.565629,-35.281915],[138.565752,-35.282004],[138.565867,-35.282083],[138.565945,-35.282132],[138.566031,-35.282156],[138.566135,-35.282167],[138.566464,-35.282181],[138.566639,-35.282215],[138.566805,-35.282278],[138.566938,-35.282339],[138.567046,-35.282414],[138.567143,-35.282516],[138.567541,-35.28311],[138.567689,-35.283424],[138.56781,-35.283817],[138.567885,-35.284098],[138.567972,-35.284272],[138.568058,-35.284425],[138.568144,-35.284525],[138.568402,-35.284769],[138.568588,-35.285004],[138.568685,-35.285106],[138.568754,-35.285157],[138.568835,-35.285205],[138.568945,-35.285246],[138.569137,-35.28529],[138.569288,-35.28532],[138.569509,-35.285333],[138.569648,-35.285326],[138.569743,-35.285304],[138.569833,-35.28527],[138.569927,-35.285215],[138.57001,-35.285147],[138.570089,-35.285077],[138.570155,-35.284992],[138.570266,-35.284847],[138.570344,-35.284755],[138.570421,-35.284695],[138.570541,-35.284636],[138.570636,-35.284611],[138.570757,-35.284598],[138.570882,-35.284612],[138.571006,-35.284647],[138.57112,-35.284711],[138.571186,-35.284752],[138.571269,-35.284817],[138.571384,-35.284927],[138.571503,-35.285085],[138.571613,-35.285311],[138.571806,-35.285666],[138.571912,-35.285921],[138.572038,-35.286138],[138.572127,-35.286251],[138.57224,-35.286375],[138.572418,-35.286482],[138.572587,-35.286567],[138.572711,-35.286648],[138.572795,-35.286717],[138.572887,-35.286824],[138.57297,-35.28695],[138.573016,-35.287037],[138.573086,-35.287113],[138.573189,-35.287192],[138.573291,-35.287254],[138.573378,-35.287295],[138.573472,-35.287336],[138.573687,-35.287424],[138.5739,-35.287512],[138.574036,-35.287599],[138.574162,-35.287759],[138.574258,-35.287901],[138.574337,-35.288001],[138.57442,-35.288065],[138.574532,-35.288126],[138.574672,-35.288173],[138.574954,-35.28825],[138.575267,-35.288317],[138.575521,-35.288371],[138.575632,-35.28841],[138.575742,-35.288454],[138.575819,-35.288497],[138.575876,-35.288552],[138.575914,-35.288618],[138.575913,-35.288672],[138.575911,-35.288754],[138.575892,-35.288847],[138.575853,-35.289008],[138.575848,-35.289072],[138.575856,-35.289118],[138.575915,-35.289252],[138.575961,-35.289368],[138.57601,-35.289479],[138.576051,-35.289571],[138.576097,-35.289639],[138.57616,-35.289696],[138.576229,-35.289736],[138.576313,-35.289756],[138.576413,-35.289771],[138.576498,-35.289763],[138.576594,-35.289746],[138.5767,-35.289708],[138.576853,-35.289661],[138.576949,-35.289639],[138.577038,-35.289626],[138.577117,-35.289632],[138.577187,-35.289665],[138.577249,-35.289716],[138.577351,-35.28984],[138.577423,-35.289903],[138.577487,-35.289943],[138.577566,-35.289965],[138.57768,-35.289969],[138.57776,-35.289969],[138.577931,-35.289966],[138.578071,-35.289973],[138.578178,-35.289998],[138.578265,-35.290043],[138.578391,-35.290167],[138.578565,-35.290381],[138.578914,-35.29097],[138.579072,-35.291165],[138.579222,-35.291314]]}},{"type":"Feature","properties":{"tier":"arterial"},"geometry":{"type":"LineString","coordinates":[[138.723653,-35.498903],[138.723581,-35.499333],[138.723491,-35.499907],[138.723474,-35.50002]]}},{"type":"Feature","properties":{"tier":"regional"},"geometry":{"type":"LineString","coordinates":[[138.701379,-35.273635],[138.70147,-35.273146],[138.701706,-35.272708],[138.701684,-35.270343],[138.701985,-35.269449],[138.701894,-35.266015],[138.701813,-35.262985],[138.701948,-35.262652],[138.702264,-35.261881],[138.704045,-35.258937],[138.704821,-35.257422],[138.704925,-35.25722],[138.706362,-35.25524],[138.706641,-35.254784],[138.706644,-35.254752],[138.706658,-35.254583],[138.706684,-35.254259],[138.706705,-35.252857],[138.706834,-35.251788],[138.707265,-35.24998]]}},{"type":"Feature","properties":{"tier":"regional"},"geometry":{"type":"LineString","coordinates":[[138.684776,-35.296304],[138.687859,-35.293197],[138.687954,-35.293101],[138.688343,-35.292429]]}},{"type":"Feature","properties":{"tier":"arterial"},"geometry":{"type":"LineString","coordinates":[[138.741513,-35.368592],[138.741398,-35.368616],[138.741244,-35.3686],[138.741118,-35.368561],[138.740067,-35.368156],[138.73993,-35.368117],[138.739807,-35.368106],[138.739662,-35.368111],[138.739512,-35.368132],[138.739354,-35.368176],[138.739155,-35.368259],[138.738255,-35.368734],[138.738088,-35.368823],[138.737946,-35.36888],[138.737788,-35.368922],[138.737653,-35.368948],[138.737377,-35.368981],[138.735046,-35.369108],[138.734733,-35.36911],[138.734351,-35.369073],[138.733377,-35.368896],[138.733171,-35.368852],[138.732999,-35.368801],[138.732862,-35.36874],[138.732731,-35.368668],[138.732621,-35.368576],[138.732495,-35.368471],[138.732356,-35.368324],[138.732203,-35.368127],[138.73195,-35.367722],[138.731261,-35.366476],[138.730269,-35.364682],[138.729081,-35.36255],[138.728968,-35.362368],[138.728858,-35.362213],[138.728713,-35.362038],[138.728533,-35.361854],[138.72826,-35.361611],[138.726209,-35.359923],[138.725944,-35.359727],[138.725631,-35.359554],[138.725505,-35.35951],[138.722823,-35.358581],[138.722317,-35.358384],[138.721945,-35.358194],[138.719861,-35.357072],[138.716433,-35.355196],[138.714826,-35.354311],[138.714189,-35.353962],[138.713879,-35.3538],[138.71356,-35.353677],[138.713156,-35.353552],[138.712558,-35.353402],[138.709469,-35.352647],[138.709312,-35.352606],[138.706831,-35.352001],[138.705001,-35.351557],[138.703409,-35.35117],[138.699683,-35.350269],[138.696242,-35.349436],[138.694979,-35.349116],[138.692844,-35.348593],[138.689855,-35.347843],[138.688964,-35.347634],[138.686858,-35.347267],[138.68617,-35.347143],[138.683726,-35.346727],[138.683407,-35.34668],[138.683109,-35.346641],[138.682867,-35.346618],[138.682626,-35.346609],[138.682313,-35.346615],[138.681877,-35.346648],[138.681567,-35.34666],[138.681367,-35.346678],[138.680919,-35.346697],[138.680708,-35.346699],[138.680497,-35.346696],[138.680243,-35.346672],[138.680034,-35.346647],[138.679808,-35.346607],[138.679623,-35.346565],[138.679315,-35.346469],[138.67729,-35.345824],[138.675881,-35.345381]]}},{"type":"Feature","properties":{"tier":"high"},"geometry":{"type":"LineString","coordinates":[[138.539005,-35.272122],[138.538792,-35.271804]]}},{"type":"Feature","properties":{"tier":"high"},"geometry":{"type":"LineString","coordinates":[[138.54456,-35.276911],[138.543553,-35.276437],[138.542688,-35.275946],[138.542039,-35.275484]]}},{"type":"Feature","properties":{"tier":"high"},"geometry":{"type":"LineString","coordinates":[[138.542095,-35.275393],[138.543065,-35.276042],[138.544228,-35.276715],[138.54456,-35.276911]]}},{"type":"Feature","properties":{"tier":"high"},"geometry":{"type":"LineString","coordinates":[[138.571791,-35.286784],[138.571374,-35.286632],[138.569949,-35.28615],[138.569434,-35.285931]]}},{"type":"Feature","properties":{"tier":"high"},"geometry":{"type":"LineString","coordinates":[[138.569434,-35.285931],[138.569175,-35.285806],[138.568879,-35.285632],[138.568399,-35.285326],[138.568047,-35.285027],[138.567721,-35.284673],[138.567433,-35.284382],[138.567151,-35.284042],[138.566207,-35.283203],[138.565648,-35.282807],[138.565369,-35.28264],[138.565091,-35.282492],[138.564509,-35.282205],[138.563926,-35.281987],[138.563262,-35.281694],[138.562143,-35.281257],[138.560392,-35.280566],[138.558907,-35.279992],[138.558282,-35.279762],[138.557613,-35.279538],[138.557019,-35.279358],[138.556362,-35.279175],[138.555694,-35.279034],[138.55523,-35.278933]]}},{"type":"Feature","properties":{"tier":"high"},"geometry":{"type":"LineString","coordinates":[[138.629173,-35.378293],[138.629043,-35.377402]]}},{"type":"Feature","properties":{"tier":"arterial"},"geometry":{"type":"LineString","coordinates":[[138.629173,-35.378293],[138.629332,-35.378283],[138.629534,-35.37828]]}},{"type":"Feature","properties":{"tier":"arterial"},"geometry":{"type":"LineString","coordinates":[[138.581836,-35.310318],[138.582113,-35.310214]]}},{"type":"Feature","properties":{"tier":"arterial"},"geometry":{"type":"LineString","coordinates":[[138.541052,-35.272419],[138.54023,-35.272456],[138.537606,-35.272559]]}},{"type":"Feature","properties":{"tier":"high"},"geometry":{"type":"LineString","coordinates":[[138.541052,-35.272419],[138.541136,-35.272565],[138.541163,-35.272751]]}},{"type":"Feature","properties":{"tier":"high"},"geometry":{"type":"LineString","coordinates":[[138.537052,-35.272099],[138.537065,-35.272458],[138.537069,-35.272585]]}},{"type":"Feature","properties":{"tier":"high"},"geometry":{"type":"LineString","coordinates":[[138.582033,-35.310602],[138.582113,-35.310214]]}},{"type":"Feature","properties":{"tier":"arterial"},"geometry":{"type":"LineString","coordinates":[[138.534807,-35.272721],[138.530113,-35.272962],[138.52394,-35.273272],[138.522131,-35.273376],[138.517595,-35.273618]]}},{"type":"Feature","properties":{"tier":"arterial"},"geometry":{"type":"LineString","coordinates":[[138.537606,-35.272559],[138.537069,-35.272585]]}},{"type":"Feature","properties":{"tier":"high"},"geometry":{"type":"LineString","coordinates":[[138.537003,-35.271511],[138.537052,-35.272099]]}},{"type":"Feature","properties":{"tier":"arterial"},"geometry":{"type":"LineString","coordinates":[[138.579939,-35.291826],[138.580076,-35.291723],[138.580136,-35.291697],[138.581,-35.291451],[138.581796,-35.291244],[138.582243,-35.291084],[138.58242,-35.291023],[138.583253,-35.290709]]}},{"type":"Feature","properties":{"tier":"arterial"},"geometry":{"type":"LineString","coordinates":[[138.557793,-35.273784],[138.559588,-35.274808]]}},{"type":"Feature","properties":{"tier":"arterial"},"geometry":{"type":"LineString","coordinates":[[138.554383,-35.271902],[138.554298,-35.2718]]}},{"type":"Feature","properties":{"tier":"arterial"},"geometry":{"type":"LineString","coordinates":[[138.553821,-35.266126],[138.553684,-35.264184]]}},{"type":"Feature","properties":{"tier":"arterial"},"geometry":{"type":"LineString","coordinates":[[138.544754,-35.272198],[138.543927,-35.272232],[138.542194,-35.272356],[138.541557,-35.272393],[138.541052,-35.272419]]}},{"type":"Feature","properties":{"tier":"arterial"},"geometry":{"type":"LineString","coordinates":[[138.512817,-35.273873],[138.509316,-35.274047],[138.507352,-35.274144]]}},{"type":"Feature","properties":{"tier":"arterial"},"geometry":{"type":"LineString","coordinates":[[138.507352,-35.274144],[138.507273,-35.274148]]}},{"type":"Feature","properties":{"tier":"arterial"},"geometry":{"type":"LineString","coordinates":[[138.537069,-35.272585],[138.537009,-35.272587]]}},{"type":"Feature","properties":{"tier":"regional"},"geometry":{"type":"LineString","coordinates":[[138.582243,-35.291084],[138.582333,-35.290954],[138.582377,-35.290878]]}},{"type":"Feature","properties":{"tier":"arterial"},"geometry":{"type":"LineString","coordinates":[[138.579939,-35.291826],[138.580158,-35.291974],[138.580352,-35.29215],[138.580501,-35.292332],[138.580708,-35.292666]]}},{"type":"Feature","properties":{"tier":"high"},"geometry":{"type":"LineString","coordinates":[[138.582113,-35.310214],[138.582232,-35.309716]]}},{"type":"Feature","properties":{"tier":"high"},"geometry":{"type":"LineString","coordinates":[[138.602457,-35.3425],[138.602171,-35.342336],[138.60159,-35.341965],[138.600682,-35.3413],[138.59948,-35.34028]]}},{"type":"Feature","properties":{"tier":"high"},"geometry":{"type":"LineString","coordinates":[[138.59948,-35.34028],[138.598717,-35.339787],[138.594984,-35.336884],[138.59471,-35.336679]]}},{"type":"Feature","properties":{"tier":"high"},"geometry":{"type":"LineString","coordinates":[[138.585694,-35.327275],[138.585622,-35.327194],[138.585031,-35.326543],[138.584185,-35.325573],[138.583564,-35.324898],[138.583171,-35.324456]]}},{"type":"Feature","properties":{"tier":"high"},"geometry":{"type":"LineString","coordinates":[[138.59471,-35.336679],[138.593715,-35.335934],[138.592902,-35.33526],[138.592336,-35.334755],[138.591899,-35.334322],[138.590057,-35.332274],[138.58978,-35.331969],[138.589511,-35.331665],[138.588641,-35.330601],[138.588031,-35.32991],[138.587399,-35.329211],[138.586811,-35.328528],[138.586222,-35.327861],[138.585694,-35.327275]]}},{"type":"Feature","properties":{"tier":"high"},"geometry":{"type":"LineString","coordinates":[[138.534291,-35.264456],[138.534696,-35.265123]]}},{"type":"Feature","properties":{"tier":"high"},"geometry":{"type":"LineString","coordinates":[[138.534238,-35.264368],[138.534291,-35.264456]]}},{"type":"Feature","properties":{"tier":"arterial"},"geometry":{"type":"LineString","coordinates":[[138.553992,-35.268194],[138.553983,-35.26811],[138.553951,-35.267793],[138.553942,-35.267672]]}},{"type":"Feature","properties":{"tier":"arterial"},"geometry":{"type":"LineString","coordinates":[[138.554004,-35.268305],[138.553992,-35.268194]]}},{"type":"Feature","properties":{"tier":"arterial"},"geometry":{"type":"LineString","coordinates":[[138.537009,-35.272587],[138.534969,-35.272715],[138.534878,-35.272719]]}},{"type":"Feature","properties":{"tier":"arterial"},"geometry":{"type":"LineString","coordinates":[[138.534878,-35.272719],[138.534807,-35.272721]]}},{"type":"Feature","properties":{"tier":"regional"},"geometry":{"type":"LineString","coordinates":[[138.570495,-35.479165],[138.570569,-35.478958],[138.570737,-35.478631],[138.570907,-35.47838],[138.571258,-35.477907],[138.572061,-35.476943],[138.572567,-35.476279],[138.572653,-35.476097],[138.572653,-35.47595],[138.572524,-35.475601],[138.572447,-35.475321],[138.572455,-35.475062],[138.57261,-35.474489],[138.572842,-35.473769],[138.573288,-35.473273],[138.573983,-35.472644],[138.574867,-35.472232],[138.575769,-35.471749],[138.576344,-35.471288],[138.577322,-35.470309],[138.577622,-35.470079],[138.577889,-35.470037],[138.578215,-35.470142],[138.578944,-35.47061],[138.579983,-35.471176],[138.580412,-35.471246],[138.580669,-35.471155],[138.581099,-35.470869],[138.58139,-35.470519],[138.581828,-35.469729],[138.582378,-35.469009],[138.582493,-35.468884],[138.582624,-35.46879],[138.582695,-35.468756],[138.582775,-35.468716],[138.582975,-35.468659],[138.583171,-35.468638],[138.583456,-35.468624],[138.585582,-35.46862],[138.585759,-35.468611],[138.585939,-35.468587],[138.586063,-35.468561],[138.586196,-35.468522],[138.586318,-35.46848],[138.586412,-35.468428],[138.586491,-35.46836],[138.586577,-35.468236],[138.587144,-35.467328],[138.588525,-35.466116],[138.58865,-35.466006],[138.588798,-35.465921],[138.589079,-35.465682],[138.590397,-35.463743],[138.590498,-35.463616],[138.59069,-35.463554],[138.590888,-35.463519],[138.591388,-35.46352],[138.59199,-35.463516],[138.59214,-35.463483],[138.592279,-35.463418],[138.592402,-35.463325],[138.592815,-35.462753]]}},{"type":"Feature","properties":{"tier":"arterial"},"geometry":{"type":"LineString","coordinates":[[138.517595,-35.273618],[138.512817,-35.273873]]}},{"type":"Feature","properties":{"tier":"arterial"},"geometry":{"type":"LineString","coordinates":[[138.527035,-35.251865],[138.533405,-35.251526],[138.535154,-35.251433],[138.536688,-35.251352],[138.537486,-35.251309]]}},{"type":"Feature","properties":{"tier":"arterial"},"geometry":{"type":"LineString","coordinates":[[138.49998,-35.491293],[138.502605,-35.492836],[138.503589,-35.493322],[138.504825,-35.493768],[138.505521,-35.493902],[138.50737,-35.494098],[138.508494,-35.494317],[138.509938,-35.494754],[138.510848,-35.495623],[138.510901,-35.495679],[138.511585,-35.496413],[138.512294,-35.49685],[138.513135,-35.497478],[138.513748,-35.497937],[138.514666,-35.498348],[138.516473,-35.498542],[138.518587,-35.498599],[138.519748,-35.498377],[138.520529,-35.498382],[138.522068,-35.498736],[138.523692,-35.49921],[138.523991,-35.499297],[138.525893,-35.50002]]}},{"type":"Feature","properties":{"tier":"arterial"},"geometry":{"type":"LineString","coordinates":[[138.580464,-35.426852],[138.580341,-35.426793],[138.578821,-35.426125],[138.576437,-35.42506],[138.573659,-35.423835],[138.571294,-35.422798],[138.570926,-35.422637],[138.570773,-35.42257],[138.568831,-35.421715],[138.566671,-35.42076],[138.566396,-35.420639],[138.566024,-35.420475],[138.565119,-35.420076],[138.564569,-35.419834],[138.563597,-35.419406],[138.562421,-35.418892],[138.562095,-35.41876],[138.561814,-35.418661],[138.56155,-35.418589],[138.561191,-35.418528],[138.560774,-35.418481],[138.558606,-35.418281],[138.555961,-35.418029],[138.553189,-35.417776],[138.552582,-35.417716],[138.552372,-35.417687],[138.552167,-35.417646],[138.551925,-35.417591],[138.551696,-35.417516],[138.551466,-35.417418],[138.551252,-35.417314],[138.551028,-35.417178],[138.550831,-35.417028],[138.55047,-35.416702],[138.550033,-35.416302],[138.549927,-35.416212],[138.549341,-35.4159],[138.547968,-35.415501],[138.546555,-35.415025],[138.545971,-35.414783],[138.545238,-35.414259],[138.54425,-35.413461],[138.542967,-35.412605],[138.541702,-35.411852],[138.540737,-35.411272],[138.53994,-35.410484],[138.53911,-35.409801],[138.53839,-35.409311],[138.537874,-35.408954],[138.537416,-35.408761],[138.536312,-35.408408],[138.535803,-35.408233],[138.535288,-35.407985],[138.534013,-35.407193],[138.53377,-35.407017],[138.533528,-35.406843],[138.533015,-35.406484],[138.532365,-35.406144],[138.531583,-35.405976],[138.530263,-35.405731],[138.528764,-35.405435],[138.527376,-35.405195],[138.525502,-35.404804],[138.52516,-35.40474],[138.523912,-35.404514],[138.522138,-35.403812],[138.521275,-35.403477],[138.520803,-35.40319],[138.519312,-35.40224],[138.518176,-35.401434],[138.517066,-35.400561],[138.515775,-35.399523],[138.514919,-35.398879],[138.514013,-35.398278],[138.511473,-35.396641],[138.510234,-35.395603],[138.509655,-35.39515],[138.50909,-35.394752]]}},{"type":"Feature","properties":{"tier":"arterial"},"geometry":{"type":"LineString","coordinates":[[138.580822,-35.427011],[138.580464,-35.426852]]}},{"type":"Feature","properties":{"tier":"arterial"},"geometry":{"type":"LineString","coordinates":[[138.579222,-35.291314],[138.579501,-35.291532],[138.579792,-35.291728],[138.579939,-35.291826]]}},{"type":"Feature","properties":{"tier":"arterial"},"geometry":{"type":"LineString","coordinates":[[138.553684,-35.264184],[138.553682,-35.264156],[138.553654,-35.263789],[138.553566,-35.262639],[138.553444,-35.261043],[138.552684,-35.250502],[138.55264,-35.24998]]}},{"type":"Feature","properties":{"tier":"arterial"},"geometry":{"type":"LineString","coordinates":[[138.507273,-35.274148],[138.504103,-35.274311],[138.502431,-35.274391],[138.49998,-35.274516]]}},{"type":"Feature","properties":{"tier":"high"},"geometry":{"type":"LineString","coordinates":[[138.620042,-35.347308],[138.619917,-35.347199],[138.619455,-35.346912],[138.617974,-35.346303]]}}]}
