{"type":"FeatureCollection","features":[{"type":"Feature","properties":{"tier":"arterial"},"geometry":{"type":"LineString","coordinates":[[138.884748,-35.252547],[138.884786,-35.25263],[138.885447,-35.254056],[138.885802,-35.254824],[138.886062,-35.255298]]}},{"type":"Feature","properties":{"tier":"regional"},"geometry":{"type":"LineString","coordinates":[[138.774117,-35.288616],[138.774274,-35.288576],[138.774425,-35.288509],[138.774697,-35.288328],[138.77556,-35.287716],[138.776921,-35.28676],[138.777637,-35.286329],[138.778358,-35.286147],[138.779104,-35.286125],[138.780074,-35.286104],[138.781001,-35.286133],[138.781903,-35.286336],[138.7824,-35.286574],[138.783156,-35.286735],[138.783662,-35.286749],[138.784168,-35.286756],[138.784632,-35.286749],[138.785585,-35.286707],[138.787164,-35.286602],[138.787765,-35.28656],[138.788091,-35.286476],[138.788409,-35.286308],[138.78858,-35.286139],[138.788726,-35.285992],[138.78873,-35.285913]]}},{"type":"Feature","properties":{"tier":"arterial"},"geometry":{"type":"LineString","coordinates":[[138.78873,-35.285913],[138.789396,-35.28581],[138.789953,-35.285677],[138.790666,-35.285334],[138.791936,-35.284752],[138.79337,-35.284052],[138.794382,-35.283708],[138.795078,-35.283603],[138.796605,-35.283512],[138.797695,-35.283449],[138.798365,-35.283372],[138.799378,-35.283113],[138.800219,-35.282888],[138.800923,-35.282678],[138.801686,-35.282321],[138.802674,-35.281859],[138.803669,-35.281382],[138.804467,-35.281081],[138.805111,-35.281032],[138.805729,-35.281102],[138.806287,-35.281102],[138.806948,-35.280962],[138.807549,-35.28073],[138.808424,-35.280205],[138.808956,-35.279939],[138.809523,-35.279862],[138.811308,-35.2797],[138.814312,-35.279518],[138.814913,-35.279441],[138.815497,-35.279252],[138.816192,-35.278923],[138.816869,-35.278599],[138.817908,-35.278103],[138.821127,-35.276638],[138.821797,-35.276253],[138.822621,-35.275594],[138.823101,-35.275342],[138.823805,-35.275125],[138.824389,-35.27502],[138.825041,-35.274852],[138.82547,-35.274705],[138.825891,-35.274501],[138.826526,-35.274207],[138.82711,-35.273997],[138.827856,-35.273899],[138.82875,-35.27386],[138.828826,-35.273857],[138.829315,-35.273969],[138.829908,-35.274228],[138.8305,-35.2746],[138.831453,-35.275356],[138.832362,-35.275987],[138.83292,-35.276176],[138.833538,-35.276365],[138.834027,-35.276337],[138.83462,-35.276155],[138.835229,-35.275875],[138.835916,-35.275622],[138.836783,-35.275517],[138.837349,-35.27558],[138.837898,-35.275622],[138.838516,-35.275517],[138.839049,-35.27537],[138.839469,-35.275055],[138.840731,-35.273654],[138.841649,-35.272736],[138.84195,-35.272553],[138.842499,-35.272322],[138.84298,-35.272259],[138.843838,-35.272301],[138.844284,-35.272231],[138.844885,-35.272007],[138.845091,-35.271775],[138.845434,-35.271348],[138.845443,-35.271075],[138.845563,-35.269982],[138.845769,-35.269519],[138.846078,-35.269113],[138.846834,-35.268426],[138.8477,-35.267648],[138.848104,-35.267445],[138.848911,-35.267179],[138.849383,-35.267116],[138.850026,-35.267122],[138.850576,-35.267116],[138.850936,-35.267031],[138.851408,-35.266835],[138.851717,-35.266534],[138.852018,-35.266289],[138.85249,-35.266092],[138.852953,-35.266008],[138.853648,-35.266043],[138.855416,-35.266225],[138.860326,-35.266807],[138.861957,-35.266968],[138.863725,-35.266982],[138.865699,-35.266996],[138.866128,-35.266912],[138.866695,-35.266758],[138.867253,-35.266506],[138.868368,-35.266001],[138.870102,-35.265188],[138.871078,-35.264775],[138.871244,-35.264705],[138.872064,-35.264509],[138.873132,-35.264228],[138.87484,-35.263822],[138.875364,-35.263639],[138.876565,-35.263135],[138.877959,-35.262514],[138.87817,-35.26242],[138.879275,-35.261929],[138.879861,-35.261669],[138.880582,-35.261348],[138.88132,-35.261029],[138.881952,-35.260755],[138.882522,-35.260509],[138.883961,-35.259873],[138.884204,-35.259766],[138.885772,-35.259091],[138.886586,-35.258762]]}},{"type":"Feature","properties":{"tier":"regional"},"geometry":{"type":"LineString","coordinates":[[138.764655,-35.287806],[138.764783,-35.287871],[138.765859,-35.288166],[138.766814,-35.288437],[138.767449,-35.288585],[138.767904,-35.288599],[138.768564,-35.288508],[138.7695,-35.288332],[138.770178,-35.288262],[138.770951,-35.28829],[138.771603,-35.288318],[138.772341,-35.288395],[138.773062,-35.288486],[138.773787,-35.288588],[138.77396,-35.288611],[138.774117,-35.288616]]}},{"type":"Feature","properties":{"tier":"arterial"},"geometry":{"type":"LineString","coordinates":[[138.898251,-35.257802],[138.898117,-35.257593],[138.897418,-35.256501],[138.897284,-35.256291],[138.896367,-35.254858],[138.89627,-35.254706],[138.89536,-35.253283],[138.895267,-35.253138]]}},{"type":"Feature","properties":{"tier":"arterial"},"geometry":{"type":"LineString","coordinates":[[138.898878,-35.258845],[138.899165,-35.258936],[138.899726,-35.259111],[138.900611,-35.259387],[138.900779,-35.259438],[138.900884,-35.259486],[138.900958,-35.25952],[138.901058,-35.259567],[138.901157,-35.259623],[138.901473,-35.259805],[138.901693,-35.259934],[138.901893,-35.26005],[138.901962,-35.260093],[138.902051,-35.260144],[138.90214,-35.260187],[138.902245,-35.260232],[138.902387,-35.260305],[138.902469,-35.26034],[138.902679,-35.260431],[138.90373,-35.26083],[138.904019,-35.26094],[138.904142,-35.260987],[138.905325,-35.261408],[138.905526,-35.261474],[138.907608,-35.262159],[138.907672,-35.262179],[138.908669,-35.262492],[138.909463,-35.26274]]}},{"type":"Feature","properties":{"tier":"arterial"},"geometry":{"type":"LineString","coordinates":[[138.89177,-35.257922],[138.891819,-35.258091],[138.891852,-35.258223],[138.891905,-35.258353],[138.89201,-35.258554],[138.89209,-35.258684],[138.892576,-35.259495],[138.893074,-35.260265]]}},{"type":"Feature","properties":{"tier":"regional"},"geometry":{"type":"LineString","coordinates":[[138.893597,-35.260106],[138.893607,-35.260126],[138.893625,-35.260162],[138.893649,-35.260266],[138.893725,-35.260403]]}},{"type":"Feature","properties":{"tier":"regional"},"geometry":{"type":"LineString","coordinates":[[138.906882,-35.266868],[138.907165,-35.266942],[138.90742,-35.26704],[138.907655,-35.267188],[138.907846,-35.267328],[138.909034,-35.268525],[138.909227,-35.268836],[138.910553,-35.270971],[138.910567,-35.271058],[138.910565,-35.271157],[138.910557,-35.271313],[138.91051,-35.271766],[138.910444,-35.272361],[138.91026,-35.273821],[138.91014,-35.274831],[138.909882,-35.276995],[138.909823,-35.277488],[138.909483,-35.280352],[138.909216,-35.282597],[138.909149,-35.283131],[138.908941,-35.284764],[138.908928,-35.284926],[138.908759,-35.286278],[138.908542,-35.288036],[138.908349,-35.289593],[138.908158,-35.291204],[138.907957,-35.292807],[138.907802,-35.294057],[138.907653,-35.295274],[138.907598,-35.295727],[138.907584,-35.295904],[138.90759,-35.296001],[138.907603,-35.29609],[138.907627,-35.296185],[138.907657,-35.296272],[138.90771,-35.296382],[138.907772,-35.296489],[138.908609,-35.297765],[138.909341,-35.298899],[138.910151,-35.300311],[138.910736,-35.30146],[138.911425,-35.302835],[138.912171,-35.304341],[138.912785,-35.305606],[138.913504,-35.307062],[138.91433,-35.308743],[138.915019,-35.310113],[138.915666,-35.311415],[138.916406,-35.312906],[138.917176,-35.314429],[138.917844,-35.315782],[138.918444,-35.317007],[138.919067,-35.31827],[138.91978,-35.319695],[138.920494,-35.321133],[138.921212,-35.32256],[138.922033,-35.324207],[138.92283,-35.325825],[138.924383,-35.328917],[138.925816,-35.33183],[138.926502,-35.333268],[138.927101,-35.334537],[138.928689,-35.33771],[138.930208,-35.340781],[138.931765,-35.343887],[138.933012,-35.346374],[138.933272,-35.346889],[138.934838,-35.349996],[138.936437,-35.353194],[138.938073,-35.356475],[138.939559,-35.359415],[138.940325,-35.360978],[138.941072,-35.3625],[138.942558,-35.365426],[138.944119,-35.368563],[138.945731,-35.371739],[138.946943,-35.374177],[138.947093,-35.374492],[138.948681,-35.37763],[138.949998,-35.380311],[138.951688,-35.383701],[138.952161,-35.384597],[138.953285,-35.386839],[138.954697,-35.389714],[138.955944,-35.392228],[138.95613,-35.392601],[138.956808,-35.393961],[138.956881,-35.394088],[138.956929,-35.394166],[138.95698,-35.394239],[138.957036,-35.394311],[138.957117,-35.394403],[138.957798,-35.395115],[138.958344,-35.395667]]}},{"type":"Feature","properties":{"tier":"regional"},"geometry":{"type":"LineString","coordinates":[[138.74998,-35.263132],[138.750425,-35.26287],[138.750938,-35.26248],[138.752015,-35.261939],[138.752391,-35.261844],[138.753709,-35.261808],[138.754374,-35.261811],[138.754966,-35.261875],[138.75657,-35.26225],[138.756876,-35.26236],[138.757024,-35.262501],[138.757342,-35.26289],[138.757517,-35.263052],[138.757664,-35.263107],[138.757809,-35.263102],[138.758182,-35.262944],[138.758363,-35.262908],[138.758539,-35.262912],[138.759032,-35.262969],[138.759206,-35.263016],[138.75933,-35.263102],[138.759476,-35.263209]]}},{"type":"Feature","properties":{"tier":"arterial"},"geometry":{"type":"LineString","coordinates":[[138.903839,-35.256069],[138.907016,-35.254755],[138.90703,-35.254749],[138.91313,-35.252227],[138.914323,-35.251738],[138.916023,-35.250996],[138.918559,-35.24998]]}},{"type":"Feature","properties":{"tier":"arterial"},"geometry":{"type":"LineString","coordinates":[[138.96864,-35.404663],[138.969083,-35.403747],[138.969105,-35.403711],[138.969373,-35.403259],[138.969401,-35.403212],[138.97018,-35.4019],[138.970571,-35.400772],[138.970633,-35.400588],[138.971121,-35.39914],[138.971211,-35.398879],[138.971821,-35.397069],[138.97324,-35.392902],[138.973505,-35.39235],[138.974315,-35.390683],[138.97528,-35.388713],[138.976195,-35.386837],[138.977069,-35.385053],[138.977937,-35.383249],[138.978846,-35.381377],[138.979455,-35.380113],[138.979536,-35.379928],[138.979574,-35.379823],[138.9796,-35.379725],[138.979611,-35.379674],[138.979623,-35.379616],[138.979638,-35.379505],[138.979647,-35.379377],[138.979657,-35.379215],[138.979681,-35.37882],[138.979804,-35.376922],[138.979922,-35.375039],[138.980036,-35.373259],[138.980158,-35.37145],[138.980197,-35.37079],[138.980222,-35.370586],[138.980256,-35.370354],[138.980334,-35.369904],[138.980615,-35.368241],[138.980898,-35.366531],[138.981087,-35.365407],[138.981112,-35.365247],[138.981139,-35.365044],[138.981153,-35.364938],[138.981165,-35.364838],[138.981181,-35.364589],[138.981247,-35.363442],[138.981337,-35.36175],[138.981367,-35.3612],[138.981439,-35.35989],[138.981527,-35.358258],[138.981625,-35.356508],[138.981684,-35.354966],[138.981694,-35.354699],[138.981762,-35.352853],[138.981834,-35.351146],[138.981881,-35.350171],[138.981909,-35.349595],[138.981999,-35.34771],[138.982101,-35.345771],[138.98219,-35.343999],[138.98238,-35.340382],[138.982388,-35.340227],[138.982464,-35.338777],[138.982483,-35.338418],[138.982505,-35.338199],[138.982545,-35.337885],[138.98262,-35.33728],[138.98284,-35.335746],[138.982847,-35.335591],[138.982843,-35.335473],[138.982831,-35.335411],[138.982815,-35.335328],[138.982775,-35.335221],[138.982714,-35.335094],[138.982628,-35.334958],[138.982526,-35.334818],[138.98242,-35.334685],[138.982301,-35.334545],[138.982172,-35.334416],[138.982005,-35.334249],[138.981737,-35.334015],[138.981538,-35.333847],[138.979953,-35.332488],[138.97848,-35.331221],[138.978343,-35.33112],[138.978252,-35.331055],[138.978135,-35.330978],[138.978003,-35.330899],[138.977842,-35.330812],[138.976799,-35.330271],[138.976619,-35.330177],[138.976514,-35.330116],[138.976423,-35.33005],[138.976348,-35.329978],[138.97627,-35.329886],[138.976201,-35.329783],[138.976128,-35.32967],[138.975279,-35.328302],[138.974935,-35.327753],[138.974863,-35.327632],[138.974807,-35.327523],[138.974758,-35.327422],[138.97471,-35.327304],[138.974664,-35.327177],[138.974175,-35.325567],[138.974095,-35.325295],[138.974055,-35.32519],[138.974018,-35.325098],[138.973974,-35.325011],[138.973929,-35.32493],[138.97386,-35.32482],[138.973781,-35.324709],[138.973676,-35.324577],[138.972802,-35.323575],[138.972545,-35.32329],[138.972459,-35.32321],[138.972357,-35.323124],[138.972233,-35.323032],[138.972115,-35.322947],[138.970697,-35.321923],[138.968728,-35.320507],[138.968575,-35.320397],[138.968331,-35.320209],[138.968263,-35.320156],[138.966425,-35.318736],[138.964586,-35.317296],[138.963471,-35.316428],[138.963377,-35.31636],[138.963294,-35.316303],[138.963213,-35.316257],[138.963122,-35.316213],[138.963033,-35.316178],[138.962945,-35.316143],[138.962841,-35.316108],[138.960985,-35.315502],[138.959328,-35.314963],[138.959116,-35.314887],[138.958948,-35.314823],[138.958779,-35.314745],[138.958736,-35.314725],[138.958609,-35.314655],[138.958499,-35.314585],[138.958393,-35.314512],[138.956473,-35.313092],[138.955947,-35.312707],[138.955778,-35.312571],[138.955658,-35.312472],[138.955566,-35.312385],[138.955479,-35.312293],[138.955403,-35.312197],[138.955336,-35.312098],[138.955259,-35.311984],[138.955129,-35.311774],[138.954282,-35.310365],[138.954011,-35.309888],[138.953861,-35.309583],[138.953722,-35.309275],[138.953517,-35.308785],[138.952847,-35.307165],[138.952126,-35.305374],[138.952018,-35.305101],[138.951968,-35.304982],[138.951919,-35.304895],[138.951854,-35.304796],[138.951784,-35.304698],[138.951699,-35.304595],[138.951664,-35.304553],[138.950529,-35.303216],[138.949229,-35.301701],[138.947876,-35.300127],[138.946517,-35.298558],[138.946335,-35.298334],[138.946246,-35.298216],[138.946185,-35.298122],[138.94612,-35.298017],[138.946063,-35.297905],[138.945999,-35.29775],[138.945471,-35.296513],[138.944815,-35.294952]]}},{"type":"Feature","properties":{"tier":"arterial"},"geometry":{"type":"LineString","coordinates":[[138.768055,-35.476149],[138.767635,-35.47535],[138.767496,-35.475169],[138.767217,-35.474924],[138.766845,-35.474649],[138.766717,-35.474533],[138.766593,-35.474373],[138.766548,-35.474292],[138.766495,-35.474109],[138.766493,-35.474038],[138.766507,-35.473893],[138.766527,-35.473828],[138.766579,-35.473698],[138.766638,-35.47359],[138.766786,-35.473374],[138.766921,-35.473202],[138.767064,-35.472968],[138.767104,-35.472846],[138.767134,-35.472711],[138.767137,-35.472645],[138.767128,-35.472569],[138.767107,-35.472476],[138.767092,-35.472428],[138.767073,-35.472371],[138.766998,-35.472248],[138.766915,-35.472155],[138.7668,-35.472056],[138.766683,-35.471968],[138.766413,-35.471852],[138.7658,-35.471601],[138.765679,-35.471519],[138.765565,-35.47143],[138.765425,-35.471269],[138.765307,-35.471091],[138.765133,-35.470804]]}},{"type":"Feature","properties":{"tier":"arterial"},"geometry":{"type":"LineString","coordinates":[[138.75854,-35.460989],[138.758458,-35.460865],[138.75832,-35.460629],[138.758198,-35.46035],[138.758114,-35.460054],[138.758046,-35.459739],[138.758013,-35.459404],[138.758043,-35.459061],[138.758083,-35.458807],[138.758151,-35.458533],[138.758345,-35.458091],[138.758506,-35.457807],[138.759229,-35.456712],[138.759471,-35.456357]]}},{"type":"Feature","properties":{"tier":"arterial"},"geometry":{"type":"LineString","coordinates":[[138.781265,-35.50002],[138.781082,-35.499812],[138.780151,-35.498728],[138.779272,-35.497741],[138.779163,-35.497594]]}},{"type":"Feature","properties":{"tier":"arterial"},"geometry":{"type":"LineString","coordinates":[[138.74998,-35.460251],[138.75033,-35.460301],[138.751632,-35.46048]]}},{"type":"Feature","properties":{"tier":"arterial"},"geometry":{"type":"LineString","coordinates":[[138.971923,-35.408184],[138.971797,-35.408094],[138.971677,-35.408008],[138.971663,-35.407993],[138.971521,-35.407845],[138.971338,-35.407655],[138.971138,-35.407446],[138.970544,-35.406819],[138.970401,-35.406689],[138.969618,-35.405857],[138.969531,-35.405765],[138.968886,-35.405079],[138.968791,-35.404978],[138.968729,-35.404901],[138.968675,-35.404812],[138.968646,-35.404724],[138.968644,-35.4047],[138.96864,-35.404663]]}},{"type":"Feature","properties":{"tier":"arterial"},"geometry":{"type":"LineString","coordinates":[[138.965186,-35.402858],[138.966361,-35.404082],[138.966583,-35.404308],[138.967536,-35.405325],[138.967639,-35.405435],[138.968538,-35.406375],[138.968658,-35.406492],[138.96904,-35.406899],[138.969123,-35.406982],[138.969575,-35.407453],[138.969865,-35.407755],[138.970992,-35.408941],[138.971063,-35.409004],[138.971152,-35.409058]]}},{"type":"Feature","properties":{"tier":"arterial"},"geometry":{"type":"LineString","coordinates":[[138.977127,-35.404573],[138.97689,-35.404711],[138.976443,-35.404946],[138.976113,-35.405118],[138.97592,-35.40522],[138.975471,-35.405463],[138.975201,-35.405616],[138.975051,-35.405698],[138.974583,-35.405964],[138.974518,-35.406003],[138.974257,-35.406161],[138.973883,-35.406445],[138.973816,-35.406498],[138.973627,-35.406648],[138.973538,-35.406719],[138.973395,-35.406834],[138.973124,-35.407059],[138.973037,-35.407134],[138.972885,-35.407262],[138.97274,-35.407386],[138.972628,-35.407482],[138.972357,-35.407748],[138.972257,-35.407848],[138.972106,-35.407998],[138.972038,-35.408067],[138.971923,-35.408184],[138.971839,-35.408268],[138.971681,-35.408447],[138.971526,-35.408622],[138.971373,-35.4088],[138.971152,-35.409058]]}},{"type":"Feature","properties":{"tier":"arterial"},"geometry":{"type":"LineString","coordinates":[[138.999957,-35.39593],[138.998494,-35.396313],[138.997137,-35.396675],[138.995823,-35.397027],[138.994725,-35.397317],[138.993868,-35.397498],[138.99258,-35.397791],[138.99143,-35.39805],[138.990967,-35.398153],[138.990536,-35.398262],[138.990166,-35.398348],[138.989675,-35.398483],[138.989194,-35.39862],[138.988081,-35.398919],[138.987741,-35.399015],[138.987515,-35.399093],[138.987358,-35.39914],[138.987139,-35.399213],[138.986618,-35.399392],[138.985434,-35.399801],[138.984359,-35.400165],[138.984164,-35.400247],[138.984037,-35.400303],[138.983898,-35.400371],[138.983679,-35.400492],[138.983459,-35.400628],[138.983288,-35.400753],[138.983143,-35.400865],[138.982981,-35.401007],[138.982852,-35.401122],[138.982702,-35.401291],[138.982381,-35.401632]]}},{"type":"Feature","properties":{"tier":"arterial"},"geometry":{"type":"LineString","coordinates":[[139.00002,-35.395913],[138.999957,-35.39593]]}},{"type":"Feature","properties":{"tier":"arterial"},"geometry":{"type":"LineString","coordinates":[[138.928781,-35.491861],[138.929169,-35.491933],[138.929539,-35.491981],[138.92983,-35.491977],[138.9301,-35.491934],[138.930277,-35.491875],[138.930405,-35.491836],[138.930537,-35.491776],[138.930679,-35.491688],[138.930834,-35.491569],[138.930978,-35.491415],[138.93144,-35.490781],[138.931769,-35.490328],[138.931912,-35.490165],[138.93206,-35.490019],[138.934764,-35.487766],[138.944032,-35.480104],[138.94596,-35.478533],[138.946245,-35.478284],[138.947611,-35.476374],[138.954707,-35.466452],[138.954833,-35.466257],[138.95493,-35.466059],[138.955002,-35.465845],[138.955045,-35.465637]]}},{"type":"Feature","properties":{"tier":"arterial"},"geometry":{"type":"LineString","coordinates":[[138.901579,-35.256994],[138.899953,-35.257616],[138.899513,-35.257792],[138.899258,-35.2579],[138.898871,-35.258055]]}},{"type":"Feature","properties":{"tier":"arterial"},"geometry":{"type":"LineString","coordinates":[[138.991602,-35.24998],[138.992411,-35.250761],[138.9926,-35.250976],[138.993034,-35.251553],[138.995898,-35.255352],[138.996134,-35.25575],[138.996268,-35.25611],[138.996354,-35.256443],[138.996482,-35.257008],[138.996584,-35.257384],[138.996718,-35.257722],[138.996912,-35.258055],[138.997137,-35.258348],[138.999202,-35.260617],[138.99954,-35.260954],[139.00002,-35.26135]]}},{"type":"Feature","properties":{"tier":"arterial"},"geometry":{"type":"LineString","coordinates":[[138.958344,-35.395667],[138.959264,-35.396638],[138.959501,-35.396882],[138.959753,-35.397151],[138.959922,-35.397327],[138.960328,-35.39776],[138.960417,-35.39785],[138.960633,-35.398086],[138.961012,-35.398494],[138.961029,-35.398512],[138.96109,-35.398577],[138.961427,-35.398929],[138.961692,-35.399207],[138.962321,-35.399877],[138.962371,-35.399929],[138.962919,-35.4005],[138.963613,-35.401225],[138.964247,-35.401896],[138.965186,-35.402858]]}},{"type":"Feature","properties":{"tier":"arterial"},"geometry":{"type":"LineString","coordinates":[[138.74998,-35.470432],[138.753373,-35.46879],[138.755109,-35.467948]]}},{"type":"Feature","properties":{"tier":"arterial"},"geometry":{"type":"LineString","coordinates":[[138.74998,-35.3757],[138.752388,-35.375616],[138.754313,-35.376374],[138.754528,-35.376443],[138.754583,-35.376506],[138.754625,-35.376594],[138.754619,-35.379185],[138.754748,-35.37943],[138.760284,-35.379395],[138.762516,-35.380584],[138.764747,-35.382194],[138.768395,-35.384293],[138.769897,-35.385973],[138.773416,-35.388317],[138.776029,-35.389635]]}},{"type":"Feature","properties":{"tier":"arterial"},"geometry":{"type":"LineString","coordinates":[[138.817118,-35.373219],[138.817691,-35.373969],[138.819641,-35.376518],[138.820738,-35.377953],[138.821866,-35.379427],[138.822191,-35.379836],[138.822486,-35.380158],[138.82279,-35.380467],[138.823783,-35.381472],[138.82426,-35.381961],[138.824288,-35.382007],[138.824303,-35.382052],[138.824303,-35.382099],[138.824292,-35.38214],[138.824271,-35.382178],[138.82423,-35.382224],[138.824176,-35.382266],[138.823939,-35.382413],[138.823884,-35.382454],[138.823842,-35.382499],[138.823816,-35.382544],[138.823806,-35.382591],[138.823809,-35.382635],[138.823829,-35.382684],[138.823853,-35.382725],[138.824301,-35.383181],[138.824426,-35.383307],[138.824751,-35.383638],[138.824808,-35.383671],[138.824873,-35.383694],[138.824943,-35.383704],[138.82502,-35.383696],[138.825092,-35.383677],[138.825168,-35.383634],[138.825309,-35.383539],[138.825398,-35.383483],[138.825463,-35.383456],[138.825543,-35.383443],[138.825624,-35.383444],[138.825696,-35.383466],[138.825767,-35.38351],[138.825827,-35.383564],[138.827847,-35.385711]]}},{"type":"Feature","properties":{"tier":"arterial"},"geometry":{"type":"LineString","coordinates":[[138.833769,-35.382789],[138.83303,-35.382778],[138.832791,-35.382793],[138.832598,-35.382823],[138.832436,-35.382862],[138.832284,-35.3829],[138.832161,-35.382953],[138.832045,-35.383011],[138.831887,-35.383103],[138.827847,-35.385711]]}},{"type":"Feature","properties":{"tier":"regional"},"geometry":{"type":"LineString","coordinates":[[138.834255,-35.396031],[138.834019,-35.396121],[138.83374,-35.396125],[138.833547,-35.396113],[138.83324,-35.396035],[138.832149,-35.395627],[138.831934,-35.39557],[138.831844,-35.395547],[138.831718,-35.395535],[138.831457,-35.395526],[138.829827,-35.395561],[138.829522,-35.395567],[138.829262,-35.395536],[138.829021,-35.395482],[138.828396,-35.395315],[138.828274,-35.395281],[138.828162,-35.395264],[138.828059,-35.395268],[138.827967,-35.395275],[138.827865,-35.395306],[138.827287,-35.39554],[138.826602,-35.395827],[138.826454,-35.395926]]}},{"type":"Feature","properties":{"tier":"arterial"},"geometry":{"type":"LineString","coordinates":[[138.911887,-35.471976],[138.911776,-35.473602],[138.91168,-35.475565],[138.911644,-35.476309],[138.91164,-35.476389],[138.911591,-35.4773],[138.911558,-35.477551],[138.911526,-35.477718],[138.911359,-35.478375],[138.911321,-35.478522],[138.910531,-35.48157],[138.909673,-35.48482],[138.909789,-35.485505],[138.909792,-35.485519],[138.909885,-35.485689]]}},{"type":"Feature","properties":{"tier":"arterial"},"geometry":{"type":"LineString","coordinates":[[138.833769,-35.382789],[138.833692,-35.387954],[138.833594,-35.393863],[138.833599,-35.394438],[138.833636,-35.394852],[138.833709,-35.395165],[138.833863,-35.395483],[138.834056,-35.395794],[138.834255,-35.396031],[138.834537,-35.396307],[138.834915,-35.396573],[138.835183,-35.396718],[138.835419,-35.396827],[138.835677,-35.396923],[138.837702,-35.397672],[138.839807,-35.398427],[138.839883,-35.398449],[138.84023,-35.398551],[138.840708,-35.398637],[138.841418,-35.398697],[138.843714,-35.398717],[138.843756,-35.398717],[138.846545,-35.398742],[138.847746,-35.399022],[138.848284,-35.399224],[138.848749,-35.399444],[138.849131,-35.399679],[138.854155,-35.403362],[138.854419,-35.403589],[138.854553,-35.403728],[138.854838,-35.404049],[138.855182,-35.404504],[138.856126,-35.405722],[138.857156,-35.407081],[138.857256,-35.407219],[138.858536,-35.408949],[138.858714,-35.409181],[138.858919,-35.4094],[138.86097,-35.411217],[138.863015,-35.413022],[138.867193,-35.416735],[138.867949,-35.417388],[138.868011,-35.417442],[138.868388,-35.417845],[138.868656,-35.418175],[138.868812,-35.418433],[138.868946,-35.418704],[138.869035,-35.418934],[138.869175,-35.419422],[138.869275,-35.419782],[138.869405,-35.420203],[138.869414,-35.420233],[138.869577,-35.420778],[138.869666,-35.4211],[138.869825,-35.42165],[138.869903,-35.421931],[138.869978,-35.42215],[138.87006,-35.422335],[138.870205,-35.422617],[138.87041,-35.422956],[138.870727,-35.423407],[138.87089,-35.423643],[138.871153,-35.424021],[138.871337,-35.424284],[138.875232,-35.429846],[138.875659,-35.430457],[138.876456,-35.431596],[138.876626,-35.431858],[138.876747,-35.432072],[138.876843,-35.432291],[138.877021,-35.43276],[138.877646,-35.434495],[138.877768,-35.434823],[138.877909,-35.435129],[138.878125,-35.435513],[138.878389,-35.43584],[138.878528,-35.436023],[138.879432,-35.436975],[138.87993,-35.437484],[138.880857,-35.438401],[138.881019,-35.438526],[138.881223,-35.438665],[138.881592,-35.438888],[138.883029,-35.439735],[138.883112,-35.439785],[138.883983,-35.440296],[138.88434,-35.440528],[138.884584,-35.440735],[138.884803,-35.440962],[138.884919,-35.441117],[138.885055,-35.44132],[138.885154,-35.441499],[138.885263,-35.441745],[138.885316,-35.441907],[138.885346,-35.442037],[138.885368,-35.442171],[138.88539,-35.442438],[138.885391,-35.442631],[138.885368,-35.442862],[138.885328,-35.443065],[138.885175,-35.443777],[138.884925,-35.444999],[138.88472,-35.445966],[138.884499,-35.446987],[138.88436,-35.447648],[138.884319,-35.4479],[138.88431,-35.448045],[138.884309,-35.4482],[138.884312,-35.448325],[138.884323,-35.448457],[138.884351,-35.448608],[138.884411,-35.448807],[138.884507,-35.449065],[138.884715,-35.449558],[138.88502,-35.450267],[138.885132,-35.450494],[138.88525,-35.450668],[138.885309,-35.450745],[138.885402,-35.450868],[138.885607,-35.451096],[138.88606,-35.451549],[138.887154,-35.452667],[138.887326,-35.452841],[138.887458,-35.452972],[138.887482,-35.452995],[138.887688,-35.453168],[138.887892,-35.45331],[138.888142,-35.453452],[138.888315,-35.45354],[138.888619,-35.453668],[138.888924,-35.453783],[138.889198,-35.45389],[138.889456,-35.454008],[138.889729,-35.454156],[138.891002,-35.454904],[138.89251,-35.45567],[138.892709,-35.455782],[138.892924,-35.455912],[138.893337,-35.456209],[138.894019,-35.45671],[138.894215,-35.456869],[138.894421,-35.457058],[138.89459,-35.457253],[138.894754,-35.457469],[138.894867,-35.457664],[138.895003,-35.457965],[138.895251,-35.458542],[138.895721,-35.459619],[138.8967,-35.461912],[138.898378,-35.465888],[138.898467,-35.46609],[138.898552,-35.466255],[138.89862,-35.466365],[138.898697,-35.46647],[138.898833,-35.466646],[138.898987,-35.466821],[138.899158,-35.466968],[138.900092,-35.46773],[138.901238,-35.468651],[138.901532,-35.46886],[138.901773,-35.468991],[138.901944,-35.469074],[138.902185,-35.469167],[138.902471,-35.469266],[138.903033,-35.469432],[138.90371,-35.469638],[138.906497,-35.470456],[138.91163,-35.471907],[138.911765,-35.471943],[138.911887,-35.471976]]}},{"type":"Feature","properties":{"tier":"arterial"},"geometry":{"type":"LineString","coordinates":[[138.958344,-35.395667],[138.957667,-35.396105],[138.957477,-35.396211],[138.95732,-35.396282],[138.957125,-35.396344],[138.956982,-35.396376],[138.956803,-35.3964],[138.956602,-35.396406],[138.956441,-35.396405],[138.956168,-35.396359],[138.955105,-35.396184],[138.954299,-35.39605],[138.951718,-35.395612],[138.943946,-35.394326],[138.940464,-35.393732],[138.939509,-35.393576],[138.938283,-35.393374],[138.930632,-35.392066],[138.924154,-35.390971],[138.917705,-35.389869],[138.912958,-35.38906],[138.908216,-35.388249],[138.877605,-35.383022],[138.873708,-35.382355],[138.872173,-35.38209],[138.869283,-35.381603],[138.867293,-35.381279],[138.864259,-35.381171],[138.863929,-35.381166],[138.863573,-35.38118],[138.863236,-35.381206],[138.851095,-35.382056],[138.84548,-35.382509],[138.843883,-35.382621],[138.842443,-35.382717],[138.840995,-35.382806],[138.840181,-35.382843],[138.839139,-35.38286],[138.836608,-35.382824],[138.833769,-35.382789]]}},{"type":"Feature","properties":{"tier":"arterial"},"geometry":{"type":"LineString","coordinates":[[138.760565,-35.454734],[138.760759,-35.454461]]}},{"type":"Feature","properties":{"tier":"arterial"},"geometry":{"type":"LineString","coordinates":[[138.884249,-35.264629],[138.885488,-35.263572],[138.885699,-35.263405],[138.88582,-35.263319],[138.886015,-35.263217],[138.887307,-35.262682],[138.887624,-35.262551],[138.88867,-35.262119],[138.88972,-35.261684]]}},{"type":"Feature","properties":{"tier":"arterial"},"geometry":{"type":"LineString","coordinates":[[138.759986,-35.455602],[138.76044,-35.454911],[138.76052,-35.454793],[138.760565,-35.454734]]}},{"type":"Feature","properties":{"tier":"arterial"},"geometry":{"type":"LineString","coordinates":[[138.881217,-35.270223],[138.881406,-35.269911],[138.881775,-35.269327],[138.881815,-35.269236],[138.881851,-35.269124],[138.881868,-35.269004],[138.881864,-35.268841],[138.881825,-35.26837],[138.881782,-35.267758]]}},{"type":"Feature","properties":{"tier":"arterial"},"geometry":{"type":"LineString","coordinates":[[138.890173,-35.261563],[138.890159,-35.26159],[138.890136,-35.261612],[138.890105,-35.261626],[138.890078,-35.261631],[138.890051,-35.261631],[138.890025,-35.261625]]}},{"type":"Feature","properties":{"tier":"arterial"},"geometry":{"type":"LineString","coordinates":[[138.893724,-35.251328],[138.893754,-35.251309],[138.893788,-35.251295]]}},{"type":"Feature","properties":{"tier":"arterial"},"geometry":{"type":"LineString","coordinates":[[138.891569,-35.260895],[138.891593,-35.260939]]}},{"type":"Feature","properties":{"tier":"arterial"},"geometry":{"type":"LineString","coordinates":[[138.894004,-35.251089],[138.893987,-35.251198],[138.893981,-35.251261],[138.893965,-35.251336]]}},{"type":"Feature","properties":{"tier":"arterial"},"geometry":{"type":"LineString","coordinates":[[138.893788,-35.251295],[138.893913,-35.251196],[138.893967,-35.251142],[138.894004,-35.251089]]}},{"type":"Feature","properties":{"tier":"regional"},"geometry":{"type":"LineString","coordinates":[[138.893514,-35.251985],[138.893456,-35.252059],[138.893375,-35.252106],[138.893324,-35.252129],[138.892844,-35.252351]]}},{"type":"Feature","properties":{"tier":"regional"},"geometry":{"type":"LineString","coordinates":[[138.893839,-35.251556],[138.893779,-35.251592],[138.893732,-35.251643],[138.89368,-35.251695]]}},{"type":"Feature","properties":{"tier":"regional"},"geometry":{"type":"LineString","coordinates":[[138.89368,-35.251695],[138.893702,-35.251643],[138.893716,-35.251575],[138.893707,-35.2515]]}},{"type":"Feature","properties":{"tier":"regional"},"geometry":{"type":"LineString","coordinates":[[138.891704,-35.252831],[138.891639,-35.252898],[138.891584,-35.252953],[138.891555,-35.25299],[138.891546,-35.253024],[138.891534,-35.253078],[138.891534,-35.253135],[138.891509,-35.253262]]}},{"type":"Feature","properties":{"tier":"regional"},"geometry":{"type":"LineString","coordinates":[[138.891509,-35.253262],[138.891461,-35.253137],[138.891469,-35.25307],[138.89149,-35.253004],[138.891515,-35.252955],[138.89155,-35.252912],[138.891618,-35.252861],[138.891704,-35.252831]]}},{"type":"Feature","properties":{"tier":"arterial"},"geometry":{"type":"LineString","coordinates":[[138.893074,-35.260265],[138.893102,-35.260306]]}},{"type":"Feature","properties":{"tier":"arterial"},"geometry":{"type":"LineString","coordinates":[[138.89436,-35.259733],[138.894198,-35.259836],[138.89389,-35.260033],[138.8938,-35.260087],[138.893725,-35.260128],[138.893655,-35.260154],[138.893625,-35.260162],[138.893544,-35.260181],[138.893448,-35.260201],[138.89337,-35.260218],[138.893299,-35.260232],[138.893211,-35.260261],[138.893102,-35.260306]]}},{"type":"Feature","properties":{"tier":"arterial"},"geometry":{"type":"LineString","coordinates":[[138.89436,-35.259733],[138.895037,-35.259381]]}},{"type":"Feature","properties":{"tier":"arterial"},"geometry":{"type":"LineString","coordinates":[[138.88972,-35.261684],[138.889837,-35.261607],[138.889965,-35.261513]]}},{"type":"Feature","properties":{"tier":"arterial"},"geometry":{"type":"LineString","coordinates":[[138.890025,-35.261625],[138.88994,-35.261628],[138.889866,-35.261644],[138.88972,-35.261684]]}},{"type":"Feature","properties":{"tier":"arterial"},"geometry":{"type":"LineString","coordinates":[[138.890106,-35.26146],[138.890222,-35.261437],[138.890322,-35.261404],[138.891569,-35.260895]]}},{"type":"Feature","properties":{"tier":"arterial"},"geometry":{"type":"LineString","coordinates":[[138.895037,-35.259381],[138.895158,-35.259324],[138.895263,-35.259282],[138.89532,-35.259263],[138.895453,-35.259222],[138.895863,-35.259102],[138.896056,-35.259039],[138.89689,-35.258712],[138.897233,-35.258577],[138.897533,-35.25846]]}},{"type":"Feature","properties":{"tier":"arterial"},"geometry":{"type":"LineString","coordinates":[[138.893074,-35.260265],[138.893201,-35.260223],[138.893319,-35.260188],[138.893549,-35.260121],[138.893597,-35.260106],[138.893649,-35.260089],[138.893751,-35.260055],[138.893969,-35.259919],[138.894162,-35.259812],[138.89436,-35.259733]]}},{"type":"Feature","properties":{"tier":"arterial"},"geometry":{"type":"LineString","coordinates":[[138.893102,-35.260306],[138.893069,-35.260324],[138.892315,-35.260644],[138.891714,-35.260887],[138.891593,-35.260939],[138.890779,-35.261272],[138.890353,-35.261452],[138.890253,-35.261504],[138.890173,-35.261563]]}},{"type":"Feature","properties":{"tier":"arterial"},"geometry":{"type":"LineString","coordinates":[[138.777872,-35.433372],[138.778308,-35.431346]]}},{"type":"Feature","properties":{"tier":"arterial"},"geometry":{"type":"LineString","coordinates":[[138.802696,-35.376888],[138.802995,-35.376719],[138.803293,-35.376528]]}},{"type":"Feature","properties":{"tier":"arterial"},"geometry":{"type":"LineString","coordinates":[[138.803293,-35.376528],[138.803729,-35.376244],[138.804143,-35.375935],[138.804645,-35.375612],[138.805228,-35.375326],[138.805318,-35.375298],[138.805817,-35.375144],[138.806283,-35.375044],[138.806807,-35.37498],[138.807604,-35.374989],[138.808838,-35.375046],[138.810349,-35.375117],[138.81336,-35.375111],[138.813735,-35.375021],[138.814037,-35.374904],[138.816718,-35.373504],[138.817118,-35.373219],[138.817406,-35.372853],[138.820445,-35.366851],[138.820551,-35.366581],[138.820597,-35.36619],[138.819574,-35.360518],[138.819184,-35.358279],[138.818597,-35.354917],[138.818609,-35.354779],[138.818624,-35.354669],[138.818642,-35.3546],[138.818677,-35.354509],[138.8189,-35.354094],[138.820755,-35.350809],[138.822603,-35.347555],[138.822735,-35.347282],[138.822781,-35.347151],[138.822828,-35.346988],[138.822706,-35.340491],[138.822778,-35.340122],[138.822872,-35.339941],[138.823148,-35.339575],[138.823876,-35.338719],[138.824704,-35.337929],[138.825391,-35.337397],[138.829267,-35.33489],[138.830322,-35.334136],[138.831563,-35.333005],[138.83318,-35.331432],[138.834712,-35.329944],[138.835463,-35.329188],[138.836261,-35.328226],[138.839408,-35.324435],[138.840114,-35.323546],[138.84059,-35.322856],[138.840788,-35.322436],[138.843183,-35.315949],[138.844705,-35.312993],[138.845023,-35.312426],[138.84774,-35.307534]]}},{"type":"Feature","properties":{"tier":"regional"},"geometry":{"type":"LineString","coordinates":[[138.891668,-35.257492],[138.891669,-35.25745],[138.891673,-35.257398],[138.891702,-35.257346],[138.891763,-35.257244],[138.891853,-35.257122],[138.891963,-35.257009],[138.892032,-35.256805],[138.89208,-35.25655],[138.892097,-35.25646],[138.892103,-35.256347],[138.892123,-35.256283],[138.892203,-35.256167],[138.892233,-35.256113],[138.892235,-35.256101],[138.892255,-35.255941]]}},{"type":"Feature","properties":{"tier":"regional"},"geometry":{"type":"LineString","coordinates":[[138.89177,-35.257922],[138.891698,-35.257625],[138.891668,-35.257492]]}},{"type":"Feature","properties":{"tier":"regional"},"geometry":{"type":"LineString","coordinates":[[138.891509,-35.253262],[138.891562,-35.253438],[138.891639,-35.25372],[138.891776,-35.254207],[138.891941,-35.254792],[138.892037,-35.25513],[138.892187,-35.255672],[138.892236,-35.25585],[138.892255,-35.255941]]}},{"type":"Feature","properties":{"tier":"arterial"},"geometry":{"type":"LineString","coordinates":[[138.892315,-35.260644],[138.892281,-35.260591]]}},{"type":"Feature","properties":{"tier":"arterial"},"geometry":{"type":"LineString","coordinates":[[138.897533,-35.25846],[138.897895,-35.258337],[138.898044,-35.258293],[138.898133,-35.258265]]}},{"type":"Feature","properties":{"tier":"arterial"},"geometry":{"type":"LineString","coordinates":[[138.943795,-35.290562],[138.943665,-35.290658],[138.943542,-35.290849],[138.943536,-35.291023],[138.943626,-35.291198],[138.943844,-35.291527],[138.943994,-35.291877],[138.944093,-35.292293]]}},{"type":"Feature","properties":{"tier":"arterial"},"geometry":{"type":"LineString","coordinates":[[138.991616,-35.301946],[138.991726,-35.30195],[138.991914,-35.301947],[138.99218,-35.301931],[138.992522,-35.301899],[138.994635,-35.301684],[138.996197,-35.301539],[138.996588,-35.301499],[138.997712,-35.301384],[138.998061,-35.301346],[138.999615,-35.30119],[139.00002,-35.301148]]}},{"type":"Feature","properties":{"tier":"arterial"},"geometry":{"type":"LineString","coordinates":[[138.898389,-35.258251],[138.898133,-35.258265]]}},{"type":"Feature","properties":{"tier":"arterial"},"geometry":{"type":"LineString","coordinates":[[138.898251,-35.257802],[138.898284,-35.257818],[138.898504,-35.258103]]}},{"type":"Feature","properties":{"tier":"arterial"},"geometry":{"type":"LineString","coordinates":[[138.898396,-35.258131],[138.898335,-35.25802],[138.898251,-35.257826],[138.898251,-35.257802]]}},{"type":"Feature","properties":{"tier":"arterial"},"geometry":{"type":"LineString","coordinates":[[138.898542,-35.258115],[138.898871,-35.258055]]}},{"type":"Feature","properties":{"tier":"arterial"},"geometry":{"type":"LineString","coordinates":[[138.898335,-35.25802],[138.89832,-35.25805],[138.898293,-35.258086],[138.898252,-35.258124],[138.898166,-35.258191],[138.898082,-35.258253],[138.898058,-35.258273],[138.898048,-35.258283],[138.898044,-35.258293]]}},{"type":"Feature","properties":{"tier":"arterial"},"geometry":{"type":"LineString","coordinates":[[138.898871,-35.258055],[138.89859,-35.258224]]}},{"type":"Feature","properties":{"tier":"arterial"},"geometry":{"type":"LineString","coordinates":[[138.898445,-35.258105],[138.898475,-35.258101],[138.898504,-35.258103],[138.898524,-35.258107],[138.898542,-35.258115],[138.898565,-35.258131],[138.898583,-35.258151],[138.898593,-35.258175],[138.898596,-35.2582],[138.89859,-35.258224],[138.898574,-35.25825],[138.898549,-35.25827],[138.898518,-35.258284],[138.898483,-35.258289],[138.898447,-35.258285],[138.898415,-35.258272],[138.898389,-35.258251],[138.898374,-35.258229],[138.898366,-35.258204],[138.898367,-35.258179],[138.898377,-35.258153],[138.898396,-35.258131],[138.898418,-35.258116],[138.898445,-35.258105]]}},{"type":"Feature","properties":{"tier":"arterial"},"geometry":{"type":"LineString","coordinates":[[138.898133,-35.258265],[138.898367,-35.258179]]}},{"type":"Feature","properties":{"tier":"arterial"},"geometry":{"type":"LineString","coordinates":[[138.769933,-35.278501],[138.769995,-35.278256],[138.769984,-35.277947],[138.769949,-35.277728],[138.769882,-35.277439],[138.769759,-35.277139],[138.769595,-35.276879],[138.769493,-35.276738],[138.769389,-35.276609],[138.769153,-35.276379],[138.768895,-35.276141],[138.768777,-35.276011],[138.768665,-35.275863],[138.768589,-35.275716],[138.768536,-35.275541],[138.768525,-35.275298],[138.768549,-35.274987],[138.768598,-35.274807],[138.768646,-35.274691],[138.768675,-35.274437],[138.768678,-35.274275],[138.768651,-35.274113],[138.768598,-35.273962],[138.768463,-35.273767],[138.76837,-35.273655],[138.768101,-35.273364],[138.76797,-35.2732],[138.767873,-35.273062],[138.767806,-35.272935],[138.76771,-35.272679],[138.7676,-35.272403],[138.767442,-35.272079],[138.767262,-35.271842],[138.767141,-35.271713],[138.766964,-35.271579],[138.766803,-35.271483],[138.766597,-35.2714],[138.766361,-35.271323],[138.766055,-35.271266],[138.765668,-35.271147],[138.7654,-35.270966],[138.765178,-35.270804],[138.764961,-35.270616],[138.7648,-35.270432],[138.764644,-35.270191],[138.76455,-35.270064],[138.764464,-35.269972],[138.764346,-35.269867],[138.764207,-35.26979],[138.764092,-35.269755],[138.763917,-35.269714],[138.763703,-35.269689],[138.763072,-35.269626],[138.762753,-35.26958],[138.762547,-35.269506],[138.762351,-35.269413],[138.762133,-35.269283],[138.761965,-35.269146],[138.761879,-35.269054],[138.761793,-35.268934],[138.761715,-35.268794],[138.761637,-35.268627],[138.761597,-35.268487],[138.761565,-35.268279],[138.761549,-35.267863],[138.761503,-35.266941],[138.761495,-35.266821],[138.761468,-35.266692],[138.761436,-35.266591],[138.761385,-35.266492],[138.761325,-35.266399],[138.761259,-35.266304],[138.761179,-35.266216],[138.761106,-35.266148],[138.761015,-35.266065],[138.760843,-35.265936],[138.760621,-35.265783],[138.760484,-35.265669],[138.760355,-35.265547],[138.760264,-35.265417],[138.7602,-35.265277],[138.760165,-35.265169],[138.760138,-35.265047],[138.76013,-35.264887],[138.760108,-35.26393],[138.760108,-35.263598],[138.760095,-35.26349],[138.760079,-35.263334],[138.760044,-35.263174],[138.759993,-35.263043],[138.759929,-35.262927],[138.759835,-35.262793],[138.759677,-35.262611],[138.759532,-35.262458],[138.759422,-35.262335],[138.759347,-35.262228],[138.75928,-35.262114],[138.75921,-35.261963],[138.759167,-35.261812],[138.759151,-35.261602],[138.759226,-35.260912],[138.759333,-35.259913],[138.759352,-35.259758],[138.759379,-35.259633],[138.759424,-35.259495],[138.759486,-35.259342],[138.759572,-35.259169],[138.759677,-35.258925],[138.759717,-35.258805],[138.759757,-35.258685],[138.759789,-35.258547],[138.759813,-35.258354],[138.759805,-35.258038],[138.759819,-35.25615],[138.759811,-35.25601],[138.759786,-35.255872],[138.759757,-35.255772],[138.759714,-35.255662],[138.759639,-35.255537],[138.759547,-35.255422],[138.759419,-35.255279],[138.759274,-35.255158],[138.75914,-35.255036],[138.758998,-35.254911],[138.758899,-35.254795],[138.758829,-35.25469],[138.75877,-35.25455],[138.758735,-35.254447],[138.758716,-35.254311],[138.758714,-35.254153],[138.75874,-35.254006],[138.758767,-35.253903],[138.758802,-35.253813],[138.75888,-35.253682],[138.759006,-35.253533],[138.75929,-35.253308],[138.759545,-35.253128],[138.759679,-35.253023],[138.759779,-35.252927],[138.759867,-35.252823],[138.759939,-35.252707],[138.759985,-35.252602],[138.76002,-35.252508],[138.760033,-35.252405],[138.760039,-35.252282],[138.760001,-35.252101],[138.759921,-35.251875],[138.759843,-35.251658],[138.759789,-35.251507],[138.759768,-35.251393],[138.759757,-35.251273],[138.75976,-35.251139],[138.75977,-35.251008],[138.759811,-35.250854],[138.759848,-35.250751],[138.759907,-35.25064],[138.75998,-35.250515],[138.760106,-35.250346],[138.76039,-35.24998]]}},{"type":"Feature","properties":{"tier":"arterial"},"geometry":{"type":"LineString","coordinates":[[138.894204,-35.251562],[138.893955,-35.251517]]}},{"type":"Feature","properties":{"tier":"arterial"},"geometry":{"type":"LineString","coordinates":[[138.894004,-35.251422],[138.894204,-35.251562]]}},{"type":"Feature","properties":{"tier":"regional"},"geometry":{"type":"LineString","coordinates":[[138.826454,-35.395926],[138.826166,-35.396127],[138.826054,-35.396206]]}},{"type":"Feature","properties":{"tier":"regional"},"geometry":{"type":"LineString","coordinates":[[138.826054,-35.396206],[138.825954,-35.396376],[138.825904,-35.396483],[138.825894,-35.396587],[138.82592,-35.396725],[138.826009,-35.396947],[138.826349,-35.397799],[138.826474,-35.398192],[138.826585,-35.398623],[138.826673,-35.398958],[138.826702,-35.399133],[138.8267,-35.399259],[138.826673,-35.399434],[138.826618,-35.399589],[138.826563,-35.399679],[138.826464,-35.399822],[138.826403,-35.399877],[138.826309,-35.39993],[138.826199,-35.399984],[138.826064,-35.400021],[138.825943,-35.400018],[138.825726,-35.399999],[138.825546,-35.399989],[138.825393,-35.400003],[138.825248,-35.400032],[138.824643,-35.400221],[138.824473,-35.400292],[138.824248,-35.400442],[138.821945,-35.402128],[138.821535,-35.402425],[138.820513,-35.403175],[138.818382,-35.40477],[138.818056,-35.404991],[138.817751,-35.405168],[138.81744,-35.405319],[138.817112,-35.405467],[138.816299,-35.405823],[138.816007,-35.405958],[138.815715,-35.406125],[138.806534,-35.412843],[138.80624,-35.413022],[138.804281,-35.414093],[138.803903,-35.414297],[138.803592,-35.414519],[138.802655,-35.415203],[138.802471,-35.41536],[138.802301,-35.415532],[138.802177,-35.415692],[138.801707,-35.41642],[138.801588,-35.416523],[138.801417,-35.416589],[138.800715,-35.416756],[138.800424,-35.416853],[138.80018,-35.416987],[138.799979,-35.417116],[138.796033,-35.419657],[138.794803,-35.420463],[138.794158,-35.420959],[138.793705,-35.421369],[138.781542,-35.432286],[138.780669,-35.433096],[138.780467,-35.433307],[138.780318,-35.433565],[138.780001,-35.434066],[138.779599,-35.434433],[138.77814,-35.435606],[138.777937,-35.435721],[138.777734,-35.435765],[138.777592,-35.435753],[138.77736,-35.435709]]}},{"type":"Feature","properties":{"tier":"arterial"},"geometry":{"type":"LineString","coordinates":[[138.764655,-35.287806],[138.765642,-35.287231],[138.768049,-35.285915],[138.768788,-35.285488],[138.769182,-35.28518],[138.769509,-35.28478],[138.769749,-35.28436],[138.770041,-35.283407],[138.770195,-35.282854],[138.770273,-35.282272],[138.770161,-35.28181],[138.7698,-35.281172],[138.769586,-35.280682],[138.76944,-35.280184],[138.769534,-35.279672],[138.769715,-35.279273]]}},{"type":"Feature","properties":{"tier":"arterial"},"geometry":{"type":"LineString","coordinates":[[138.764934,-35.395987],[138.764721,-35.395745],[138.764068,-35.394895],[138.763848,-35.394668],[138.763218,-35.394129],[138.762263,-35.39345],[138.76197,-35.393178],[138.76164,-35.392821],[138.761218,-35.392368],[138.760903,-35.392083],[138.760438,-35.391785],[138.759366,-35.391162],[138.758774,-35.390836],[138.758232,-35.390575],[138.75789,-35.390467],[138.757606,-35.390407],[138.757199,-35.390351],[138.756879,-35.390347],[138.756463,-35.390379],[138.756134,-35.390449],[138.755484,-35.39065],[138.754921,-35.390852],[138.754593,-35.390944],[138.75423,-35.391017],[138.753877,-35.391044],[138.753514,-35.391032],[138.753064,-35.390969],[138.752741,-35.390896],[138.752464,-35.390791],[138.752166,-35.390665],[138.751839,-35.390479],[138.751436,-35.390144],[138.751122,-35.389761],[138.750989,-35.389559],[138.750888,-35.389352],[138.750595,-35.388492],[138.750308,-35.387941],[138.74998,-35.387621]]}},{"type":"Feature","properties":{"tier":"arterial"},"geometry":{"type":"LineString","coordinates":[[138.74998,-35.315692],[138.750164,-35.315287],[138.751502,-35.312418],[138.75197,-35.311211]]}},{"type":"Feature","properties":{"tier":"arterial"},"geometry":{"type":"LineString","coordinates":[[138.952679,-35.44616],[138.954152,-35.444046],[138.956705,-35.44043],[138.956901,-35.440071],[138.95817,-35.436822],[138.958358,-35.436387],[138.958653,-35.435882],[138.959943,-35.433813],[138.960957,-35.43223],[138.961174,-35.431948],[138.962233,-35.430701],[138.962775,-35.430086],[138.964149,-35.428618],[138.964401,-35.428242],[138.964503,-35.428043],[138.964648,-35.427676],[138.965938,-35.424124],[138.966316,-35.422983],[138.966707,-35.421864],[138.967169,-35.420542],[138.968239,-35.416902],[138.969467,-35.4128]]}},{"type":"Feature","properties":{"tier":"arterial"},"geometry":{"type":"LineString","coordinates":[[138.955045,-35.465637],[138.955051,-35.465285],[138.955016,-35.4651],[138.954627,-35.463577],[138.954611,-35.463452],[138.954605,-35.461447],[138.954581,-35.461233]]}},{"type":"Feature","properties":{"tier":"arterial"},"geometry":{"type":"LineString","coordinates":[[138.951963,-35.455244],[138.950791,-35.454788],[138.950384,-35.454593],[138.950126,-35.454434],[138.949378,-35.453881],[138.949142,-35.453658],[138.949002,-35.453483],[138.948155,-35.452347],[138.948098,-35.452236],[138.948026,-35.451943],[138.948015,-35.451788],[138.948039,-35.451617],[138.94808,-35.451482],[138.948155,-35.451325],[138.948981,-35.450158],[138.94912,-35.450022],[138.949399,-35.449806],[138.950276,-35.449266],[138.950531,-35.449092],[138.950735,-35.448906],[138.950896,-35.44872],[138.952679,-35.44616]]}},{"type":"Feature","properties":{"tier":"arterial"},"geometry":{"type":"LineString","coordinates":[[138.954581,-35.461233],[138.953854,-35.458919],[138.952969,-35.456188],[138.952878,-35.455965],[138.952763,-35.455799],[138.952615,-35.455635],[138.952417,-35.455472],[138.952301,-35.455399],[138.952197,-35.45534],[138.951963,-35.455244]]}},{"type":"Feature","properties":{"tier":"arterial"},"geometry":{"type":"LineString","coordinates":[[138.78873,-35.285913],[138.787319,-35.286089],[138.785834,-35.285972],[138.784607,-35.285017],[138.780211,-35.281359],[138.778299,-35.27982],[138.777699,-35.279587],[138.771562,-35.279471],[138.77042,-35.279028],[138.769866,-35.278836]]}},{"type":"Feature","properties":{"tier":"arterial"},"geometry":{"type":"LineString","coordinates":[[138.886062,-35.255298],[138.886465,-35.255926],[138.887282,-35.257188],[138.887923,-35.258186]]}},{"type":"Feature","properties":{"tier":"arterial"},"geometry":{"type":"LineString","coordinates":[[138.887923,-35.258186],[138.888206,-35.258629],[138.889112,-35.260046],[138.889243,-35.26025],[138.889265,-35.260285],[138.889557,-35.260741],[138.889809,-35.261135]]}},{"type":"Feature","properties":{"tier":"arterial"},"geometry":{"type":"LineString","coordinates":[[138.944208,-35.292773],[138.94428,-35.293071]]}},{"type":"Feature","properties":{"tier":"arterial"},"geometry":{"type":"LineString","coordinates":[[138.944093,-35.292293],[138.944208,-35.292773]]}},{"type":"Feature","properties":{"tier":"arterial"},"geometry":{"type":"LineString","coordinates":[[138.94428,-35.293071],[138.94452,-35.294128],[138.944566,-35.294287],[138.944615,-35.294448],[138.944677,-35.294614],[138.944815,-35.294952]]}},{"type":"Feature","properties":{"tier":"arterial"},"geometry":{"type":"LineString","coordinates":[[138.753865,-35.302967],[138.753886,-35.302411],[138.754663,-35.301043],[138.75467,-35.301032],[138.756463,-35.298898],[138.758384,-35.295139],[138.758733,-35.294538]]}},{"type":"Feature","properties":{"tier":"arterial"},"geometry":{"type":"LineString","coordinates":[[138.889809,-35.261135],[138.890066,-35.261455]]}},{"type":"Feature","properties":{"tier":"arterial"},"geometry":{"type":"LineString","coordinates":[[138.889971,-35.261501],[138.889809,-35.261135]]}},{"type":"Feature","properties":{"tier":"arterial"},"geometry":{"type":"LineString","coordinates":[[138.894574,-35.24998],[138.89425,-35.250613]]}},{"type":"Feature","properties":{"tier":"arterial"},"geometry":{"type":"LineString","coordinates":[[138.89425,-35.250613],[138.894004,-35.251089]]}},{"type":"Feature","properties":{"tier":"regional"},"geometry":{"type":"LineString","coordinates":[[138.893725,-35.260403],[138.893856,-35.2605],[138.894056,-35.260634],[138.895052,-35.261164],[138.895902,-35.261567],[138.896719,-35.261954],[138.896781,-35.261983],[138.897684,-35.262412],[138.898934,-35.263004],[138.899327,-35.263191],[138.899433,-35.263238],[138.901045,-35.264005],[138.902129,-35.264519],[138.902182,-35.264546],[138.902475,-35.264696],[138.902538,-35.264728],[138.903149,-35.265106],[138.903243,-35.265163],[138.903545,-35.265347],[138.904305,-35.265808],[138.905603,-35.266595],[138.905825,-35.266698],[138.90602,-35.266752],[138.906217,-35.266787],[138.906882,-35.266868]]}},{"type":"Feature","properties":{"tier":"regional"},"geometry":{"type":"LineString","coordinates":[[138.893725,-35.260403],[138.893619,-35.260325],[138.893565,-35.260258],[138.893544,-35.260181],[138.893549,-35.260121]]}},{"type":"Feature","properties":{"tier":"regional"},"geometry":{"type":"LineString","coordinates":[[138.893619,-35.260325],[138.893469,-35.260248],[138.893413,-35.260231],[138.89337,-35.260218]]}},{"type":"Feature","properties":{"tier":"arterial"},"geometry":{"type":"LineString","coordinates":[[138.961442,-35.296149],[138.961741,-35.296194],[138.961935,-35.296218],[138.96208,-35.296229],[138.962247,-35.296237],[138.962431,-35.296243],[138.963516,-35.296256],[138.964578,-35.296272],[138.964716,-35.296277],[138.96487,-35.296291],[138.965038,-35.296315],[138.965761,-35.29643],[138.967477,-35.29672],[138.970248,-35.297198],[138.970322,-35.297208],[138.970784,-35.297273],[138.970922,-35.297286],[138.970973,-35.29729],[138.97106,-35.297297],[138.971231,-35.2973],[138.971395,-35.297294],[138.971566,-35.297278],[138.97179,-35.297254],[138.972684,-35.297144],[138.97483,-35.296863],[138.97554,-35.296769],[138.975816,-35.29674],[138.97605,-35.296718],[138.976303,-35.296707],[138.977289,-35.296689],[138.977789,-35.296691],[138.977963,-35.296702],[138.978081,-35.296718],[138.978226,-35.296753],[138.978387,-35.296804],[138.978525,-35.296866],[138.978679,-35.296946],[138.978863,-35.297056],[138.978992,-35.297145],[138.97912,-35.297252],[138.979491,-35.29762],[138.9796,-35.297724],[138.979689,-35.29781],[138.979784,-35.297891],[138.979997,-35.298089],[138.980224,-35.298258],[138.980517,-35.298457],[138.981832,-35.299404],[138.983627,-35.300675],[138.984037,-35.300949],[138.984159,-35.301016],[138.984485,-35.301193],[138.984672,-35.301274],[138.984856,-35.30133],[138.985024,-35.301359],[138.985198,-35.301378],[138.985369,-35.301386],[138.985908,-35.301386],[138.986292,-35.301405],[138.986509,-35.301424],[138.986792,-35.301453],[138.988865,-35.301679],[138.99124,-35.301907],[138.991485,-35.301941],[138.991616,-35.301946]]}},{"type":"Feature","properties":{"tier":"arterial"},"geometry":{"type":"LineString","coordinates":[[138.951373,-35.293203],[138.951613,-35.293299],[138.951837,-35.293377],[138.952051,-35.293442]]}},{"type":"Feature","properties":{"tier":"regional"},"geometry":{"type":"LineString","coordinates":[[138.89368,-35.251695],[138.893514,-35.251985]]}},{"type":"Feature","properties":{"tier":"arterial"},"geometry":{"type":"LineString","coordinates":[[138.779163,-35.497594],[138.779056,-35.497423],[138.778765,-35.496824],[138.778567,-35.496458],[138.778444,-35.496221],[138.778276,-35.495894],[138.777878,-35.495187]]}},{"type":"Feature","properties":{"tier":"arterial"},"geometry":{"type":"LineString","coordinates":[[138.941216,-35.287275],[138.941831,-35.287694],[138.942074,-35.28788],[138.942182,-35.287982],[138.942203,-35.288003],[138.942304,-35.288108],[138.942403,-35.288255],[138.942616,-35.288604],[138.943218,-35.289664],[138.943494,-35.290125],[138.943635,-35.290348],[138.943795,-35.290562],[138.943885,-35.290643],[138.943997,-35.290734],[138.944079,-35.290788],[138.944181,-35.29085],[138.944385,-35.29096],[138.944546,-35.291048],[138.944653,-35.2911],[138.944822,-35.291185],[138.944999,-35.291268],[138.945167,-35.291341],[138.945272,-35.291386],[138.945338,-35.29141],[138.945414,-35.291432],[138.945568,-35.291469],[138.946196,-35.291593],[138.946857,-35.291711],[138.947606,-35.291818],[138.948629,-35.291944],[138.948967,-35.291995],[138.949138,-35.292036],[138.949276,-35.292076],[138.949358,-35.292111],[138.94948,-35.292167],[138.949618,-35.292234],[138.949815,-35.292344],[138.950887,-35.292956],[138.951084,-35.293069],[138.951186,-35.29312],[138.951275,-35.293165],[138.951373,-35.293203]]}},{"type":"Feature","properties":{"tier":"arterial"},"geometry":{"type":"LineString","coordinates":[[138.913162,-35.263886],[138.915287,-35.264537],[138.915536,-35.264629],[138.915671,-35.26469],[138.915766,-35.264741],[138.915911,-35.264835],[138.915997,-35.264891],[138.916105,-35.264975],[138.916217,-35.265069],[138.91816,-35.266719],[138.918845,-35.26729],[138.918885,-35.267329],[138.918982,-35.26743],[138.919052,-35.267514],[138.919129,-35.267616],[138.919192,-35.267712],[138.91924,-35.267795],[138.919298,-35.267912],[138.919329,-35.267989],[138.919353,-35.268049],[138.919389,-35.268165],[138.919446,-35.268366],[138.919458,-35.268421],[138.919596,-35.268936],[138.919645,-35.269108],[138.919728,-35.269339],[138.919839,-35.269559],[138.919941,-35.269733],[138.920034,-35.269881],[138.920141,-35.270037],[138.920327,-35.270284],[138.920523,-35.27053],[138.920653,-35.270682],[138.920829,-35.270876],[138.920983,-35.271031],[138.921224,-35.271282],[138.921541,-35.271593],[138.921727,-35.271753],[138.921991,-35.271973],[138.923837,-35.273548],[138.924251,-35.273931],[138.925355,-35.274988],[138.92643,-35.276032],[138.926604,-35.276185],[138.926716,-35.276285],[138.926828,-35.27636],[138.926854,-35.276377],[138.926992,-35.27647],[138.927144,-35.276569],[138.92736,-35.276703],[138.929188,-35.277798],[138.931345,-35.279105],[138.931593,-35.279272],[138.931703,-35.279347],[138.931815,-35.279443],[138.931963,-35.279567],[138.932236,-35.279795],[138.932597,-35.280095],[138.93285,-35.280313],[138.933777,-35.28108],[138.934211,-35.28144],[138.934947,-35.282065],[138.935624,-35.282634],[138.937245,-35.284013],[138.938336,-35.284955],[138.939967,-35.286334],[138.94046,-35.28674],[138.940641,-35.286876],[138.941022,-35.287144],[138.941191,-35.28726],[138.941216,-35.287275]]}},{"type":"Feature","properties":{"tier":"arterial"},"geometry":{"type":"LineString","coordinates":[[138.909463,-35.26274],[138.909896,-35.262876],[138.912808,-35.263778],[138.913162,-35.263886]]}},{"type":"Feature","properties":{"tier":"arterial"},"geometry":{"type":"LineString","coordinates":[[138.883449,-35.250111],[138.884316,-35.251536],[138.884738,-35.252525],[138.884748,-35.252547]]}},{"type":"Feature","properties":{"tier":"arterial"},"geometry":{"type":"LineString","coordinates":[[138.889965,-35.261513],[138.889971,-35.261501]]}},{"type":"Feature","properties":{"tier":"arterial"},"geometry":{"type":"LineString","coordinates":[[138.891569,-35.260895],[138.891688,-35.260843],[138.892281,-35.260591],[138.893074,-35.260265]]}},{"type":"Feature","properties":{"tier":"arterial"},"geometry":{"type":"LineString","coordinates":[[138.971152,-35.409058],[138.970812,-35.409462],[138.970404,-35.409958],[138.970306,-35.410094],[138.970259,-35.410192],[138.970217,-35.410294],[138.970168,-35.410461],[138.970096,-35.41071],[138.969978,-35.411081],[138.969858,-35.411462],[138.969847,-35.411509],[138.969822,-35.411611],[138.969661,-35.412149],[138.969467,-35.4128]]}},{"type":"Feature","properties":{"tier":"arterial"},"geometry":{"type":"LineString","coordinates":[[138.890066,-35.261455],[138.890086,-35.261456],[138.890106,-35.26146]]}},{"type":"Feature","properties":{"tier":"arterial"},"geometry":{"type":"LineString","coordinates":[[138.889971,-35.261501],[138.889988,-35.261482],[138.890011,-35.261467],[138.890037,-35.261458],[138.890066,-35.261455]]}},{"type":"Feature","properties":{"tier":"arterial"},"geometry":{"type":"LineString","coordinates":[[138.897533,-35.25846],[138.897643,-35.258475],[138.897726,-35.258493],[138.897959,-35.258555],[138.898878,-35.258845]]}},{"type":"Feature","properties":{"tier":"regional"},"geometry":{"type":"LineString","coordinates":[[138.892844,-35.252351],[138.892622,-35.252445],[138.892256,-35.252599],[138.891704,-35.252831]]}},{"type":"Feature","properties":{"tier":"arterial"},"geometry":{"type":"LineString","coordinates":[[138.894267,-35.2516],[138.894204,-35.251562]]}},{"type":"Feature","properties":{"tier":"arterial"},"geometry":{"type":"LineString","coordinates":[[138.766026,-35.449679],[138.76624,-35.449395],[138.766441,-35.449093],[138.766463,-35.449061],[138.766601,-35.448819],[138.766815,-35.448369],[138.766922,-35.448098],[138.766945,-35.448049],[138.766987,-35.447937],[138.767122,-35.447496],[138.767267,-35.446857],[138.767627,-35.445212],[138.76769,-35.44497],[138.767836,-35.444638],[138.767992,-35.444372],[138.768134,-35.444179],[138.768329,-35.443942],[138.768798,-35.443477],[138.768931,-35.443354],[138.770054,-35.442334],[138.771641,-35.440883],[138.772311,-35.440297],[138.774175,-35.438769]]}},{"type":"Feature","properties":{"tier":"arterial"},"geometry":{"type":"LineString","coordinates":[[138.881782,-35.267758],[138.881724,-35.266943],[138.881729,-35.266845],[138.881757,-35.26675],[138.881788,-35.266681],[138.881861,-35.266598],[138.882054,-35.266433],[138.882585,-35.265995],[138.883421,-35.265289],[138.884249,-35.264629]]}},{"type":"Feature","properties":{"tier":"arterial"},"geometry":{"type":"LineString","coordinates":[[138.776922,-35.493329],[138.77529,-35.490189],[138.774824,-35.489326]]}},{"type":"Feature","properties":{"tier":"arterial"},"geometry":{"type":"LineString","coordinates":[[138.777878,-35.495187],[138.777456,-35.494338],[138.776922,-35.493329]]}},{"type":"Feature","properties":{"tier":"arterial"},"geometry":{"type":"LineString","coordinates":[[138.760759,-35.454461],[138.760885,-35.454262],[138.760972,-35.454144],[138.761109,-35.454001],[138.761193,-35.453913],[138.761286,-35.453824],[138.761456,-35.453668],[138.761832,-35.453333],[138.762228,-35.453019],[138.762512,-35.452789],[138.764199,-35.451428],[138.764396,-35.451262],[138.764909,-35.450847],[138.765373,-35.450437],[138.765696,-35.450076],[138.766026,-35.449679]]}},{"type":"Feature","properties":{"tier":"arterial"},"geometry":{"type":"LineString","coordinates":[[138.765133,-35.470804],[138.763665,-35.468335],[138.763312,-35.467753],[138.762948,-35.467199],[138.76219,-35.466097],[138.761351,-35.46492],[138.760702,-35.464031],[138.760094,-35.463148],[138.758942,-35.461542],[138.75854,-35.460989]]}},{"type":"Feature","properties":{"tier":"arterial"},"geometry":{"type":"LineString","coordinates":[[138.774824,-35.489326],[138.772503,-35.484779],[138.769554,-35.479113],[138.768055,-35.476149]]}},{"type":"Feature","properties":{"tier":"arterial"},"geometry":{"type":"LineString","coordinates":[[138.764934,-35.395987],[138.765132,-35.395832],[138.765404,-35.395683],[138.765672,-35.395552],[138.765911,-35.39546],[138.766429,-35.395312],[138.766749,-35.395249],[138.767134,-35.395187],[138.768327,-35.395021],[138.769119,-35.394916],[138.769585,-35.39482],[138.769873,-35.394749],[138.770191,-35.394644],[138.770522,-35.39452],[138.770815,-35.394396],[138.771248,-35.394162],[138.771591,-35.39393],[138.772196,-35.393403],[138.772793,-35.3928],[138.773978,-35.391574],[138.774968,-35.390556],[138.775481,-35.390078],[138.776029,-35.389635],[138.777664,-35.388712],[138.783285,-35.385621],[138.792449,-35.380583],[138.793811,-35.379883],[138.794966,-35.379347],[138.796163,-35.378878],[138.796736,-35.378671],[138.79736,-35.378466],[138.798617,-35.378088],[138.800175,-35.377729],[138.801552,-35.377387],[138.801907,-35.377257],[138.802011,-35.377219],[138.802696,-35.376888]]}},{"type":"Feature","properties":{"tier":"arterial"},"geometry":{"type":"LineString","coordinates":[[138.759471,-35.456357],[138.759683,-35.456064],[138.759986,-35.455602]]}},{"type":"Feature","properties":{"tier":"arterial"},"geometry":{"type":"LineString","coordinates":[[138.952051,-35.293442],[138.952379,-35.293543],[138.953232,-35.293808],[138.954181,-35.294103],[138.954522,-35.294209],[138.95472,-35.294268],[138.954953,-35.294319],[138.955137,-35.294354],[138.95542,-35.294386],[138.955745,-35.294421],[138.95591,-35.294445],[138.956041,-35.294472],[138.956169,-35.294507],[138.956291,-35.294539],[138.956459,-35.294598],[138.957001,-35.29481],[138.957573,-35.29503],[138.959239,-35.29569],[138.959374,-35.295733],[138.959486,-35.29577],[138.959627,-35.295813],[138.959736,-35.295851],[138.959854,-35.295872],[138.960124,-35.295923],[138.961442,-35.296149]]}},{"type":"Feature","properties":{"tier":"arterial"},"geometry":{"type":"LineString","coordinates":[[138.893955,-35.251517],[138.893921,-35.251538],[138.893882,-35.251551],[138.893839,-35.251556],[138.893801,-35.251552],[138.893765,-35.251541],[138.893733,-35.251523],[138.893707,-35.2515],[138.89369,-35.251476],[138.89368,-35.25145],[138.893676,-35.251422]]}},{"type":"Feature","properties":{"tier":"arterial"},"geometry":{"type":"LineString","coordinates":[[138.893788,-35.251295],[138.893836,-35.251289],[138.893884,-35.251294],[138.893928,-35.25131],[138.893965,-35.251336]]}},{"type":"Feature","properties":{"tier":"arterial"},"geometry":{"type":"LineString","coordinates":[[138.893676,-35.251422],[138.893682,-35.251388],[138.893698,-35.251356],[138.893724,-35.251328]]}},{"type":"Feature","properties":{"tier":"regional"},"geometry":{"type":"LineString","coordinates":[[138.911887,-35.471976],[138.912639,-35.47215]]}},{"type":"Feature","properties":{"tier":"arterial"},"geometry":{"type":"LineString","coordinates":[[138.764721,-35.395745],[138.764853,-35.395802],[138.764928,-35.395841],[138.765016,-35.395848],[138.765132,-35.395832]]}},{"type":"Feature","properties":{"tier":"arterial"},"geometry":{"type":"LineString","coordinates":[[138.764453,-35.396456],[138.76455,-35.396278],[138.764652,-35.396163],[138.764745,-35.396036],[138.764772,-35.395928],[138.764748,-35.395844],[138.764721,-35.395745]]}},{"type":"Feature","properties":{"tier":"arterial"},"geometry":{"type":"LineString","coordinates":[[138.890025,-35.261625],[138.889997,-35.261611],[138.889975,-35.261591],[138.889962,-35.261566],[138.889959,-35.261539],[138.889965,-35.261513]]}},{"type":"Feature","properties":{"tier":"arterial"},"geometry":{"type":"LineString","coordinates":[[138.890106,-35.26146],[138.890133,-35.261473],[138.890154,-35.261491],[138.890169,-35.261513],[138.890175,-35.261538],[138.890173,-35.261563]]}},{"type":"Feature","properties":{"tier":"arterial"},"geometry":{"type":"LineString","coordinates":[[138.894004,-35.251422],[138.894,-35.251449],[138.893991,-35.251474],[138.893976,-35.251497],[138.893955,-35.251517]]}},{"type":"Feature","properties":{"tier":"arterial"},"geometry":{"type":"LineString","coordinates":[[138.893965,-35.251336],[138.893986,-35.251362],[138.893999,-35.251391],[138.894004,-35.251422]]}},{"type":"Feature","properties":{"tier":"arterial"},"geometry":{"type":"LineString","coordinates":[[138.75197,-35.311211],[138.753765,-35.305638],[138.75386,-35.303088]]}},{"type":"Feature","properties":{"tier":"arterial"},"geometry":{"type":"LineString","coordinates":[[138.75386,-35.303088],[138.753865,-35.302967]]}},{"type":"Feature","properties":{"tier":"arterial"},"geometry":{"type":"LineString","coordinates":[[138.758803,-35.294418],[138.758899,-35.294252],[138.759685,-35.292958],[138.761177,-35.290423],[138.761449,-35.289986],[138.761571,-35.289842],[138.761682,-35.289716],[138.762143,-35.289384],[138.762849,-35.288897],[138.763735,-35.288331],[138.764192,-35.288049],[138.764655,-35.287806]]}},{"type":"Feature","properties":{"tier":"arterial"},"geometry":{"type":"LineString","coordinates":[[138.758733,-35.294538],[138.758803,-35.294418]]}},{"type":"Feature","properties":{"tier":"arterial"},"geometry":{"type":"LineString","coordinates":[[138.769715,-35.279273],[138.769866,-35.278836],[138.76991,-35.278618]]}},{"type":"Feature","properties":{"tier":"arterial"},"geometry":{"type":"LineString","coordinates":[[138.76991,-35.278618],[138.769933,-35.278501]]}},{"type":"Feature","properties":{"tier":"arterial"},"geometry":{"type":"LineString","coordinates":[[138.847788,-35.307447],[138.850214,-35.303078],[138.850576,-35.302463],[138.850946,-35.302046],[138.851421,-35.301701],[138.852108,-35.301356],[138.856054,-35.298912],[138.860227,-35.296158],[138.861214,-35.295376],[138.861855,-35.294671],[138.864362,-35.290198],[138.864684,-35.289741],[138.865154,-35.289378],[138.865934,-35.28908],[138.870866,-35.28735],[138.871403,-35.287033],[138.871799,-35.286646],[138.872539,-35.285927],[138.873278,-35.285007],[138.87439,-35.28329],[138.875478,-35.281273],[138.877558,-35.27605],[138.878119,-35.274984],[138.878773,-35.273835],[138.880061,-35.271931]]}},{"type":"Feature","properties":{"tier":"arterial"},"geometry":{"type":"LineString","coordinates":[[138.84774,-35.307534],[138.847788,-35.307447]]}},{"type":"Feature","properties":{"tier":"arterial"},"geometry":{"type":"LineString","coordinates":[[138.764343,-35.396584],[138.764453,-35.396456],[138.764565,-35.396325],[138.764934,-35.395987]]}},{"type":"Feature","properties":{"tier":"arterial"},"geometry":{"type":"LineString","coordinates":[[138.764281,-35.396673],[138.764343,-35.396584]]}},{"type":"Feature","properties":{"tier":"arterial"},"geometry":{"type":"LineString","coordinates":[[138.886712,-35.258709],[138.887923,-35.258186]]}},{"type":"Feature","properties":{"tier":"arterial"},"geometry":{"type":"LineString","coordinates":[[138.886586,-35.258762],[138.886641,-35.25874],[138.886712,-35.258709]]}},{"type":"Feature","properties":{"tier":"regional"},"geometry":{"type":"LineString","coordinates":[[138.759567,-35.263276],[138.759841,-35.263477],[138.759983,-35.263561],[138.760108,-35.263598]]}},{"type":"Feature","properties":{"tier":"regional"},"geometry":{"type":"LineString","coordinates":[[138.759476,-35.263209],[138.759567,-35.263276]]}},{"type":"Feature","properties":{"tier":"arterial"},"geometry":{"type":"LineString","coordinates":[[138.757576,-35.466757],[138.759414,-35.465856],[138.761351,-35.46492]]}},{"type":"Feature","properties":{"tier":"arterial"},"geometry":{"type":"LineString","coordinates":[[138.909885,-35.485689],[138.909944,-35.48577],[138.910112,-35.485945],[138.910323,-35.486108],[138.9112,-35.486711],[138.913547,-35.488326],[138.913922,-35.488563],[138.914072,-35.48865],[138.914188,-35.488691],[138.914391,-35.488752],[138.915634,-35.489061]]}},{"type":"Feature","properties":{"tier":"arterial"},"geometry":{"type":"LineString","coordinates":[[138.968644,-35.4047],[138.968471,-35.404748],[138.968313,-35.404846],[138.967536,-35.405325]]}},{"type":"Feature","properties":{"tier":"arterial"},"geometry":{"type":"LineString","coordinates":[[138.982381,-35.401632],[138.982178,-35.401832],[138.982055,-35.401945],[138.981923,-35.402032],[138.981796,-35.402102],[138.981699,-35.402157],[138.981381,-35.402325],[138.981058,-35.402495],[138.980545,-35.402764],[138.979742,-35.403182],[138.979088,-35.403511],[138.978608,-35.403758],[138.978256,-35.403958],[138.978072,-35.404047],[138.977866,-35.404161],[138.977127,-35.404573]]}},{"type":"Feature","properties":{"tier":"arterial"},"geometry":{"type":"LineString","coordinates":[[138.895267,-35.253138],[138.894317,-35.251655],[138.894267,-35.2516]]}},{"type":"Feature","properties":{"tier":"arterial"},"geometry":{"type":"LineString","coordinates":[[138.883369,-35.24998],[138.883383,-35.250002],[138.883449,-35.250111]]}},{"type":"Feature","properties":{"tier":"arterial"},"geometry":{"type":"LineString","coordinates":[[138.903839,-35.256069],[138.901579,-35.256994]]}},{"type":"Feature","properties":{"tier":"arterial"},"geometry":{"type":"LineString","coordinates":[[138.751632,-35.46048],[138.755953,-35.460907],[138.756556,-35.460977],[138.75745,-35.461085],[138.757854,-35.461151],[138.758041,-35.461154],[138.758163,-35.461135],[138.7583,-35.461104],[138.75854,-35.460989]]}},{"type":"Feature","properties":{"tier":"arterial"},"geometry":{"type":"LineString","coordinates":[[138.755109,-35.467948],[138.756384,-35.467329],[138.756888,-35.4671],[138.757576,-35.466757]]}},{"type":"Feature","properties":{"tier":"arterial"},"geometry":{"type":"LineString","coordinates":[[138.774175,-35.438769],[138.77555,-35.437685],[138.776842,-35.436627]]}},{"type":"Feature","properties":{"tier":"arterial"},"geometry":{"type":"LineString","coordinates":[[138.776842,-35.436627],[138.777052,-35.436411],[138.777171,-35.436235],[138.777264,-35.43606],[138.777325,-35.435872],[138.77736,-35.435709],[138.777388,-35.435575],[138.777418,-35.435432],[138.777607,-35.434411],[138.77764,-35.434206],[138.777872,-35.433372]]}},{"type":"Feature","properties":{"tier":"arterial"},"geometry":{"type":"LineString","coordinates":[[138.778308,-35.431346],[138.778542,-35.430284],[138.778748,-35.429243],[138.779712,-35.424754],[138.779805,-35.424201],[138.779835,-35.42364],[138.779811,-35.423375],[138.779773,-35.423079],[138.779678,-35.422744],[138.777986,-35.417785],[138.777701,-35.41697],[138.776335,-35.412956],[138.776158,-35.412536],[138.77599,-35.412192],[138.77584,-35.411957],[138.775668,-35.411735],[138.774489,-35.410377],[138.772953,-35.408632],[138.77158,-35.407076],[138.77099,-35.4064],[138.770671,-35.40607],[138.770336,-35.405772],[138.767953,-35.403769],[138.766043,-35.402153],[138.765321,-35.401541],[138.764715,-35.401018],[138.764501,-35.40081],[138.764396,-35.40068],[138.764247,-35.400477],[138.764088,-35.4002],[138.763937,-35.399823],[138.763883,-35.399613],[138.763873,-35.399529],[138.763809,-35.398948],[138.763775,-35.398268],[138.763791,-35.397875],[138.763858,-35.397554],[138.763968,-35.397242],[138.764067,-35.397016],[138.764187,-35.396806],[138.764281,-35.396673]]}},{"type":"Feature","properties":{"tier":"arterial"},"geometry":{"type":"LineString","coordinates":[[138.880061,-35.271931],[138.881217,-35.270223]]}}]}
