{"type":"FeatureCollection","features":[{"type":"Feature","properties":{"tier":"arterial"},"geometry":{"type":"LineString","coordinates":[[138.56248,-35.064575],[138.56257,-35.066378],[138.562691,-35.067842],[138.562755,-35.068496],[138.562903,-35.070012],[138.562963,-35.070717],[138.563132,-35.072711]]}},{"type":"Feature","properties":{"tier":"arterial"},"geometry":{"type":"LineString","coordinates":[[138.582208,-35.083662],[138.582261,-35.083676],[138.582317,-35.083708],[138.582357,-35.083753],[138.582375,-35.083807],[138.582371,-35.083859],[138.582348,-35.083907],[138.582307,-35.083947],[138.582254,-35.083975],[138.582195,-35.083987],[138.582135,-35.083984],[138.582079,-35.083967],[138.582037,-35.083942],[138.582004,-35.083908],[138.58198,-35.083859],[138.581976,-35.083806],[138.581994,-35.083755],[138.58202,-35.083721],[138.582055,-35.083693],[138.582098,-35.083673],[138.582152,-35.083661],[138.582208,-35.083662]]}},{"type":"Feature","properties":{"tier":"arterial"},"geometry":{"type":"LineString","coordinates":[[138.582004,-35.083908],[138.581886,-35.083892],[138.581844,-35.083886],[138.581734,-35.083883],[138.581581,-35.083883],[138.581086,-35.083928],[138.58073,-35.083938]]}},{"type":"Feature","properties":{"tier":"arterial"},"geometry":{"type":"LineString","coordinates":[[138.58073,-35.083938],[138.58114,-35.083867],[138.581881,-35.083777],[138.581994,-35.083755]]}},{"type":"Feature","properties":{"tier":"arterial"},"geometry":{"type":"LineString","coordinates":[[138.582131,-35.083135],[138.582189,-35.083323],[138.582232,-35.083541],[138.582237,-35.083573],[138.582261,-35.083676]]}},{"type":"Feature","properties":{"tier":"arterial"},"geometry":{"type":"LineString","coordinates":[[138.582098,-35.083673],[138.582123,-35.08358],[138.582131,-35.083554],[138.582133,-35.083385],[138.582122,-35.08328],[138.582131,-35.083135]]}},{"type":"Feature","properties":{"tier":"arterial"},"geometry":{"type":"LineString","coordinates":[[138.583155,-35.069778],[138.583192,-35.069796],[138.583211,-35.069811],[138.583226,-35.069828],[138.583237,-35.069847],[138.583245,-35.069883],[138.58324,-35.06992],[138.58322,-35.069953],[138.583189,-35.06998],[138.583151,-35.069997],[138.583108,-35.070004],[138.583065,-35.07],[138.583025,-35.069985],[138.582989,-35.069957],[138.582966,-35.069921],[138.582961,-35.069881],[138.582971,-35.069842],[138.582998,-35.069808],[138.583031,-35.069786],[138.583071,-35.069773],[138.583113,-35.069771],[138.583155,-35.069778]]}},{"type":"Feature","properties":{"tier":"arterial"},"geometry":{"type":"LineString","coordinates":[[138.583189,-35.06998],[138.583183,-35.070077],[138.583123,-35.070297]]}},{"type":"Feature","properties":{"tier":"arterial"},"geometry":{"type":"LineString","coordinates":[[138.583123,-35.070297],[138.583043,-35.070101],[138.583025,-35.069985]]}},{"type":"Feature","properties":{"tier":"arterial"},"geometry":{"type":"LineString","coordinates":[[138.583076,-35.069409],[138.583126,-35.069573],[138.583164,-35.069675],[138.583192,-35.069796]]}},{"type":"Feature","properties":{"tier":"arterial"},"geometry":{"type":"LineString","coordinates":[[138.582998,-35.069808],[138.583029,-35.069629],[138.583076,-35.069409]]}},{"type":"Feature","properties":{"tier":"arterial"},"geometry":{"type":"LineString","coordinates":[[138.584198,-35.066164],[138.584312,-35.065976],[138.584465,-35.06572],[138.584547,-35.065572],[138.58465,-35.065389],[138.584731,-35.065209],[138.584782,-35.065078],[138.584849,-35.064877],[138.584904,-35.064667],[138.584937,-35.064497],[138.584957,-35.064327],[138.584973,-35.064107],[138.584968,-35.063847],[138.584941,-35.0636],[138.584906,-35.063399],[138.584849,-35.063171],[138.584782,-35.062972],[138.5847,-35.062774],[138.584579,-35.062524],[138.584552,-35.06248]]}},{"type":"Feature","properties":{"tier":"regional"},"geometry":{"type":"LineString","coordinates":[[138.618763,-35.09095],[138.617222,-35.09007],[138.616598,-35.089721],[138.615939,-35.089179],[138.615227,-35.08848],[138.614865,-35.088223],[138.614437,-35.088068],[138.613345,-35.087777]]}},{"type":"Feature","properties":{"tier":"regional"},"geometry":{"type":"LineString","coordinates":[[138.612309,-35.094963],[138.61225,-35.095097],[138.612204,-35.095156],[138.611358,-35.095948],[138.611137,-35.096188],[138.610957,-35.096463],[138.610888,-35.096612],[138.610806,-35.096897],[138.610795,-35.097442],[138.610765,-35.097707],[138.610722,-35.097862],[138.610231,-35.099082],[138.609835,-35.100149],[138.609772,-35.100401],[138.609747,-35.100649],[138.609758,-35.100719],[138.60977,-35.100797],[138.609887,-35.101122],[138.610271,-35.101933],[138.610502,-35.102224],[138.610603,-35.102321],[138.610728,-35.10244],[138.610855,-35.102508],[138.612359,-35.103047],[138.613849,-35.103672],[138.61531,-35.10448],[138.615603,-35.10468],[138.615728,-35.104794],[138.616216,-35.105328],[138.617003,-35.106253],[138.617269,-35.106526],[138.618101,-35.107339],[138.618193,-35.107447],[138.618307,-35.107629],[138.618596,-35.108091],[138.618905,-35.108636],[138.619067,-35.108833],[138.619196,-35.10894],[138.619429,-35.109046],[138.619781,-35.109135],[138.620025,-35.109172],[138.620966,-35.109258],[138.621181,-35.109279]]}},{"type":"Feature","properties":{"tier":"regional"},"geometry":{"type":"LineString","coordinates":[[138.615371,-35.069491],[138.614459,-35.069163],[138.614001,-35.068997],[138.61331,-35.068773],[138.612718,-35.068562],[138.612568,-35.068507],[138.612432,-35.068429],[138.612117,-35.067854],[138.611965,-35.067477],[138.611839,-35.06725],[138.611441,-35.066854],[138.610722,-35.066191],[138.609633,-35.065175],[138.609271,-35.064805],[138.608887,-35.064414],[138.608768,-35.06429],[138.608309,-35.063859],[138.607867,-35.063529],[138.60719,-35.062984],[138.606694,-35.06248]]}},{"type":"Feature","properties":{"tier":"regional"},"geometry":{"type":"LineString","coordinates":[[138.594569,-35.06248],[138.59377,-35.062965],[138.592201,-35.063939],[138.59081,-35.064827],[138.589653,-35.065893],[138.58944,-35.066058],[138.58927,-35.066189],[138.589163,-35.066255],[138.588696,-35.066543],[138.588226,-35.066849],[138.587835,-35.067103],[138.586945,-35.067681],[138.58516,-35.068763],[138.585054,-35.06883]]}},{"type":"Feature","properties":{"tier":"regional"},"geometry":{"type":"LineString","coordinates":[[138.604576,-35.06248],[138.604314,-35.062637],[138.604029,-35.062808],[138.603828,-35.062954],[138.603695,-35.063093],[138.60328,-35.063725],[138.602892,-35.064335],[138.602684,-35.064664],[138.60253,-35.064818],[138.602385,-35.064944],[138.602286,-35.065022],[138.602153,-35.065113],[138.601968,-35.065186],[138.601605,-35.065273],[138.600248,-35.06552],[138.600177,-35.065528],[138.599077,-35.065654],[138.598427,-35.065728],[138.597552,-35.065808],[138.597023,-35.065857],[138.596663,-35.065854],[138.596085,-35.065832],[138.595966,-35.065828],[138.595348,-35.065554],[138.594294,-35.065019],[138.593455,-35.064595],[138.593029,-35.064379],[138.592285,-35.064016],[138.592201,-35.063939]]}},{"type":"Feature","properties":{"tier":"regional"},"geometry":{"type":"LineString","coordinates":[[138.596663,-35.065854],[138.5967,-35.066611],[138.596806,-35.067966],[138.596836,-35.068363],[138.596894,-35.068585],[138.596998,-35.068752],[138.597119,-35.06887],[138.597265,-35.068973],[138.597397,-35.06905],[138.597535,-35.069103],[138.597939,-35.069145],[138.598436,-35.069215],[138.598651,-35.069308],[138.598745,-35.069363],[138.598837,-35.069429],[138.598985,-35.069555],[138.599097,-35.069705],[138.599132,-35.069775],[138.599168,-35.069879],[138.599196,-35.070099],[138.599206,-35.070174],[138.59922,-35.070374],[138.599235,-35.070566],[138.59928,-35.071201],[138.599355,-35.072136],[138.599404,-35.072847]]}},{"type":"Feature","properties":{"tier":"regional"},"geometry":{"type":"LineString","coordinates":[[138.563915,-35.082295],[138.563912,-35.082262],[138.563906,-35.082191],[138.563854,-35.081614],[138.563834,-35.08139],[138.563782,-35.080708],[138.563701,-35.079675]]}},{"type":"Feature","properties":{"tier":"regional"},"geometry":{"type":"LineString","coordinates":[[138.598163,-35.075241],[138.598086,-35.075328],[138.597939,-35.075412],[138.597712,-35.075525],[138.597573,-35.075586],[138.597433,-35.075647],[138.59718,-35.075722],[138.596875,-35.075791],[138.595977,-35.075931],[138.595384,-35.076019],[138.594836,-35.076114]]}},{"type":"Feature","properties":{"tier":"regional"},"geometry":{"type":"LineString","coordinates":[[138.599473,-35.072865],[138.599492,-35.072883],[138.599502,-35.072913],[138.599498,-35.072942],[138.599481,-35.072965],[138.599453,-35.072983],[138.599417,-35.072991],[138.599381,-35.072985],[138.599357,-35.072973],[138.599336,-35.072952],[138.599326,-35.072921],[138.599334,-35.072889],[138.599349,-35.07287],[138.599368,-35.072857],[138.599404,-35.072847],[138.59944,-35.072849],[138.599473,-35.072865]]}},{"type":"Feature","properties":{"tier":"regional"},"geometry":{"type":"LineString","coordinates":[[138.582254,-35.083975],[138.582238,-35.084127],[138.582239,-35.084146],[138.582265,-35.084546],[138.582275,-35.084733],[138.582332,-35.084827],[138.582481,-35.084932],[138.582636,-35.085037],[138.582679,-35.085066],[138.582691,-35.085119]]}},{"type":"Feature","properties":{"tier":"regional"},"geometry":{"type":"LineString","coordinates":[[138.586947,-35.073563],[138.58775,-35.073526],[138.589675,-35.073418],[138.589889,-35.073408],[138.590026,-35.07343]]}},{"type":"Feature","properties":{"tier":"regional"},"geometry":{"type":"LineString","coordinates":[[138.581963,-35.081269],[138.582687,-35.081236],[138.584198,-35.081163],[138.585937,-35.081078],[138.586059,-35.081071],[138.587117,-35.081011],[138.588088,-35.080964],[138.588597,-35.080933],[138.589032,-35.0809],[138.59043,-35.080819]]}},{"type":"Feature","properties":{"tier":"regional"},"geometry":{"type":"LineString","coordinates":[[138.590715,-35.080515],[138.590682,-35.080112],[138.590621,-35.079295],[138.590602,-35.078937],[138.59067,-35.078501],[138.590699,-35.078402],[138.590748,-35.078234],[138.590888,-35.07785],[138.591177,-35.077447],[138.591406,-35.077197],[138.5915,-35.077094],[138.591679,-35.076955]]}},{"type":"Feature","properties":{"tier":"regional"},"geometry":{"type":"LineString","coordinates":[[138.590092,-35.075779],[138.590104,-35.075801],[138.590107,-35.075825],[138.590102,-35.075846],[138.59009,-35.075865],[138.590071,-35.07588],[138.590048,-35.07589],[138.590023,-35.075895],[138.589997,-35.075893],[138.589968,-35.075884],[138.589945,-35.075867],[138.58993,-35.075845],[138.589925,-35.07582],[138.58993,-35.075797],[138.589944,-35.075776],[138.589964,-35.075759],[138.58999,-35.075749],[138.590018,-35.075746],[138.590046,-35.07575],[138.590072,-35.075761],[138.590092,-35.075779]]}},{"type":"Feature","properties":{"tier":"regional"},"geometry":{"type":"LineString","coordinates":[[138.591698,-35.07685],[138.591726,-35.076839],[138.591757,-35.076836],[138.591787,-35.076843],[138.591808,-35.076855],[138.591816,-35.07686],[138.591833,-35.076881],[138.59184,-35.076906],[138.591838,-35.076924],[138.591827,-35.076948],[138.591807,-35.076967],[138.591789,-35.076976],[138.591759,-35.076983],[138.591728,-35.076981],[138.5917,-35.07697],[138.591679,-35.076955],[138.591665,-35.076932],[138.591661,-35.076907],[138.591667,-35.076882],[138.591684,-35.076861],[138.591698,-35.07685]]}},{"type":"Feature","properties":{"tier":"regional"},"geometry":{"type":"LineString","coordinates":[[138.591698,-35.07685],[138.591643,-35.076805],[138.591421,-35.076626],[138.590908,-35.07621],[138.59069,-35.076047],[138.590474,-35.075932],[138.590305,-35.075882],[138.590107,-35.075825]]}},{"type":"Feature","properties":{"tier":"regional"},"geometry":{"type":"LineString","coordinates":[[138.587054,-35.075778],[138.587158,-35.075862],[138.587252,-35.075908],[138.587385,-35.075933],[138.587892,-35.075913],[138.589655,-35.075825],[138.589925,-35.07582]]}},{"type":"Feature","properties":{"tier":"arterial"},"geometry":{"type":"LineString","coordinates":[[138.569632,-35.081201],[138.570871,-35.08162],[138.571664,-35.081874],[138.573305,-35.082361],[138.573434,-35.0824],[138.574001,-35.082573],[138.57595,-35.083144],[138.576705,-35.083489],[138.577163,-35.083721],[138.577654,-35.083947],[138.577949,-35.084037],[138.578301,-35.084058],[138.58073,-35.083938]]}},{"type":"Feature","properties":{"tier":"arterial"},"geometry":{"type":"LineString","coordinates":[[138.569051,-35.081076],[138.568952,-35.080993],[138.568898,-35.080965],[138.568861,-35.080946],[138.567702,-35.080544],[138.567565,-35.080466],[138.567553,-35.080448]]}},{"type":"Feature","properties":{"tier":"arterial"},"geometry":{"type":"LineString","coordinates":[[138.569406,-35.081168],[138.56934,-35.081218],[138.569276,-35.081238],[138.569221,-35.081239]]}},{"type":"Feature","properties":{"tier":"arterial"},"geometry":{"type":"LineString","coordinates":[[138.569632,-35.081201],[138.569525,-35.081186],[138.569406,-35.081168]]}},{"type":"Feature","properties":{"tier":"arterial"},"geometry":{"type":"LineString","coordinates":[[138.569434,-35.081048],[138.56955,-35.081138],[138.569632,-35.081201]]}},{"type":"Feature","properties":{"tier":"arterial"},"geometry":{"type":"LineString","coordinates":[[138.567737,-35.080488],[138.56874,-35.08084],[138.568942,-35.080893],[138.569032,-35.080917],[138.569157,-35.080924]]}},{"type":"Feature","properties":{"tier":"regional"},"geometry":{"type":"LineString","coordinates":[[138.572132,-35.092343],[138.572042,-35.092364],[138.571818,-35.092357],[138.571693,-35.092337],[138.571105,-35.092367],[138.568467,-35.092502],[138.565256,-35.092666],[138.564267,-35.092724],[138.564203,-35.092728],[138.562639,-35.0928],[138.56248,-35.092808]]}},{"type":"Feature","properties":{"tier":"arterial"},"geometry":{"type":"LineString","coordinates":[[138.569221,-35.081239],[138.569106,-35.081291],[138.569056,-35.081313]]}},{"type":"Feature","properties":{"tier":"arterial"},"geometry":{"type":"LineString","coordinates":[[138.569056,-35.081313],[138.569064,-35.081265],[138.569077,-35.081181]]}},{"type":"Feature","properties":{"tier":"regional"},"geometry":{"type":"LineString","coordinates":[[138.593974,-35.076209],[138.593494,-35.07628],[138.593332,-35.076307],[138.593013,-35.076375],[138.592692,-35.076459]]}},{"type":"Feature","properties":{"tier":"regional"},"geometry":{"type":"LineString","coordinates":[[138.594836,-35.076114],[138.594658,-35.076138]]}},{"type":"Feature","properties":{"tier":"arterial"},"geometry":{"type":"LineString","coordinates":[[138.563655,-35.079225],[138.563749,-35.079397],[138.563835,-35.079476],[138.56405,-35.079612],[138.564498,-35.079757]]}},{"type":"Feature","properties":{"tier":"regional"},"geometry":{"type":"LineString","coordinates":[[138.582691,-35.085119],[138.582603,-35.085101],[138.582581,-35.085086],[138.582544,-35.085058],[138.582473,-35.085006],[138.582281,-35.084864],[138.582227,-35.084801],[138.582189,-35.084719],[138.582177,-35.084544],[138.582148,-35.08415],[138.582147,-35.084129],[138.582131,-35.084065],[138.582079,-35.083967]]}},{"type":"Feature","properties":{"tier":"regional"},"geometry":{"type":"LineString","coordinates":[[138.582691,-35.085119],[138.58277,-35.085162],[138.582877,-35.085195],[138.582989,-35.085211],[138.583408,-35.085193],[138.583819,-35.085171],[138.583944,-35.085175],[138.584053,-35.085194],[138.584161,-35.085233],[138.584256,-35.085297]]}},{"type":"Feature","properties":{"tier":"arterial"},"geometry":{"type":"LineString","coordinates":[[138.56248,-35.082368],[138.562914,-35.082346],[138.562991,-35.082342],[138.56321,-35.082331],[138.563441,-35.082319],[138.563915,-35.082295],[138.564752,-35.082254],[138.564832,-35.08225],[138.565504,-35.082211],[138.566932,-35.082112],[138.566981,-35.082109],[138.567361,-35.082056],[138.567726,-35.081954],[138.568182,-35.081792],[138.568851,-35.081449],[138.569056,-35.081313]]}},{"type":"Feature","properties":{"tier":"arterial"},"geometry":{"type":"LineString","coordinates":[[138.581963,-35.081269],[138.581839,-35.079577],[138.581826,-35.079053],[138.581895,-35.078605],[138.582004,-35.07824],[138.582169,-35.077899],[138.58239,-35.077526],[138.58265,-35.077157],[138.582886,-35.076837],[138.583062,-35.076553],[138.583239,-35.076202],[138.583349,-35.075879],[138.583444,-35.075533],[138.583458,-35.075261]]}},{"type":"Feature","properties":{"tier":"regional"},"geometry":{"type":"LineString","coordinates":[[138.563408,-35.114176],[138.564698,-35.114608],[138.567376,-35.115191],[138.568252,-35.11512],[138.568939,-35.115015],[138.5699,-35.114861],[138.571041,-35.114662],[138.571565,-35.114641],[138.572063,-35.114711],[138.573518,-35.115161],[138.573925,-35.115247],[138.574023,-35.115251],[138.574294,-35.115261],[138.575221,-35.115205],[138.575865,-35.115135],[138.576314,-35.115055],[138.577051,-35.11502],[138.577753,-35.114938],[138.578517,-35.114824],[138.579212,-35.114713],[138.579783,-35.114611],[138.580234,-35.114501],[138.580646,-35.114283],[138.581473,-35.11371],[138.582174,-35.113225],[138.582474,-35.113007],[138.582809,-35.112867],[138.583058,-35.112803],[138.584302,-35.112693],[138.584397,-35.112684],[138.584886,-35.112542],[138.584955,-35.112515],[138.58583,-35.112172],[138.586491,-35.111912],[138.587401,-35.111657],[138.587939,-35.111513],[138.590503,-35.110827],[138.590963,-35.110704],[138.592164,-35.110388],[138.592795,-35.110251],[138.593143,-35.110176],[138.594001,-35.10996],[138.594218,-35.109928],[138.594292,-35.109918]]}},{"type":"Feature","properties":{"tier":"regional"},"geometry":{"type":"LineString","coordinates":[[138.585377,-35.096888],[138.585443,-35.097902],[138.585567,-35.099802],[138.585769,-35.099849],[138.587228,-35.100059],[138.588172,-35.100635],[138.589227,-35.102082],[138.589288,-35.102622],[138.59012,-35.103584],[138.592438,-35.104911],[138.59436,-35.106653],[138.59532,-35.108565]]}},{"type":"Feature","properties":{"tier":"regional"},"geometry":{"type":"LineString","coordinates":[[138.584256,-35.085297],[138.584333,-35.085379],[138.584392,-35.085472],[138.58443,-35.085605],[138.584443,-35.085759],[138.584455,-35.08587],[138.584493,-35.08632],[138.58452,-35.086615],[138.584549,-35.087015],[138.58458,-35.087455],[138.584627,-35.088247]]}},{"type":"Feature","properties":{"tier":"arterial"},"geometry":{"type":"LineString","coordinates":[[138.621181,-35.109279],[138.621441,-35.109293],[138.621703,-35.109274],[138.622254,-35.109167],[138.623935,-35.108792],[138.624264,-35.108741],[138.62502,-35.108652]]}},{"type":"Feature","properties":{"tier":"regional"},"geometry":{"type":"LineString","coordinates":[[138.590715,-35.080515],[138.59081,-35.080731]]}},{"type":"Feature","properties":{"tier":"regional"},"geometry":{"type":"LineString","coordinates":[[138.590695,-35.080731],[138.590715,-35.080515]]}},{"type":"Feature","properties":{"tier":"regional"},"geometry":{"type":"LineString","coordinates":[[138.590675,-35.0808],[138.59054,-35.080823],[138.59043,-35.080819]]}},{"type":"Feature","properties":{"tier":"regional"},"geometry":{"type":"LineString","coordinates":[[138.59043,-35.080819],[138.590524,-35.080789],[138.590675,-35.080758]]}},{"type":"Feature","properties":{"tier":"regional"},"geometry":{"type":"LineString","coordinates":[[138.5908,-35.080833],[138.590773,-35.080843],[138.590742,-35.080845],[138.590713,-35.080837],[138.59069,-35.080822],[138.590675,-35.0808],[138.590671,-35.080779],[138.590675,-35.080758],[138.590695,-35.080731],[138.590721,-35.080716],[138.590753,-35.080711],[138.590784,-35.080717],[138.59081,-35.080731],[138.590827,-35.080751],[138.590834,-35.080771],[138.590833,-35.080792],[138.590821,-35.080815],[138.5908,-35.080833]]}},{"type":"Feature","properties":{"tier":"arterial"},"geometry":{"type":"LineString","coordinates":[[138.623843,-35.095248],[138.623851,-35.095307],[138.623846,-35.09536],[138.623816,-35.095419],[138.623773,-35.095472],[138.623645,-35.095555],[138.623462,-35.095608],[138.622363,-35.095663],[138.622183,-35.095691],[138.621993,-35.095751],[138.621882,-35.095822],[138.62158,-35.096093],[138.62127,-35.096317],[138.621183,-35.09642],[138.621109,-35.096631],[138.621079,-35.096915],[138.621116,-35.097179],[138.62123,-35.097519],[138.621452,-35.097964],[138.621523,-35.098195],[138.62153,-35.098292],[138.621479,-35.09851],[138.621425,-35.098607],[138.621351,-35.098694],[138.621211,-35.098793],[138.621062,-35.098843],[138.620945,-35.09886],[138.620285,-35.098898],[138.620074,-35.098862],[138.619718,-35.098759],[138.619571,-35.098731],[138.619475,-35.098736],[138.619369,-35.098775],[138.619301,-35.098852],[138.619291,-35.098956],[138.619347,-35.09909],[138.619481,-35.099323],[138.619527,-35.099477],[138.619569,-35.099893],[138.619633,-35.100098],[138.619835,-35.100397],[138.619911,-35.100536],[138.620016,-35.10086],[138.620078,-35.100992],[138.620209,-35.101179],[138.620432,-35.101454],[138.620603,-35.101705],[138.620711,-35.10188],[138.620847,-35.10217],[138.620866,-35.102364],[138.62084,-35.102513],[138.620646,-35.102982],[138.620539,-35.103125],[138.620444,-35.103199],[138.620324,-35.103257],[138.620242,-35.103278],[138.620053,-35.103282],[138.619912,-35.103238],[138.619657,-35.10307],[138.619559,-35.102974],[138.619289,-35.102649],[138.619169,-35.102534],[138.619021,-35.102442],[138.618853,-35.102379],[138.618714,-35.102355],[138.618374,-35.102346],[138.618149,-35.102315],[138.618037,-35.10228],[138.617642,-35.10211],[138.617548,-35.10209],[138.617407,-35.102085],[138.617282,-35.102108],[138.617218,-35.102141],[138.617158,-35.102202],[138.617134,-35.10226],[138.617132,-35.102331],[138.617158,-35.102408],[138.617251,-35.10255],[138.617574,-35.102956],[138.617668,-35.103116],[138.61798,-35.103892],[138.618089,-35.104088],[138.6182,-35.104251],[138.618433,-35.104541],[138.618653,-35.104787],[138.618909,-35.104992],[138.61927,-35.105207],[138.619622,-35.105448],[138.619868,-35.105596],[138.620825,-35.106096],[138.621039,-35.10622],[138.621272,-35.106382],[138.6214,-35.106504],[138.621566,-35.106703],[138.621976,-35.107335],[138.622087,-35.10754],[138.622199,-35.1078],[138.62222,-35.10796],[138.622192,-35.108127],[138.622131,-35.108231],[138.622038,-35.108319],[138.621943,-35.108379],[138.621455,-35.108616],[138.621323,-35.108694],[138.621215,-35.108802],[138.621151,-35.108968],[138.621168,-35.109153],[138.621181,-35.109279]]}},{"type":"Feature","properties":{"tier":"regional"},"geometry":{"type":"LineString","coordinates":[[138.61302,-35.087666],[138.613119,-35.087549],[138.614941,-35.087123],[138.615416,-35.087016],[138.61588,-35.086875],[138.616252,-35.0866],[138.616571,-35.086257],[138.617093,-35.0856],[138.617224,-35.085549],[138.617409,-35.085556],[138.617637,-35.085617],[138.618198,-35.085827],[138.618452,-35.085985]]}},{"type":"Feature","properties":{"tier":"regional"},"geometry":{"type":"LineString","coordinates":[[138.609763,-35.086345],[138.608463,-35.085815],[138.608137,-35.085699],[138.60772,-35.085606],[138.607195,-35.085571],[138.606384,-35.085619],[138.605875,-35.085788],[138.60548,-35.085947],[138.605128,-35.086],[138.604067,-35.085903],[138.603618,-35.085894],[138.603336,-35.085974],[138.603028,-35.0862],[138.602763,-35.086452],[138.602319,-35.086744],[138.60209,-35.086867],[138.601698,-35.087004],[138.601212,-35.087098],[138.600496,-35.087171],[138.600263,-35.087164],[138.600048,-35.087127],[138.599809,-35.087126],[138.599589,-35.087141],[138.599391,-35.087177],[138.598957,-35.087252],[138.598586,-35.087268],[138.59777,-35.087169],[138.597525,-35.087211],[138.59725,-35.087297],[138.597052,-35.087424],[138.596671,-35.087758],[138.596492,-35.087883],[138.596296,-35.087979],[138.596,-35.088068],[138.595824,-35.08807],[138.595695,-35.088072],[138.59565,-35.088065],[138.595335,-35.088013],[138.59499,-35.087919],[138.594481,-35.087766],[138.593883,-35.087404],[138.593555,-35.087257],[138.593331,-35.087208],[138.592952,-35.087218],[138.592611,-35.087343],[138.592056,-35.087553],[138.59162,-35.087634],[138.591178,-35.087632],[138.589879,-35.087472],[138.588824,-35.087334],[138.588697,-35.087314],[138.588356,-35.087226],[138.587903,-35.087023],[138.587309,-35.086619],[138.587204,-35.086542],[138.587077,-35.086438],[138.586714,-35.086104],[138.586662,-35.086046],[138.586274,-35.08563],[138.586219,-35.085574],[138.58538,-35.084724],[138.584787,-35.084268],[138.58468,-35.084185],[138.584526,-35.084064],[138.584452,-35.084006],[138.584331,-35.083938],[138.58404,-35.083822],[138.583701,-35.083769],[138.583355,-35.083757],[138.582505,-35.0838],[138.582375,-35.083807]]}},{"type":"Feature","properties":{"tier":"regional"},"geometry":{"type":"LineString","coordinates":[[138.584627,-35.088247],[138.58469,-35.088958],[138.58481,-35.090287],[138.584872,-35.090983],[138.584929,-35.091626],[138.584935,-35.091696],[138.584996,-35.092355],[138.585045,-35.09297]]}},{"type":"Feature","properties":{"tier":"regional"},"geometry":{"type":"LineString","coordinates":[[138.56248,-35.113917],[138.562579,-35.113928]]}},{"type":"Feature","properties":{"tier":"arterial"},"geometry":{"type":"LineString","coordinates":[[138.583553,-35.073865],[138.583533,-35.073944],[138.58351,-35.07405],[138.583491,-35.074144],[138.58348,-35.074225],[138.583477,-35.074301],[138.583479,-35.074582],[138.583492,-35.074874],[138.583493,-35.075032],[138.583463,-35.07517]]}},{"type":"Feature","properties":{"tier":"regional"},"geometry":{"type":"LineString","coordinates":[[138.583567,-35.073622],[138.583623,-35.073641],[138.583671,-35.07365],[138.583752,-35.073663],[138.583899,-35.07368],[138.584165,-35.073707]]}},{"type":"Feature","properties":{"tier":"arterial"},"geometry":{"type":"LineString","coordinates":[[138.583163,-35.073655],[138.583183,-35.073626],[138.583216,-35.073595],[138.583256,-35.073571],[138.583301,-35.073554],[138.583349,-35.073544],[138.5834,-35.073544],[138.583448,-35.073552],[138.583494,-35.073569],[138.583534,-35.073592],[138.583567,-35.073622],[138.58359,-35.073653],[138.583605,-35.073687],[138.583613,-35.073722],[138.583612,-35.073758],[138.583603,-35.073794],[138.583586,-35.073827],[138.583553,-35.073865],[138.583521,-35.07389],[138.583484,-35.073909],[138.583442,-35.073922],[138.583399,-35.073929],[138.583355,-35.073929],[138.583311,-35.073922],[138.583273,-35.07391],[138.583238,-35.073893],[138.583208,-35.073871],[138.583182,-35.073846],[138.583162,-35.073817],[138.583148,-35.073785],[138.583142,-35.073752],[138.583142,-35.073719],[138.583149,-35.073686],[138.583163,-35.073655]]}},{"type":"Feature","properties":{"tier":"regional"},"geometry":{"type":"LineString","coordinates":[[138.584165,-35.073707],[138.583815,-35.073761],[138.58376,-35.073771],[138.583697,-35.073789],[138.583586,-35.073827]]}},{"type":"Feature","properties":{"tier":"arterial"},"geometry":{"type":"LineString","coordinates":[[138.583183,-35.073626],[138.583233,-35.073475],[138.583258,-35.073383],[138.583282,-35.073251],[138.583294,-35.073135],[138.583297,-35.072905],[138.583288,-35.072763],[138.583268,-35.072085]]}},{"type":"Feature","properties":{"tier":"arterial"},"geometry":{"type":"LineString","coordinates":[[138.583463,-35.07517],[138.583415,-35.075014],[138.583384,-35.074834],[138.583365,-35.074675],[138.583358,-35.074525],[138.583382,-35.074303],[138.583392,-35.074193],[138.583392,-35.074149],[138.583386,-35.074109],[138.583371,-35.074068],[138.583349,-35.074023],[138.583319,-35.073971],[138.583273,-35.07391]]}},{"type":"Feature","properties":{"tier":"arterial"},"geometry":{"type":"LineString","coordinates":[[138.583268,-35.072085],[138.583407,-35.07275],[138.58341,-35.072906],[138.583391,-35.073053],[138.583376,-35.073213],[138.583368,-35.073264],[138.583365,-35.073316],[138.583372,-35.073359],[138.583382,-35.073393],[138.583405,-35.073432],[138.583437,-35.073484],[138.583494,-35.073569]]}},{"type":"Feature","properties":{"tier":"arterial"},"geometry":{"type":"LineString","coordinates":[[138.583268,-35.072085],[138.583241,-35.071761],[138.583226,-35.071503],[138.583193,-35.071172],[138.583123,-35.070297]]}},{"type":"Feature","properties":{"tier":"arterial"},"geometry":{"type":"LineString","coordinates":[[138.62502,-35.076816],[138.624755,-35.076869],[138.624441,-35.076997],[138.624108,-35.077172],[138.623902,-35.077326],[138.62355,-35.077723],[138.623454,-35.077804],[138.623305,-35.077889],[138.62281,-35.078084],[138.622571,-35.078229],[138.622354,-35.078446],[138.622194,-35.078664],[138.622136,-35.078794],[138.622064,-35.079126],[138.622042,-35.079227],[138.621982,-35.079366],[138.621735,-35.079699],[138.621677,-35.079829],[138.621653,-35.079933],[138.621655,-35.08012],[138.621759,-35.080438]]}},{"type":"Feature","properties":{"tier":"arterial"},"geometry":{"type":"LineString","coordinates":[[138.563915,-35.082295],[138.56368,-35.082391],[138.563402,-35.08241],[138.563325,-35.082426],[138.563243,-35.082468]]}},{"type":"Feature","properties":{"tier":"arterial"},"geometry":{"type":"LineString","coordinates":[[138.563441,-35.082319],[138.563794,-35.082249],[138.56386,-35.082216],[138.563906,-35.082191]]}},{"type":"Feature","properties":{"tier":"arterial"},"geometry":{"type":"LineString","coordinates":[[138.563193,-35.08248],[138.563118,-35.082412],[138.563039,-35.082377],[138.562992,-35.082366],[138.562914,-35.082346]]}},{"type":"Feature","properties":{"tier":"arterial"},"geometry":{"type":"LineString","coordinates":[[138.622369,-35.06248],[138.622357,-35.062556],[138.622378,-35.062666],[138.622412,-35.062731],[138.622457,-35.062795],[138.622582,-35.06289],[138.622872,-35.063018],[138.623171,-35.063187],[138.623736,-35.063511],[138.62389,-35.063599],[138.624153,-35.063712],[138.624557,-35.063859],[138.624785,-35.063981],[138.624899,-35.064062],[138.62502,-35.064177]]}},{"type":"Feature","properties":{"tier":"arterial"},"geometry":{"type":"LineString","coordinates":[[138.62502,-35.064933],[138.624973,-35.064928],[138.624889,-35.064912],[138.624657,-35.064845],[138.62443,-35.064794],[138.62421,-35.064772],[138.623862,-35.064757],[138.623486,-35.064736],[138.622987,-35.064677],[138.622774,-35.064676],[138.622586,-35.064686],[138.622455,-35.064726],[138.622347,-35.064777],[138.622252,-35.06486],[138.622193,-35.064965],[138.622156,-35.065123],[138.622144,-35.065267],[138.622137,-35.06538],[138.622005,-35.065684],[138.621975,-35.065796],[138.621975,-35.065891],[138.622016,-35.06599],[138.622107,-35.066102],[138.62228,-35.066231],[138.622372,-35.066287],[138.622467,-35.066332],[138.622943,-35.066482],[138.623353,-35.066612],[138.623702,-35.066701],[138.624103,-35.066793],[138.624309,-35.066872],[138.624431,-35.066928],[138.624579,-35.067],[138.624722,-35.067147],[138.624877,-35.067341],[138.62502,-35.067587]]}},{"type":"Feature","properties":{"tier":"regional"},"geometry":{"type":"LineString","coordinates":[[138.583564,-35.069703],[138.583237,-35.069847]]}},{"type":"Feature","properties":{"tier":"arterial"},"geometry":{"type":"LineString","coordinates":[[138.567553,-35.080448],[138.567737,-35.080488]]}},{"type":"Feature","properties":{"tier":"regional"},"geometry":{"type":"LineString","coordinates":[[138.594658,-35.076138],[138.594133,-35.076217],[138.593974,-35.076209]]}},{"type":"Feature","properties":{"tier":"regional"},"geometry":{"type":"LineString","coordinates":[[138.593974,-35.076209],[138.594118,-35.076163],[138.594646,-35.076081]]}},{"type":"Feature","properties":{"tier":"regional"},"geometry":{"type":"LineString","coordinates":[[138.594646,-35.076081],[138.594823,-35.076051]]}},{"type":"Feature","properties":{"tier":"regional"},"geometry":{"type":"LineString","coordinates":[[138.594823,-35.076051],[138.595379,-35.075965],[138.595962,-35.075875],[138.595989,-35.075871],[138.596832,-35.075737],[138.596994,-35.075702],[138.597022,-35.075696],[138.597194,-35.075654],[138.597352,-35.075605],[138.597503,-35.07555],[138.597545,-35.075532],[138.597706,-35.075465],[138.597952,-35.075342],[138.598053,-35.075281],[138.598163,-35.075241]]}},{"type":"Feature","properties":{"tier":"regional"},"geometry":{"type":"LineString","coordinates":[[138.592692,-35.076459],[138.59269,-35.07648],[138.59267,-35.0765],[138.592644,-35.076511],[138.592295,-35.076655],[138.592047,-35.07678],[138.59184,-35.076906]]}},{"type":"Feature","properties":{"tier":"regional"},"geometry":{"type":"LineString","coordinates":[[138.591808,-35.076855],[138.592005,-35.076733],[138.592018,-35.076726],[138.592106,-35.076678],[138.592191,-35.076636],[138.592305,-35.076582],[138.592612,-35.076457],[138.592631,-35.07645],[138.592658,-35.076449],[138.592692,-35.076459]]}},{"type":"Feature","properties":{"tier":"arterial"},"geometry":{"type":"LineString","coordinates":[[138.564498,-35.079757],[138.565331,-35.079819],[138.565681,-35.079861],[138.56604,-35.079914],[138.5664,-35.08002],[138.567077,-35.080284],[138.567553,-35.080448]]}},{"type":"Feature","properties":{"tier":"arterial"},"geometry":{"type":"LineString","coordinates":[[138.563213,-35.073667],[138.563272,-35.074359],[138.563312,-35.074825]]}},{"type":"Feature","properties":{"tier":"arterial"},"geometry":{"type":"LineString","coordinates":[[138.563701,-35.079675],[138.564498,-35.079757]]}},{"type":"Feature","properties":{"tier":"arterial"},"geometry":{"type":"LineString","coordinates":[[138.563312,-35.074825],[138.563517,-35.077091],[138.563613,-35.078655],[138.563644,-35.079159],[138.563655,-35.079225]]}},{"type":"Feature","properties":{"tier":"regional"},"geometry":{"type":"LineString","coordinates":[[138.613345,-35.087777],[138.613328,-35.087826],[138.613156,-35.088329],[138.612863,-35.089269],[138.612569,-35.089947],[138.612484,-35.090245],[138.61247,-35.090368],[138.612473,-35.090916],[138.612688,-35.093823],[138.612686,-35.094227],[138.612609,-35.094574],[138.612558,-35.094691],[138.612477,-35.094817],[138.612314,-35.094952],[138.612309,-35.094963]]}},{"type":"Feature","properties":{"tier":"regional"},"geometry":{"type":"LineString","coordinates":[[138.61302,-35.087666],[138.610286,-35.08656]]}},{"type":"Feature","properties":{"tier":"regional"},"geometry":{"type":"LineString","coordinates":[[138.613345,-35.087777],[138.61302,-35.087666]]}},{"type":"Feature","properties":{"tier":"arterial"},"geometry":{"type":"LineString","coordinates":[[138.582131,-35.083135],[138.581963,-35.081269]]}},{"type":"Feature","properties":{"tier":"arterial"},"geometry":{"type":"LineString","coordinates":[[138.569051,-35.081076],[138.569063,-35.081013],[138.569095,-35.080973],[138.569157,-35.080924]]}},{"type":"Feature","properties":{"tier":"arterial"},"geometry":{"type":"LineString","coordinates":[[138.569077,-35.081181],[138.569059,-35.081137],[138.569051,-35.081076]]}},{"type":"Feature","properties":{"tier":"arterial"},"geometry":{"type":"LineString","coordinates":[[138.569157,-35.080924],[138.569213,-35.08092],[138.569295,-35.080922],[138.569353,-35.080947],[138.569377,-35.080966],[138.569402,-35.080986],[138.569434,-35.081048]]}},{"type":"Feature","properties":{"tier":"arterial"},"geometry":{"type":"LineString","coordinates":[[138.569221,-35.081239],[138.569155,-35.081223],[138.569077,-35.081181]]}},{"type":"Feature","properties":{"tier":"arterial"},"geometry":{"type":"LineString","coordinates":[[138.569434,-35.081048],[138.569436,-35.081103],[138.569406,-35.081168]]}},{"type":"Feature","properties":{"tier":"arterial"},"geometry":{"type":"LineString","coordinates":[[138.563655,-35.079225],[138.563701,-35.079675]]}},{"type":"Feature","properties":{"tier":"arterial"},"geometry":{"type":"LineString","coordinates":[[138.583458,-35.075261],[138.583463,-35.07517]]}},{"type":"Feature","properties":{"tier":"arterial"},"geometry":{"type":"LineString","coordinates":[[138.583076,-35.069409],[138.583083,-35.069032],[138.583099,-35.068843],[138.583117,-35.068706],[138.583137,-35.068569],[138.583172,-35.068375],[138.583203,-35.068246],[138.583251,-35.068064],[138.583344,-35.067776],[138.583396,-35.067632],[138.5835,-35.067385],[138.583581,-35.067213],[138.583699,-35.066998],[138.583815,-35.066793],[138.58397,-35.066537],[138.584048,-35.06641],[138.584198,-35.066164]]}},{"type":"Feature","properties":{"tier":"regional"},"geometry":{"type":"LineString","coordinates":[[138.585054,-35.06883],[138.584686,-35.069063],[138.584572,-35.069136],[138.58441,-35.069238],[138.584096,-35.069438],[138.583564,-35.069703]]}},{"type":"Feature","properties":{"tier":"regional"},"geometry":{"type":"LineString","coordinates":[[138.563312,-35.074825],[138.563043,-35.07484],[138.562591,-35.074864],[138.56248,-35.07487]]}},{"type":"Feature","properties":{"tier":"regional"},"geometry":{"type":"LineString","coordinates":[[138.610286,-35.08656],[138.609763,-35.086345]]}},{"type":"Feature","properties":{"tier":"arterial"},"geometry":{"type":"LineString","coordinates":[[138.621759,-35.080438],[138.621823,-35.08073],[138.621777,-35.080976],[138.621788,-35.081342],[138.621879,-35.081636],[138.621976,-35.082076]]}},{"type":"Feature","properties":{"tier":"arterial"},"geometry":{"type":"LineString","coordinates":[[138.621976,-35.082076],[138.622184,-35.082516],[138.622212,-35.082618],[138.622215,-35.082733],[138.622188,-35.082816],[138.622152,-35.082855],[138.622024,-35.082892],[138.621839,-35.082882],[138.621454,-35.082819],[138.621371,-35.082831],[138.62122,-35.082894],[138.621141,-35.082955],[138.621004,-35.08311],[138.620875,-35.083309]]}},{"type":"Feature","properties":{"tier":"arterial"},"geometry":{"type":"LineString","coordinates":[[138.620875,-35.083309],[138.620728,-35.083605],[138.620644,-35.083828],[138.620497,-35.084427],[138.620459,-35.084526],[138.620435,-35.084567],[138.620386,-35.084651],[138.620057,-35.085039],[138.619618,-35.085779],[138.619537,-35.085881],[138.61943,-35.085967],[138.619228,-35.086043],[138.619132,-35.086049]]}},{"type":"Feature","properties":{"tier":"arterial"},"geometry":{"type":"LineString","coordinates":[[138.619132,-35.086049],[138.618837,-35.086039],[138.618452,-35.085985],[138.618128,-35.08594],[138.61781,-35.085944],[138.617664,-35.08597],[138.617432,-35.086051],[138.617157,-35.086218],[138.61691,-35.086419],[138.616834,-35.086504],[138.616767,-35.086621],[138.616748,-35.086733],[138.616761,-35.086938],[138.616829,-35.087157],[138.616982,-35.087537],[138.617007,-35.087639],[138.617004,-35.087809],[138.61697,-35.087889],[138.616907,-35.087946],[138.616834,-35.087982],[138.616744,-35.088007],[138.616473,-35.088018],[138.616337,-35.088042],[138.616204,-35.088094],[138.616143,-35.088142],[138.616085,-35.088233],[138.616069,-35.088301],[138.616089,-35.088412],[138.616141,-35.088535],[138.616254,-35.08872],[138.616445,-35.088963],[138.616754,-35.089299],[138.616974,-35.089504],[138.617248,-35.089723],[138.618072,-35.090291],[138.618746,-35.090876],[138.618763,-35.09095]]}},{"type":"Feature","properties":{"tier":"regional"},"geometry":{"type":"LineString","coordinates":[[138.599417,-35.072991],[138.599374,-35.073423],[138.59935,-35.073665],[138.599249,-35.073937],[138.599123,-35.07421],[138.599003,-35.074423],[138.598833,-35.074626],[138.598419,-35.075053],[138.598163,-35.075241]]}},{"type":"Feature","properties":{"tier":"regional"},"geometry":{"type":"LineString","coordinates":[[138.62502,-35.073562],[138.623799,-35.073456],[138.623128,-35.073387],[138.622053,-35.073069],[138.621623,-35.072906],[138.621177,-35.072863],[138.620306,-35.072696],[138.619992,-35.072584],[138.619771,-35.072464],[138.619294,-35.072383],[138.61909,-35.07231],[138.61899,-35.072168],[138.61888,-35.071868],[138.61866,-35.071095],[138.618429,-35.070825],[138.618125,-35.070657],[138.616798,-35.070176],[138.615371,-35.069491]]}},{"type":"Feature","properties":{"tier":"arterial"},"geometry":{"type":"LineString","coordinates":[[138.563132,-35.072711],[138.563206,-35.073579]]}},{"type":"Feature","properties":{"tier":"arterial"},"geometry":{"type":"LineString","coordinates":[[138.563206,-35.073579],[138.563213,-35.073667]]}},{"type":"Feature","properties":{"tier":"regional"},"geometry":{"type":"LineString","coordinates":[[138.562579,-35.113928],[138.562735,-35.113955],[138.562767,-35.11396],[138.563408,-35.114176]]}},{"type":"Feature","properties":{"tier":"regional"},"geometry":{"type":"LineString","coordinates":[[138.584165,-35.073707],[138.584311,-35.073696],[138.585976,-35.073612],[138.586947,-35.073563]]}},{"type":"Feature","properties":{"tier":"regional"},"geometry":{"type":"LineString","coordinates":[[138.586947,-35.073563],[138.587001,-35.074263],[138.58705,-35.074962],[138.587077,-35.075352],[138.587055,-35.075473],[138.587032,-35.075567],[138.587034,-35.075658],[138.587054,-35.075778]]}},{"type":"Feature","properties":{"tier":"regional"},"geometry":{"type":"LineString","coordinates":[[138.612309,-35.094963],[138.612283,-35.094966],[138.612183,-35.094979],[138.61212,-35.094963],[138.61206,-35.094958],[138.612006,-35.094957],[138.611958,-35.094963],[138.611894,-35.094978],[138.611808,-35.095008],[138.611566,-35.095101],[138.61133,-35.095186],[138.611081,-35.095261],[138.610925,-35.095297],[138.610741,-35.095334],[138.610504,-35.095358],[138.610252,-35.095364],[138.609982,-35.095355],[138.609654,-35.095324],[138.609112,-35.095263],[138.608435,-35.095185],[138.608045,-35.095147],[138.607874,-35.09514],[138.607692,-35.095137],[138.60743,-35.095146],[138.607132,-35.095173],[138.60684,-35.095217],[138.60667,-35.095253],[138.606509,-35.095292],[138.606283,-35.095358],[138.605966,-35.09548],[138.60582,-35.095539],[138.605609,-35.09564],[138.605479,-35.095712],[138.605274,-35.095832],[138.605143,-35.095922],[138.605028,-35.096004],[138.604853,-35.096145],[138.604698,-35.096288],[138.604586,-35.096399],[138.604477,-35.096523],[138.604376,-35.096648],[138.604313,-35.096737],[138.604268,-35.0968],[138.604148,-35.09698],[138.603902,-35.097371],[138.603692,-35.097701],[138.603569,-35.097878],[138.603403,-35.098075],[138.603127,-35.098331],[138.602923,-35.09849],[138.602793,-35.098562],[138.60266,-35.098622],[138.602347,-35.098739],[138.601802,-35.098918],[138.601612,-35.098993],[138.601293,-35.09914],[138.600977,-35.0993],[138.600735,-35.099433],[138.60062,-35.099517],[138.600542,-35.099585],[138.600494,-35.099636],[138.600447,-35.099702],[138.600404,-35.099776],[138.600367,-35.09986],[138.600315,-35.100095],[138.600286,-35.100297],[138.600296,-35.100498],[138.600351,-35.100689],[138.600405,-35.100823],[138.60046,-35.100943],[138.600671,-35.101346],[138.600822,-35.101495],[138.600958,-35.101602],[138.601261,-35.101802],[138.601869,-35.102281],[138.602126,-35.10299],[138.601752,-35.103828],[138.601424,-35.104369],[138.600962,-35.105134],[138.600345,-35.106237],[138.600104,-35.10656],[138.599656,-35.106947],[138.599415,-35.107046],[138.599213,-35.107106],[138.598857,-35.107172],[138.598829,-35.107177],[138.598782,-35.107186],[138.597109,-35.107321],[138.596854,-35.107374],[138.596531,-35.107501],[138.596084,-35.107877],[138.59532,-35.108565],[138.594479,-35.109422],[138.594362,-35.109726],[138.594292,-35.109918],[138.594239,-35.110124],[138.594179,-35.112301],[138.593441,-35.115085],[138.593358,-35.115373],[138.593294,-35.115563],[138.59323,-35.115723],[138.593181,-35.115814],[138.59307,-35.115986],[138.592972,-35.116126],[138.59137,-35.117977],[138.59103,-35.118376],[138.590868,-35.118556],[138.590735,-35.118695],[138.590582,-35.118841],[138.590448,-35.118958],[138.590323,-35.119059],[138.590153,-35.119176],[138.589795,-35.119392],[138.589549,-35.119538],[138.589326,-35.119673],[138.589123,-35.119814],[138.588929,-35.11996],[138.588642,-35.120205],[138.588403,-35.120413],[138.588192,-35.120598],[138.588033,-35.120749],[138.587876,-35.120905],[138.587739,-35.121066],[138.587619,-35.121225],[138.587493,-35.12141],[138.587382,-35.121611],[138.58733,-35.121713],[138.58722,-35.121932],[138.58706,-35.122256],[138.586951,-35.12249],[138.586889,-35.122654],[138.586842,-35.122831],[138.586818,-35.122991],[138.586804,-35.123182],[138.586807,-35.123293],[138.586809,-35.123347],[138.58682,-35.123478],[138.586839,-35.123589],[138.586881,-35.123746],[138.587006,-35.124207],[138.58713,-35.124736],[138.587146,-35.124878],[138.587149,-35.12502]]}},{"type":"Feature","properties":{"tier":"regional"},"geometry":{"type":"LineString","coordinates":[[138.585053,-35.093072],[138.585262,-35.095705],[138.585377,-35.096888]]}},{"type":"Feature","properties":{"tier":"regional"},"geometry":{"type":"LineString","coordinates":[[138.585045,-35.09297],[138.585053,-35.093072]]}},{"type":"Feature","properties":{"tier":"arterial"},"geometry":{"type":"LineString","coordinates":[[138.618763,-35.09095],[138.61949,-35.09137],[138.619828,-35.09154],[138.62048,-35.091785],[138.620581,-35.091836],[138.620665,-35.091901],[138.620689,-35.091948],[138.620691,-35.092098],[138.62065,-35.092226],[138.620537,-35.092416],[138.620463,-35.092609],[138.620436,-35.09283],[138.620436,-35.093144],[138.620461,-35.093284],[138.620571,-35.093542],[138.620739,-35.093765],[138.620928,-35.093947],[138.62132,-35.09423],[138.621742,-35.094496],[138.622016,-35.094624],[138.622179,-35.094672],[138.622444,-35.094718],[138.623094,-35.094779],[138.623397,-35.094848],[138.623493,-35.094889],[138.623706,-35.095041],[138.623796,-35.095141],[138.623843,-35.095248]]}}]}
