{"type":"FeatureCollection","features":[{"type":"Feature","properties":{"tier":"arterial"},"geometry":{"type":"LineString","coordinates":[[138.63824,-35.016127],[138.638501,-35.01611],[138.639102,-35.016072],[138.639425,-35.016051],[138.640073,-35.016],[138.640824,-35.015934],[138.641312,-35.015772],[138.64195,-35.01557],[138.642406,-35.01546],[138.642626,-35.015407],[138.64327,-35.015328],[138.643758,-35.01531],[138.644493,-35.015214],[138.645013,-35.015051],[138.64549,-35.015051],[138.646048,-35.015201],[138.646386,-35.015552],[138.646708,-35.015877],[138.646976,-35.015934],[138.647878,-35.015868],[138.648457,-35.015838],[138.648817,-35.015912],[138.649251,-35.016119],[138.649364,-35.016374],[138.649514,-35.016976],[138.649841,-35.017437],[138.650367,-35.01814],[138.650554,-35.018544],[138.650533,-35.019005],[138.650635,-35.019304],[138.651046,-35.019723],[138.651408,-35.020019],[138.651799,-35.020508],[138.652636,-35.020938],[138.653344,-35.021382],[138.653773,-35.021799],[138.654239,-35.022308],[138.654288,-35.022348],[138.654349,-35.022399],[138.654417,-35.022448],[138.654493,-35.022498],[138.654582,-35.022548],[138.654651,-35.022584],[138.654703,-35.02261],[138.654777,-35.02264],[138.654862,-35.02267],[138.654928,-35.022692],[138.65501,-35.022714],[138.65511,-35.022739],[138.655259,-35.022768],[138.655625,-35.022833],[138.655809,-35.022869],[138.655993,-35.022907],[138.65608,-35.022926],[138.656627,-35.023074],[138.656775,-35.023108],[138.65686,-35.023125],[138.656991,-35.023141],[138.657152,-35.023154],[138.657359,-35.023162],[138.65759,-35.023165],[138.65788,-35.023169],[138.658038,-35.023177],[138.658144,-35.023182],[138.658241,-35.023193],[138.658344,-35.023216],[138.658479,-35.023245],[138.658582,-35.023277],[138.65872,-35.023324],[138.658869,-35.023386],[138.659132,-35.023509],[138.659174,-35.023529],[138.659312,-35.023594],[138.659523,-35.023692],[138.659594,-35.023724],[138.659709,-35.023767],[138.659825,-35.023804],[138.659926,-35.023829],[138.659984,-35.023843],[138.660092,-35.023861],[138.660153,-35.023869],[138.660224,-35.023875],[138.660288,-35.023878],[138.660457,-35.023873],[138.660489,-35.023871],[138.660586,-35.023864],[138.660724,-35.023842],[138.660816,-35.023821],[138.660966,-35.023785],[138.661175,-35.023735],[138.661256,-35.02372],[138.661407,-35.023702],[138.662201,-35.023609],[138.66285,-35.023583],[138.663381,-35.023614],[138.663976,-35.023649],[138.665272,-35.023744],[138.665478,-35.023759],[138.666991,-35.023891],[138.667128,-35.023908],[138.667271,-35.023935],[138.667412,-35.02397],[138.667552,-35.024014],[138.66778,-35.024102],[138.667981,-35.024209],[138.668204,-35.024347],[138.668318,-35.024423],[138.669014,-35.024879],[138.669302,-35.025032]]}},{"type":"Feature","properties":{"tier":"high"},"geometry":{"type":"LineString","coordinates":[[138.715887,-35.003125],[138.715852,-35.003046],[138.715744,-35.002802],[138.715606,-35.0026],[138.715427,-35.002459],[138.714537,-35.001821],[138.713876,-35.001353],[138.713817,-35.001308],[138.71311,-35.00069]]}},{"type":"Feature","properties":{"tier":"regional"},"geometry":{"type":"LineString","coordinates":[[138.715563,-35.024357],[138.715638,-35.024674],[138.715669,-35.024773],[138.715733,-35.02492],[138.715764,-35.025169],[138.715698,-35.025379],[138.715548,-35.025543],[138.715236,-35.02577],[138.714849,-35.026139],[138.714609,-35.026476],[138.714414,-35.026843],[138.714415,-35.027064],[138.714475,-35.027416],[138.714628,-35.027794],[138.714684,-35.027993],[138.714752,-35.028231],[138.714863,-35.028554]]}},{"type":"Feature","properties":{"tier":"high"},"geometry":{"type":"LineString","coordinates":[[138.714861,-35.001423],[138.715013,-35.001542],[138.715314,-35.001667],[138.71561,-35.001743],[138.715776,-35.001781]]}},{"type":"Feature","properties":{"tier":"regional"},"geometry":{"type":"LineString","coordinates":[[138.738733,-35.0165],[138.738707,-35.016631],[138.738692,-35.016731],[138.73866,-35.016825],[138.738573,-35.016921],[138.738458,-35.016998],[138.738191,-35.017078],[138.737869,-35.01715],[138.737577,-35.017281],[138.737418,-35.017484],[138.737374,-35.017781],[138.737379,-35.01805],[138.737517,-35.018303],[138.737704,-35.018446],[138.738011,-35.018501],[138.738424,-35.018408],[138.738836,-35.018232],[138.739004,-35.018166],[138.739085,-35.018135],[138.739214,-35.018085],[138.739303,-35.01805],[138.739721,-35.017913],[138.739996,-35.01783],[138.740358,-35.017825],[138.740716,-35.017896],[138.741128,-35.018028],[138.741425,-35.018144],[138.74182,-35.018281],[138.742073,-35.018468],[138.742172,-35.018677],[138.742123,-35.01893],[138.742071,-35.019039],[138.741947,-35.019298],[138.74187,-35.01952],[138.741819,-35.019755],[138.741819,-35.020069],[138.74187,-35.020321],[138.742066,-35.020691],[138.742391,-35.020994],[138.742475,-35.021117],[138.742471,-35.021174],[138.742464,-35.021274],[138.742324,-35.021492],[138.742044,-35.021733],[138.74164,-35.021991],[138.741086,-35.022187],[138.740927,-35.022259],[138.740821,-35.022342],[138.740803,-35.022441],[138.740801,-35.022572],[138.740808,-35.022892],[138.740852,-35.023299],[138.740939,-35.023721],[138.741085,-35.024085],[138.741099,-35.024361],[138.741041,-35.0249],[138.740989,-35.025433],[138.740906,-35.025826],[138.740889,-35.026093]]}},{"type":"Feature","properties":{"tier":"regional"},"geometry":{"type":"LineString","coordinates":[[138.75002,-35.041604],[138.749791,-35.041642],[138.748756,-35.041787],[138.74785,-35.042046],[138.7476,-35.042114],[138.747188,-35.042204],[138.746661,-35.042271],[138.746211,-35.042337],[138.745728,-35.042363],[138.745211,-35.042347],[138.744831,-35.042298],[138.744542,-35.042234],[138.74418,-35.04209],[138.743682,-35.041869],[138.743234,-35.041671],[138.742816,-35.041545],[138.742505,-35.041508],[138.742159,-35.041527],[138.741872,-35.041577],[138.741527,-35.041685],[138.740622,-35.042015],[138.739214,-35.042521],[138.738721,-35.042702],[138.737716,-35.04318],[138.7364,-35.043907],[138.736244,-35.044015],[138.736006,-35.044122],[138.735563,-35.044271],[138.734959,-35.044429],[138.733971,-35.044708],[138.733791,-35.04472],[138.733633,-35.044709],[138.733454,-35.044671],[138.733393,-35.044642]]}},{"type":"Feature","properties":{"tier":"regional"},"geometry":{"type":"LineString","coordinates":[[138.732384,-35.013285],[138.732616,-35.013236],[138.732894,-35.013285],[138.733005,-35.013281],[138.733223,-35.013203],[138.733428,-35.01308],[138.733702,-35.012909],[138.733886,-35.01262],[138.734033,-35.01224],[138.734595,-35.009304],[138.734693,-35.008739],[138.734859,-35.008382],[138.735151,-35.008052],[138.735367,-35.007632],[138.735589,-35.007172],[138.735694,-35.007104],[138.736048,-35.006836],[138.737076,-35.00626],[138.737561,-35.005951],[138.737963,-35.005761],[138.737991,-35.005747],[138.738267,-35.005657],[138.738858,-35.005574],[138.739261,-35.005465],[138.739517,-35.005354],[138.739708,-35.005204],[138.740378,-35.004538]]}},{"type":"Feature","properties":{"tier":"arterial"},"geometry":{"type":"LineString","coordinates":[[138.702881,-35.000171],[138.702779,-34.99998]]}},{"type":"Feature","properties":{"tier":"arterial"},"geometry":{"type":"LineString","coordinates":[[138.698378,-35.007116],[138.698317,-35.006871],[138.698358,-35.006683],[138.698459,-35.006524],[138.698847,-35.005911],[138.699508,-35.005137],[138.700057,-35.004512],[138.700101,-35.004463],[138.700334,-35.004146]]}},{"type":"Feature","properties":{"tier":"arterial"},"geometry":{"type":"LineString","coordinates":[[138.716181,-35.003756],[138.716186,-35.0038]]}},{"type":"Feature","properties":{"tier":"arterial"},"geometry":{"type":"LineString","coordinates":[[138.716108,-35.003526],[138.716145,-35.003536],[138.716178,-35.003552],[138.716205,-35.003575],[138.716226,-35.003605],[138.716237,-35.003638],[138.716237,-35.003672],[138.716227,-35.003705],[138.716207,-35.003735],[138.716181,-35.003756]]}},{"type":"Feature","properties":{"tier":"arterial"},"geometry":{"type":"LineString","coordinates":[[138.632575,-34.99998],[138.632591,-35.000187],[138.632607,-35.001054],[138.632648,-35.001673],[138.63266,-35.001821],[138.632777,-35.002193],[138.632823,-35.002579],[138.632856,-35.003833],[138.632996,-35.005509],[138.633011,-35.005686]]}},{"type":"Feature","properties":{"tier":"regional"},"geometry":{"type":"LineString","coordinates":[[138.636883,-35.016218],[138.636757,-35.016225],[138.635655,-35.016286],[138.63479,-35.016334],[138.633833,-35.016386],[138.633538,-35.016402],[138.633002,-35.016432],[138.631002,-35.016542],[138.629847,-35.016605],[138.629482,-35.016625],[138.628166,-35.016698]]}},{"type":"Feature","properties":{"tier":"arterial"},"geometry":{"type":"LineString","coordinates":[[138.626035,-35.108497],[138.626501,-35.108432],[138.627409,-35.108289],[138.627566,-35.108273],[138.62773,-35.108274],[138.627843,-35.108293],[138.627968,-35.108347],[138.628968,-35.109041],[138.629313,-35.109286],[138.629882,-35.109708],[138.630101,-35.109875],[138.630459,-35.110134],[138.630546,-35.110185]]}},{"type":"Feature","properties":{"tier":"arterial"},"geometry":{"type":"LineString","coordinates":[[138.740378,-35.004538],[138.740223,-35.004055],[138.740187,-35.00387],[138.740018,-35.003418],[138.739794,-35.003207],[138.739387,-35.003124],[138.738818,-35.003102],[138.738284,-35.003014],[138.738188,-35.002986],[138.737915,-35.002912],[138.737725,-35.002796],[138.737602,-35.00259],[138.737562,-35.00211],[138.737541,-35.001805],[138.737549,-35.001354],[138.737532,-35.001019],[138.737413,-35.000844],[138.73698,-35.000654],[138.735198,-34.99998]]}},{"type":"Feature","properties":{"tier":"arterial"},"geometry":{"type":"LineString","coordinates":[[138.75002,-35.0078],[138.750011,-35.007803],[138.749802,-35.007816],[138.749576,-35.007762],[138.749007,-35.007435],[138.748736,-35.007295],[138.748453,-35.007197],[138.747768,-35.007123],[138.747444,-35.007095],[138.747061,-35.007073],[138.746453,-35.007015],[138.746241,-35.00695],[138.746051,-35.006823],[138.745719,-35.006582],[138.745528,-35.006479],[138.745257,-35.006385],[138.744692,-35.006407],[138.743739,-35.006537],[138.74271,-35.006666],[138.742105,-35.006675],[138.741573,-35.006571],[138.741151,-35.006388],[138.740982,-35.006196],[138.740834,-35.006041],[138.740774,-35.005956],[138.740683,-35.005672],[138.740761,-35.005326],[138.740777,-35.005178],[138.740722,-35.004957],[138.740378,-35.004538]]}},{"type":"Feature","properties":{"tier":"arterial"},"geometry":{"type":"LineString","coordinates":[[138.736388,-35.015355],[138.736364,-35.015337],[138.736347,-35.015318],[138.736337,-35.015295],[138.736333,-35.015271],[138.736336,-35.015248],[138.736346,-35.015225],[138.73637,-35.015198],[138.736404,-35.015178],[138.736443,-35.015169],[138.736484,-35.015171],[138.736522,-35.015184],[138.736551,-35.015205],[138.736571,-35.015232],[138.73658,-35.015262],[138.736577,-35.015294],[138.736562,-35.015323],[138.736537,-35.015347],[138.736511,-35.015361],[138.73648,-35.01537],[138.736448,-35.015371],[138.736417,-35.015366],[138.736388,-35.015355]]}},{"type":"Feature","properties":{"tier":"arterial"},"geometry":{"type":"LineString","coordinates":[[138.717882,-35.006341],[138.717998,-35.006414],[138.718508,-35.006737],[138.718651,-35.006821],[138.718989,-35.007011],[138.719064,-35.007053],[138.719318,-35.007195],[138.719594,-35.007291],[138.719654,-35.007304],[138.719759,-35.007324],[138.719931,-35.007356],[138.72001,-35.007371],[138.720083,-35.007381],[138.720259,-35.007405],[138.72034,-35.007414],[138.720575,-35.00745]]}},{"type":"Feature","properties":{"tier":"arterial"},"geometry":{"type":"LineString","coordinates":[[138.717874,-35.006259],[138.71789,-35.006272],[138.7179,-35.006289],[138.717902,-35.006307],[138.717896,-35.006325],[138.717882,-35.006341],[138.717864,-35.006351],[138.717842,-35.006355],[138.71782,-35.006353],[138.717808,-35.00635],[138.717791,-35.006339],[138.717778,-35.006323],[138.717773,-35.006305],[138.717779,-35.006281],[138.717792,-35.006266],[138.71781,-35.006255],[138.717832,-35.00625],[138.717854,-35.006252],[138.717874,-35.006259]]}},{"type":"Feature","properties":{"tier":"arterial"},"geometry":{"type":"LineString","coordinates":[[138.716469,-35.004881],[138.716507,-35.004941],[138.716696,-35.005272]]}},{"type":"Feature","properties":{"tier":"arterial"},"geometry":{"type":"LineString","coordinates":[[138.716469,-35.004881],[138.716304,-35.004661]]}},{"type":"Feature","properties":{"tier":"arterial"},"geometry":{"type":"LineString","coordinates":[[138.716304,-35.004661],[138.716225,-35.004483],[138.716199,-35.004381],[138.716183,-35.004317],[138.716175,-35.004286]]}},{"type":"Feature","properties":{"tier":"regional"},"geometry":{"type":"LineString","coordinates":[[138.709823,-35.00763],[138.709701,-35.007744]]}},{"type":"Feature","properties":{"tier":"regional"},"geometry":{"type":"LineString","coordinates":[[138.709701,-35.007744],[138.709403,-35.008038],[138.709309,-35.008151],[138.709247,-35.008259],[138.709198,-35.008436]]}},{"type":"Feature","properties":{"tier":"regional"},"geometry":{"type":"LineString","coordinates":[[138.68356,-35.052523],[138.683877,-35.052533],[138.684097,-35.052521],[138.68434,-35.052487],[138.684538,-35.052444],[138.684759,-35.052382],[138.68494,-35.0523],[138.685122,-35.052179],[138.685309,-35.05204],[138.6861,-35.051451],[138.686856,-35.051076],[138.687254,-35.050955],[138.688118,-35.050898],[138.688853,-35.050931],[138.689686,-35.050967],[138.690054,-35.050916],[138.690215,-35.050876],[138.690341,-35.050841],[138.690462,-35.05076],[138.691095,-35.05015],[138.692026,-35.049388],[138.692275,-35.04923],[138.692417,-35.049133],[138.693007,-35.048771],[138.693174,-35.048689],[138.693362,-35.048643],[138.693992,-35.048555],[138.694131,-35.04854],[138.694204,-35.048531],[138.694295,-35.04849],[138.694362,-35.048452],[138.694397,-35.048404],[138.694437,-35.048323],[138.694429,-35.04827],[138.694405,-35.048213],[138.694357,-35.048136],[138.693484,-35.04734],[138.69299,-35.046998],[138.692737,-35.046738],[138.692333,-35.04617],[138.691931,-35.04555],[138.691513,-35.04517],[138.691145,-35.044907],[138.690921,-35.044768],[138.690686,-35.044646],[138.690259,-35.044524],[138.689486,-35.044375],[138.688776,-35.044199],[138.687731,-35.04389],[138.687422,-35.043731],[138.687253,-35.043554],[138.687094,-35.043321]]}},{"type":"Feature","properties":{"tier":"regional"},"geometry":{"type":"LineString","coordinates":[[138.651408,-35.020019],[138.650984,-35.019792],[138.650636,-35.019581],[138.650426,-35.019424],[138.650178,-35.019204],[138.649902,-35.019075],[138.649739,-35.018639],[138.64949,-35.01833],[138.649224,-35.018049],[138.649035,-35.017859],[138.648761,-35.017641],[138.648229,-35.017487],[138.647868,-35.017388],[138.647413,-35.017227],[138.646975,-35.017065]]}},{"type":"Feature","properties":{"tier":"regional"},"geometry":{"type":"LineString","coordinates":[[138.709198,-35.008436],[138.709156,-35.008612],[138.709127,-35.008756],[138.709138,-35.008934],[138.709188,-35.00911],[138.70931,-35.009479],[138.70945,-35.009827],[138.709591,-35.010233],[138.709734,-35.010571],[138.709942,-35.01098],[138.710347,-35.011457],[138.710796,-35.012031],[138.710798,-35.012569],[138.710794,-35.012612],[138.71074,-35.013194],[138.71075,-35.013707],[138.710903,-35.014101],[138.71107,-35.014546],[138.711143,-35.014741],[138.711203,-35.014902],[138.711279,-35.015178],[138.711302,-35.015611],[138.711176,-35.015948],[138.710904,-35.01645],[138.710901,-35.01658],[138.710926,-35.016717],[138.710994,-35.016901],[138.711034,-35.016986],[138.711152,-35.0172],[138.711265,-35.017366],[138.711373,-35.017655],[138.711395,-35.017797],[138.71139,-35.017938],[138.711361,-35.018115],[138.711215,-35.018368],[138.71097,-35.018757],[138.710895,-35.018899],[138.710855,-35.018975],[138.710816,-35.019056],[138.71075,-35.019216],[138.710735,-35.019253],[138.710664,-35.01952],[138.71065,-35.02004],[138.71079,-35.0204],[138.710802,-35.02043],[138.710843,-35.020512],[138.710995,-35.020816],[138.711317,-35.021313],[138.711551,-35.021567],[138.711757,-35.02178],[138.711945,-35.021912],[138.71232,-35.022146],[138.712801,-35.022449],[138.713213,-35.022711],[138.713665,-35.023012],[138.713772,-35.023087],[138.713879,-35.023173],[138.713984,-35.023262],[138.714062,-35.023337],[138.714126,-35.023406],[138.714448,-35.023829],[138.714555,-35.02395],[138.714669,-35.024057],[138.71479,-35.024141],[138.71491,-35.024215],[138.715086,-35.024289],[138.715186,-35.024316],[138.715298,-35.024335],[138.715563,-35.024357]]}},{"type":"Feature","properties":{"tier":"regional"},"geometry":{"type":"LineString","coordinates":[[138.70972,-35.042685],[138.708949,-35.042728],[138.708459,-35.042755],[138.708205,-35.042802],[138.707975,-35.042926],[138.707616,-35.043216],[138.707213,-35.043645],[138.706745,-35.044016],[138.706352,-35.044218],[138.706268,-35.044261],[138.705528,-35.044536],[138.704747,-35.044851],[138.704068,-35.045168],[138.703846,-35.045266],[138.703523,-35.045367],[138.703209,-35.04542],[138.702864,-35.045429],[138.702492,-35.045412],[138.702137,-35.045364],[138.70156,-35.04524],[138.701246,-35.045226],[138.700959,-35.04529],[138.700588,-35.045487],[138.700506,-35.04553],[138.700413,-35.045592],[138.700085,-35.045746],[138.699781,-35.045855],[138.699575,-35.045906],[138.699262,-35.045936],[138.698726,-35.045962],[138.69812,-35.046021],[138.697523,-35.046133],[138.696914,-35.046291],[138.696518,-35.046415],[138.696238,-35.046582],[138.695988,-35.046773],[138.695807,-35.046873],[138.695623,-35.046955],[138.695423,-35.046968],[138.695163,-35.046903],[138.694935,-35.046805],[138.694688,-35.046726],[138.694532,-35.046719],[138.694367,-35.046767],[138.694136,-35.046897],[138.693484,-35.04734]]}},{"type":"Feature","properties":{"tier":"regional"},"geometry":{"type":"LineString","coordinates":[[138.72617,-35.047333],[138.724049,-35.047199],[138.723407,-35.04713],[138.722958,-35.047175],[138.722436,-35.04718],[138.721618,-35.047049],[138.72074,-35.046823],[138.720442,-35.046663],[138.720187,-35.046459],[138.719681,-35.045817],[138.719465,-35.04548],[138.719369,-35.045334],[138.719221,-35.04519],[138.719051,-35.045083],[138.718832,-35.045031],[138.716769,-35.044466],[138.715656,-35.044111],[138.714769,-35.043588],[138.713897,-35.043146]]}},{"type":"Feature","properties":{"tier":"regional"},"geometry":{"type":"LineString","coordinates":[[138.698801,-35.015293],[138.69859,-35.015425],[138.698495,-35.015533],[138.698482,-35.015672],[138.698497,-35.015843],[138.698482,-35.01607],[138.698471,-35.016237],[138.698486,-35.016498],[138.698576,-35.016805],[138.698698,-35.016968],[138.698924,-35.017219],[138.69899,-35.017356],[138.699019,-35.017503],[138.698964,-35.017643],[138.698763,-35.017913],[138.698664,-35.018028],[138.69859,-35.01816],[138.698548,-35.01824],[138.698445,-35.018327],[138.698027,-35.018592],[138.697501,-35.018892],[138.697072,-35.019091],[138.696643,-35.019391],[138.696373,-35.019694],[138.695866,-35.02027],[138.695788,-35.020407],[138.695814,-35.020528],[138.695886,-35.020655],[138.696109,-35.020844],[138.696283,-35.020992],[138.696352,-35.021096],[138.696354,-35.021192],[138.696269,-35.021287],[138.696133,-35.021335],[138.695932,-35.021361],[138.695634,-35.021367],[138.695447,-35.02136],[138.695251,-35.021361],[138.695078,-35.021366],[138.694979,-35.021391],[138.694844,-35.021443],[138.694753,-35.021502],[138.694666,-35.021575],[138.694506,-35.021669],[138.69429,-35.021751],[138.694027,-35.02188],[138.693639,-35.022135],[138.693209,-35.022351],[138.692762,-35.022548],[138.692552,-35.022656],[138.692399,-35.022813],[138.692294,-35.023058],[138.692216,-35.023304],[138.692086,-35.023484],[138.691807,-35.023737],[138.691389,-35.02408],[138.69108,-35.024318],[138.690769,-35.024475],[138.690463,-35.024669],[138.690109,-35.024891],[138.689699,-35.025072],[138.689247,-35.025192],[138.688957,-35.025021],[138.688484,-35.02483],[138.688063,-35.024729],[138.687691,-35.024715],[138.687442,-35.024557],[138.686978,-35.024108],[138.686702,-35.02357],[138.686378,-35.023088],[138.686112,-35.022866],[138.68596,-35.022821],[138.685892,-35.022861],[138.685951,-35.022947],[138.686153,-35.023144],[138.686269,-35.023477],[138.686283,-35.023899],[138.686126,-35.024262],[138.685838,-35.024514],[138.685488,-35.024743],[138.685003,-35.024954],[138.684787,-35.02494],[138.68468,-35.024904],[138.684576,-35.024833],[138.684518,-35.024631],[138.684532,-35.024267],[138.684406,-35.024087],[138.684217,-35.02402],[138.683925,-35.02393],[138.683602,-35.023602],[138.683404,-35.023207],[138.68327,-35.022839],[138.683225,-35.022711],[138.683186,-35.022652],[138.683155,-35.022625],[138.683119,-35.022595],[138.683027,-35.022595],[138.682945,-35.022625],[138.682894,-35.022689],[138.682859,-35.022781],[138.68283,-35.022904],[138.682677,-35.023562],[138.68256,-35.02371],[138.682399,-35.023714],[138.682169,-35.023575],[138.681999,-35.023481],[138.68168,-35.023499],[138.681316,-35.023584],[138.681029,-35.023724],[138.680742,-35.023948],[138.680052,-35.024006],[138.679775,-35.023961],[138.679625,-35.023899],[138.679528,-35.023832],[138.679479,-35.02377],[138.679455,-35.023704],[138.679403,-35.023603],[138.679346,-35.02352],[138.679296,-35.0235],[138.679202,-35.02349],[138.678905,-35.023629],[138.678627,-35.023759],[138.678321,-35.023804],[138.677827,-35.023647],[138.677585,-35.023544],[138.677212,-35.023589],[138.67666,-35.02375],[138.676343,-35.023862]]}},{"type":"Feature","properties":{"tier":"regional"},"geometry":{"type":"LineString","coordinates":[[138.713897,-35.043146],[138.713829,-35.042608],[138.713688,-35.042368],[138.713549,-35.042255],[138.713307,-35.042185],[138.713085,-35.042201],[138.712904,-35.042273],[138.712348,-35.04253],[138.712072,-35.042588],[138.711127,-35.042628],[138.710358,-35.042663],[138.710077,-35.042684],[138.70972,-35.042685]]}},{"type":"Feature","properties":{"tier":"regional"},"geometry":{"type":"LineString","coordinates":[[138.698548,-35.01824],[138.698789,-35.018312],[138.699076,-35.018369],[138.699936,-35.017991],[138.700151,-35.018081],[138.700155,-35.018333],[138.700029,-35.019164],[138.700039,-35.019453],[138.700364,-35.019584],[138.700925,-35.019431],[138.70127,-35.019365],[138.701582,-35.019289],[138.70262,-35.018899],[138.703509,-35.018841],[138.703875,-35.0189],[138.704556,-35.018836],[138.704976,-35.018548],[138.705345,-35.018238],[138.705556,-35.018271],[138.705937,-35.018274],[138.707265,-35.018121],[138.707592,-35.018075],[138.708033,-35.017897],[138.708907,-35.017085],[138.709206,-35.016933],[138.709577,-35.016796],[138.710549,-35.01645],[138.710684,-35.016426],[138.710904,-35.01645]]}},{"type":"Feature","properties":{"tier":"regional"},"geometry":{"type":"LineString","coordinates":[[138.690775,-35.101036],[138.690587,-35.101105],[138.690381,-35.101106],[138.689987,-35.101029],[138.689583,-35.100874],[138.689128,-35.1006],[138.688673,-35.100404],[138.688098,-35.100313],[138.687583,-35.100151],[138.687017,-35.099835],[138.686485,-35.099463],[138.68597,-35.099098],[138.685497,-35.09874],[138.684974,-35.098494],[138.684425,-35.098213],[138.683918,-35.097869],[138.683326,-35.09744],[138.683236,-35.097375],[138.6827,-35.096984]]}},{"type":"Feature","properties":{"tier":"regional"},"geometry":{"type":"LineString","coordinates":[[138.709276,-35.075524],[138.709142,-35.075616],[138.708689,-35.076061],[138.708079,-35.076792],[138.707779,-35.077396],[138.707351,-35.078271],[138.707316,-35.078344],[138.706981,-35.078913],[138.706475,-35.07944],[138.706131,-35.079861],[138.705745,-35.0805],[138.705548,-35.080796],[138.705213,-35.080964],[138.704775,-35.081147],[138.704131,-35.081386],[138.703359,-35.081659],[138.702973,-35.08187],[138.702664,-35.082109],[138.702586,-35.082558],[138.702543,-35.082853],[138.702337,-35.083015],[138.701848,-35.083282],[138.701479,-35.083703],[138.70135,-35.083963],[138.70117,-35.084827],[138.701042,-35.085164],[138.700629,-35.085691],[138.700346,-35.086021],[138.699728,-35.086625],[138.699342,-35.08704],[138.69923,-35.087342],[138.699205,-35.087538],[138.699248,-35.087854],[138.699376,-35.088254],[138.699728,-35.088704],[138.700115,-35.089203],[138.70026,-35.089329],[138.700466,-35.089385],[138.700638,-35.089406],[138.701222,-35.089477],[138.702149,-35.089582],[138.702423,-35.089757],[138.702629,-35.090102],[138.702604,-35.090488],[138.702646,-35.090986],[138.702732,-35.091246],[138.703024,-35.091675],[138.703385,-35.092244],[138.703548,-35.092602],[138.703822,-35.093346],[138.703822,-35.094638],[138.703728,-35.095242],[138.703436,-35.095622],[138.702981,-35.09598],[138.702561,-35.096057],[138.701728,-35.096148],[138.701076,-35.09619],[138.700818,-35.096289],[138.700544,-35.096443],[138.700453,-35.09652],[138.700295,-35.096654],[138.69996,-35.09723],[138.69966,-35.097742],[138.699522,-35.097883],[138.699213,-35.09803],[138.698956,-35.098115],[138.698561,-35.098164],[138.697402,-35.098192],[138.696192,-35.098234],[138.695377,-35.098171],[138.694948,-35.098248],[138.694259,-35.098468],[138.693973,-35.098502],[138.693709,-35.09839],[138.693432,-35.098271],[138.693162,-35.09824],[138.692853,-35.098332],[138.692614,-35.098491],[138.692235,-35.098767],[138.691914,-35.098983],[138.691708,-35.099165],[138.691543,-35.099438],[138.691309,-35.099972],[138.691178,-35.100318],[138.690983,-35.100785],[138.690775,-35.101036]]}},{"type":"Feature","properties":{"tier":"regional"},"geometry":{"type":"LineString","coordinates":[[138.75002,-35.045617],[138.749579,-35.045612],[138.749255,-35.04562],[138.748849,-35.045626],[138.747845,-35.04576],[138.747055,-35.04595],[138.746486,-35.046155],[138.746163,-35.046287],[138.745133,-35.046666],[138.744306,-35.047023],[138.744091,-35.047142],[138.743908,-35.04727],[138.743753,-35.047388],[138.743587,-35.047544],[138.742984,-35.048297],[138.742789,-35.048459],[138.742635,-35.048606],[138.742283,-35.048762],[138.742119,-35.048792],[138.74186,-35.048808],[138.741779,-35.048806],[138.741162,-35.048795],[138.740697,-35.0488],[138.740421,-35.048852],[138.739914,-35.049062],[138.739227,-35.04947],[138.73861,-35.049863],[138.737777,-35.050587],[138.7357,-35.052765],[138.735013,-35.053422],[138.734481,-35.053932],[138.73388,-35.054255],[138.732859,-35.054775],[138.732164,-35.055126],[138.73164,-35.055498],[138.731417,-35.055679],[138.731131,-35.055834],[138.730464,-35.056092],[138.730149,-35.056247],[138.730094,-35.056274],[138.730048,-35.056297],[138.729869,-35.056399],[138.729721,-35.056517],[138.729597,-35.056644],[138.729461,-35.05684],[138.729314,-35.057079],[138.728833,-35.057859],[138.72769,-35.059336],[138.727449,-35.059661],[138.727366,-35.059816],[138.727316,-35.059917],[138.727294,-35.060071],[138.727286,-35.06024],[138.727286,-35.060417],[138.727292,-35.060776],[138.727248,-35.060958],[138.727138,-35.061227],[138.727027,-35.061434],[138.726919,-35.061576],[138.726688,-35.061765],[138.725864,-35.0623],[138.725485,-35.062545],[138.725281,-35.062665],[138.725208,-35.062707],[138.724912,-35.062819]]}},{"type":"Feature","properties":{"tier":"regional"},"geometry":{"type":"LineString","coordinates":[[138.698801,-35.015293],[138.699054,-35.015152],[138.699224,-35.014959],[138.69952,-35.014658],[138.699798,-35.014378],[138.699948,-35.0142],[138.700074,-35.013988],[138.700191,-35.013765],[138.700309,-35.013609],[138.700549,-35.013384],[138.700741,-35.013192],[138.70088,-35.012966],[138.700984,-35.012755],[138.701155,-35.012488],[138.701785,-35.011273],[138.701831,-35.011219],[138.701974,-35.011049],[138.70224,-35.010845],[138.702631,-35.010514],[138.702845,-35.010261],[138.702867,-35.010238],[138.703027,-35.010043],[138.703096,-35.009791],[138.70317,-35.009648],[138.7033,-35.009478],[138.703569,-35.009304],[138.703918,-35.009132],[138.704271,-35.008824],[138.704646,-35.008645],[138.705076,-35.008287],[138.705298,-35.008236],[138.705535,-35.008258],[138.705816,-35.008314],[138.706044,-35.008341],[138.706368,-35.00828],[138.706693,-35.008142],[138.707083,-35.008097],[138.707477,-35.008069],[138.707791,-35.00806],[138.708385,-35.008108],[138.708975,-35.008105],[138.709111,-35.008096],[138.709225,-35.008116],[138.709309,-35.008151]]}},{"type":"Feature","properties":{"tier":"arterial"},"geometry":{"type":"LineString","coordinates":[[138.727242,-35.008319],[138.727333,-35.008324],[138.727408,-35.008324],[138.727713,-35.008324],[138.727981,-35.008325],[138.728109,-35.008325],[138.728459,-35.008339],[138.728657,-35.008362],[138.728891,-35.00845],[138.729046,-35.008576],[138.729314,-35.008798],[138.729586,-35.008983],[138.729825,-35.009122],[138.730017,-35.00934],[138.730124,-35.009707],[138.730215,-35.010331],[138.730329,-35.010779],[138.730385,-35.010964],[138.730471,-35.011162],[138.730595,-35.011289],[138.730746,-35.011404],[138.730823,-35.011528],[138.730838,-35.011619],[138.730828,-35.011711],[138.730779,-35.011861],[138.730728,-35.012024],[138.730676,-35.012202],[138.730666,-35.012318],[138.730681,-35.012455]]}},{"type":"Feature","properties":{"tier":"arterial"},"geometry":{"type":"LineString","coordinates":[[138.730866,-35.012712],[138.73099,-35.01282],[138.731233,-35.012932],[138.731354,-35.012973],[138.731579,-35.013006],[138.731704,-35.013024],[138.731783,-35.013041],[138.731934,-35.013067],[138.732184,-35.01317],[138.732384,-35.013285],[138.732597,-35.013422],[138.732715,-35.01348],[138.732891,-35.013547],[138.733571,-35.013807],[138.733913,-35.013946]]}},{"type":"Feature","properties":{"tier":"regional"},"geometry":{"type":"LineString","coordinates":[[138.727286,-35.060417],[138.726778,-35.060459],[138.72653,-35.060446],[138.726381,-35.060437],[138.726218,-35.060408],[138.726132,-35.060362],[138.72606,-35.060314],[138.72584,-35.060065],[138.725707,-35.059986],[138.725548,-35.059917],[138.725205,-35.059791],[138.724913,-35.059707],[138.724498,-35.059617]]}},{"type":"Feature","properties":{"tier":"regional"},"geometry":{"type":"LineString","coordinates":[[138.687109,-35.069079],[138.686493,-35.069992],[138.685995,-35.070589],[138.685189,-35.071502],[138.684622,-35.07217],[138.684513,-35.072755],[138.684464,-35.073354],[138.684459,-35.073856],[138.68439,-35.074263],[138.684202,-35.074642],[138.683858,-35.075169],[138.683781,-35.075436],[138.683798,-35.075696],[138.683858,-35.075914],[138.684004,-35.076237],[138.684099,-35.07663],[138.684141,-35.076953],[138.684013,-35.07734],[138.683841,-35.07781],[138.683772,-35.078274],[138.683798,-35.079243],[138.683815,-35.079665]]}},{"type":"Feature","properties":{"tier":"regional"},"geometry":{"type":"LineString","coordinates":[[138.723709,-35.054014],[138.723638,-35.053948],[138.723579,-35.053925],[138.723508,-35.05391],[138.723141,-35.053849],[138.723049,-35.053837],[138.722971,-35.053832],[138.722904,-35.053827],[138.722836,-35.053827],[138.722771,-35.053837],[138.722674,-35.05386],[138.722,-35.054208],[138.721497,-35.05443],[138.721426,-35.054448],[138.720744,-35.054615],[138.720395,-35.054693],[138.719906,-35.054819],[138.719858,-35.054832],[138.719794,-35.054852],[138.719683,-35.054892],[138.719578,-35.05494],[138.71946,-35.055001],[138.71934,-35.055067],[138.719189,-35.055158],[138.718859,-35.05536],[138.717233,-35.056426],[138.717122,-35.056489],[138.716998,-35.056547],[138.716903,-35.05659],[138.716819,-35.05662],[138.716727,-35.05665],[138.716631,-35.056673],[138.716538,-35.056688],[138.716424,-35.056698],[138.715551,-35.056698],[138.715434,-35.056711],[138.715341,-35.056724],[138.715249,-35.056744],[138.715107,-35.056782],[138.71502,-35.056809],[138.71482,-35.056878],[138.714067,-35.057219],[138.713823,-35.057342],[138.713644,-35.057433],[138.713067,-35.057741],[138.712987,-35.057774],[138.712938,-35.057789],[138.712882,-35.0578],[138.712802,-35.057807],[138.712407,-35.057827],[138.712129,-35.057848],[138.711488,-35.057906],[138.711268,-35.057921],[138.71109,-35.057928],[138.710837,-35.057926],[138.710658,-35.057913],[138.710547,-35.057885],[138.710386,-35.057845],[138.710149,-35.057774],[138.709211,-35.057342],[138.70914,-35.057299],[138.708362,-35.056744],[138.708248,-35.056673],[138.708062,-35.056567]]}},{"type":"Feature","properties":{"tier":"arterial"},"geometry":{"type":"LineString","coordinates":[[138.702848,-34.99998],[138.702876,-35.00004],[138.70297,-35.000228],[138.703059,-35.000426],[138.703137,-35.000632],[138.703156,-35.00072],[138.703174,-35.000837],[138.703179,-35.000964],[138.70316,-35.001102]]}},{"type":"Feature","properties":{"tier":"arterial"},"geometry":{"type":"LineString","coordinates":[[138.749281,-35.01046],[138.749283,-35.010426],[138.749288,-35.010355],[138.749704,-35.009886],[138.75002,-35.009561]]}},{"type":"Feature","properties":{"tier":"arterial"},"geometry":{"type":"LineString","coordinates":[[138.736562,-35.015323],[138.736631,-35.015355],[138.736915,-35.015486],[138.737391,-35.015697],[138.737575,-35.015788],[138.737748,-35.015906],[138.738025,-35.016127]]}},{"type":"Feature","properties":{"tier":"arterial"},"geometry":{"type":"LineString","coordinates":[[138.736878,-35.01488],[138.737067,-35.014741],[138.737153,-35.014677],[138.737385,-35.014504],[138.737631,-35.01432],[138.738209,-35.014031],[138.738697,-35.013831],[138.739381,-35.01357],[138.740482,-35.013114],[138.740827,-35.012971],[138.741628,-35.012664],[138.742365,-35.012449],[138.742991,-35.012277],[138.743409,-35.01217],[138.743506,-35.012146]]}},{"type":"Feature","properties":{"tier":"high"},"geometry":{"type":"LineString","coordinates":[[138.715972,-35.002629],[138.715974,-35.002683],[138.715981,-35.002897]]}},{"type":"Feature","properties":{"tier":"high"},"geometry":{"type":"LineString","coordinates":[[138.712492,-34.99998],[138.712795,-35.000157],[138.713228,-35.000413],[138.713659,-35.000584],[138.713955,-35.000647],[138.714327,-35.000666],[138.714881,-35.000623],[138.715198,-35.000624],[138.715462,-35.000672],[138.715653,-35.000769],[138.71582,-35.000886],[138.71595,-35.001057],[138.716059,-35.001292],[138.716109,-35.001573],[138.716103,-35.001837],[138.716066,-35.002073],[138.716003,-35.002321],[138.715972,-35.002629]]}},{"type":"Feature","properties":{"tier":"high"},"geometry":{"type":"LineString","coordinates":[[138.718312,-35.001856],[138.718109,-35.001921],[138.717607,-35.002074],[138.717169,-35.002176],[138.716901,-35.002252],[138.716701,-35.002329],[138.716533,-35.002403],[138.716381,-35.002496],[138.716183,-35.002685],[138.716132,-35.002744],[138.715981,-35.002897]]}},{"type":"Feature","properties":{"tier":"high"},"geometry":{"type":"LineString","coordinates":[[138.712368,-34.99998],[138.71248,-35.000051],[138.71271,-35.000217],[138.713233,-35.000619],[138.713749,-35.001015],[138.714045,-35.001196],[138.714117,-35.001239],[138.714382,-35.001396],[138.714458,-35.001434],[138.714791,-35.001582],[138.714862,-35.001608],[138.715133,-35.001694],[138.715439,-35.00177],[138.715767,-35.001838]]}},{"type":"Feature","properties":{"tier":"high"},"geometry":{"type":"LineString","coordinates":[[138.723706,-34.99998],[138.723609,-35.000016],[138.722791,-35.00031],[138.722676,-35.000351],[138.721885,-35.000605],[138.721432,-35.000744],[138.720848,-35.000936]]}},{"type":"Feature","properties":{"tier":"high"},"geometry":{"type":"LineString","coordinates":[[138.716334,-35.001882],[138.716773,-35.001863],[138.71716,-35.00181],[138.717547,-35.001739],[138.718662,-35.001454],[138.719129,-35.001331]]}},{"type":"Feature","properties":{"tier":"high"},"geometry":{"type":"LineString","coordinates":[[138.716296,-35.001983],[138.716027,-35.00197],[138.71575,-35.001942]]}},{"type":"Feature","properties":{"tier":"high"},"geometry":{"type":"LineString","coordinates":[[138.715767,-35.001838],[138.715954,-35.001859],[138.716117,-35.001872],[138.716334,-35.001882]]}},{"type":"Feature","properties":{"tier":"high"},"geometry":{"type":"LineString","coordinates":[[138.71575,-35.001942],[138.715498,-35.001902],[138.715059,-35.001786],[138.714784,-35.001704],[138.714375,-35.001533],[138.714031,-35.001338],[138.713748,-35.001146],[138.71311,-35.00069]]}},{"type":"Feature","properties":{"tier":"high"},"geometry":{"type":"LineString","coordinates":[[138.715887,-35.003125],[138.715872,-35.003018],[138.715842,-35.0028],[138.715849,-35.002531],[138.715939,-35.002157],[138.715978,-35.001905],[138.716009,-35.001628],[138.715939,-35.001283],[138.715825,-35.00105],[138.715668,-35.000895],[138.715492,-35.000797],[138.715311,-35.000742],[138.7151,-35.000747],[138.714913,-35.00082],[138.714802,-35.000935],[138.714737,-35.001117],[138.714767,-35.001285],[138.714861,-35.001423]]}},{"type":"Feature","properties":{"tier":"high"},"geometry":{"type":"LineString","coordinates":[[138.720848,-35.000936],[138.720586,-35.001053],[138.720318,-35.001148],[138.719899,-35.001288],[138.719563,-35.00141],[138.71897,-35.00162],[138.718312,-35.001856]]}},{"type":"Feature","properties":{"tier":"arterial"},"geometry":{"type":"LineString","coordinates":[[138.730681,-35.012455],[138.730697,-35.012514],[138.730725,-35.012566],[138.730772,-35.012624],[138.730814,-35.012665],[138.730866,-35.012712]]}},{"type":"Feature","properties":{"tier":"arterial"},"geometry":{"type":"LineString","coordinates":[[138.633547,-35.111835],[138.633545,-35.112063],[138.633565,-35.112272],[138.633618,-35.112517],[138.633784,-35.112889],[138.634015,-35.113255],[138.63428,-35.11357],[138.634576,-35.113795],[138.635069,-35.114177],[138.63543,-35.114543],[138.635896,-35.115165],[138.635951,-35.11523],[138.63602,-35.115312],[138.636337,-35.115813],[138.636591,-35.116274],[138.637099,-35.117494],[138.637335,-35.118004],[138.637531,-35.118482],[138.637615,-35.118913],[138.637703,-35.119061],[138.637979,-35.11925],[138.638253,-35.119321],[138.638922,-35.119892],[138.639121,-35.120083],[138.639231,-35.120195],[138.639298,-35.120278],[138.639357,-35.120371],[138.639463,-35.120558],[138.639632,-35.121057],[138.639849,-35.121481],[138.640099,-35.121857],[138.640347,-35.122133],[138.640784,-35.122542],[138.641934,-35.123444],[138.642375,-35.123767],[138.642947,-35.12403],[138.643148,-35.124122],[138.643912,-35.124471],[138.645033,-35.12502]]}},{"type":"Feature","properties":{"tier":"regional"},"geometry":{"type":"LineString","coordinates":[[138.682671,-35.052396],[138.68201,-35.053279],[138.681612,-35.053888],[138.681278,-35.054401],[138.680811,-35.054988],[138.679097,-35.05692],[138.678963,-35.057071],[138.678836,-35.057296],[138.6788,-35.057535],[138.67886,-35.058686],[138.678883,-35.058968],[138.678836,-35.059223],[138.678664,-35.059529],[138.678253,-35.059943],[138.678015,-35.06018],[138.677762,-35.060552]]}},{"type":"Feature","properties":{"tier":"arterial"},"geometry":{"type":"LineString","coordinates":[[138.62498,-35.108657],[138.625192,-35.108632],[138.625807,-35.10856],[138.626035,-35.108497]]}},{"type":"Feature","properties":{"tier":"arterial"},"geometry":{"type":"LineString","coordinates":[[138.633625,-35.013345],[138.633678,-35.013934],[138.63383,-35.014265],[138.634664,-35.014818],[138.636155,-35.015721],[138.636883,-35.016218]]}},{"type":"Feature","properties":{"tier":"regional"},"geometry":{"type":"LineString","coordinates":[[138.664912,-35.045767],[138.664466,-35.045615],[138.663886,-35.045114],[138.662181,-35.043068],[138.658865,-35.041882],[138.655684,-35.041737],[138.655203,-35.041941],[138.650851,-35.043788],[138.65032,-35.044192],[138.649387,-35.045121],[138.64936,-35.045149],[138.646227,-35.048272],[138.645267,-35.049229],[138.644848,-35.049492],[138.644199,-35.049559],[138.643668,-35.04951],[138.643094,-35.049181],[138.642492,-35.048592],[138.641549,-35.04767],[138.640347,-35.046177],[138.639301,-35.045162],[138.638867,-35.044991],[138.637204,-35.044605],[138.636335,-35.044508],[138.635841,-35.04421],[138.635471,-35.043695],[138.635015,-35.042856],[138.634178,-35.04189],[138.633702,-35.041027],[138.633475,-35.04072],[138.632855,-35.040054],[138.632307,-35.039509]]}},{"type":"Feature","properties":{"tier":"regional"},"geometry":{"type":"LineString","coordinates":[[138.677762,-35.060552],[138.677731,-35.060601],[138.677544,-35.060893],[138.67725,-35.061396],[138.676996,-35.061892],[138.676411,-35.062651],[138.675906,-35.063364],[138.675585,-35.063694],[138.675214,-35.063953],[138.674743,-35.064225],[138.67449,-35.064448],[138.67399,-35.064935],[138.673802,-35.065115],[138.673373,-35.065302],[138.673,-35.065399],[138.672563,-35.065486],[138.672069,-35.065545],[138.671562,-35.065616],[138.671044,-35.065651],[138.670662,-35.065638],[138.670202,-35.065552],[138.668468,-35.065095],[138.668271,-35.065039],[138.66757,-35.064871],[138.666806,-35.06475],[138.666477,-35.064685],[138.665662,-35.064462],[138.664564,-35.064179],[138.663995,-35.064109],[138.663053,-35.064054],[138.662545,-35.064022],[138.662361,-35.063994],[138.662173,-35.063939],[138.661709,-35.063705],[138.660993,-35.063334],[138.660762,-35.063129],[138.660473,-35.062848],[138.659721,-35.062498],[138.659415,-35.062311],[138.659108,-35.062124],[138.65883,-35.062016],[138.658615,-35.061964],[138.658397,-35.061954],[138.658194,-35.061987],[138.657884,-35.062098],[138.656476,-35.062892],[138.656175,-35.063075],[138.656015,-35.063139],[138.655665,-35.063253],[138.655203,-35.063298],[138.654723,-35.063313],[138.653013,-35.063308],[138.65265,-35.063325],[138.652546,-35.063333],[138.652455,-35.06334],[138.652246,-35.06337],[138.652036,-35.063422],[138.651728,-35.063506],[138.651013,-35.063696],[138.650456,-35.063823],[138.649287,-35.063989],[138.648925,-35.064003],[138.648542,-35.063981],[138.648169,-35.063911],[138.647493,-35.063724],[138.647266,-35.063668],[138.647177,-35.063647],[138.646893,-35.063614],[138.646372,-35.063604],[138.64601,-35.063714],[138.645771,-35.063893],[138.645612,-35.06416],[138.645501,-35.064499],[138.645465,-35.064753],[138.645413,-35.065059],[138.645294,-35.06525],[138.645106,-35.06559],[138.644578,-35.066538],[138.644141,-35.067139],[138.644013,-35.067292],[138.643687,-35.067575],[138.643241,-35.067858],[138.642853,-35.068004],[138.641759,-35.068408],[138.64125,-35.068643],[138.640344,-35.069164],[138.638777,-35.069865],[138.638502,-35.070068],[138.638299,-35.070237],[138.638113,-35.070527],[138.637994,-35.070807],[138.637854,-35.07108],[138.637726,-35.07119],[138.637621,-35.071198],[138.637472,-35.071189],[138.637202,-35.071137],[138.635563,-35.070936],[138.635072,-35.070929],[138.634326,-35.070889],[138.63393,-35.070841],[138.633755,-35.070793],[138.629756,-35.068923],[138.629572,-35.068904],[138.629468,-35.068927],[138.629392,-35.068989],[138.628283,-35.070974],[138.62781,-35.071739],[138.627522,-35.072203]]}},{"type":"Feature","properties":{"tier":"arterial"},"geometry":{"type":"LineString","coordinates":[[138.643148,-35.124122],[138.642679,-35.124414],[138.6426,-35.124547],[138.64253,-35.12502]]}},{"type":"Feature","properties":{"tier":"arterial"},"geometry":{"type":"LineString","coordinates":[[138.633576,-35.111413],[138.633554,-35.111753]]}},{"type":"Feature","properties":{"tier":"arterial"},"geometry":{"type":"LineString","coordinates":[[138.633554,-35.111753],[138.633547,-35.111835]]}},{"type":"Feature","properties":{"tier":"arterial"},"geometry":{"type":"LineString","coordinates":[[138.627004,-35.073937],[138.626933,-35.07401],[138.626858,-35.074101],[138.626684,-35.074747],[138.626543,-35.075046],[138.625947,-35.075867],[138.625785,-35.076297],[138.625727,-35.076398],[138.625609,-35.076533],[138.625335,-35.076731],[138.625158,-35.076788],[138.62498,-35.076824]]}},{"type":"Feature","properties":{"tier":"regional"},"geometry":{"type":"LineString","coordinates":[[138.710706,-35.020996],[138.711075,-35.021334],[138.711377,-35.0216],[138.71147,-35.021641],[138.711551,-35.021567]]}},{"type":"Feature","properties":{"tier":"regional"},"geometry":{"type":"LineString","coordinates":[[138.710706,-35.020996],[138.710473,-35.020772],[138.710449,-35.020646],[138.71053,-35.020539],[138.71079,-35.0204]]}},{"type":"Feature","properties":{"tier":"regional"},"geometry":{"type":"LineString","coordinates":[[138.715372,-35.003883],[138.715319,-35.003906],[138.715219,-35.003941],[138.715099,-35.003979],[138.714773,-35.004083],[138.714425,-35.004191],[138.713176,-35.004579],[138.713112,-35.004607],[138.713069,-35.004637],[138.713023,-35.004682]]}},{"type":"Feature","properties":{"tier":"regional"},"geometry":{"type":"LineString","coordinates":[[138.712882,-35.004803],[138.712078,-35.005478],[138.71071,-35.006783],[138.710098,-35.007367],[138.709859,-35.007595],[138.709823,-35.00763]]}},{"type":"Feature","properties":{"tier":"regional"},"geometry":{"type":"LineString","coordinates":[[138.712882,-35.004803],[138.71286,-35.00478],[138.712849,-35.004752],[138.71285,-35.004723],[138.712864,-35.004696],[138.712893,-35.004672],[138.712925,-35.00466],[138.71296,-35.004657],[138.712994,-35.004665],[138.713023,-35.004682],[138.713043,-35.004705],[138.713052,-35.004732],[138.71305,-35.00476],[138.713036,-35.004786],[138.713013,-35.004807],[138.712982,-35.004821],[138.712946,-35.004824],[138.712911,-35.004818],[138.712882,-35.004803]]}},{"type":"Feature","properties":{"tier":"arterial"},"geometry":{"type":"LineString","coordinates":[[138.723175,-35.008379],[138.723669,-35.00851],[138.723736,-35.008527],[138.723953,-35.008581],[138.724276,-35.008645],[138.724701,-35.008664],[138.724873,-35.008646],[138.725215,-35.008592],[138.725372,-35.008561],[138.72637,-35.008429],[138.727242,-35.008319]]}},{"type":"Feature","properties":{"tier":"arterial"},"geometry":{"type":"LineString","coordinates":[[138.669302,-35.025032],[138.669743,-35.025265],[138.670365,-35.025582],[138.670705,-35.025759],[138.670896,-35.025858],[138.671282,-35.025984],[138.671626,-35.025999],[138.671794,-35.025996],[138.672044,-35.02599],[138.672279,-35.025906],[138.672496,-35.025811],[138.672643,-35.025763],[138.673009,-35.025758],[138.673353,-35.025753],[138.673759,-35.025493],[138.673992,-35.025367],[138.67408,-35.025339],[138.67427,-35.025278],[138.674795,-35.025148],[138.675212,-35.02503],[138.675462,-35.024914],[138.675816,-35.024637],[138.676089,-35.02429],[138.676343,-35.023862],[138.676512,-35.02369],[138.676794,-35.023488],[138.677292,-35.023224],[138.677649,-35.023068],[138.678024,-35.022974],[138.678245,-35.022905],[138.678391,-35.022788],[138.678541,-35.022568],[138.678747,-35.02227],[138.679076,-35.022028],[138.679456,-35.021762],[138.679797,-35.021553],[138.679978,-35.02147],[138.680316,-35.021315],[138.680666,-35.021165],[138.68096,-35.021072],[138.681313,-35.021027],[138.681435,-35.021024],[138.68205,-35.020984],[138.682383,-35.020954],[138.682595,-35.020924],[138.682813,-35.020847],[138.683149,-35.020683],[138.683484,-35.020392],[138.683886,-35.02007],[138.684409,-35.019866],[138.684941,-35.01962],[138.68512,-35.0195],[138.68557,-35.019106],[138.686307,-35.018489],[138.687033,-35.017845],[138.687119,-35.01776],[138.687341,-35.017542],[138.687537,-35.017349],[138.687614,-35.017217],[138.687703,-35.017063],[138.687859,-35.016782],[138.687954,-35.016531],[138.688125,-35.016364],[138.688355,-35.01629],[138.688616,-35.016217],[138.688926,-35.016163],[138.689666,-35.015996],[138.69016,-35.015969],[138.691024,-35.016189],[138.692247,-35.016299],[138.693084,-35.016312],[138.693277,-35.016229],[138.693749,-35.015956],[138.694307,-35.015658],[138.694791,-35.015394],[138.695042,-35.015275],[138.695637,-35.015011],[138.695837,-35.01493],[138.696089,-35.014837],[138.696705,-35.014607],[138.697048,-35.014379],[138.69744,-35.014023],[138.697836,-35.013558],[138.697987,-35.013359],[138.698155,-35.013147],[138.698192,-35.0131],[138.698325,-35.012753],[138.698443,-35.012257],[138.698518,-35.011686],[138.698588,-35.011347],[138.698571,-35.011],[138.698496,-35.010706],[138.698271,-35.010425],[138.698062,-35.010056],[138.698063,-35.009788],[138.698215,-35.00938],[138.698229,-35.009342],[138.698391,-35.008992],[138.698568,-35.008759],[138.698742,-35.00838],[138.698818,-35.008088],[138.698816,-35.007795],[138.698496,-35.007312],[138.698378,-35.007116]]}},{"type":"Feature","properties":{"tier":"arterial"},"geometry":{"type":"LineString","coordinates":[[138.716198,-35.00388],[138.716242,-35.004147],[138.716269,-35.004308],[138.716314,-35.004465]]}},{"type":"Feature","properties":{"tier":"arterial"},"geometry":{"type":"LineString","coordinates":[[138.716175,-35.004286],[138.716148,-35.00418],[138.716074,-35.00389],[138.716059,-35.003868],[138.715994,-35.003771]]}},{"type":"Feature","properties":{"tier":"arterial"},"geometry":{"type":"LineString","coordinates":[[138.716696,-35.005272],[138.716752,-35.005353]]}},{"type":"Feature","properties":{"tier":"arterial"},"geometry":{"type":"LineString","coordinates":[[138.703151,-35.001146],[138.703118,-35.001257],[138.703061,-35.001386],[138.702972,-35.00151],[138.70286,-35.001632],[138.70269,-35.001792],[138.702588,-35.001873]]}},{"type":"Feature","properties":{"tier":"high"},"geometry":{"type":"LineString","coordinates":[[138.71311,-35.00069],[138.712637,-35.000335],[138.712104,-34.99998]]}},{"type":"Feature","properties":{"tier":"arterial"},"geometry":{"type":"LineString","coordinates":[[138.62498,-35.028171],[138.625051,-35.028303],[138.625446,-35.029018]]}},{"type":"Feature","properties":{"tier":"arterial"},"geometry":{"type":"LineString","coordinates":[[138.733913,-35.013946],[138.734044,-35.013996]]}},{"type":"Feature","properties":{"tier":"regional"},"geometry":{"type":"LineString","coordinates":[[138.715563,-35.024357],[138.715723,-35.024354],[138.716542,-35.024357],[138.717355,-35.024337],[138.717706,-35.024335],[138.717887,-35.02435],[138.718065,-35.024386],[138.718705,-35.024564],[138.719355,-35.024748],[138.719921,-35.024868],[138.720515,-35.025062],[138.721018,-35.025346],[138.721457,-35.025643],[138.722116,-35.025927],[138.722526,-35.026122],[138.723136,-35.026353],[138.723497,-35.026573],[138.723672,-35.026741],[138.723872,-35.026934],[138.724169,-35.027251],[138.724443,-35.027545],[138.724785,-35.027914],[138.725748,-35.028946],[138.725951,-35.029181],[138.726041,-35.029439],[138.72608,-35.029826],[138.726144,-35.030833],[138.726273,-35.032254],[138.726377,-35.032964],[138.72648,-35.033209],[138.726735,-35.033586],[138.726968,-35.033815],[138.727419,-35.034235],[138.727926,-35.034712],[138.728281,-35.035111],[138.728691,-35.035637],[138.72887,-35.03582],[138.729109,-35.035987],[138.729489,-35.036169],[138.729717,-35.036338],[138.729772,-35.03648],[138.729695,-35.036787],[138.72952,-35.037247],[138.729333,-35.037697],[138.729278,-35.038015],[138.729289,-35.038421],[138.729267,-35.03875],[138.729225,-35.039153],[138.729193,-35.039293],[138.729091,-35.03948],[138.728868,-35.03984],[138.72839,-35.040493],[138.727856,-35.040978],[138.727632,-35.041202],[138.727552,-35.041329],[138.727458,-35.041602],[138.727395,-35.041858],[138.727386,-35.041967],[138.727393,-35.042083],[138.72747,-35.042214],[138.727555,-35.042328],[138.727861,-35.042699],[138.728149,-35.043],[138.728313,-35.043233],[138.728512,-35.043516],[138.728579,-35.043669],[138.728634,-35.043867],[138.728633,-35.044079],[138.728597,-35.044207],[138.728151,-35.044991],[138.727877,-35.04572],[138.727729,-35.045944],[138.7275,-35.046205],[138.727157,-35.046531],[138.726273,-35.04725],[138.72617,-35.047333],[138.72613,-35.047437],[138.726029,-35.047699],[138.725978,-35.0479],[138.725968,-35.048048],[138.72597,-35.048274],[138.725988,-35.048373],[138.726026,-35.048465],[138.726129,-35.048602],[138.726269,-35.048718],[138.726492,-35.048844],[138.726836,-35.04909],[138.726932,-35.049164],[138.727001,-35.049253],[138.727063,-35.049341],[138.727111,-35.04951],[138.727186,-35.049865],[138.727245,-35.050157],[138.727299,-35.050418],[138.727408,-35.051267],[138.727398,-35.051445],[138.727343,-35.051653],[138.727162,-35.052062],[138.727074,-35.052174],[138.726966,-35.052305],[138.72687,-35.05238],[138.726657,-35.052481],[138.726451,-35.052545],[138.726293,-35.052593],[138.726015,-35.052682],[138.725545,-35.052875],[138.725351,-35.052973],[138.725177,-35.053076],[138.724834,-35.053365],[138.724453,-35.0537],[138.724342,-35.053781],[138.724199,-35.053848],[138.723986,-35.053931],[138.723709,-35.054014]]}},{"type":"Feature","properties":{"tier":"arterial"},"geometry":{"type":"LineString","coordinates":[[138.734044,-35.013996],[138.734617,-35.014243],[138.734862,-35.014351],[138.734966,-35.014407],[138.735232,-35.014565],[138.735842,-35.014967],[138.735957,-35.015025]]}},{"type":"Feature","properties":{"tier":"arterial"},"geometry":{"type":"LineString","coordinates":[[138.702189,-35.002174],[138.701987,-35.002318],[138.701759,-35.002508],[138.701449,-35.0028],[138.701329,-35.002935],[138.701193,-35.003077],[138.701033,-35.003259]]}},{"type":"Feature","properties":{"tier":"arterial"},"geometry":{"type":"LineString","coordinates":[[138.700334,-35.004146],[138.700602,-35.00382],[138.701033,-35.003259]]}},{"type":"Feature","properties":{"tier":"arterial"},"geometry":{"type":"LineString","coordinates":[[138.62498,-35.003792],[138.625038,-35.003866],[138.625246,-35.004419],[138.625291,-35.004575],[138.625331,-35.004807],[138.625343,-35.004875],[138.625349,-35.00589],[138.62534,-35.006173],[138.625312,-35.006302]]}},{"type":"Feature","properties":{"tier":"arterial"},"geometry":{"type":"LineString","coordinates":[[138.720681,-35.007473],[138.721376,-35.007667]]}},{"type":"Feature","properties":{"tier":"arterial"},"geometry":{"type":"LineString","coordinates":[[138.720575,-35.00745],[138.720681,-35.007473]]}},{"type":"Feature","properties":{"tier":"arterial"},"geometry":{"type":"LineString","coordinates":[[138.62498,-35.064139],[138.625029,-35.064186],[138.625142,-35.064275],[138.625289,-35.064366],[138.625358,-35.064405],[138.62542,-35.064453],[138.625466,-35.064517],[138.625489,-35.064609],[138.625479,-35.064674],[138.625438,-35.064771],[138.625372,-35.064847],[138.625298,-35.064911],[138.625197,-35.064942],[138.625122,-35.064945],[138.62498,-35.064929]]}},{"type":"Feature","properties":{"tier":"arterial"},"geometry":{"type":"LineString","coordinates":[[138.62498,-35.067518],[138.625082,-35.067693],[138.625189,-35.067797],[138.625271,-35.067858],[138.625381,-35.067914],[138.625473,-35.067939],[138.625593,-35.067957],[138.625765,-35.067941],[138.625954,-35.067866],[138.62616,-35.067808],[138.626351,-35.067782],[138.626545,-35.067806],[138.626619,-35.067846],[138.626693,-35.06792],[138.626765,-35.068067],[138.626828,-35.068307],[138.62689,-35.068425],[138.626929,-35.068466]]}},{"type":"Feature","properties":{"tier":"regional"},"geometry":{"type":"LineString","coordinates":[[138.714578,-35.029433],[138.714617,-35.029383],[138.714759,-35.029029],[138.714834,-35.028776],[138.714863,-35.028554]]}},{"type":"Feature","properties":{"tier":"arterial"},"geometry":{"type":"LineString","coordinates":[[138.736522,-35.015184],[138.736602,-35.015105],[138.736686,-35.015022],[138.736878,-35.01488]]}},{"type":"Feature","properties":{"tier":"arterial"},"geometry":{"type":"LineString","coordinates":[[138.745486,-35.011794],[138.746128,-35.011622],[138.746838,-35.011323],[138.74747,-35.010995],[138.747555,-35.010949],[138.748065,-35.010671],[138.748376,-35.010556],[138.74871,-35.010516],[138.749281,-35.01046],[138.749928,-35.010406],[138.75002,-35.010398]]}},{"type":"Feature","properties":{"tier":"arterial"},"geometry":{"type":"LineString","coordinates":[[138.70316,-35.001102],[138.703151,-35.001146]]}},{"type":"Feature","properties":{"tier":"arterial"},"geometry":{"type":"LineString","coordinates":[[138.703065,-35.001134],[138.703075,-35.001093]]}},{"type":"Feature","properties":{"tier":"arterial"},"geometry":{"type":"LineString","coordinates":[[138.701033,-35.003259],[138.701097,-35.003078],[138.701278,-35.002849],[138.701485,-35.002652],[138.701752,-35.002411],[138.70213,-35.002126],[138.702531,-35.001836]]}},{"type":"Feature","properties":{"tier":"arterial"},"geometry":{"type":"LineString","coordinates":[[138.735957,-35.015025],[138.736242,-35.015172],[138.736346,-35.015225]]}},{"type":"Feature","properties":{"tier":"arterial"},"geometry":{"type":"LineString","coordinates":[[138.702531,-35.001836],[138.702598,-35.001787],[138.702828,-35.001569],[138.702942,-35.001435],[138.703027,-35.00125],[138.703065,-35.001134]]}},{"type":"Feature","properties":{"tier":"arterial"},"geometry":{"type":"LineString","coordinates":[[138.702588,-35.001873],[138.702464,-35.001972],[138.702189,-35.002174]]}},{"type":"Feature","properties":{"tier":"high"},"geometry":{"type":"LineString","coordinates":[[138.719129,-35.001331],[138.719693,-35.001182],[138.720161,-35.001044],[138.720237,-35.001022],[138.720834,-35.00084],[138.72091,-35.000815],[138.721633,-35.000568],[138.721724,-35.000537],[138.722661,-35.000213],[138.72278,-35.000172],[138.723295,-34.99998]]}},{"type":"Feature","properties":{"tier":"arterial"},"geometry":{"type":"LineString","coordinates":[[138.716352,-35.004578],[138.716469,-35.004881]]}},{"type":"Feature","properties":{"tier":"arterial"},"geometry":{"type":"LineString","coordinates":[[138.716314,-35.004465],[138.716352,-35.004578]]}},{"type":"Feature","properties":{"tier":"regional"},"geometry":{"type":"LineString","coordinates":[[138.740889,-35.026093],[138.740914,-35.026342],[138.740879,-35.026716],[138.740781,-35.027223],[138.740715,-35.02751],[138.740713,-35.027844],[138.740791,-35.028195],[138.740918,-35.028349],[138.741147,-35.028414],[138.74137,-35.028386],[138.741616,-35.028311],[138.741856,-35.028182],[138.742257,-35.027862],[138.742677,-35.02756],[138.742961,-35.027374],[138.743126,-35.027349],[138.743341,-35.027402],[138.743431,-35.027541],[138.74345,-35.027715],[138.743468,-35.02783],[138.743459,-35.027993],[138.743443,-35.028191],[138.743419,-35.028541],[138.743556,-35.028876],[138.743857,-35.029111],[138.744284,-35.029341],[138.744513,-35.029434],[138.744794,-35.02956],[138.744984,-35.029669],[138.745098,-35.029806],[138.745157,-35.03004],[138.745093,-35.030454],[138.745015,-35.030842],[138.744878,-35.031171],[138.744692,-35.031457],[138.74442,-35.031816],[138.744165,-35.032108],[138.744111,-35.032214],[138.744095,-35.032327],[138.744134,-35.032401],[138.744174,-35.032465],[138.74423,-35.032504],[138.744336,-35.032545],[138.744458,-35.032573],[138.744686,-35.032544],[138.74493,-35.032469],[138.745122,-35.032407],[138.745271,-35.032323],[138.745449,-35.032174],[138.745659,-35.032004],[138.745925,-35.031861],[138.746331,-35.031673],[138.746615,-35.031578],[138.746944,-35.031501],[138.747161,-35.031492],[138.747344,-35.031534],[138.747435,-35.031644],[138.747457,-35.031821],[138.747538,-35.031929],[138.747658,-35.032016],[138.74786,-35.032007],[138.748002,-35.031962],[138.748219,-35.031882],[138.748439,-35.031815],[138.748598,-35.031806],[138.74873,-35.031842],[138.748959,-35.031922],[138.749178,-35.031962],[138.749385,-35.03196],[138.749629,-35.031929],[138.749801,-35.031929],[138.749876,-35.032002],[138.749918,-35.032079],[138.749911,-35.032165],[138.749856,-35.032269],[138.749703,-35.032396],[138.749546,-35.032546],[138.749501,-35.032629],[138.749503,-35.032733],[138.749574,-35.032915],[138.749696,-35.033115],[138.749787,-35.033326],[138.749795,-35.03348],[138.749732,-35.033622],[138.749477,-35.033865],[138.749372,-35.033973],[138.749305,-35.034087],[138.7493,-35.03423],[138.749399,-35.034346],[138.749608,-35.034484],[138.7499,-35.034582],[138.75002,-35.03462]]}},{"type":"Feature","properties":{"tier":"high"},"geometry":{"type":"LineString","coordinates":[[138.720848,-35.000936],[138.720579,-35.001018],[138.720215,-35.001129],[138.719481,-35.00134],[138.718728,-35.00157],[138.718552,-35.001613]]}},{"type":"Feature","properties":{"tier":"high"},"geometry":{"type":"LineString","coordinates":[[138.715972,-35.003554],[138.715887,-35.003125]]}},{"type":"Feature","properties":{"tier":"arterial"},"geometry":{"type":"LineString","coordinates":[[138.625312,-35.006302],[138.62515,-35.006732],[138.62498,-35.007044]]}},{"type":"Feature","properties":{"tier":"high"},"geometry":{"type":"LineString","coordinates":[[138.715981,-35.002897],[138.716007,-35.003046],[138.716032,-35.003275],[138.716054,-35.00339],[138.716108,-35.003526]]}},{"type":"Feature","properties":{"tier":"arterial"},"geometry":{"type":"LineString","coordinates":[[138.738733,-35.0165],[138.738981,-35.016563],[138.739694,-35.016538],[138.740074,-35.016523],[138.740957,-35.016627],[138.74155,-35.016676],[138.742188,-35.016669],[138.742437,-35.016665],[138.743317,-35.016669],[138.744076,-35.016783],[138.744857,-35.016847],[138.745723,-35.016805],[138.746748,-35.016845],[138.747667,-35.016981],[138.74862,-35.017157],[138.749228,-35.017372],[138.749379,-35.017425],[138.749682,-35.017589],[138.749838,-35.01771],[138.75002,-35.017941]]}},{"type":"Feature","properties":{"tier":"arterial"},"geometry":{"type":"LineString","coordinates":[[138.703075,-35.001093],[138.703102,-35.000897],[138.703088,-35.000722],[138.702993,-35.00042],[138.702881,-35.000171]]}},{"type":"Feature","properties":{"tier":"arterial"},"geometry":{"type":"LineString","coordinates":[[138.715994,-35.003771],[138.715963,-35.003752],[138.715939,-35.003724],[138.71592,-35.003693]]}},{"type":"Feature","properties":{"tier":"arterial"},"geometry":{"type":"LineString","coordinates":[[138.716752,-35.005353],[138.71682,-35.005443]]}},{"type":"Feature","properties":{"tier":"arterial"},"geometry":{"type":"LineString","coordinates":[[138.71682,-35.005443],[138.716957,-35.00561]]}},{"type":"Feature","properties":{"tier":"arterial"},"geometry":{"type":"LineString","coordinates":[[138.716957,-35.00561],[138.717093,-35.005749],[138.717503,-35.006073],[138.717667,-35.0062],[138.717779,-35.006281]]}},{"type":"Feature","properties":{"tier":"arterial"},"geometry":{"type":"LineString","coordinates":[[138.716186,-35.0038],[138.716193,-35.003849],[138.716198,-35.00388]]}},{"type":"Feature","properties":{"tier":"regional"},"geometry":{"type":"LineString","coordinates":[[138.71592,-35.003693],[138.715872,-35.00371],[138.715372,-35.003883]]}},{"type":"Feature","properties":{"tier":"arterial"},"geometry":{"type":"LineString","coordinates":[[138.738025,-35.016127],[138.738157,-35.01624],[138.738286,-35.01632],[138.738404,-35.016379],[138.738588,-35.016454],[138.738733,-35.0165]]}},{"type":"Feature","properties":{"tier":"arterial"},"geometry":{"type":"LineString","coordinates":[[138.626987,-35.071579],[138.626969,-35.071848],[138.627361,-35.072108],[138.627522,-35.072203],[138.627629,-35.072331],[138.627699,-35.072635],[138.627425,-35.073239],[138.627004,-35.073937]]}},{"type":"Feature","properties":{"tier":"regional"},"geometry":{"type":"LineString","coordinates":[[138.687094,-35.043321],[138.687258,-35.04291],[138.687473,-35.04227],[138.688419,-35.039931],[138.689344,-35.037413],[138.689497,-35.037163],[138.689765,-35.03685],[138.689872,-35.036583],[138.689844,-35.036402],[138.689657,-35.036125],[138.689362,-35.035792],[138.688977,-35.035393],[138.68886,-35.035137],[138.688883,-35.034974],[138.689398,-35.034281],[138.6899,-35.033563],[138.690088,-35.033131],[138.690032,-35.032738],[138.689834,-35.032144],[138.689749,-35.03165],[138.689632,-35.031331],[138.689425,-35.031121],[138.689097,-35.03095],[138.688716,-35.030882],[138.688573,-35.030882],[138.688245,-35.030881],[138.687843,-35.030837],[138.687536,-35.030714],[138.687438,-35.030595],[138.687426,-35.030412],[138.687641,-35.030117],[138.687997,-35.029765],[138.688356,-35.029562],[138.688683,-35.029432],[138.689553,-35.029171],[138.690048,-35.029053],[138.690312,-35.028995],[138.690396,-35.028899],[138.690411,-35.028819],[138.690294,-35.028681],[138.690077,-35.028526],[138.689648,-35.028291],[138.689155,-35.028101],[138.689007,-35.027841],[138.689044,-35.027705],[138.689149,-35.027328],[138.688952,-35.026766],[138.688851,-35.026443],[138.688763,-35.026163],[138.688599,-35.025847],[138.688536,-35.025647],[138.688562,-35.025538],[138.688653,-35.025441],[138.688877,-35.025347],[138.689247,-35.025192]]}},{"type":"Feature","properties":{"tier":"arterial"},"geometry":{"type":"LineString","coordinates":[[138.62498,-35.034964],[138.624984,-35.034972]]}},{"type":"Feature","properties":{"tier":"arterial"},"geometry":{"type":"LineString","coordinates":[[138.625743,-35.031592],[138.625688,-35.031736],[138.62498,-35.032789]]}},{"type":"Feature","properties":{"tier":"arterial"},"geometry":{"type":"LineString","coordinates":[[138.625446,-35.029018],[138.625501,-35.029116]]}},{"type":"Feature","properties":{"tier":"regional"},"geometry":{"type":"LineString","coordinates":[[138.708062,-35.056567],[138.707838,-35.056484],[138.707751,-35.056461],[138.70768,-35.056443],[138.707609,-35.056431],[138.706613,-35.056294],[138.706539,-35.056294],[138.706446,-35.056297],[138.706378,-35.056299],[138.706286,-35.056304],[138.705342,-35.056436],[138.705218,-35.056458],[138.705119,-35.056486],[138.704977,-35.056532],[138.704876,-35.056575],[138.70478,-35.05663],[138.704675,-35.056698],[138.703928,-35.057257],[138.70383,-35.057335],[138.703756,-35.057388],[138.703685,-35.057426],[138.70353,-35.057517],[138.702827,-35.057855],[138.702363,-35.058051],[138.702204,-35.058118],[138.701793,-35.058284],[138.701093,-35.058497],[138.700325,-35.058726],[138.700226,-35.058767],[138.700158,-35.058807],[138.700075,-35.05887],[138.700004,-35.058938],[138.699957,-35.058992],[138.699911,-35.059057],[138.69988,-35.05912],[138.699862,-35.059173],[138.699849,-35.059242],[138.699849,-35.059345],[138.699843,-35.05959],[138.699834,-35.059656],[138.699819,-35.059706],[138.699797,-35.059752],[138.69976,-35.059805],[138.699711,-35.059855],[138.699646,-35.059908],[138.699485,-35.06003],[138.698958,-35.060363],[138.698757,-35.060472],[138.6986,-35.060542],[138.696655,-35.06128],[138.696529,-35.061328],[138.696425,-35.061376],[138.696332,-35.061434],[138.696236,-35.06151],[138.696166,-35.061575],[138.696107,-35.061646],[138.69599,-35.06179],[138.694944,-35.063106],[138.694697,-35.063348],[138.694638,-35.063398],[138.694558,-35.063467],[138.694425,-35.063575],[138.693259,-35.064527],[138.693123,-35.064651],[138.693055,-35.064724],[138.692991,-35.064803],[138.69295,-35.064863],[138.69288,-35.064964],[138.692824,-35.065058],[138.692744,-35.065184],[138.692657,-35.065318],[138.692599,-35.065391],[138.692549,-35.065449],[138.692503,-35.065495],[138.692435,-35.065548],[138.692377,-35.065588],[138.692303,-35.065621],[138.691957,-35.06576],[138.691892,-35.06579],[138.691803,-35.065846],[138.691725,-35.065894],[138.691639,-35.065959],[138.691559,-35.066018],[138.691503,-35.066071],[138.691041,-35.066533],[138.690967,-35.066598],[138.690886,-35.066662],[138.690806,-35.066725],[138.690704,-35.066788],[138.69064,-35.066821],[138.690565,-35.066851],[138.690476,-35.066876],[138.690368,-35.066896],[138.689862,-35.066977],[138.689732,-35.067007],[138.689631,-35.06705],[138.689538,-35.067096],[138.689467,-35.067139],[138.689344,-35.06722],[138.689217,-35.067305],[138.687696,-35.068508],[138.687486,-35.068677],[138.687387,-35.06877],[138.687313,-35.068866],[138.68723,-35.068956],[138.687109,-35.069079]]}},{"type":"Feature","properties":{"tier":"regional"},"geometry":{"type":"LineString","coordinates":[[138.70972,-35.042685],[138.709673,-35.042542],[138.709552,-35.042414],[138.70868,-35.041566],[138.708272,-35.04114],[138.708225,-35.041096],[138.708171,-35.041055],[138.708116,-35.04102],[138.707402,-35.04058],[138.707359,-35.040539],[138.707323,-35.040493],[138.707288,-35.040436],[138.707266,-35.04039],[138.707247,-35.040336],[138.707218,-35.040242],[138.707191,-35.040143],[138.707131,-35.039332],[138.707109,-35.039065],[138.707081,-35.038686],[138.707084,-35.03859],[138.7071,-35.038502],[138.707131,-35.038364],[138.707188,-35.038189],[138.707283,-35.038024],[138.707526,-35.0377],[138.708609,-35.036508],[138.708945,-35.036361],[138.70962,-35.036104],[138.709948,-35.036029],[138.710501,-35.035954],[138.711111,-35.035919],[138.711286,-35.03592],[138.711751,-35.035921],[138.712185,-35.036014],[138.712307,-35.036002],[138.712353,-35.035968],[138.712347,-35.035907],[138.712329,-35.035811],[138.712223,-35.035646],[138.712127,-35.03544],[138.712116,-35.035302],[138.712134,-35.035057],[138.712165,-35.034763],[138.71223,-35.034335],[138.712338,-35.034102],[138.713034,-35.033557],[138.713303,-35.033411],[138.713591,-35.033354],[138.714242,-35.0333],[138.714382,-35.03324],[138.714469,-35.033161],[138.714478,-35.033049],[138.714342,-35.032841],[138.714138,-35.032595],[138.713586,-35.031729],[138.713532,-35.031522]]}},{"type":"Feature","properties":{"tier":"arterial"},"geometry":{"type":"LineString","coordinates":[[138.624984,-35.034972],[138.625038,-35.035083],[138.625046,-35.035159],[138.625022,-35.035289],[138.624981,-35.035388],[138.62498,-35.035389]]}},{"type":"Feature","properties":{"tier":"high"},"geometry":{"type":"LineString","coordinates":[[138.718552,-35.001613],[138.718289,-35.001676],[138.717728,-35.001825],[138.717174,-35.001913],[138.71677,-35.00197],[138.716296,-35.001983]]}},{"type":"Feature","properties":{"tier":"regional"},"geometry":{"type":"LineString","coordinates":[[138.632307,-35.039509],[138.632276,-35.039478],[138.632094,-35.039336],[138.631908,-35.039231],[138.631644,-35.039109],[138.631449,-35.039049],[138.630949,-35.038928],[138.63073,-35.038866],[138.630656,-35.038828],[138.630345,-35.03867],[138.629864,-35.038342],[138.627758,-35.036928],[138.62626,-35.035923],[138.626033,-35.03576],[138.625679,-35.035548],[138.625236,-35.035373],[138.625144,-35.035336],[138.62507,-35.035307],[138.625022,-35.035289]]}},{"type":"Feature","properties":{"tier":"regional"},"geometry":{"type":"LineString","coordinates":[[138.682671,-35.052396],[138.681799,-35.052197],[138.681566,-35.052143],[138.681063,-35.052027],[138.68061,-35.051714],[138.678396,-35.050187],[138.677411,-35.049717],[138.677081,-35.049606],[138.676562,-35.04951],[138.675279,-35.049464],[138.673084,-35.049351],[138.67144,-35.049243],[138.670125,-35.048974],[138.66938,-35.048689],[138.668383,-35.047922],[138.666166,-35.046216],[138.66568,-35.046031],[138.665603,-35.046002],[138.664912,-35.045767]]}},{"type":"Feature","properties":{"tier":"arterial"},"geometry":{"type":"LineString","coordinates":[[138.721376,-35.007667],[138.721756,-35.007816],[138.722098,-35.007947],[138.722416,-35.008076],[138.722773,-35.008229],[138.72313,-35.008361],[138.723175,-35.008379]]}},{"type":"Feature","properties":{"tier":"arterial"},"geometry":{"type":"LineString","coordinates":[[138.744214,-35.01203],[138.744651,-35.011971],[138.745486,-35.011794]]}},{"type":"Feature","properties":{"tier":"arterial"},"geometry":{"type":"LineString","coordinates":[[138.62498,-35.037889],[138.625977,-35.038713],[138.626286,-35.039015],[138.626384,-35.039146],[138.626463,-35.039303],[138.626513,-35.039453],[138.626558,-35.039626],[138.626568,-35.039663],[138.626574,-35.039802],[138.626559,-35.039967],[138.626523,-35.040071],[138.626451,-35.040194],[138.626405,-35.040257],[138.62606,-35.040694],[138.625869,-35.040937],[138.625821,-35.040996],[138.625792,-35.041036],[138.625293,-35.041702],[138.62498,-35.042119]]}},{"type":"Feature","properties":{"tier":"arterial"},"geometry":{"type":"LineString","coordinates":[[138.716181,-35.003756],[138.716136,-35.00378],[138.716088,-35.003789],[138.716039,-35.003786],[138.715994,-35.003771]]}},{"type":"Feature","properties":{"tier":"arterial"},"geometry":{"type":"LineString","coordinates":[[138.715972,-35.003554],[138.716013,-35.003533],[138.71606,-35.003524],[138.716108,-35.003526]]}},{"type":"Feature","properties":{"tier":"arterial"},"geometry":{"type":"LineString","coordinates":[[138.71592,-35.003693],[138.715913,-35.003655],[138.715921,-35.003617],[138.715941,-35.003582],[138.715972,-35.003554]]}},{"type":"Feature","properties":{"tier":"regional"},"geometry":{"type":"LineString","coordinates":[[138.627004,-35.073937],[138.626421,-35.073709],[138.62597,-35.073644],[138.62498,-35.073558]]}},{"type":"Feature","properties":{"tier":"arterial"},"geometry":{"type":"LineString","coordinates":[[138.631124,-35.110455],[138.631206,-35.110494],[138.631221,-35.110501],[138.631801,-35.110788],[138.632342,-35.110999],[138.633483,-35.111231],[138.633538,-35.111296],[138.633576,-35.111413]]}},{"type":"Feature","properties":{"tier":"arterial"},"geometry":{"type":"LineString","coordinates":[[138.63073,-35.11027],[138.631124,-35.110455]]}},{"type":"Feature","properties":{"tier":"arterial"},"geometry":{"type":"LineString","coordinates":[[138.630546,-35.110185],[138.630616,-35.110217],[138.63073,-35.11027]]}},{"type":"Feature","properties":{"tier":"arterial"},"geometry":{"type":"LineString","coordinates":[[138.633187,-35.007814],[138.633196,-35.007906]]}},{"type":"Feature","properties":{"tier":"arterial"},"geometry":{"type":"LineString","coordinates":[[138.633218,-35.008149],[138.63325,-35.009097],[138.633254,-35.009223],[138.633346,-35.01039],[138.633422,-35.011255],[138.633625,-35.013345]]}},{"type":"Feature","properties":{"tier":"arterial"},"geometry":{"type":"LineString","coordinates":[[138.633196,-35.007906],[138.633218,-35.008149]]}},{"type":"Feature","properties":{"tier":"regional"},"geometry":{"type":"LineString","coordinates":[[138.720845,-35.055814],[138.720832,-35.055882],[138.720862,-35.055981],[138.720996,-35.056159],[138.721433,-35.056637],[138.7216,-35.056765],[138.722201,-35.05716],[138.722483,-35.057301],[138.723056,-35.057598],[138.723165,-35.057662],[138.72341,-35.057806],[138.723597,-35.057941],[138.723703,-35.058038],[138.723782,-35.058123],[138.723869,-35.058267],[138.724014,-35.058725],[138.724081,-35.058973],[138.724169,-35.059219],[138.724226,-35.059339],[138.724342,-35.059475],[138.724498,-35.059617],[138.724857,-35.059967],[138.72491,-35.060046],[138.724932,-35.060125],[138.724934,-35.060241],[138.724934,-35.060295],[138.724883,-35.060428],[138.724828,-35.060517],[138.72476,-35.060608],[138.724436,-35.061062],[138.724225,-35.061326],[138.724204,-35.061352],[138.724079,-35.061567],[138.724053,-35.061677],[138.724038,-35.061772],[138.724048,-35.061878],[138.724071,-35.061954],[138.724103,-35.062016],[138.724175,-35.062081],[138.724514,-35.062384],[138.724741,-35.062615],[138.724912,-35.062819]]}},{"type":"Feature","properties":{"tier":"regional"},"geometry":{"type":"LineString","coordinates":[[138.723709,-35.054014],[138.723342,-35.054124],[138.723253,-35.054157],[138.723145,-35.054209],[138.723086,-35.05425],[138.723034,-35.054282],[138.722949,-35.054376],[138.722871,-35.054508],[138.722778,-35.054709],[138.722728,-35.054785],[138.722668,-35.05486],[138.722577,-35.054935],[138.722464,-35.055015],[138.722315,-35.055095],[138.722086,-35.055205],[138.721779,-35.055339],[138.721415,-35.055464],[138.72113,-35.055579],[138.720995,-35.055646],[138.720926,-35.055704],[138.720877,-35.055755],[138.720845,-35.055814]]}},{"type":"Feature","properties":{"tier":"regional"},"geometry":{"type":"LineString","coordinates":[[138.733306,-35.044601],[138.732926,-35.044423],[138.732604,-35.044256],[138.73247,-35.044157],[138.732369,-35.044064],[138.732059,-35.043554],[138.731744,-35.043031],[138.73161,-35.042949],[138.731441,-35.04288],[138.731212,-35.042835],[138.730428,-35.042934],[138.729643,-35.043019],[138.728698,-35.043152],[138.728494,-35.043176],[138.728313,-35.043233]]}},{"type":"Feature","properties":{"tier":"arterial"},"geometry":{"type":"LineString","coordinates":[[138.733393,-35.044642],[138.733306,-35.044601]]}},{"type":"Feature","properties":{"tier":"regional"},"geometry":{"type":"LineString","coordinates":[[138.717366,-35.068566],[138.716834,-35.069016],[138.716199,-35.069676],[138.71571,-35.070048],[138.715367,-35.070182],[138.715049,-35.070224],[138.714543,-35.070287],[138.713942,-35.070336],[138.713478,-35.070477],[138.713032,-35.070681],[138.712637,-35.070968],[138.712328,-35.071334],[138.712088,-35.071678],[138.711925,-35.072268],[138.711796,-35.072837],[138.711624,-35.073188],[138.711187,-35.073659],[138.710706,-35.074263],[138.710398,-35.074663],[138.710086,-35.074993],[138.709789,-35.075198],[138.709276,-35.075524]]}},{"type":"Feature","properties":{"tier":"regional"},"geometry":{"type":"LineString","coordinates":[[138.724912,-35.062819],[138.724242,-35.063157],[138.723469,-35.063571],[138.722533,-35.064014],[138.72231,-35.064105],[138.721847,-35.064175],[138.721435,-35.064217],[138.72116,-35.064267],[138.72092,-35.064379],[138.720722,-35.064548],[138.720414,-35.064927],[138.720053,-35.065433],[138.71928,-35.066494],[138.718465,-35.067547],[138.717933,-35.068095],[138.717684,-35.068302],[138.717366,-35.068566]]}},{"type":"Feature","properties":{"tier":"regional"},"geometry":{"type":"LineString","coordinates":[[138.682671,-35.052396],[138.683171,-35.052479],[138.68356,-35.052523]]}},{"type":"Feature","properties":{"tier":"arterial"},"geometry":{"type":"LineString","coordinates":[[138.626929,-35.068466],[138.627002,-35.068515],[138.627145,-35.068572],[138.627271,-35.0686],[138.62754,-35.068615],[138.62774,-35.068655],[138.628039,-35.068742],[138.62816,-35.068837],[138.628207,-35.068902],[138.628224,-35.069022],[138.628214,-35.069127],[138.628181,-35.069311],[138.628055,-35.069593],[138.628004,-35.06973],[138.627941,-35.070094],[138.627838,-35.070348],[138.627475,-35.070916],[138.627355,-35.071085],[138.627073,-35.071413],[138.626987,-35.071579]]}},{"type":"Feature","properties":{"tier":"arterial"},"geometry":{"type":"LineString","coordinates":[[138.636883,-35.016218],[138.63824,-35.016127]]}},{"type":"Feature","properties":{"tier":"regional"},"geometry":{"type":"LineString","coordinates":[[138.628166,-35.016698],[138.627971,-35.016709],[138.627158,-35.016753],[138.626473,-35.016791],[138.625872,-35.016824],[138.624986,-35.016873],[138.62498,-35.016873]]}},{"type":"Feature","properties":{"tier":"arterial"},"geometry":{"type":"LineString","coordinates":[[138.633028,-35.005889],[138.633102,-35.006679],[138.633135,-35.007248],[138.633187,-35.007814]]}},{"type":"Feature","properties":{"tier":"high"},"geometry":{"type":"LineString","coordinates":[[138.716318,-35.001834],[138.716773,-35.001863]]}},{"type":"Feature","properties":{"tier":"high"},"geometry":{"type":"LineString","coordinates":[[138.715776,-35.001781],[138.716042,-35.001815],[138.716318,-35.001834]]}},{"type":"Feature","properties":{"tier":"arterial"},"geometry":{"type":"LineString","coordinates":[[138.743506,-35.012146],[138.743676,-35.012102],[138.744214,-35.01203]]}},{"type":"Feature","properties":{"tier":"arterial"},"geometry":{"type":"LineString","coordinates":[[138.632762,-35.005901],[138.632908,-35.005843],[138.632981,-35.005772],[138.633011,-35.005686]]}},{"type":"Feature","properties":{"tier":"arterial"},"geometry":{"type":"LineString","coordinates":[[138.633011,-35.005686],[138.633028,-35.005889]]}},{"type":"Feature","properties":{"tier":"arterial"},"geometry":{"type":"LineString","coordinates":[[138.625501,-35.029116],[138.625585,-35.02927],[138.625608,-35.029333],[138.625611,-35.029398],[138.625609,-35.029448],[138.625596,-35.029504],[138.625429,-35.029851],[138.625349,-35.030067],[138.625367,-35.030193],[138.62552,-35.030641],[138.625579,-35.030817],[138.625716,-35.031219],[138.625763,-35.031432],[138.625743,-35.031592]]}}]}
