{"type":"FeatureCollection","features":[{"type":"Feature","properties":{"tier":"arterial"},"geometry":{"type":"LineString","coordinates":[[138.829096,-32.974146],[138.82882,-32.974012],[138.828542,-32.973849],[138.828275,-32.973685],[138.827543,-32.973169],[138.826217,-32.972151],[138.825815,-32.971851],[138.824603,-32.971075],[138.823281,-32.97042],[138.820813,-32.96953],[138.819723,-32.969173]]}},{"type":"Feature","properties":{"tier":"arterial"},"geometry":{"type":"LineString","coordinates":[[138.610625,-32.732602],[138.610522,-32.732448],[138.610441,-32.732325],[138.610068,-32.731763],[138.609557,-32.731105],[138.609259,-32.730846],[138.609163,-32.730797],[138.608875,-32.730651],[138.608249,-32.730538],[138.607543,-32.730508],[138.606921,-32.730482],[138.606055,-32.730445],[138.60544,-32.730422],[138.605119,-32.730413],[138.604904,-32.730411],[138.6047,-32.730422],[138.604515,-32.730438],[138.604349,-32.730459],[138.60419,-32.730482],[138.603986,-32.730519],[138.603731,-32.730579]]}},{"type":"Feature","properties":{"tier":"arterial"},"geometry":{"type":"LineString","coordinates":[[138.687005,-32.816925],[138.68672,-32.816274],[138.678485,-32.79747],[138.678115,-32.796625],[138.677933,-32.796224],[138.6778,-32.795991],[138.677578,-32.795651],[138.676859,-32.794608],[138.668816,-32.782992],[138.668782,-32.782937],[138.656235,-32.764667],[138.655927,-32.76426],[138.65564,-32.763847],[138.655497,-32.763684],[138.655295,-32.763481],[138.654796,-32.762983],[138.640492,-32.751093],[138.639039,-32.749886],[138.637435,-32.748553],[138.637148,-32.74828],[138.636983,-32.748061],[138.636818,-32.747828],[138.636689,-32.747594],[138.636585,-32.747346],[138.636196,-32.746305],[138.636062,-32.746082],[138.635855,-32.745812],[138.635617,-32.745569],[138.635346,-32.745371],[138.635065,-32.745194],[138.634735,-32.74504],[138.634429,-32.744925],[138.634056,-32.744832],[138.633698,-32.744777],[138.633159,-32.744742],[138.632859,-32.74474],[138.632591,-32.744752],[138.632214,-32.744769],[138.632145,-32.744774],[138.631678,-32.744774],[138.631465,-32.744762],[138.631275,-32.744731],[138.63103,-32.744672],[138.63082,-32.744604],[138.630539,-32.744503],[138.630289,-32.744393],[138.62996,-32.744239],[138.62973,-32.744082],[138.62944,-32.743817],[138.628626,-32.7428],[138.628461,-32.742664],[138.628272,-32.742537],[138.626997,-32.74183],[138.626561,-32.741588],[138.624126,-32.740385]]}},{"type":"Feature","properties":{"tier":"regional"},"geometry":{"type":"LineString","coordinates":[[139.00002,-32.961546],[138.992157,-32.959801],[138.984347,-32.958045],[138.982185,-32.957572],[138.981916,-32.957518],[138.981734,-32.957496],[138.981605,-32.957509],[138.981461,-32.957519],[138.981374,-32.957528],[138.981326,-32.957532],[138.981155,-32.957568],[138.980945,-32.957595],[138.980736,-32.957595],[138.980516,-32.957559],[138.980334,-32.957527],[138.980069,-32.957469]]}},{"type":"Feature","properties":{"tier":"arterial"},"geometry":{"type":"LineString","coordinates":[[138.829096,-32.974146],[138.828732,-32.974177],[138.827818,-32.974255],[138.822932,-32.974671],[138.822892,-32.974675],[138.82187,-32.974773],[138.821554,-32.974854]]}},{"type":"Feature","properties":{"tier":"arterial"},"geometry":{"type":"LineString","coordinates":[[138.610625,-32.732602],[138.610883,-32.732811],[138.611077,-32.732955],[138.611601,-32.733202],[138.612233,-32.733501]]}},{"type":"Feature","properties":{"tier":"arterial"},"geometry":{"type":"LineString","coordinates":[[138.612233,-32.733501],[138.612479,-32.733136],[138.612584,-32.73298],[138.612664,-32.732862],[138.613438,-32.731714],[138.61464,-32.729929]]}},{"type":"Feature","properties":{"tier":"arterial"},"geometry":{"type":"LineString","coordinates":[[138.850703,-33.00002],[138.848728,-32.991583],[138.848349,-32.989959],[138.846691,-32.982862]]}},{"type":"Feature","properties":{"tier":"arterial"},"geometry":{"type":"LineString","coordinates":[[138.845648,-32.978469],[138.845593,-32.978278],[138.845508,-32.978044],[138.845391,-32.97783],[138.845233,-32.977652],[138.845023,-32.977479],[138.844758,-32.97735],[138.844488,-32.977285]]}},{"type":"Feature","properties":{"tier":"arterial"},"geometry":{"type":"LineString","coordinates":[[138.846691,-32.982862],[138.846364,-32.981462],[138.845648,-32.978469]]}},{"type":"Feature","properties":{"tier":"arterial"},"geometry":{"type":"LineString","coordinates":[[138.607424,-32.74041],[138.608024,-32.739061],[138.608197,-32.738571],[138.608447,-32.738164],[138.608706,-32.737938],[138.609659,-32.737277]]}},{"type":"Feature","properties":{"tier":"arterial"},"geometry":{"type":"LineString","coordinates":[[138.604755,-32.744377],[138.606415,-32.742136],[138.607424,-32.74041]]}},{"type":"Feature","properties":{"tier":"arterial"},"geometry":{"type":"LineString","coordinates":[[138.819723,-32.969173],[138.816771,-32.968206],[138.81537,-32.967921],[138.814791,-32.967853],[138.814209,-32.96787],[138.813461,-32.967939],[138.812784,-32.968047],[138.810499,-32.96871],[138.80949,-32.968849],[138.808695,-32.968884],[138.807948,-32.968828],[138.806996,-32.968646],[138.806292,-32.968446],[138.805532,-32.968126],[138.804846,-32.967759],[138.804221,-32.967204],[138.803639,-32.966619],[138.798796,-32.960761],[138.794071,-32.955035],[138.790587,-32.950863],[138.789193,-32.949458],[138.788323,-32.948784],[138.787571,-32.948263],[138.787007,-32.947885],[138.783361,-32.945357],[138.77902,-32.942391],[138.775689,-32.940215],[138.774433,-32.939316],[138.773369,-32.938583],[138.772432,-32.937844],[138.771758,-32.937211],[138.7712,-32.9365],[138.770657,-32.935703],[138.770231,-32.934775],[138.769975,-32.933737],[138.769792,-32.93267],[138.769883,-32.929256],[138.770239,-32.924255],[138.770263,-32.923932],[138.770318,-32.923182],[138.770364,-32.92254],[138.770374,-32.922407],[138.770418,-32.921798],[138.770351,-32.920699],[138.770073,-32.919343],[138.769675,-32.918311],[138.76923,-32.917426],[138.768685,-32.916525],[138.768111,-32.915683],[138.767348,-32.914809],[138.765726,-32.913598],[138.76418,-32.912507],[138.763473,-32.911967],[138.76271,-32.911207],[138.761952,-32.91032],[138.761375,-32.909465],[138.760089,-32.907063],[138.756591,-32.899482],[138.756084,-32.898563],[138.755691,-32.897972],[138.755271,-32.89734],[138.753937,-32.895705],[138.742602,-32.884281],[138.74207,-32.883664],[138.741439,-32.882774],[138.741107,-32.882341],[138.74072,-32.881575],[138.740418,-32.880961],[138.740201,-32.880263],[138.739942,-32.879337],[138.737324,-32.863061],[138.737229,-32.862471],[138.737113,-32.861742],[138.736994,-32.861009],[138.736478,-32.857797],[138.736321,-32.856562],[138.736155,-32.855247],[138.735857,-32.854165],[138.735517,-32.853371],[138.735409,-32.853118],[138.735174,-32.852568],[138.734589,-32.851577],[138.733918,-32.850731],[138.733165,-32.849971],[138.7293,-32.846759],[138.724267,-32.842797],[138.715915,-32.836222],[138.715802,-32.836133],[138.697881,-32.821608],[138.694919,-32.819215],[138.6943,-32.81873],[138.693564,-32.818184],[138.692639,-32.817716],[138.691639,-32.817375],[138.69061,-32.817191],[138.687985,-32.816997],[138.687005,-32.816925]]}},{"type":"Feature","properties":{"tier":"arterial"},"geometry":{"type":"LineString","coordinates":[[138.841033,-32.977427],[138.840895,-32.977234],[138.840822,-32.977055],[138.840743,-32.976498],[138.8406,-32.975404],[138.840464,-32.974394],[138.840448,-32.974347],[138.840294,-32.974075],[138.840242,-32.973703],[138.840237,-32.97366],[138.84016,-32.973086]]}},{"type":"Feature","properties":{"tier":"high"},"geometry":{"type":"LineString","coordinates":[[138.978348,-32.959314],[138.977484,-32.960257],[138.974072,-32.963964],[138.973938,-32.96411],[138.969677,-32.968738],[138.967844,-32.970746],[138.967589,-32.971083],[138.967304,-32.97154],[138.967141,-32.971857],[138.96696,-32.972267],[138.966,-32.974689],[138.960419,-32.98871],[138.958995,-32.992295],[138.958529,-32.99347],[138.957238,-32.99672],[138.955928,-33.00002]]}},{"type":"Feature","properties":{"tier":"arterial"},"geometry":{"type":"LineString","coordinates":[[138.612166,-32.733613],[138.611533,-32.733313],[138.610976,-32.733049],[138.610818,-32.732908],[138.610775,-32.732833],[138.610625,-32.732602]]}},{"type":"Feature","properties":{"tier":"arterial"},"geometry":{"type":"LineString","coordinates":[[138.617231,-32.736061],[138.616883,-32.735887],[138.616429,-32.735659],[138.615037,-32.735016],[138.613616,-32.734337],[138.612166,-32.733613]]}},{"type":"Feature","properties":{"tier":"arterial"},"geometry":{"type":"LineString","coordinates":[[138.612233,-32.733501],[138.612933,-32.733833],[138.613699,-32.734195],[138.614602,-32.734622],[138.615141,-32.734877],[138.615857,-32.735216],[138.616528,-32.735534],[138.616926,-32.735833],[138.617231,-32.736061]]}},{"type":"Feature","properties":{"tier":"arterial"},"geometry":{"type":"LineString","coordinates":[[138.621417,-32.731964],[138.621525,-32.732177],[138.621602,-32.73246],[138.62164,-32.732749],[138.621691,-32.73315],[138.621742,-32.733539],[138.621735,-32.733859],[138.621763,-32.734908],[138.621769,-32.736506],[138.621745,-32.737191],[138.621753,-32.738818]]}},{"type":"Feature","properties":{"tier":"arterial"},"geometry":{"type":"LineString","coordinates":[[138.612006,-32.721218],[138.611677,-32.720251],[138.610984,-32.718377],[138.610683,-32.717222],[138.610522,-32.71549],[138.610407,-32.712676],[138.610084,-32.704796],[138.609653,-32.694867],[138.609524,-32.691618],[138.608537,-32.68591],[138.608108,-32.677351],[138.607975,-32.674818],[138.607688,-32.668401],[138.607645,-32.668052],[138.6076,-32.667771],[138.607511,-32.667429],[138.607446,-32.667099],[138.607379,-32.666826],[138.607238,-32.666383],[138.605748,-32.662142],[138.603044,-32.654878],[138.601171,-32.64982],[138.600878,-32.648871],[138.60071,-32.648359],[138.60053,-32.647626],[138.599653,-32.643634],[138.599153,-32.641346],[138.598572,-32.638709]]}},{"type":"Feature","properties":{"tier":"arterial"},"geometry":{"type":"LineString","coordinates":[[138.609659,-32.737277],[138.610055,-32.736745],[138.61011,-32.736663],[138.610377,-32.736267],[138.610931,-32.735445],[138.611828,-32.734114],[138.611933,-32.733958],[138.612166,-32.733613]]}},{"type":"Feature","properties":{"tier":"high"},"geometry":{"type":"LineString","coordinates":[[139.00002,-32.935878],[138.998777,-32.93675],[138.998414,-32.937004],[138.997092,-32.937931]]}},{"type":"Feature","properties":{"tier":"arterial"},"geometry":{"type":"LineString","coordinates":[[138.598572,-32.638709],[138.598546,-32.638589]]}},{"type":"Feature","properties":{"tier":"arterial"},"geometry":{"type":"LineString","coordinates":[[138.598546,-32.638589],[138.598463,-32.638211],[138.598343,-32.637789],[138.598223,-32.637452],[138.598165,-32.63733],[138.598087,-32.637167],[138.597932,-32.6369],[138.597791,-32.636695],[138.597614,-32.636451],[138.597474,-32.636277],[138.597257,-32.636039],[138.597059,-32.635848],[138.596806,-32.635626],[138.596127,-32.635068],[138.594576,-32.63381],[138.586129,-32.626909],[138.585071,-32.626038],[138.580788,-32.622557],[138.580322,-32.622167],[138.580022,-32.621915],[138.579575,-32.621564],[138.579132,-32.621153],[138.578936,-32.620949],[138.578843,-32.620854],[138.573819,-32.614835],[138.572264,-32.612903],[138.571967,-32.612506],[138.571717,-32.612146],[138.571498,-32.611776],[138.571226,-32.611292],[138.569168,-32.607163],[138.567811,-32.604461],[138.566282,-32.601362],[138.566076,-32.600944],[138.564978,-32.598532],[138.562966,-32.594518],[138.56206,-32.592709],[138.560301,-32.589059],[138.560086,-32.588117],[138.560086,-32.587249],[138.560158,-32.58649],[138.560333,-32.585749],[138.561974,-32.578428],[138.564089,-32.569041],[138.564418,-32.567609],[138.564511,-32.5671],[138.564563,-32.566627],[138.564551,-32.566167],[138.564508,-32.565741],[138.564375,-32.565032],[138.563485,-32.560738],[138.563035,-32.558457],[138.56301,-32.558331],[138.562746,-32.556964],[138.562568,-32.556321]]}},{"type":"Feature","properties":{"tier":"arterial"},"geometry":{"type":"LineString","coordinates":[[138.550094,-32.521075],[138.550021,-32.520558],[138.54982,-32.51948],[138.5494,-32.518124],[138.548917,-32.516894],[138.548375,-32.51551],[138.546832,-32.511732],[138.546605,-32.511166],[138.546395,-32.510418],[138.54631,-32.509857],[138.546269,-32.509228],[138.546311,-32.508548],[138.546352,-32.508173],[138.54642,-32.507833],[138.546525,-32.507372],[138.547498,-32.50338],[138.547888,-32.501853],[138.548048,-32.501008],[138.54807,-32.500462],[138.548052,-32.49998]]}},{"type":"Feature","properties":{"tier":"arterial"},"geometry":{"type":"LineString","coordinates":[[138.562568,-32.556321],[138.562478,-32.556069],[138.562403,-32.555858],[138.561879,-32.554558],[138.56115,-32.552886],[138.560699,-32.551816],[138.560538,-32.551309],[138.560436,-32.55085],[138.560364,-32.550264],[138.560327,-32.549757]]}},{"type":"Feature","properties":{"tier":"arterial"},"geometry":{"type":"LineString","coordinates":[[138.519261,-32.950573],[138.518382,-32.951198],[138.515359,-32.953462]]}},{"type":"Feature","properties":{"tier":"arterial"},"geometry":{"type":"LineString","coordinates":[[138.511945,-32.956042],[138.510121,-32.957267],[138.509702,-32.95751],[138.50932,-32.957647],[138.508837,-32.95771],[138.508222,-32.957789],[138.507782,-32.957942],[138.507239,-32.958151],[138.507074,-32.958239],[138.506971,-32.958394],[138.506638,-32.959366],[138.506569,-32.959481],[138.505572,-32.960273],[138.504231,-32.960678],[138.503001,-32.961014],[138.501338,-32.961599],[138.49998,-32.962101]]}},{"type":"Feature","properties":{"tier":"arterial"},"geometry":{"type":"LineString","coordinates":[[138.521968,-32.948805],[138.521861,-32.948877],[138.52168,-32.948991],[138.521427,-32.949129],[138.521162,-32.949264],[138.520924,-32.949381],[138.520745,-32.94949],[138.520562,-32.949613],[138.520161,-32.949919],[138.519261,-32.950573]]}},{"type":"Feature","properties":{"tier":"arterial"},"geometry":{"type":"LineString","coordinates":[[138.515273,-32.917238],[138.515363,-32.917126],[138.520952,-32.910893],[138.523907,-32.905389],[138.525151,-32.902507],[138.526009,-32.899228],[138.526602,-32.89627],[138.526911,-32.894796],[138.527522,-32.893223],[138.529568,-32.887903],[138.530628,-32.884194],[138.53135,-32.882521],[138.534168,-32.877049],[138.538476,-32.867953],[138.545435,-32.854408],[138.547998,-32.849064],[138.548043,-32.848973],[138.55156,-32.841839],[138.551676,-32.841603]]}},{"type":"Feature","properties":{"tier":"arterial"},"geometry":{"type":"LineString","coordinates":[[138.49998,-32.953156],[138.500175,-32.952721],[138.500735,-32.951506],[138.50082,-32.951271],[138.501697,-32.948838],[138.501848,-32.948291],[138.502047,-32.947119]]}},{"type":"Feature","properties":{"tier":"arterial"},"geometry":{"type":"LineString","coordinates":[[138.551676,-32.841603],[138.552841,-32.83875],[138.552999,-32.838362],[138.553012,-32.838327],[138.553139,-32.837995],[138.553242,-32.837596],[138.553324,-32.837214],[138.55339,-32.8369],[138.553409,-32.836796],[138.553656,-32.835496],[138.55403,-32.833649],[138.554504,-32.830113],[138.554625,-32.829536],[138.554788,-32.828989],[138.554984,-32.828433],[138.555209,-32.827925],[138.557715,-32.823373],[138.561561,-32.815293],[138.562505,-32.814049],[138.56364,-32.813156],[138.565277,-32.811744],[138.565917,-32.81064],[138.567398,-32.805014],[138.568878,-32.799765],[138.570809,-32.789739],[138.570942,-32.789046]]}},{"type":"Feature","properties":{"tier":"arterial"},"geometry":{"type":"LineString","coordinates":[[138.97501,-32.956334],[138.963345,-32.953727],[138.957033,-32.952317],[138.956419,-32.952179],[138.955906,-32.952077],[138.955345,-32.951994],[138.954477,-32.951893],[138.952352,-32.951703],[138.951897,-32.951664],[138.951465,-32.951668],[138.950988,-32.951702],[138.950505,-32.951784],[138.950009,-32.9519],[138.9496,-32.952035],[138.949379,-32.952125],[138.948851,-32.95234],[138.948622,-32.952433],[138.948365,-32.952526],[138.948284,-32.952555],[138.948102,-32.952621],[138.947629,-32.952738],[138.947211,-32.952812],[138.9468,-32.952861],[138.946401,-32.95288],[138.94602,-32.952865],[138.94561,-32.952836],[138.945517,-32.952821],[138.945234,-32.952778],[138.944821,-32.952687],[138.932604,-32.949302],[138.931428,-32.948985],[138.930922,-32.948862],[138.930306,-32.948746],[138.929793,-32.94869],[138.929129,-32.948663],[138.92843,-32.948709],[138.927808,-32.948793],[138.927177,-32.948914],[138.926529,-32.949109],[138.925929,-32.949326],[138.925157,-32.94961],[138.924208,-32.949994],[138.915066,-32.953701],[138.914515,-32.953908],[138.914124,-32.954015],[138.913773,-32.954088],[138.913417,-32.954155],[138.913104,-32.95419],[138.913049,-32.954196],[138.912677,-32.954209],[138.912236,-32.954216],[138.906992,-32.954044],[138.906535,-32.954031],[138.906191,-32.954027],[138.905837,-32.954023],[138.905003,-32.954034],[138.904263,-32.954081],[138.903408,-32.954163]]}},{"type":"Feature","properties":{"tier":"high"},"geometry":{"type":"LineString","coordinates":[[138.979476,-32.957326],[138.979702,-32.957315],[138.979826,-32.95731],[138.979941,-32.957292],[138.980074,-32.957249],[138.980252,-32.957165],[138.98042,-32.957085]]}},{"type":"Feature","properties":{"tier":"arterial"},"geometry":{"type":"LineString","coordinates":[[138.85447,-32.970247],[138.853677,-32.970314],[138.853614,-32.970319],[138.853229,-32.970357],[138.853064,-32.970374],[138.85267,-32.970424],[138.852299,-32.970494],[138.852016,-32.970556],[138.85122,-32.970819],[138.850426,-32.971238],[138.84972,-32.971654],[138.848873,-32.972049],[138.848189,-32.972241],[138.847309,-32.972402]]}},{"type":"Feature","properties":{"tier":"arterial"},"geometry":{"type":"LineString","coordinates":[[138.84016,-32.973086],[138.839451,-32.973154],[138.838839,-32.973213],[138.838503,-32.973245],[138.837971,-32.973296],[138.837674,-32.973324],[138.836464,-32.97344],[138.835808,-32.973504],[138.835485,-32.973535],[138.835406,-32.973542],[138.834912,-32.973589],[138.833425,-32.973731],[138.832942,-32.973778],[138.832761,-32.973796],[138.8319,-32.973877],[138.831571,-32.973909],[138.830694,-32.973993],[138.83042,-32.974019],[138.829096,-32.974146]]}},{"type":"Feature","properties":{"tier":"arterial"},"geometry":{"type":"LineString","coordinates":[[138.844488,-32.977285],[138.844106,-32.977274],[138.842608,-32.977426],[138.841513,-32.977533],[138.841287,-32.977516],[138.841033,-32.977427]]}},{"type":"Feature","properties":{"tier":"arterial"},"geometry":{"type":"LineString","coordinates":[[138.603731,-32.730579],[138.603432,-32.730655],[138.60309,-32.730748],[138.602767,-32.730842],[138.602357,-32.730965],[138.601914,-32.731078],[138.601857,-32.73109],[138.601533,-32.731159],[138.601197,-32.731219],[138.600805,-32.731262],[138.600392,-32.731297],[138.600064,-32.731315],[138.599664,-32.731335],[138.599078,-32.731356],[138.597772,-32.731411],[138.597442,-32.73144],[138.597126,-32.731474],[138.596815,-32.731519],[138.596536,-32.731567],[138.596301,-32.731618],[138.596035,-32.731682],[138.59577,-32.731751],[138.595514,-32.731835],[138.595256,-32.731925],[138.594949,-32.732036],[138.594713,-32.732133],[138.594504,-32.732219],[138.594275,-32.73232],[138.594058,-32.732426],[138.593796,-32.732567],[138.593573,-32.732687],[138.593319,-32.732831],[138.59249,-32.733312],[138.591905,-32.733657],[138.591536,-32.733863],[138.59129,-32.73399],[138.59106,-32.734096],[138.590802,-32.734204],[138.590594,-32.734282],[138.590376,-32.73436],[138.590131,-32.734441],[138.589871,-32.73451],[138.589634,-32.734561],[138.589371,-32.734613],[138.589074,-32.734655],[138.588788,-32.734688],[138.588434,-32.734719],[138.588149,-32.734736],[138.58779,-32.734755],[138.587436,-32.73478],[138.587114,-32.734808],[138.586843,-32.734837],[138.586617,-32.734863],[138.586358,-32.7349],[138.586076,-32.734954],[138.585809,-32.735011],[138.585509,-32.735087],[138.585235,-32.735162],[138.584976,-32.735247],[138.584711,-32.735338],[138.584419,-32.735451],[138.584167,-32.735561],[138.583947,-32.73566],[138.583677,-32.735797],[138.583354,-32.735979],[138.583037,-32.736178],[138.582745,-32.736376],[138.582499,-32.736548],[138.582213,-32.736753],[138.581966,-32.736935],[138.581637,-32.73718],[138.579863,-32.738485],[138.576498,-32.740971],[138.569814,-32.745894],[138.56942,-32.74616],[138.569187,-32.746302],[138.568943,-32.746434],[138.568691,-32.746563],[138.568421,-32.746679],[138.568163,-32.746789],[138.567902,-32.746882],[138.567643,-32.746965],[138.567368,-32.747043],[138.567052,-32.747121],[138.566777,-32.747171],[138.566462,-32.747219],[138.566157,-32.747244],[138.565802,-32.747261],[138.565502,-32.747268],[138.565184,-32.747256],[138.564911,-32.747243],[138.564626,-32.747218],[138.564426,-32.747191],[138.564144,-32.747147],[138.5639,-32.747105],[138.563655,-32.74705],[138.563415,-32.746992],[138.56316,-32.746923],[138.562942,-32.746864],[138.562005,-32.746589],[138.559512,-32.745851],[138.558294,-32.745499],[138.557943,-32.745371],[138.557631,-32.745248],[138.557394,-32.745142],[138.557116,-32.745004],[138.556905,-32.744892],[138.554061,-32.743352],[138.553751,-32.743198],[138.55344,-32.743057],[138.553128,-32.742935],[138.552676,-32.742755],[138.549826,-32.741694],[138.549388,-32.741508],[138.549057,-32.741348],[138.548739,-32.741155],[138.548419,-32.740943],[138.548164,-32.74076],[138.544633,-32.737982],[138.542565,-32.736398],[138.542079,-32.736037],[138.541713,-32.73578],[138.541442,-32.735608],[138.54108,-32.735405],[138.540694,-32.735211],[138.54035,-32.735049],[138.540045,-32.734919],[138.539735,-32.734803],[138.536972,-32.733773],[138.535118,-32.733001],[138.535029,-32.732972],[138.531144,-32.731266],[138.519277,-32.726103],[138.514954,-32.724224],[138.514638,-32.724089],[138.514334,-32.723958],[138.514085,-32.723859],[138.513879,-32.72378],[138.513621,-32.723697],[138.513345,-32.723618],[138.513066,-32.723555],[138.512761,-32.72349],[138.512503,-32.723451],[138.51223,-32.723425],[138.511937,-32.723408],[138.511585,-32.723398],[138.511236,-32.723398],[138.510887,-32.723405],[138.510067,-32.723444],[138.506476,-32.723627],[138.502205,-32.723836],[138.50187,-32.72385],[138.501591,-32.723857],[138.501331,-32.723859],[138.501006,-32.723863],[138.500754,-32.723856],[138.500468,-32.723839],[138.500215,-32.723816],[138.49998,-32.723785]]}},{"type":"Feature","properties":{"tier":"arterial"},"geometry":{"type":"LineString","coordinates":[[138.620861,-32.738604],[138.620228,-32.737972],[138.620106,-32.737835],[138.620058,-32.737781],[138.619823,-32.737591],[138.619604,-32.737437],[138.618313,-32.736689],[138.617365,-32.736139],[138.617231,-32.736061]]}},{"type":"Feature","properties":{"tier":"arterial"},"geometry":{"type":"LineString","coordinates":[[138.816258,-32.980048],[138.813154,-32.981377],[138.801484,-32.986298],[138.797021,-32.988168],[138.792274,-32.99018],[138.790442,-32.990979],[138.789608,-32.991491],[138.789486,-32.991583],[138.788567,-32.99228],[138.786581,-32.993701],[138.782933,-32.996579],[138.778549,-33.00002]]}},{"type":"Feature","properties":{"tier":"arterial"},"geometry":{"type":"LineString","coordinates":[[138.68672,-32.816274],[138.686942,-32.81659],[138.687137,-32.816763],[138.687362,-32.816868],[138.687606,-32.81692],[138.687985,-32.816997]]}},{"type":"Feature","properties":{"tier":"arterial"},"geometry":{"type":"LineString","coordinates":[[138.502324,-32.943098],[138.502435,-32.942243],[138.502441,-32.941906],[138.502218,-32.940033],[138.502229,-32.938873],[138.502013,-32.937654],[138.50202,-32.937225],[138.502088,-32.936803],[138.502279,-32.936233],[138.50281,-32.934874],[138.503486,-32.932233],[138.503645,-32.931798],[138.504615,-32.929767],[138.50535,-32.927969],[138.505673,-32.927234],[138.506054,-32.926676],[138.506663,-32.926006],[138.507081,-32.925626],[138.507818,-32.925061],[138.510235,-32.922392],[138.511161,-32.921229],[138.511599,-32.920657],[138.511823,-32.920422],[138.513442,-32.919314],[138.513776,-32.918975],[138.515273,-32.917238]]}},{"type":"Feature","properties":{"tier":"arterial"},"geometry":{"type":"LineString","coordinates":[[138.515359,-32.953462],[138.51445,-32.954142]]}},{"type":"Feature","properties":{"tier":"arterial"},"geometry":{"type":"LineString","coordinates":[[138.980069,-32.957469],[138.979476,-32.957326]]}},{"type":"Feature","properties":{"tier":"arterial"},"geometry":{"type":"LineString","coordinates":[[138.847309,-32.972402],[138.84659,-32.972471],[138.845451,-32.97258],[138.843952,-32.972723],[138.8432,-32.972795],[138.842472,-32.972865],[138.841137,-32.972993],[138.840986,-32.973007],[138.840614,-32.973043],[138.84016,-32.973086]]}},{"type":"Feature","properties":{"tier":"arterial"},"geometry":{"type":"LineString","coordinates":[[138.612166,-32.733613],[138.612233,-32.733501]]}},{"type":"Feature","properties":{"tier":"high"},"geometry":{"type":"LineString","coordinates":[[138.98042,-32.957085],[138.980069,-32.957469]]}},{"type":"Feature","properties":{"tier":"high"},"geometry":{"type":"LineString","coordinates":[[138.980069,-32.957469],[138.978348,-32.959314]]}},{"type":"Feature","properties":{"tier":"high"},"geometry":{"type":"LineString","coordinates":[[138.982202,-32.955148],[138.981809,-32.955575],[138.98161,-32.955792],[138.981009,-32.956445],[138.98042,-32.957085]]}},{"type":"Feature","properties":{"tier":"arterial"},"geometry":{"type":"LineString","coordinates":[[138.979476,-32.957326],[138.97501,-32.956334]]}},{"type":"Feature","properties":{"tier":"high"},"geometry":{"type":"LineString","coordinates":[[138.988144,-32.946274],[138.988038,-32.947761],[138.987974,-32.948206],[138.98781,-32.948707],[138.987421,-32.949386],[138.987018,-32.949889],[138.986252,-32.950732],[138.985324,-32.951752],[138.982202,-32.955148]]}},{"type":"Feature","properties":{"tier":"high"},"geometry":{"type":"LineString","coordinates":[[138.997092,-32.937931],[138.996705,-32.938158],[138.996316,-32.938347],[138.995879,-32.938527],[138.991255,-32.940246],[138.990877,-32.940419],[138.990491,-32.94063],[138.990173,-32.940829],[138.98984,-32.941094],[138.989502,-32.941405],[138.98919,-32.941741],[138.988953,-32.942055],[138.988746,-32.942395],[138.988593,-32.942731],[138.988465,-32.943067],[138.98838,-32.943406],[138.988324,-32.943774],[138.988279,-32.94442],[138.988259,-32.944665],[138.988144,-32.946274]]}},{"type":"Feature","properties":{"tier":"arterial"},"geometry":{"type":"LineString","coordinates":[[138.638641,-33.00002],[138.649275,-32.980751],[138.654697,-32.970701],[138.655862,-32.967056],[138.656241,-32.965868],[138.658584,-32.958208],[138.663401,-32.942814],[138.663455,-32.942641],[138.665803,-32.934838],[138.666206,-32.933462],[138.666659,-32.931944],[138.667241,-32.929964],[138.66786,-32.927932],[138.668885,-32.924498],[138.670362,-32.919709],[138.674901,-32.904724],[138.679813,-32.888575],[138.680314,-32.887068],[138.680507,-32.886633],[138.681106,-32.885054],[138.683586,-32.876666],[138.685734,-32.869692],[138.688811,-32.859699],[138.691817,-32.849834],[138.692717,-32.846882],[138.692845,-32.846447],[138.692941,-32.846029],[138.692982,-32.845661],[138.693007,-32.845226],[138.692991,-32.844869],[138.692959,-32.844578],[138.692903,-32.84424],[138.692679,-32.843357],[138.690654,-32.835056],[138.690447,-32.834269],[138.690083,-32.833408],[138.689284,-32.831607],[138.688364,-32.829473],[138.688314,-32.829348],[138.688232,-32.829058],[138.688195,-32.828761],[138.688179,-32.828416],[138.688297,-32.827812],[138.688554,-32.827271],[138.688787,-32.826976],[138.689074,-32.826646],[138.689535,-32.826125],[138.689573,-32.826081],[138.689622,-32.826024],[138.68989,-32.825696],[138.690088,-32.825351],[138.690227,-32.825033],[138.690301,-32.824756],[138.690362,-32.824453],[138.690349,-32.824109],[138.690303,-32.823753],[138.690195,-32.823403],[138.690048,-32.823079],[138.689862,-32.822783],[138.689327,-32.822118],[138.68914,-32.821789],[138.687005,-32.816925]]}},{"type":"Feature","properties":{"tier":"arterial"},"geometry":{"type":"LineString","coordinates":[[138.61424,-32.72625],[138.613764,-32.725474],[138.613409,-32.724824],[138.612926,-32.723651],[138.612564,-32.72271],[138.612236,-32.721835]]}},{"type":"Feature","properties":{"tier":"arterial"},"geometry":{"type":"LineString","coordinates":[[138.61464,-32.729929],[138.614989,-32.729411],[138.615378,-32.72886],[138.61541,-32.728801],[138.615449,-32.728729],[138.615491,-32.728576],[138.615499,-32.728429],[138.6155,-32.728318],[138.615469,-32.728169],[138.615413,-32.728079],[138.615383,-32.728032],[138.61424,-32.72625]]}},{"type":"Feature","properties":{"tier":"arterial"},"geometry":{"type":"LineString","coordinates":[[138.624126,-32.740385],[138.623091,-32.739894],[138.621773,-32.739282],[138.621705,-32.739242],[138.621533,-32.739143],[138.621314,-32.738995],[138.621095,-32.738827],[138.620861,-32.738604]]}},{"type":"Feature","properties":{"tier":"arterial"},"geometry":{"type":"LineString","coordinates":[[138.820233,-32.976574],[138.819426,-32.978218],[138.819022,-32.978688],[138.818462,-32.979062],[138.817677,-32.979434],[138.816258,-32.980048]]}},{"type":"Feature","properties":{"tier":"arterial"},"geometry":{"type":"LineString","coordinates":[[138.821554,-32.974854],[138.82135,-32.974946],[138.821087,-32.975151],[138.820872,-32.975411],[138.820233,-32.976574]]}},{"type":"Feature","properties":{"tier":"arterial"},"geometry":{"type":"LineString","coordinates":[[138.612236,-32.721835],[138.612006,-32.721218]]}},{"type":"Feature","properties":{"tier":"arterial"},"geometry":{"type":"LineString","coordinates":[[138.550109,-32.521219],[138.550094,-32.521075]]}},{"type":"Feature","properties":{"tier":"arterial"},"geometry":{"type":"LineString","coordinates":[[138.560327,-32.549757],[138.560309,-32.549519],[138.560214,-32.546585],[138.560102,-32.544689],[138.560035,-32.544172],[138.559942,-32.543715],[138.559773,-32.543154],[138.559528,-32.542439],[138.556513,-32.535603],[138.556109,-32.534686],[138.555903,-32.534271],[138.555502,-32.533631],[138.555337,-32.533409],[138.555199,-32.533224],[138.554813,-32.532736],[138.554361,-32.532253],[138.552945,-32.530808],[138.552737,-32.530572],[138.552507,-32.530317],[138.552326,-32.530093],[138.552132,-32.529832],[138.551989,-32.529626],[138.55186,-32.529393],[138.551704,-32.529128],[138.551589,-32.528912],[138.551447,-32.528611],[138.551314,-32.528278],[138.551233,-32.528031],[138.551206,-32.527949],[138.551068,-32.527436],[138.550109,-32.521219]]}},{"type":"Feature","properties":{"tier":"arterial"},"geometry":{"type":"LineString","coordinates":[[138.587667,-32.764784],[138.588436,-32.764486],[138.588985,-32.764472],[138.589413,-32.76446],[138.592566,-32.764576],[138.593624,-32.764241],[138.59442,-32.763573],[138.594875,-32.762949],[138.59509,-32.762138],[138.595108,-32.761469],[138.595161,-32.759466],[138.59519,-32.758398],[138.595357,-32.757495],[138.595872,-32.756629],[138.598649,-32.752571],[138.599757,-32.750951],[138.600523,-32.749944],[138.603104,-32.746549],[138.604755,-32.744377]]}},{"type":"Feature","properties":{"tier":"arterial"},"geometry":{"type":"LineString","coordinates":[[138.587182,-32.765122],[138.587361,-32.764954],[138.587391,-32.764926],[138.587667,-32.764784]]}},{"type":"Feature","properties":{"tier":"arterial"},"geometry":{"type":"LineString","coordinates":[[138.571057,-32.788449],[138.571552,-32.78588],[138.571679,-32.785493],[138.571832,-32.785162],[138.573129,-32.78298],[138.574882,-32.779863],[138.575406,-32.779117],[138.575626,-32.778805],[138.57813,-32.775365],[138.583319,-32.768863],[138.585935,-32.766295],[138.587182,-32.765122]]}},{"type":"Feature","properties":{"tier":"arterial"},"geometry":{"type":"LineString","coordinates":[[138.570942,-32.789046],[138.570996,-32.788767],[138.571057,-32.788449]]}},{"type":"Feature","properties":{"tier":"arterial"},"geometry":{"type":"LineString","coordinates":[[138.522317,-32.947369],[138.522384,-32.947597],[138.522384,-32.947867],[138.522365,-32.948071],[138.522325,-32.948249],[138.522267,-32.948404],[138.522182,-32.948572],[138.522102,-32.948672],[138.521968,-32.948805]]}},{"type":"Feature","properties":{"tier":"arterial"},"geometry":{"type":"LineString","coordinates":[[138.51445,-32.954142],[138.511945,-32.956042]]}},{"type":"Feature","properties":{"tier":"arterial"},"geometry":{"type":"LineString","coordinates":[[138.61541,-32.728801],[138.616655,-32.729397],[138.61689,-32.729515],[138.619424,-32.730736],[138.620657,-32.73133],[138.620838,-32.73144],[138.620957,-32.731513],[138.621241,-32.731764],[138.621417,-32.731964]]}},{"type":"Feature","properties":{"tier":"arterial"},"geometry":{"type":"LineString","coordinates":[[138.621314,-32.738995],[138.621468,-32.739033],[138.621573,-32.73903],[138.621635,-32.738999],[138.621684,-32.738956],[138.62172,-32.738909]]}},{"type":"Feature","properties":{"tier":"arterial"},"geometry":{"type":"LineString","coordinates":[[138.621705,-32.739242],[138.62172,-32.738909],[138.621739,-32.738864],[138.621753,-32.738818]]}},{"type":"Feature","properties":{"tier":"arterial"},"geometry":{"type":"LineString","coordinates":[[138.621753,-32.738818],[138.621784,-32.738909],[138.621773,-32.739282]]}},{"type":"Feature","properties":{"tier":"arterial"},"geometry":{"type":"LineString","coordinates":[[138.902527,-32.954278],[138.9025,-32.954282],[138.90157,-32.954462],[138.900411,-32.954784],[138.899217,-32.955198],[138.898202,-32.955611],[138.897303,-32.956038],[138.89648,-32.95646],[138.895579,-32.95704],[138.894583,-32.957772],[138.89379,-32.958379],[138.892814,-32.959059],[138.89233,-32.95941],[138.891963,-32.959664],[138.891817,-32.95975],[138.891574,-32.959895],[138.890779,-32.960376],[138.890413,-32.960575],[138.88971,-32.96093],[138.889285,-32.961145],[138.888418,-32.961536],[138.873684,-32.966846],[138.869902,-32.968213],[138.869039,-32.968525],[138.868899,-32.968575],[138.868199,-32.968819],[138.867689,-32.968945],[138.867077,-32.969028],[138.86476,-32.969253],[138.862586,-32.969465],[138.855005,-32.970203],[138.854505,-32.970245],[138.85447,-32.970247]]}},{"type":"Feature","properties":{"tier":"arterial"},"geometry":{"type":"LineString","coordinates":[[138.903408,-32.954163],[138.902527,-32.954278]]}},{"type":"Feature","properties":{"tier":"arterial"},"geometry":{"type":"LineString","coordinates":[[138.521905,-32.945855],[138.52196,-32.946005],[138.522312,-32.94735],[138.522317,-32.947369]]}},{"type":"Feature","properties":{"tier":"arterial"},"geometry":{"type":"LineString","coordinates":[[138.502047,-32.947119],[138.502088,-32.945704],[138.502094,-32.944866],[138.502324,-32.943098]]}}]}
