{"type":"FeatureCollection","features":[{"type":"Feature","properties":{"tier":"regional"},"geometry":{"type":"LineString","coordinates":[[138.711189,-34.697117],[138.711233,-34.69705],[138.711602,-34.696447],[138.711714,-34.696309],[138.711825,-34.696218],[138.711945,-34.696134],[138.71207,-34.696068],[138.712225,-34.696002],[138.712395,-34.695963],[138.713082,-34.695817],[138.713515,-34.695726],[138.714344,-34.695547],[138.715368,-34.695322],[138.715577,-34.695277],[138.71583,-34.695195],[138.716011,-34.69511],[138.71631,-34.694943],[138.716492,-34.694781],[138.716661,-34.694562],[138.716743,-34.694364],[138.716759,-34.694306]]}},{"type":"Feature","properties":{"tier":"regional"},"geometry":{"type":"LineString","coordinates":[[138.709295,-34.692571],[138.709308,-34.692593],[138.709311,-34.692628],[138.709305,-34.692661],[138.70928,-34.692692],[138.70925,-34.692705],[138.709204,-34.692707]]}},{"type":"Feature","properties":{"tier":"regional"},"geometry":{"type":"LineString","coordinates":[[138.710454,-34.690853],[138.710457,-34.690874],[138.710444,-34.690915],[138.710425,-34.690936],[138.710401,-34.69095],[138.710376,-34.690958],[138.710351,-34.690961]]}},{"type":"Feature","properties":{"tier":"regional"},"geometry":{"type":"LineString","coordinates":[[138.701286,-34.693346],[138.701297,-34.69331],[138.701313,-34.693294],[138.701357,-34.693268]]}},{"type":"Feature","properties":{"tier":"arterial"},"geometry":{"type":"LineString","coordinates":[[138.691583,-34.707328],[138.691537,-34.707465],[138.691518,-34.707538],[138.691516,-34.707548],[138.691499,-34.707645],[138.691482,-34.707767],[138.691427,-34.70793]]}},{"type":"Feature","properties":{"tier":"regional"},"geometry":{"type":"LineString","coordinates":[[138.710193,-34.700614],[138.710079,-34.700865],[138.710002,-34.701087],[138.709963,-34.701248],[138.709933,-34.701432],[138.709926,-34.701488],[138.709887,-34.701807],[138.709856,-34.702057],[138.709843,-34.702167],[138.709757,-34.702569],[138.709662,-34.702861],[138.709596,-34.703023],[138.709491,-34.703241],[138.709382,-34.703422]]}},{"type":"Feature","properties":{"tier":"regional"},"geometry":{"type":"LineString","coordinates":[[138.704322,-34.700246],[138.703237,-34.70196],[138.702449,-34.703207]]}},{"type":"Feature","properties":{"tier":"regional"},"geometry":{"type":"LineString","coordinates":[[138.716759,-34.694306],[138.716785,-34.694212],[138.716793,-34.694074],[138.716771,-34.693807],[138.716707,-34.693594],[138.716655,-34.693464],[138.71658,-34.693331],[138.716211,-34.692851]]}},{"type":"Feature","properties":{"tier":"regional"},"geometry":{"type":"LineString","coordinates":[[138.701351,-34.693416],[138.701313,-34.693398],[138.701304,-34.693382]]}},{"type":"Feature","properties":{"tier":"regional"},"geometry":{"type":"LineString","coordinates":[[138.694365,-34.690338],[138.694726,-34.690488],[138.695596,-34.690851],[138.698508,-34.692113],[138.698597,-34.692151]]}},{"type":"Feature","properties":{"tier":"regional"},"geometry":{"type":"LineString","coordinates":[[138.694365,-34.690338],[138.694322,-34.690436],[138.694302,-34.690481],[138.694116,-34.690862]]}},{"type":"Feature","properties":{"tier":"regional"},"geometry":{"type":"LineString","coordinates":[[138.706114,-34.697417],[138.70608,-34.697472],[138.706008,-34.697587],[138.706,-34.697599],[138.705355,-34.698614]]}},{"type":"Feature","properties":{"tier":"regional"},"geometry":{"type":"LineString","coordinates":[[138.716211,-34.692851],[138.715827,-34.692367],[138.715155,-34.691517],[138.715091,-34.691413],[138.714957,-34.691119],[138.714938,-34.691073],[138.714867,-34.690905]]}},{"type":"Feature","properties":{"tier":"regional"},"geometry":{"type":"LineString","coordinates":[[138.711259,-34.698875],[138.711147,-34.699062],[138.711084,-34.699164],[138.711052,-34.699215],[138.710957,-34.699355],[138.710847,-34.699536],[138.710719,-34.69973],[138.710541,-34.700017],[138.710464,-34.70014],[138.710283,-34.700435]]}},{"type":"Feature","properties":{"tier":"regional"},"geometry":{"type":"LineString","coordinates":[[138.68748,-34.723149],[138.68757,-34.723188],[138.687768,-34.723276],[138.688175,-34.723456],[138.688785,-34.723709],[138.689289,-34.723917]]}},{"type":"Feature","properties":{"tier":"arterial"},"geometry":{"type":"LineString","coordinates":[[138.691225,-34.707333],[138.691069,-34.70731],[138.69095,-34.70729],[138.690842,-34.707278]]}},{"type":"Feature","properties":{"tier":"arterial"},"geometry":{"type":"LineString","coordinates":[[138.691427,-34.70793],[138.691431,-34.708545],[138.691423,-34.70874],[138.69141,-34.708914],[138.691385,-34.709063],[138.691351,-34.709209],[138.691292,-34.709345],[138.69122,-34.709466],[138.691063,-34.709716]]}},{"type":"Feature","properties":{"tier":"arterial"},"geometry":{"type":"LineString","coordinates":[[138.691427,-34.70793],[138.691364,-34.707768],[138.691358,-34.70772]]}},{"type":"Feature","properties":{"tier":"regional"},"geometry":{"type":"LineString","coordinates":[[138.689289,-34.723917],[138.689523,-34.724026],[138.689641,-34.724076],[138.689767,-34.724121],[138.689905,-34.724163],[138.690024,-34.724191],[138.690073,-34.724202],[138.69025,-34.724223],[138.690483,-34.724237],[138.6908,-34.724249],[138.690987,-34.724256],[138.691258,-34.724264],[138.691399,-34.724267],[138.691479,-34.72427],[138.691525,-34.724277]]}},{"type":"Feature","properties":{"tier":"arterial"},"geometry":{"type":"LineString","coordinates":[[138.693333,-34.707253],[138.693303,-34.707252],[138.693224,-34.707248],[138.693161,-34.707248],[138.692995,-34.70725],[138.692792,-34.707254],[138.692592,-34.707261],[138.692234,-34.707274],[138.692098,-34.707276],[138.69208,-34.707277],[138.691986,-34.707282],[138.691866,-34.707291],[138.691779,-34.707296],[138.691605,-34.707318]]}},{"type":"Feature","properties":{"tier":"arterial"},"geometry":{"type":"LineString","coordinates":[[138.694565,-34.707336],[138.693815,-34.707276],[138.693801,-34.707275],[138.693333,-34.707253]]}},{"type":"Feature","properties":{"tier":"arterial"},"geometry":{"type":"LineString","coordinates":[[138.69156,-34.706995],[138.691816,-34.707051],[138.691943,-34.707068],[138.692087,-34.707079],[138.692156,-34.707084],[138.692191,-34.707086],[138.692512,-34.707104],[138.692716,-34.707121],[138.692772,-34.707126]]}},{"type":"Feature","properties":{"tier":"arterial"},"geometry":{"type":"LineString","coordinates":[[138.714787,-34.708151],[138.716266,-34.708164],[138.717906,-34.708195],[138.718568,-34.708207]]}},{"type":"Feature","properties":{"tier":"arterial"},"geometry":{"type":"LineString","coordinates":[[138.691268,-34.706981],[138.69131,-34.706965],[138.691353,-34.706955],[138.691399,-34.706952],[138.691444,-34.706955],[138.691488,-34.706964],[138.69153,-34.706979],[138.69156,-34.706995]]}},{"type":"Feature","properties":{"tier":"arterial"},"geometry":{"type":"LineString","coordinates":[[138.68748,-34.701335],[138.687745,-34.701449],[138.688496,-34.701766],[138.688686,-34.701847],[138.688771,-34.701884]]}},{"type":"Feature","properties":{"tier":"arterial"},"geometry":{"type":"LineString","coordinates":[[138.689646,-34.711976],[138.689579,-34.712075],[138.689279,-34.71256],[138.689253,-34.7126],[138.688509,-34.713766],[138.687963,-34.714621],[138.687757,-34.714944],[138.68748,-34.715388]]}},{"type":"Feature","properties":{"tier":"arterial"},"geometry":{"type":"LineString","coordinates":[[138.691268,-34.706981],[138.691308,-34.706866],[138.69133,-34.706797],[138.691342,-34.706724],[138.691349,-34.70668],[138.691376,-34.706505],[138.691428,-34.706429]]}},{"type":"Feature","properties":{"tier":"arterial"},"geometry":{"type":"LineString","coordinates":[[138.691428,-34.706429],[138.691474,-34.706504],[138.691489,-34.706677],[138.691491,-34.706693],[138.6915,-34.706777],[138.691519,-34.706856],[138.69153,-34.706979]]}},{"type":"Feature","properties":{"tier":"arterial"},"geometry":{"type":"LineString","coordinates":[[138.702309,-34.707941],[138.702817,-34.707954],[138.702905,-34.707955]]}},{"type":"Feature","properties":{"tier":"arterial"},"geometry":{"type":"LineString","coordinates":[[138.701746,-34.707924],[138.701322,-34.70793],[138.700982,-34.707926],[138.700295,-34.70791],[138.700179,-34.707894],[138.700064,-34.707843],[138.699971,-34.707824],[138.699815,-34.707822]]}},{"type":"Feature","properties":{"tier":"arterial"},"geometry":{"type":"LineString","coordinates":[[138.697551,-34.707644],[138.69649,-34.707528]]}},{"type":"Feature","properties":{"tier":"high"},"geometry":{"type":"LineString","coordinates":[[138.690635,-34.688803],[138.69045,-34.688822],[138.690414,-34.688819],[138.690383,-34.688825],[138.69036,-34.688835],[138.690332,-34.688853],[138.690257,-34.688917]]}},{"type":"Feature","properties":{"tier":"high"},"geometry":{"type":"LineString","coordinates":[[138.689886,-34.688443],[138.690098,-34.68843],[138.690135,-34.688426],[138.69017,-34.688417],[138.690227,-34.688381]]}},{"type":"Feature","properties":{"tier":"high"},"geometry":{"type":"LineString","coordinates":[[138.690435,-34.688636],[138.690386,-34.688714]]}},{"type":"Feature","properties":{"tier":"high"},"geometry":{"type":"LineString","coordinates":[[138.690073,-34.688621],[138.690129,-34.688534]]}},{"type":"Feature","properties":{"tier":"high"},"geometry":{"type":"LineString","coordinates":[[138.690129,-34.688534],[138.690182,-34.688451],[138.690227,-34.688381]]}},{"type":"Feature","properties":{"tier":"high"},"geometry":{"type":"LineString","coordinates":[[138.690386,-34.688714],[138.690348,-34.688774],[138.690257,-34.688917]]}},{"type":"Feature","properties":{"tier":"regional"},"geometry":{"type":"LineString","coordinates":[[138.690248,-34.688578],[138.690435,-34.688636]]}},{"type":"Feature","properties":{"tier":"regional"},"geometry":{"type":"LineString","coordinates":[[138.690129,-34.688534],[138.690248,-34.688578]]}},{"type":"Feature","properties":{"tier":"high"},"geometry":{"type":"LineString","coordinates":[[138.690248,-34.688578],[138.690203,-34.688592],[138.690174,-34.688601],[138.690122,-34.688612],[138.690073,-34.688621]]}},{"type":"Feature","properties":{"tier":"high"},"geometry":{"type":"LineString","coordinates":[[138.689923,-34.688848],[138.689896,-34.688775],[138.689903,-34.688738],[138.689908,-34.688699],[138.689908,-34.688663],[138.689906,-34.688639],[138.689895,-34.688604],[138.689875,-34.688558]]}},{"type":"Feature","properties":{"tier":"regional"},"geometry":{"type":"LineString","coordinates":[[138.690964,-34.688881],[138.691358,-34.689025]]}},{"type":"Feature","properties":{"tier":"regional"},"geometry":{"type":"LineString","coordinates":[[138.691628,-34.689141],[138.692022,-34.689312],[138.692394,-34.689472],[138.693198,-34.689818]]}},{"type":"Feature","properties":{"tier":"high"},"geometry":{"type":"LineString","coordinates":[[138.690248,-34.688678],[138.690296,-34.688664],[138.690346,-34.688653],[138.690392,-34.688643],[138.690435,-34.688636]]}},{"type":"Feature","properties":{"tier":"regional"},"geometry":{"type":"LineString","coordinates":[[138.690435,-34.688636],[138.69049,-34.688655],[138.690641,-34.688703]]}},{"type":"Feature","properties":{"tier":"regional"},"geometry":{"type":"LineString","coordinates":[[138.690964,-34.688881],[138.690901,-34.688884],[138.690828,-34.688863],[138.690635,-34.688803]]}},{"type":"Feature","properties":{"tier":"high"},"geometry":{"type":"LineString","coordinates":[[138.690592,-34.688389],[138.690603,-34.688497],[138.6906,-34.688531],[138.6906,-34.688599],[138.690602,-34.688624],[138.690608,-34.688651],[138.690625,-34.68868],[138.690641,-34.688703]]}},{"type":"Feature","properties":{"tier":"regional"},"geometry":{"type":"LineString","coordinates":[[138.709047,-34.692867],[138.709089,-34.692755],[138.709093,-34.692743],[138.709103,-34.692663]]}},{"type":"Feature","properties":{"tier":"regional"},"geometry":{"type":"LineString","coordinates":[[138.710351,-34.690961],[138.710294,-34.691006],[138.710274,-34.691019],[138.710213,-34.691065]]}},{"type":"Feature","properties":{"tier":"regional"},"geometry":{"type":"LineString","coordinates":[[138.709197,-34.692534],[138.70924,-34.692505],[138.709251,-34.692495],[138.709297,-34.692457],[138.709358,-34.692385]]}},{"type":"Feature","properties":{"tier":"regional"},"geometry":{"type":"LineString","coordinates":[[138.710213,-34.691065],[138.710231,-34.691003],[138.710242,-34.690959],[138.710257,-34.690911]]}},{"type":"Feature","properties":{"tier":"regional"},"geometry":{"type":"LineString","coordinates":[[138.706776,-34.696344],[138.706738,-34.696412],[138.706308,-34.697111],[138.706114,-34.697417]]}},{"type":"Feature","properties":{"tier":"regional"},"geometry":{"type":"LineString","coordinates":[[138.709204,-34.692707],[138.709142,-34.692777],[138.709112,-34.692812],[138.709047,-34.692867]]}},{"type":"Feature","properties":{"tier":"regional"},"geometry":{"type":"LineString","coordinates":[[138.709358,-34.692385],[138.709327,-34.692466],[138.709307,-34.692518],[138.709295,-34.692571]]}},{"type":"Feature","properties":{"tier":"regional"},"geometry":{"type":"LineString","coordinates":[[138.709358,-34.692385],[138.709687,-34.691885],[138.710048,-34.691328],[138.710065,-34.691297],[138.710079,-34.691274],[138.710198,-34.691096],[138.710213,-34.691065]]}},{"type":"Feature","properties":{"tier":"regional"},"geometry":{"type":"LineString","coordinates":[[138.707298,-34.695523],[138.707397,-34.695396],[138.707429,-34.695348],[138.70779,-34.694787],[138.707995,-34.694484],[138.708542,-34.693638],[138.708763,-34.693308],[138.708854,-34.69317],[138.709047,-34.692867]]}},{"type":"Feature","properties":{"tier":"regional"},"geometry":{"type":"LineString","coordinates":[[138.707106,-34.695947],[138.707069,-34.695966],[138.707043,-34.695989],[138.707022,-34.696014],[138.707005,-34.696044],[138.706993,-34.696067],[138.70696,-34.696116],[138.706908,-34.696191],[138.706853,-34.696279],[138.706776,-34.696344]]}},{"type":"Feature","properties":{"tier":"regional"},"geometry":{"type":"LineString","coordinates":[[138.706776,-34.696344],[138.706802,-34.696258],[138.706855,-34.696173],[138.706908,-34.696096],[138.706941,-34.696048],[138.706946,-34.696031],[138.70695,-34.696018],[138.706953,-34.695979],[138.70695,-34.695946],[138.706942,-34.695901]]}},{"type":"Feature","properties":{"tier":"regional"},"geometry":{"type":"LineString","coordinates":[[138.711259,-34.698875],[138.711826,-34.697995],[138.711873,-34.697924],[138.71191,-34.697868]]}},{"type":"Feature","properties":{"tier":"regional"},"geometry":{"type":"LineString","coordinates":[[138.693854,-34.691332],[138.693705,-34.691581],[138.693501,-34.691903],[138.693004,-34.692698],[138.69292,-34.692833],[138.692735,-34.693134],[138.692523,-34.693478],[138.692435,-34.693643],[138.692368,-34.693799],[138.69234,-34.693874],[138.692303,-34.693981],[138.692273,-34.69409],[138.692263,-34.694124],[138.692239,-34.694234],[138.692234,-34.694262]]}},{"type":"Feature","properties":{"tier":"regional"},"geometry":{"type":"LineString","coordinates":[[138.699119,-34.69227],[138.69919,-34.692184],[138.699231,-34.692111],[138.699269,-34.692029],[138.6993,-34.691961],[138.699345,-34.691805],[138.699371,-34.691691],[138.699387,-34.691594],[138.699395,-34.691493],[138.69941,-34.691335]]}},{"type":"Feature","properties":{"tier":"regional"},"geometry":{"type":"LineString","coordinates":[[138.69941,-34.691335],[138.699442,-34.691463],[138.699446,-34.691541],[138.699441,-34.691634],[138.699427,-34.691736],[138.6994,-34.691831],[138.699369,-34.691946],[138.699348,-34.692001],[138.699315,-34.692075],[138.69926,-34.692189],[138.699234,-34.69225],[138.699211,-34.692332]]}},{"type":"Feature","properties":{"tier":"regional"},"geometry":{"type":"LineString","coordinates":[[138.711159,-34.697163],[138.711189,-34.697117]]}},{"type":"Feature","properties":{"tier":"regional"},"geometry":{"type":"LineString","coordinates":[[138.710945,-34.69746],[138.710972,-34.697415],[138.711015,-34.697343],[138.711075,-34.697242],[138.711159,-34.697163]]}},{"type":"Feature","properties":{"tier":"regional"},"geometry":{"type":"LineString","coordinates":[[138.711159,-34.697163],[138.711133,-34.697261],[138.711074,-34.697367],[138.711034,-34.697439],[138.711006,-34.697485]]}},{"type":"Feature","properties":{"tier":"regional"},"geometry":{"type":"LineString","coordinates":[[138.699218,-34.692357],[138.699324,-34.692414],[138.699372,-34.692448],[138.699439,-34.692485],[138.699727,-34.692613],[138.700581,-34.692978],[138.701118,-34.69321],[138.701139,-34.693218],[138.70122,-34.69325],[138.70128,-34.693265],[138.701357,-34.693268]]}},{"type":"Feature","properties":{"tier":"regional"},"geometry":{"type":"LineString","coordinates":[[138.701286,-34.693346],[138.701223,-34.693312],[138.701112,-34.69326],[138.701072,-34.693241],[138.700777,-34.693118],[138.699689,-34.692644],[138.6994,-34.692518],[138.699349,-34.692497],[138.699298,-34.692474],[138.699246,-34.69246],[138.6992,-34.692451],[138.699142,-34.692457]]}},{"type":"Feature","properties":{"tier":"regional"},"geometry":{"type":"LineString","coordinates":[[138.71758,-34.700264],[138.717703,-34.700302],[138.717755,-34.700318],[138.717891,-34.700354],[138.718083,-34.700394],[138.718285,-34.700421],[138.718473,-34.700422],[138.718646,-34.700426],[138.718795,-34.700421],[138.718941,-34.70041],[138.719114,-34.700387],[138.719262,-34.70036],[138.720421,-34.700129],[138.721084,-34.699997],[138.72181,-34.699846],[138.721913,-34.699824],[138.722994,-34.699599],[138.723527,-34.699488],[138.724084,-34.699378],[138.724136,-34.69937],[138.724421,-34.699325],[138.724742,-34.6993],[138.724807,-34.699299],[138.724887,-34.699298],[138.725157,-34.699307],[138.725403,-34.699332],[138.727705,-34.699688],[138.728825,-34.699853],[138.729118,-34.699889],[138.729499,-34.699925],[138.729957,-34.699977],[138.730265,-34.700006],[138.731071,-34.700094],[138.732264,-34.700235],[138.732583,-34.700266],[138.73296,-34.700299],[138.733215,-34.700304],[138.733491,-34.700301],[138.733772,-34.700282],[138.734086,-34.700254],[138.734533,-34.700184],[138.735006,-34.700111],[138.735415,-34.700058],[138.735734,-34.700032],[138.736039,-34.70002],[138.736305,-34.700032],[138.736683,-34.700058],[138.737225,-34.700101],[138.738598,-34.700239],[138.738699,-34.70025],[138.738845,-34.700273],[138.739024,-34.700303],[138.739211,-34.700345],[138.739388,-34.700396],[138.739535,-34.700447],[138.739707,-34.700517],[138.739869,-34.700595],[138.74002,-34.700675],[138.740212,-34.70078],[138.740482,-34.700937],[138.740734,-34.701071],[138.74091,-34.701152],[138.741137,-34.701234],[138.74133,-34.701286],[138.741464,-34.701313],[138.741592,-34.701332],[138.741762,-34.701349],[138.741952,-34.701355],[138.742176,-34.701342],[138.742559,-34.701283],[138.74479,-34.700892],[138.747547,-34.700427],[138.749047,-34.700165],[138.75002,-34.700003]]}},{"type":"Feature","properties":{"tier":"regional"},"geometry":{"type":"LineString","coordinates":[[138.712786,-34.698225],[138.712925,-34.698283],[138.713309,-34.698441],[138.714105,-34.69878],[138.714224,-34.69883],[138.71444,-34.698923],[138.714712,-34.699038],[138.715,-34.699162],[138.715198,-34.699252],[138.715461,-34.699364],[138.715875,-34.699554],[138.715974,-34.699595],[138.716067,-34.699635]]}},{"type":"Feature","properties":{"tier":"regional"},"geometry":{"type":"LineString","coordinates":[[138.701728,-34.693496],[138.70166,-34.693474],[138.701573,-34.693447],[138.701432,-34.693409]]}},{"type":"Feature","properties":{"tier":"regional"},"geometry":{"type":"LineString","coordinates":[[138.701466,-34.693346],[138.701517,-34.693375],[138.701595,-34.69342],[138.701667,-34.693461],[138.701728,-34.693496]]}},{"type":"Feature","properties":{"tier":"regional"},"geometry":{"type":"LineString","coordinates":[[138.698987,-34.692393],[138.698923,-34.692325],[138.698861,-34.692281],[138.698808,-34.692236]]}},{"type":"Feature","properties":{"tier":"regional"},"geometry":{"type":"LineString","coordinates":[[138.698808,-34.692236],[138.698883,-34.69225],[138.698952,-34.692259],[138.699026,-34.692291]]}},{"type":"Feature","properties":{"tier":"regional"},"geometry":{"type":"LineString","coordinates":[[138.707242,-34.695799],[138.707298,-34.695846],[138.707317,-34.695865],[138.707384,-34.695924],[138.707404,-34.69594]]}},{"type":"Feature","properties":{"tier":"regional"},"geometry":{"type":"LineString","coordinates":[[138.707073,-34.695669],[138.707123,-34.695644],[138.707171,-34.695619],[138.707226,-34.695587],[138.707262,-34.695555],[138.707298,-34.695523]]}},{"type":"Feature","properties":{"tier":"regional"},"geometry":{"type":"LineString","coordinates":[[138.707404,-34.69594],[138.707377,-34.695934],[138.707314,-34.69592],[138.707264,-34.695915],[138.70717,-34.695924]]}},{"type":"Feature","properties":{"tier":"regional"},"geometry":{"type":"LineString","coordinates":[[138.707298,-34.695523],[138.707282,-34.695564],[138.707269,-34.695596],[138.707249,-34.695637],[138.707238,-34.695664],[138.707222,-34.695743]]}},{"type":"Feature","properties":{"tier":"regional"},"geometry":{"type":"LineString","coordinates":[[138.716067,-34.699635],[138.716331,-34.699718],[138.716658,-34.699848],[138.716834,-34.699923]]}},{"type":"Feature","properties":{"tier":"regional"},"geometry":{"type":"LineString","coordinates":[[138.706729,-34.695664],[138.706802,-34.695685],[138.706825,-34.69569],[138.706836,-34.695693],[138.706886,-34.695699],[138.706932,-34.695697],[138.706994,-34.695686]]}},{"type":"Feature","properties":{"tier":"regional"},"geometry":{"type":"LineString","coordinates":[[138.707404,-34.69594],[138.708962,-34.6966],[138.709017,-34.696622],[138.710383,-34.697205],[138.710539,-34.697271],[138.710669,-34.697327]]}},{"type":"Feature","properties":{"tier":"regional"},"geometry":{"type":"LineString","coordinates":[[138.706908,-34.695849],[138.706848,-34.695781],[138.706818,-34.695748],[138.7068,-34.695732],[138.706788,-34.69572],[138.706773,-34.695706],[138.706729,-34.695664]]}},{"type":"Feature","properties":{"tier":"regional"},"geometry":{"type":"LineString","coordinates":[[138.712786,-34.698225],[138.712565,-34.698141],[138.71213,-34.697961],[138.71191,-34.697868]]}},{"type":"Feature","properties":{"tier":"regional"},"geometry":{"type":"LineString","coordinates":[[138.7168,-34.699973],[138.7165,-34.699837],[138.716421,-34.699802],[138.716311,-34.699757],[138.716067,-34.699635]]}},{"type":"Feature","properties":{"tier":"regional"},"geometry":{"type":"LineString","coordinates":[[138.701728,-34.693496],[138.702134,-34.693672],[138.702892,-34.694],[138.703069,-34.694077],[138.703827,-34.694407],[138.704549,-34.694718],[138.705049,-34.694933],[138.705182,-34.694991],[138.705242,-34.695017],[138.706464,-34.695541],[138.706631,-34.695622],[138.706729,-34.695664]]}},{"type":"Feature","properties":{"tier":"regional"},"geometry":{"type":"LineString","coordinates":[[138.710669,-34.697327],[138.710904,-34.697386],[138.710972,-34.697415],[138.711034,-34.697439],[138.711172,-34.697494],[138.711366,-34.697573],[138.711519,-34.69764],[138.711606,-34.697676],[138.711694,-34.697713],[138.711941,-34.697819]]}},{"type":"Feature","properties":{"tier":"regional"},"geometry":{"type":"LineString","coordinates":[[138.698987,-34.692393],[138.698983,-34.692365],[138.698988,-34.692337],[138.699003,-34.692312],[138.699026,-34.692291],[138.699054,-34.692277],[138.699086,-34.69227],[138.699119,-34.69227]]}},{"type":"Feature","properties":{"tier":"regional"},"geometry":{"type":"LineString","coordinates":[[138.706908,-34.695849],[138.706901,-34.69582],[138.706902,-34.695791],[138.70691,-34.695763],[138.706925,-34.695737],[138.706947,-34.695713],[138.706974,-34.695694],[138.706994,-34.695686],[138.707038,-34.695672],[138.707073,-34.695669],[138.70711,-34.695672],[138.707144,-34.695682],[138.707175,-34.695698],[138.707201,-34.695718],[138.707222,-34.695743]]}},{"type":"Feature","properties":{"tier":"high"},"geometry":{"type":"LineString","coordinates":[[138.687873,-34.69211],[138.688304,-34.691425],[138.688353,-34.691351],[138.688372,-34.691317]]}},{"type":"Feature","properties":{"tier":"regional"},"geometry":{"type":"LineString","coordinates":[[138.702449,-34.703207],[138.702333,-34.703391]]}},{"type":"Feature","properties":{"tier":"regional"},"geometry":{"type":"LineString","coordinates":[[138.702333,-34.703391],[138.701494,-34.704717],[138.701449,-34.704789],[138.700233,-34.706713],[138.700207,-34.706762]]}},{"type":"Feature","properties":{"tier":"regional"},"geometry":{"type":"LineString","coordinates":[[138.70775,-34.705419],[138.707732,-34.70545],[138.70763,-34.705675],[138.707538,-34.705933],[138.707481,-34.706144],[138.707414,-34.706487],[138.707394,-34.706803]]}},{"type":"Feature","properties":{"tier":"regional"},"geometry":{"type":"LineString","coordinates":[[138.708981,-34.703943],[138.708691,-34.704247]]}},{"type":"Feature","properties":{"tier":"regional"},"geometry":{"type":"LineString","coordinates":[[138.709382,-34.703422],[138.709351,-34.703473],[138.709235,-34.703634],[138.709035,-34.703887],[138.708981,-34.703943]]}},{"type":"Feature","properties":{"tier":"regional"},"geometry":{"type":"LineString","coordinates":[[138.708691,-34.704247],[138.708274,-34.704681],[138.708124,-34.704853],[138.707961,-34.705069],[138.707838,-34.705262],[138.70775,-34.705419]]}},{"type":"Feature","properties":{"tier":"arterial"},"geometry":{"type":"LineString","coordinates":[[138.704777,-34.707988],[138.704935,-34.707966],[138.705199,-34.707968],[138.705259,-34.707968],[138.705321,-34.707968]]}},{"type":"Feature","properties":{"tier":"arterial"},"geometry":{"type":"LineString","coordinates":[[138.703158,-34.707959],[138.704488,-34.707979],[138.704777,-34.707988]]}},{"type":"Feature","properties":{"tier":"regional"},"geometry":{"type":"LineString","coordinates":[[138.692177,-34.694971],[138.69217,-34.695107],[138.692161,-34.69523]]}},{"type":"Feature","properties":{"tier":"regional"},"geometry":{"type":"LineString","coordinates":[[138.692234,-34.694262],[138.692225,-34.694313],[138.69221,-34.694426],[138.692202,-34.694506],[138.692193,-34.694645],[138.692177,-34.694971]]}},{"type":"Feature","properties":{"tier":"regional"},"geometry":{"type":"LineString","coordinates":[[138.688846,-34.701916],[138.689049,-34.701934],[138.689096,-34.701939],[138.689135,-34.701942],[138.689175,-34.701942],[138.689223,-34.701935],[138.689235,-34.701934],[138.68927,-34.701925],[138.689299,-34.701916],[138.689332,-34.701901],[138.689363,-34.701886],[138.689401,-34.701865],[138.689445,-34.701839]]}},{"type":"Feature","properties":{"tier":"arterial"},"geometry":{"type":"LineString","coordinates":[[138.689533,-34.701884],[138.689529,-34.701921],[138.689529,-34.701941],[138.689533,-34.701962],[138.689536,-34.701983],[138.689542,-34.702013],[138.68955,-34.702043],[138.689561,-34.702069],[138.689568,-34.702082],[138.689571,-34.702089],[138.689589,-34.702116],[138.689612,-34.702145],[138.68964,-34.702176],[138.689674,-34.702215],[138.689786,-34.702321]]}},{"type":"Feature","properties":{"tier":"regional"},"geometry":{"type":"LineString","coordinates":[[138.691993,-34.69654],[138.691989,-34.696457],[138.691988,-34.696433],[138.691983,-34.696403],[138.691971,-34.696365],[138.691959,-34.696338],[138.691944,-34.696314],[138.691922,-34.696284],[138.691902,-34.696263],[138.691883,-34.696246],[138.691848,-34.696221],[138.691805,-34.696197],[138.691767,-34.696182],[138.69173,-34.696171],[138.691691,-34.696163],[138.691654,-34.696159],[138.691561,-34.696147]]}},{"type":"Feature","properties":{"tier":"regional"},"geometry":{"type":"LineString","coordinates":[[138.692222,-34.695569],[138.692236,-34.695647],[138.692243,-34.695743],[138.692244,-34.695764],[138.692249,-34.695795],[138.692257,-34.695824],[138.692269,-34.695852],[138.692284,-34.695877],[138.692299,-34.695899],[138.692315,-34.695917],[138.692344,-34.695944],[138.692363,-34.695959],[138.692391,-34.695976],[138.692429,-34.695995],[138.692466,-34.696008],[138.692504,-34.696018],[138.692534,-34.696023],[138.692566,-34.696029],[138.69261,-34.696037],[138.692755,-34.696063]]}},{"type":"Feature","properties":{"tier":"regional"},"geometry":{"type":"LineString","coordinates":[[138.693065,-34.696129],[138.692817,-34.696178]]}},{"type":"Feature","properties":{"tier":"regional"},"geometry":{"type":"LineString","coordinates":[[138.692185,-34.695376],[138.692198,-34.695445],[138.692222,-34.695569]]}},{"type":"Feature","properties":{"tier":"regional"},"geometry":{"type":"LineString","coordinates":[[138.691548,-34.696001],[138.691666,-34.695998],[138.691699,-34.695997],[138.691734,-34.695993],[138.691776,-34.695984],[138.691811,-34.695973],[138.691843,-34.69596],[138.691885,-34.695938],[138.691911,-34.695919],[138.691922,-34.695911],[138.691937,-34.695897],[138.691953,-34.695882],[138.691968,-34.695864],[138.691989,-34.695834],[138.692001,-34.695812],[138.692016,-34.695772],[138.692024,-34.695736],[138.692026,-34.695714],[138.692026,-34.6957],[138.692038,-34.695636]]}},{"type":"Feature","properties":{"tier":"regional"},"geometry":{"type":"LineString","coordinates":[[138.692817,-34.696178],[138.692776,-34.696186],[138.692641,-34.696188],[138.6926,-34.69619],[138.69255,-34.696191],[138.692517,-34.696192],[138.692478,-34.696197],[138.692445,-34.696204],[138.692416,-34.696213],[138.692388,-34.696224],[138.692359,-34.696238],[138.69233,-34.696256],[138.692311,-34.69627],[138.69229,-34.696288],[138.69227,-34.696309],[138.692248,-34.696338],[138.692233,-34.696364],[138.69222,-34.696395],[138.692211,-34.696426],[138.692204,-34.696453],[138.692196,-34.696487],[138.692159,-34.696724]]}},{"type":"Feature","properties":{"tier":"regional"},"geometry":{"type":"LineString","coordinates":[[138.689595,-34.701682],[138.690077,-34.700917],[138.690387,-34.700424],[138.690574,-34.700131],[138.690849,-34.699697],[138.69095,-34.69954],[138.691202,-34.699146],[138.691275,-34.699031],[138.691482,-34.698706],[138.691573,-34.698561],[138.691655,-34.698432],[138.691746,-34.69828],[138.691763,-34.698251],[138.691794,-34.698187],[138.691822,-34.69813],[138.691853,-34.698058],[138.691877,-34.698002],[138.691885,-34.697983],[138.691944,-34.69782],[138.692,-34.697623],[138.692022,-34.697504],[138.692038,-34.69742],[138.692049,-34.697313],[138.692058,-34.697156],[138.692062,-34.696979]]}},{"type":"Feature","properties":{"tier":"regional"},"geometry":{"type":"LineString","coordinates":[[138.692159,-34.696724],[138.692143,-34.696829],[138.692099,-34.696893]]}},{"type":"Feature","properties":{"tier":"regional"},"geometry":{"type":"LineString","coordinates":[[138.692755,-34.696063],[138.692793,-34.69607],[138.693065,-34.696129]]}},{"type":"Feature","properties":{"tier":"regional"},"geometry":{"type":"LineString","coordinates":[[138.692033,-34.696885],[138.692019,-34.696821],[138.692002,-34.696742],[138.691993,-34.69654]]}},{"type":"Feature","properties":{"tier":"regional"},"geometry":{"type":"LineString","coordinates":[[138.692038,-34.695636],[138.692052,-34.695557],[138.692063,-34.695509],[138.692094,-34.695442],[138.692124,-34.695374]]}},{"type":"Feature","properties":{"tier":"regional"},"geometry":{"type":"LineString","coordinates":[[138.69194,-34.696094],[138.691943,-34.696073],[138.691949,-34.696052],[138.691959,-34.696033],[138.691972,-34.696015],[138.691988,-34.695998],[138.692008,-34.695984],[138.69203,-34.695972],[138.692052,-34.695964],[138.692078,-34.695957],[138.692103,-34.695954],[138.692127,-34.695955],[138.69215,-34.695957],[138.692173,-34.695963],[138.692196,-34.695971],[138.692216,-34.695982],[138.692235,-34.695995],[138.692252,-34.69601],[138.692266,-34.696027],[138.692276,-34.696046],[138.692284,-34.696066],[138.692287,-34.696087],[138.692287,-34.696108],[138.692284,-34.696129],[138.692276,-34.69615],[138.692264,-34.69617],[138.692249,-34.696188],[138.69223,-34.696204],[138.692208,-34.696218],[138.692185,-34.696228],[138.692159,-34.696235],[138.692132,-34.696239],[138.692105,-34.69624],[138.692078,-34.696237],[138.692051,-34.696231],[138.692027,-34.696221],[138.692005,-34.696208],[138.691985,-34.696193],[138.691969,-34.696176],[138.691956,-34.696157],[138.691947,-34.696137],[138.69194,-34.696094]]}},{"type":"Feature","properties":{"tier":"regional"},"geometry":{"type":"LineString","coordinates":[[138.689325,-34.702123],[138.689319,-34.702028],[138.689325,-34.702019],[138.689445,-34.701839]]}},{"type":"Feature","properties":{"tier":"regional"},"geometry":{"type":"LineString","coordinates":[[138.69203,-34.695972],[138.692065,-34.69589],[138.69208,-34.695845],[138.692086,-34.695802],[138.692096,-34.695653],[138.692117,-34.695443],[138.692124,-34.695374],[138.692161,-34.69523]]}},{"type":"Feature","properties":{"tier":"regional"},"geometry":{"type":"LineString","coordinates":[[138.692062,-34.696979],[138.692033,-34.696885],[138.692036,-34.696822],[138.692056,-34.696387],[138.692056,-34.696352],[138.692049,-34.696322],[138.692021,-34.696251],[138.692005,-34.696208]]}},{"type":"Feature","properties":{"tier":"regional"},"geometry":{"type":"LineString","coordinates":[[138.691561,-34.696147],[138.691412,-34.696128],[138.691352,-34.69612],[138.691203,-34.6961],[138.69109,-34.696053]]}},{"type":"Feature","properties":{"tier":"regional"},"geometry":{"type":"LineString","coordinates":[[138.692208,-34.696218],[138.692175,-34.696284],[138.692154,-34.696335],[138.692146,-34.696367],[138.692142,-34.696399],[138.692105,-34.696827],[138.692099,-34.696893],[138.692062,-34.696979]]}},{"type":"Feature","properties":{"tier":"regional"},"geometry":{"type":"LineString","coordinates":[[138.692161,-34.69523],[138.692185,-34.695376],[138.692185,-34.695416],[138.692185,-34.695445],[138.692182,-34.695661],[138.692177,-34.695816],[138.69218,-34.695852],[138.692192,-34.695892],[138.692216,-34.695982]]}},{"type":"Feature","properties":{"tier":"high"},"geometry":{"type":"LineString","coordinates":[[138.690034,-34.689272],[138.689339,-34.690382],[138.688605,-34.691539],[138.687943,-34.692595],[138.68748,-34.693324]]}},{"type":"Feature","properties":{"tier":"arterial"},"geometry":{"type":"LineString","coordinates":[[138.688771,-34.701884],[138.688846,-34.701916]]}},{"type":"Feature","properties":{"tier":"arterial"},"geometry":{"type":"LineString","coordinates":[[138.689786,-34.702321],[138.689841,-34.702351]]}},{"type":"Feature","properties":{"tier":"arterial"},"geometry":{"type":"LineString","coordinates":[[138.689841,-34.702351],[138.689932,-34.7024],[138.690044,-34.702469],[138.690152,-34.70254],[138.690276,-34.702632],[138.6904,-34.702726],[138.690515,-34.702823],[138.690769,-34.703091],[138.690942,-34.703299],[138.691051,-34.70347],[138.691153,-34.703661],[138.691202,-34.703772],[138.691246,-34.70387],[138.691317,-34.704069],[138.691373,-34.704262],[138.691395,-34.704369],[138.691406,-34.704468],[138.69141,-34.70451],[138.691413,-34.70465],[138.691416,-34.704793],[138.691417,-34.704859],[138.69141,-34.705567],[138.691409,-34.705692],[138.691407,-34.705875],[138.691409,-34.706171]]}},{"type":"Feature","properties":{"tier":"arterial"},"geometry":{"type":"LineString","coordinates":[[138.688846,-34.701916],[138.68917,-34.702056],[138.689325,-34.702123]]}},{"type":"Feature","properties":{"tier":"regional"},"geometry":{"type":"LineString","coordinates":[[138.691358,-34.689025],[138.691628,-34.689141]]}},{"type":"Feature","properties":{"tier":"regional"},"geometry":{"type":"LineString","coordinates":[[138.693198,-34.689818],[138.694328,-34.690324],[138.694365,-34.690338]]}},{"type":"Feature","properties":{"tier":"arterial"},"geometry":{"type":"LineString","coordinates":[[138.69649,-34.707528],[138.694565,-34.707336]]}},{"type":"Feature","properties":{"tier":"arterial"},"geometry":{"type":"LineString","coordinates":[[138.692772,-34.707126],[138.69309,-34.707153],[138.693252,-34.707169],[138.693341,-34.707176]]}},{"type":"Feature","properties":{"tier":"arterial"},"geometry":{"type":"LineString","coordinates":[[138.699712,-34.707826],[138.699596,-34.707847],[138.699408,-34.707832],[138.699398,-34.707831],[138.69898,-34.70779],[138.69889,-34.70778],[138.698577,-34.707749],[138.698479,-34.707741],[138.698392,-34.707734],[138.697979,-34.707687],[138.697551,-34.707644]]}},{"type":"Feature","properties":{"tier":"regional"},"geometry":{"type":"LineString","coordinates":[[138.689595,-34.701682],[138.689533,-34.701884]]}},{"type":"Feature","properties":{"tier":"regional"},"geometry":{"type":"LineString","coordinates":[[138.689445,-34.701839],[138.689595,-34.701682]]}},{"type":"Feature","properties":{"tier":"regional"},"geometry":{"type":"LineString","coordinates":[[138.701432,-34.693409],[138.701406,-34.693418]]}},{"type":"Feature","properties":{"tier":"regional"},"geometry":{"type":"LineString","coordinates":[[138.689533,-34.701884],[138.68942,-34.702062],[138.689325,-34.702123]]}},{"type":"Feature","properties":{"tier":"regional"},"geometry":{"type":"LineString","coordinates":[[138.706942,-34.695901],[138.706922,-34.695877],[138.706908,-34.695849]]}},{"type":"Feature","properties":{"tier":"regional"},"geometry":{"type":"LineString","coordinates":[[138.699666,-34.707613],[138.699705,-34.707498],[138.699753,-34.707393],[138.699764,-34.70737],[138.699849,-34.707242],[138.699883,-34.707192],[138.700071,-34.706917],[138.700207,-34.706762]]}},{"type":"Feature","properties":{"tier":"regional"},"geometry":{"type":"LineString","coordinates":[[138.700207,-34.706762],[138.700123,-34.706933],[138.699957,-34.70722],[138.699935,-34.707258],[138.699844,-34.707397],[138.699845,-34.707413],[138.699852,-34.707615]]}},{"type":"Feature","properties":{"tier":"regional"},"geometry":{"type":"LineString","coordinates":[[138.710333,-34.690788],[138.7104,-34.690739],[138.710447,-34.690696],[138.710518,-34.690617]]}},{"type":"Feature","properties":{"tier":"regional"},"geometry":{"type":"LineString","coordinates":[[138.710518,-34.690617],[138.710487,-34.690705],[138.71047,-34.69076],[138.710459,-34.690804],[138.710454,-34.690853]]}},{"type":"Feature","properties":{"tier":"regional"},"geometry":{"type":"LineString","coordinates":[[138.710518,-34.690617],[138.710628,-34.690438],[138.710749,-34.690256],[138.711037,-34.689787],[138.711231,-34.689484]]}},{"type":"Feature","properties":{"tier":"regional"},"geometry":{"type":"LineString","coordinates":[[138.707394,-34.706803],[138.707388,-34.70724]]}},{"type":"Feature","properties":{"tier":"regional"},"geometry":{"type":"LineString","coordinates":[[138.70728,-34.707864],[138.707328,-34.707781],[138.707346,-34.707591],[138.707351,-34.707453],[138.707374,-34.707303],[138.707388,-34.70724]]}},{"type":"Feature","properties":{"tier":"arterial"},"geometry":{"type":"LineString","coordinates":[[138.691424,-34.706371],[138.691428,-34.706429]]}},{"type":"Feature","properties":{"tier":"arterial"},"geometry":{"type":"LineString","coordinates":[[138.691358,-34.70772],[138.691352,-34.70768],[138.691339,-34.707626],[138.691322,-34.707551],[138.691319,-34.707532],[138.691309,-34.70748],[138.691259,-34.707355]]}},{"type":"Feature","properties":{"tier":"arterial"},"geometry":{"type":"LineString","coordinates":[[138.687542,-34.70727],[138.68748,-34.70727]]}},{"type":"Feature","properties":{"tier":"arterial"},"geometry":{"type":"LineString","coordinates":[[138.68748,-34.707088],[138.687535,-34.707087]]}},{"type":"Feature","properties":{"tier":"arterial"},"geometry":{"type":"LineString","coordinates":[[138.688604,-34.707089],[138.689867,-34.707084]]}},{"type":"Feature","properties":{"tier":"arterial"},"geometry":{"type":"LineString","coordinates":[[138.688602,-34.707279],[138.688442,-34.707278],[138.687542,-34.70727]]}},{"type":"Feature","properties":{"tier":"arterial"},"geometry":{"type":"LineString","coordinates":[[138.690842,-34.707278],[138.69028,-34.70727],[138.690109,-34.70727],[138.689875,-34.70727]]}},{"type":"Feature","properties":{"tier":"arterial"},"geometry":{"type":"LineString","coordinates":[[138.705972,-34.707981],[138.706526,-34.707993]]}},{"type":"Feature","properties":{"tier":"arterial"},"geometry":{"type":"LineString","coordinates":[[138.689875,-34.70727],[138.688973,-34.707273],[138.688602,-34.707279]]}},{"type":"Feature","properties":{"tier":"arterial"},"geometry":{"type":"LineString","coordinates":[[138.687535,-34.707087],[138.688309,-34.70709],[138.688443,-34.707089],[138.688604,-34.707089]]}},{"type":"Feature","properties":{"tier":"arterial"},"geometry":{"type":"LineString","coordinates":[[138.689867,-34.707084],[138.690114,-34.707083],[138.690179,-34.707083],[138.690704,-34.707075],[138.690911,-34.707058],[138.691218,-34.707011]]}},{"type":"Feature","properties":{"tier":"arterial"},"geometry":{"type":"LineString","coordinates":[[138.69156,-34.706995],[138.691596,-34.707022],[138.691625,-34.707053],[138.691647,-34.707088],[138.691661,-34.707126],[138.691666,-34.707166],[138.691663,-34.707205],[138.691651,-34.707243],[138.69163,-34.707279],[138.691605,-34.707318]]}},{"type":"Feature","properties":{"tier":"arterial"},"geometry":{"type":"LineString","coordinates":[[138.691605,-34.707318],[138.691583,-34.707328]]}},{"type":"Feature","properties":{"tier":"arterial"},"geometry":{"type":"LineString","coordinates":[[138.691225,-34.707333],[138.691199,-34.707312],[138.691177,-34.707288],[138.69116,-34.707261],[138.691147,-34.707233],[138.691138,-34.707204],[138.691135,-34.707174],[138.691137,-34.707144],[138.691144,-34.707114],[138.691156,-34.707085],[138.691172,-34.707058],[138.691193,-34.707034],[138.691218,-34.707011]]}},{"type":"Feature","properties":{"tier":"arterial"},"geometry":{"type":"LineString","coordinates":[[138.691218,-34.707011],[138.691268,-34.706981]]}},{"type":"Feature","properties":{"tier":"arterial"},"geometry":{"type":"LineString","coordinates":[[138.691259,-34.707355],[138.691225,-34.707333]]}},{"type":"Feature","properties":{"tier":"regional"},"geometry":{"type":"LineString","coordinates":[[138.699142,-34.692457],[138.69911,-34.692462],[138.699078,-34.692461],[138.699048,-34.692452],[138.699021,-34.692437],[138.699,-34.692417],[138.698987,-34.692393]]}},{"type":"Feature","properties":{"tier":"regional"},"geometry":{"type":"LineString","coordinates":[[138.716237,-34.687828],[138.716474,-34.687936],[138.716699,-34.688032],[138.716874,-34.688119],[138.716977,-34.688174],[138.717291,-34.688391],[138.717645,-34.688644],[138.717842,-34.688773]]}},{"type":"Feature","properties":{"tier":"regional"},"geometry":{"type":"LineString","coordinates":[[138.717842,-34.688773],[138.718132,-34.688954],[138.71824,-34.689023],[138.718387,-34.689109],[138.718501,-34.689163],[138.718662,-34.689219],[138.718799,-34.689248],[138.718966,-34.689267],[138.719055,-34.689281],[138.719193,-34.689302],[138.719402,-34.689333],[138.719562,-34.689365]]}},{"type":"Feature","properties":{"tier":"regional"},"geometry":{"type":"LineString","coordinates":[[138.719562,-34.689365],[138.719717,-34.689392],[138.719798,-34.689403],[138.719872,-34.689415],[138.720007,-34.689465],[138.720136,-34.689521],[138.72057,-34.68972],[138.721713,-34.690214]]}},{"type":"Feature","properties":{"tier":"regional"},"geometry":{"type":"LineString","coordinates":[[138.719562,-34.689365],[138.719392,-34.689363],[138.71919,-34.689347],[138.719048,-34.689337],[138.71903,-34.689336],[138.71889,-34.68932],[138.718789,-34.689296],[138.718668,-34.689276],[138.718532,-34.689234],[138.718353,-34.689146],[138.718217,-34.689074],[138.718079,-34.688977],[138.717842,-34.688773]]}},{"type":"Feature","properties":{"tier":"regional"},"geometry":{"type":"LineString","coordinates":[[138.716237,-34.687828],[138.716042,-34.687767],[138.715691,-34.687618],[138.715587,-34.687577],[138.715357,-34.68748]]}},{"type":"Feature","properties":{"tier":"regional"},"geometry":{"type":"LineString","coordinates":[[138.715502,-34.68748],[138.715617,-34.68753],[138.715783,-34.687597],[138.716065,-34.68774],[138.716237,-34.687828]]}},{"type":"Feature","properties":{"tier":"regional"},"geometry":{"type":"LineString","coordinates":[[138.715327,-34.68748],[138.715315,-34.687551],[138.715294,-34.687598],[138.715289,-34.687606],[138.715254,-34.687649],[138.715188,-34.687697]]}},{"type":"Feature","properties":{"tier":"regional"},"geometry":{"type":"LineString","coordinates":[[138.715188,-34.687697],[138.7152,-34.687633],[138.715222,-34.687577],[138.715258,-34.687532],[138.715316,-34.68748]]}},{"type":"Feature","properties":{"tier":"regional"},"geometry":{"type":"LineString","coordinates":[[138.69941,-34.691335],[138.6994,-34.69126],[138.699379,-34.691156],[138.69935,-34.691063],[138.699316,-34.690963],[138.699274,-34.690866],[138.699261,-34.690838]]}},{"type":"Feature","properties":{"tier":"regional"},"geometry":{"type":"LineString","coordinates":[[138.712288,-34.687788],[138.712482,-34.68748]]}},{"type":"Feature","properties":{"tier":"regional"},"geometry":{"type":"LineString","coordinates":[[138.711231,-34.689484],[138.711325,-34.689329],[138.711485,-34.689076],[138.711707,-34.688726],[138.711929,-34.688365],[138.712244,-34.687861],[138.712288,-34.687788]]}},{"type":"Feature","properties":{"tier":"regional"},"geometry":{"type":"LineString","coordinates":[[138.721713,-34.690214],[138.721824,-34.690262],[138.72313,-34.690819],[138.723179,-34.69084],[138.723406,-34.690937],[138.724195,-34.691275],[138.724247,-34.691294],[138.724324,-34.691315],[138.724574,-34.690937],[138.725189,-34.689966],[138.725649,-34.689241],[138.726256,-34.688269],[138.726302,-34.688195],[138.726337,-34.688138],[138.726386,-34.688077],[138.726429,-34.688031],[138.726472,-34.687993],[138.726499,-34.687972],[138.726557,-34.687932],[138.72663,-34.687891],[138.726704,-34.687858],[138.726795,-34.687828],[138.728184,-34.68748]]}},{"type":"Feature","properties":{"tier":"regional"},"geometry":{"type":"LineString","coordinates":[[138.728983,-34.68748],[138.728995,-34.687486],[138.729046,-34.687514],[138.730172,-34.688206],[138.730201,-34.688226],[138.73024,-34.688248],[138.730273,-34.688262],[138.730317,-34.688278],[138.730361,-34.688288],[138.730392,-34.688293],[138.730422,-34.688296],[138.730451,-34.688297],[138.730486,-34.688296],[138.730528,-34.688291],[138.730562,-34.688285],[138.730602,-34.688275],[138.730646,-34.688259],[138.730685,-34.68824],[138.730721,-34.688218],[138.730751,-34.688196],[138.730778,-34.688171],[138.730851,-34.688096],[138.730959,-34.68796],[138.73129,-34.68748]]}},{"type":"Feature","properties":{"tier":"regional"},"geometry":{"type":"LineString","coordinates":[[138.699261,-34.690838],[138.699225,-34.690764],[138.699182,-34.690694],[138.699132,-34.690619],[138.69892,-34.690322],[138.698786,-34.690135],[138.698745,-34.690081],[138.69869,-34.690003],[138.698649,-34.68994],[138.698595,-34.689853],[138.69855,-34.689776],[138.698526,-34.68973],[138.698503,-34.689687],[138.698462,-34.689604],[138.698422,-34.689516],[138.698385,-34.689424],[138.698352,-34.689337],[138.698327,-34.689261],[138.698303,-34.689181],[138.698281,-34.689101],[138.698261,-34.689014],[138.698243,-34.688923],[138.698227,-34.688824],[138.698214,-34.688703],[138.698209,-34.688652],[138.698204,-34.688556],[138.698202,-34.688451],[138.6982,-34.688325],[138.6982,-34.688232],[138.698203,-34.688188],[138.698212,-34.688103],[138.698226,-34.688001],[138.698238,-34.687926],[138.69826,-34.687817],[138.698281,-34.687729],[138.698302,-34.687651],[138.69833,-34.687559],[138.698335,-34.687544],[138.698357,-34.68748]]}},{"type":"Feature","properties":{"tier":"regional"},"geometry":{"type":"LineString","coordinates":[[138.714678,-34.688812],[138.714694,-34.688531],[138.714717,-34.68846],[138.715188,-34.687697]]}},{"type":"Feature","properties":{"tier":"regional"},"geometry":{"type":"LineString","coordinates":[[138.714867,-34.690905],[138.714666,-34.690131],[138.714633,-34.689958],[138.714646,-34.689394],[138.714678,-34.688812]]}},{"type":"Feature","properties":{"tier":"arterial"},"geometry":{"type":"LineString","coordinates":[[138.713602,-34.70812],[138.712865,-34.708099],[138.712454,-34.708093],[138.712392,-34.708092],[138.71113,-34.70808],[138.709079,-34.708055]]}},{"type":"Feature","properties":{"tier":"arterial"},"geometry":{"type":"LineString","coordinates":[[138.713602,-34.70812],[138.713934,-34.708128],[138.714787,-34.708151]]}},{"type":"Feature","properties":{"tier":"regional"},"geometry":{"type":"LineString","coordinates":[[138.699119,-34.69227],[138.699149,-34.692278],[138.699175,-34.692291],[138.699196,-34.692309],[138.699211,-34.692332]]}},{"type":"Feature","properties":{"tier":"regional"},"geometry":{"type":"LineString","coordinates":[[138.707222,-34.695743],[138.707235,-34.69577],[138.707242,-34.695799],[138.707241,-34.695828],[138.707233,-34.695856],[138.707218,-34.695882],[138.707197,-34.695905],[138.70717,-34.695924],[138.70714,-34.695938],[138.707106,-34.695947]]}},{"type":"Feature","properties":{"tier":"regional"},"geometry":{"type":"LineString","coordinates":[[138.709204,-34.692707],[138.709149,-34.692699],[138.709122,-34.692683],[138.709103,-34.692663],[138.709091,-34.692621],[138.7091,-34.692582],[138.709122,-34.692559],[138.70916,-34.692541],[138.709197,-34.692534],[138.709244,-34.692543],[138.709272,-34.692553],[138.709295,-34.692571]]}},{"type":"Feature","properties":{"tier":"regional"},"geometry":{"type":"LineString","coordinates":[[138.710351,-34.690961],[138.710299,-34.690949],[138.710277,-34.690935],[138.710257,-34.690911],[138.710249,-34.690894],[138.710246,-34.690874],[138.710249,-34.690853],[138.71026,-34.69083],[138.710276,-34.690813],[138.710308,-34.690795],[138.710333,-34.690788],[138.710351,-34.690787],[138.710378,-34.69079],[138.710406,-34.6908],[138.710426,-34.690812],[138.710448,-34.690839],[138.710454,-34.690853]]}},{"type":"Feature","properties":{"tier":"regional"},"geometry":{"type":"LineString","coordinates":[[138.707106,-34.695947],[138.70707,-34.69595],[138.707034,-34.695946],[138.707,-34.695937],[138.706969,-34.695921],[138.706942,-34.695901]]}},{"type":"Feature","properties":{"tier":"regional"},"geometry":{"type":"LineString","coordinates":[[138.701304,-34.693382],[138.701286,-34.693346]]}},{"type":"Feature","properties":{"tier":"regional"},"geometry":{"type":"LineString","coordinates":[[138.701406,-34.693418],[138.701376,-34.693419],[138.701351,-34.693416]]}},{"type":"Feature","properties":{"tier":"arterial"},"geometry":{"type":"LineString","coordinates":[[138.691583,-34.707328],[138.691544,-34.707354],[138.691499,-34.707372],[138.691452,-34.707384],[138.691402,-34.707388],[138.691352,-34.707384],[138.691304,-34.707373],[138.691259,-34.707355]]}},{"type":"Feature","properties":{"tier":"regional"},"geometry":{"type":"LineString","coordinates":[[138.701357,-34.693268],[138.70138,-34.69327]]}},{"type":"Feature","properties":{"tier":"regional"},"geometry":{"type":"LineString","coordinates":[[138.699211,-34.692332],[138.699218,-34.692357]]}},{"type":"Feature","properties":{"tier":"regional"},"geometry":{"type":"LineString","coordinates":[[138.699218,-34.692357],[138.699217,-34.692382],[138.699207,-34.692406],[138.699191,-34.692428],[138.699169,-34.692445],[138.699142,-34.692457]]}},{"type":"Feature","properties":{"tier":"regional"},"geometry":{"type":"LineString","coordinates":[[138.70138,-34.69327],[138.701419,-34.693281],[138.70144,-34.693294],[138.701452,-34.693318],[138.701466,-34.693346],[138.701454,-34.693377],[138.701432,-34.693409]]}},{"type":"Feature","properties":{"tier":"arterial"},"geometry":{"type":"LineString","coordinates":[[138.687955,-34.744606],[138.68848,-34.744003],[138.688617,-34.743866],[138.688779,-34.743717],[138.688941,-34.743581],[138.689158,-34.74343],[138.689335,-34.743328],[138.689537,-34.743227],[138.689803,-34.743122],[138.690092,-34.743023],[138.690395,-34.742943],[138.690764,-34.742857],[138.691239,-34.742757],[138.692075,-34.742582],[138.692387,-34.742522],[138.692611,-34.742473],[138.693485,-34.742274],[138.693999,-34.742177],[138.694338,-34.742125],[138.694578,-34.7421],[138.694973,-34.742074],[138.695279,-34.742079],[138.695499,-34.742102],[138.695815,-34.742135],[138.696114,-34.742174],[138.696417,-34.742234],[138.696758,-34.742323],[138.697088,-34.742437],[138.697468,-34.742591],[138.697876,-34.742763],[138.698346,-34.742975],[138.698883,-34.74322],[138.699201,-34.743356],[138.699462,-34.743454],[138.699711,-34.743534],[138.699962,-34.7436],[138.700239,-34.743655],[138.700535,-34.743697],[138.700879,-34.743732],[138.701271,-34.743741],[138.70155,-34.743731],[138.701799,-34.743713],[138.702037,-34.743685],[138.702277,-34.743648],[138.702527,-34.743596],[138.702847,-34.743507],[138.703117,-34.743412],[138.703314,-34.743332],[138.703856,-34.743108],[138.704094,-34.743021],[138.704357,-34.742943],[138.704621,-34.742883],[138.704895,-34.742837],[138.705169,-34.7428],[138.70747,-34.742548],[138.708553,-34.742431],[138.708806,-34.742394],[138.709026,-34.742345],[138.709328,-34.742264],[138.709545,-34.74219],[138.709725,-34.74212],[138.709996,-34.741991],[138.710155,-34.74189],[138.710183,-34.741873],[138.710329,-34.741779],[138.710542,-34.741624],[138.710823,-34.741365],[138.710982,-34.741184],[138.711146,-34.740965],[138.711256,-34.740771],[138.711407,-34.740488],[138.711833,-34.739661],[138.712392,-34.73857],[138.712718,-34.737945],[138.713007,-34.737388],[138.71356,-34.73632],[138.714191,-34.735075],[138.714379,-34.734721],[138.714473,-34.73457],[138.714667,-34.734263],[138.714819,-34.734085],[138.715008,-34.733897],[138.715167,-34.733759],[138.715334,-34.733635],[138.715558,-34.733501],[138.715645,-34.733454],[138.715809,-34.733365],[138.716054,-34.733257],[138.716602,-34.733064],[138.718609,-34.73242],[138.721279,-34.731542],[138.722889,-34.731019],[138.723767,-34.730735],[138.726272,-34.729895],[138.72766,-34.729455],[138.727914,-34.729371],[138.728161,-34.72928],[138.728347,-34.7292],[138.72843,-34.729164],[138.728652,-34.729053],[138.728926,-34.728894],[138.729185,-34.728743],[138.729577,-34.728509],[138.730303,-34.728073],[138.730945,-34.727699],[138.731383,-34.727469],[138.731602,-34.72737],[138.731847,-34.727267],[138.732148,-34.727152],[138.732443,-34.727048],[138.732732,-34.726961],[138.732975,-34.726895],[138.735015,-34.726421],[138.735267,-34.72636],[138.735561,-34.726285],[138.735869,-34.72619],[138.736214,-34.726067],[138.736508,-34.725941],[138.73681,-34.725785],[138.737101,-34.7256],[138.737393,-34.725394],[138.73768,-34.725163],[138.737979,-34.724874],[138.738177,-34.724649],[138.738522,-34.724158],[138.738673,-34.723925],[138.738824,-34.723646],[138.738979,-34.72337],[138.73923,-34.722933],[138.739313,-34.722759],[138.739371,-34.722614],[138.739416,-34.722482],[138.739456,-34.722322],[138.739542,-34.721917],[138.739587,-34.721663],[138.739636,-34.721476],[138.739686,-34.721329],[138.739749,-34.721184],[138.739825,-34.721024],[138.739937,-34.720827],[138.740038,-34.720679],[138.740062,-34.72065],[138.740157,-34.720538],[138.740348,-34.720332],[138.740501,-34.72019],[138.74077,-34.719945],[138.740949,-34.719782],[138.742063,-34.718785],[138.742636,-34.718272],[138.743173,-34.717786],[138.743582,-34.717433],[138.744195,-34.716928]]}},{"type":"Feature","properties":{"tier":"arterial"},"geometry":{"type":"LineString","coordinates":[[138.68748,-34.745019],[138.687593,-34.744938],[138.687797,-34.744768],[138.687955,-34.744606]]}},{"type":"Feature","properties":{"tier":"arterial"},"geometry":{"type":"LineString","coordinates":[[138.718568,-34.708207],[138.71882,-34.708216],[138.719042,-34.708231],[138.71924,-34.708259],[138.719407,-34.708287],[138.719619,-34.708336],[138.719792,-34.708388],[138.719913,-34.708431],[138.720042,-34.70848],[138.720143,-34.708522],[138.720274,-34.708583],[138.720382,-34.708638],[138.720498,-34.708704],[138.721333,-34.709231],[138.721676,-34.709448],[138.72231,-34.709856],[138.722919,-34.710246],[138.723272,-34.710463],[138.723424,-34.710545],[138.72354,-34.710605],[138.723703,-34.71068],[138.723847,-34.710734],[138.724027,-34.710793],[138.724158,-34.710828],[138.72432,-34.710857],[138.724519,-34.71089],[138.724724,-34.71092],[138.724961,-34.710944],[138.725147,-34.710951],[138.725297,-34.710944],[138.725477,-34.71093],[138.725538,-34.710923],[138.725671,-34.710906],[138.725906,-34.710864],[138.726062,-34.710828],[138.726202,-34.71079],[138.727935,-34.710199],[138.728147,-34.710131],[138.728255,-34.710101],[138.728377,-34.710075],[138.728538,-34.710042],[138.728686,-34.710023],[138.728868,-34.710006],[138.72906,-34.709995],[138.729206,-34.709995],[138.729358,-34.710002],[138.729508,-34.710015],[138.729635,-34.71003],[138.729849,-34.710067],[138.730032,-34.710107],[138.730214,-34.710157],[138.730369,-34.710207],[138.730455,-34.710243],[138.730529,-34.710273],[138.731884,-34.710984],[138.732622,-34.711389],[138.733449,-34.711869],[138.734791,-34.712696],[138.737078,-34.714123],[138.738254,-34.714866],[138.73845,-34.714988],[138.738615,-34.715084],[138.738765,-34.715169],[138.738882,-34.715229],[138.739025,-34.715302],[138.739161,-34.715365],[138.739258,-34.715414],[138.739395,-34.715478],[138.739488,-34.715516],[138.739665,-34.715584],[138.73989,-34.715662],[138.740184,-34.715756],[138.740613,-34.715885],[138.742144,-34.716317],[138.743446,-34.716701],[138.743805,-34.716807],[138.744,-34.716867],[138.744195,-34.716928]]}},{"type":"Feature","properties":{"tier":"high"},"geometry":{"type":"LineString","coordinates":[[138.690592,-34.688389],[138.690492,-34.688547],[138.690473,-34.688575],[138.690435,-34.688636]]}},{"type":"Feature","properties":{"tier":"high"},"geometry":{"type":"LineString","coordinates":[[138.689923,-34.688848],[138.689987,-34.688757],[138.690011,-34.688719],[138.690028,-34.688693],[138.690073,-34.688621]]}},{"type":"Feature","properties":{"tier":"arterial"},"geometry":{"type":"LineString","coordinates":[[138.745529,-34.715669],[138.745584,-34.71562],[138.745725,-34.715494],[138.746067,-34.715191],[138.746329,-34.714979],[138.746634,-34.714774],[138.746816,-34.714672],[138.747063,-34.714549],[138.747313,-34.714454],[138.747542,-34.714381],[138.747811,-34.714321],[138.748036,-34.714282],[138.748278,-34.714257],[138.748512,-34.714247],[138.74877,-34.71425],[138.749414,-34.714279],[138.75002,-34.714317]]}},{"type":"Feature","properties":{"tier":"arterial"},"geometry":{"type":"LineString","coordinates":[[138.744195,-34.716928],[138.744507,-34.716637],[138.744675,-34.716467],[138.744827,-34.716321],[138.745438,-34.715749],[138.745529,-34.715669]]}},{"type":"Feature","properties":{"tier":"high"},"geometry":{"type":"LineString","coordinates":[[138.691161,-34.68748],[138.691012,-34.687726],[138.690954,-34.687817],[138.690896,-34.687909],[138.690728,-34.688174],[138.690592,-34.688389]]}},{"type":"Feature","properties":{"tier":"high"},"geometry":{"type":"LineString","coordinates":[[138.690592,-34.688389],[138.690379,-34.688487],[138.690306,-34.688543],[138.690248,-34.688578]]}},{"type":"Feature","properties":{"tier":"high"},"geometry":{"type":"LineString","coordinates":[[138.689867,-34.688943],[138.69002,-34.688866],[138.690084,-34.688799],[138.690116,-34.688765],[138.690179,-34.688713],[138.690248,-34.688678]]}},{"type":"Feature","properties":{"tier":"high"},"geometry":{"type":"LineString","coordinates":[[138.688372,-34.691317],[138.688393,-34.691278],[138.689188,-34.690016]]}},{"type":"Feature","properties":{"tier":"high"},"geometry":{"type":"LineString","coordinates":[[138.690227,-34.688381],[138.69038,-34.688142],[138.690767,-34.687522]]}},{"type":"Feature","properties":{"tier":"high"},"geometry":{"type":"LineString","coordinates":[[138.690257,-34.688917],[138.690034,-34.689272]]}},{"type":"Feature","properties":{"tier":"high"},"geometry":{"type":"LineString","coordinates":[[138.690767,-34.687522],[138.690794,-34.68748]]}},{"type":"Feature","properties":{"tier":"arterial"},"geometry":{"type":"LineString","coordinates":[[138.691409,-34.706171],[138.691424,-34.706371]]}},{"type":"Feature","properties":{"tier":"arterial"},"geometry":{"type":"LineString","coordinates":[[138.691063,-34.709716],[138.690691,-34.710308],[138.689881,-34.711598],[138.689762,-34.711788],[138.689646,-34.711976]]}},{"type":"Feature","properties":{"tier":"high"},"geometry":{"type":"LineString","coordinates":[[138.68748,-34.692739],[138.687873,-34.69211]]}},{"type":"Feature","properties":{"tier":"regional"},"geometry":{"type":"LineString","coordinates":[[138.71758,-34.700264],[138.717248,-34.70016],[138.71719,-34.700139],[138.717079,-34.700097],[138.716859,-34.7],[138.7168,-34.699973]]}},{"type":"Feature","properties":{"tier":"regional"},"geometry":{"type":"LineString","coordinates":[[138.716834,-34.699923],[138.717069,-34.700025],[138.717439,-34.700186],[138.71758,-34.700264]]}},{"type":"Feature","properties":{"tier":"regional"},"geometry":{"type":"LineString","coordinates":[[138.711941,-34.697819],[138.712201,-34.697936],[138.712524,-34.698084],[138.712786,-34.698225]]}},{"type":"Feature","properties":{"tier":"arterial"},"geometry":{"type":"LineString","coordinates":[[138.70494,-34.708027],[138.704777,-34.707988]]}},{"type":"Feature","properties":{"tier":"arterial"},"geometry":{"type":"LineString","coordinates":[[138.705605,-34.708034],[138.70538,-34.708032],[138.70494,-34.708027]]}},{"type":"Feature","properties":{"tier":"arterial"},"geometry":{"type":"LineString","coordinates":[[138.706526,-34.707993],[138.706754,-34.708],[138.706816,-34.708002],[138.706899,-34.708004],[138.70701,-34.707996],[138.707138,-34.707965],[138.707233,-34.707917]]}},{"type":"Feature","properties":{"tier":"arterial"},"geometry":{"type":"LineString","coordinates":[[138.705321,-34.707968],[138.705403,-34.707969],[138.705458,-34.70797],[138.705519,-34.707971],[138.70571,-34.707976],[138.705972,-34.707981]]}},{"type":"Feature","properties":{"tier":"regional"},"geometry":{"type":"LineString","coordinates":[[138.707388,-34.70724],[138.707412,-34.707456],[138.707413,-34.707592],[138.70742,-34.707773],[138.70744,-34.707822],[138.707466,-34.707867]]}},{"type":"Feature","properties":{"tier":"arterial"},"geometry":{"type":"LineString","coordinates":[[138.707282,-34.708059],[138.707006,-34.708058],[138.706751,-34.708053],[138.706527,-34.708048],[138.705709,-34.708036],[138.705605,-34.708034]]}},{"type":"Feature","properties":{"tier":"arterial"},"geometry":{"type":"LineString","coordinates":[[138.707502,-34.707903],[138.707596,-34.707947],[138.707726,-34.708004]]}},{"type":"Feature","properties":{"tier":"arterial"},"geometry":{"type":"LineString","coordinates":[[138.707373,-34.707839],[138.707423,-34.707846],[138.707466,-34.707867],[138.707502,-34.707903],[138.707518,-34.70794],[138.707519,-34.707979],[138.707504,-34.708017],[138.707476,-34.708048],[138.707454,-34.708063],[138.707429,-34.708074],[138.707402,-34.708081],[138.707374,-34.708084],[138.707326,-34.708078],[138.707282,-34.708059],[138.707249,-34.708031],[138.707228,-34.707995],[138.707223,-34.707955],[138.707233,-34.707917],[138.707252,-34.707888],[138.70728,-34.707864],[138.707324,-34.707845],[138.707373,-34.707839]]}},{"type":"Feature","properties":{"tier":"arterial"},"geometry":{"type":"LineString","coordinates":[[138.694574,-34.707267],[138.694611,-34.70727],[138.696006,-34.707407],[138.696501,-34.707456]]}},{"type":"Feature","properties":{"tier":"arterial"},"geometry":{"type":"LineString","coordinates":[[138.701746,-34.707924],[138.70217,-34.707938],[138.702309,-34.707941]]}},{"type":"Feature","properties":{"tier":"arterial"},"geometry":{"type":"LineString","coordinates":[[138.697562,-34.707563],[138.698196,-34.70763],[138.698478,-34.70766],[138.698836,-34.707701],[138.698902,-34.707709],[138.698927,-34.707711],[138.699394,-34.707755],[138.699406,-34.707756],[138.699618,-34.707665]]}},{"type":"Feature","properties":{"tier":"arterial"},"geometry":{"type":"LineString","coordinates":[[138.696501,-34.707456],[138.697562,-34.707563]]}},{"type":"Feature","properties":{"tier":"arterial"},"geometry":{"type":"LineString","coordinates":[[138.693341,-34.707176],[138.693811,-34.707211],[138.693821,-34.707211],[138.694548,-34.707265],[138.694574,-34.707267]]}},{"type":"Feature","properties":{"tier":"arterial"},"geometry":{"type":"LineString","coordinates":[[138.696006,-34.707407],[138.696081,-34.707437],[138.696128,-34.707451],[138.696248,-34.707461],[138.696432,-34.707479],[138.696461,-34.707482],[138.696483,-34.707486],[138.696491,-34.707497],[138.69649,-34.707528]]}},{"type":"Feature","properties":{"tier":"arterial"},"geometry":{"type":"LineString","coordinates":[[138.697979,-34.707687],[138.697894,-34.707644],[138.697825,-34.707633],[138.697743,-34.707627],[138.697668,-34.70762],[138.697634,-34.707617],[138.697593,-34.707612],[138.697579,-34.707609],[138.697566,-34.7076],[138.697563,-34.707581],[138.697562,-34.707563]]}},{"type":"Feature","properties":{"tier":"arterial"},"geometry":{"type":"LineString","coordinates":[[138.698392,-34.707734],[138.698327,-34.707689],[138.698219,-34.707678],[138.698198,-34.70766],[138.698196,-34.70763]]}},{"type":"Feature","properties":{"tier":"arterial"},"geometry":{"type":"LineString","coordinates":[[138.705605,-34.708034],[138.705419,-34.707996],[138.705403,-34.707983],[138.705403,-34.707969]]}},{"type":"Feature","properties":{"tier":"arterial"},"geometry":{"type":"LineString","coordinates":[[138.705972,-34.707981],[138.706038,-34.708003],[138.706508,-34.708014],[138.706527,-34.708048]]}},{"type":"Feature","properties":{"tier":"arterial"},"geometry":{"type":"LineString","coordinates":[[138.707726,-34.708004],[138.707596,-34.708018],[138.707583,-34.708019],[138.707476,-34.708048]]}},{"type":"Feature","properties":{"tier":"arterial"},"geometry":{"type":"LineString","coordinates":[[138.744675,-34.716467],[138.744565,-34.716524],[138.744444,-34.716648],[138.744259,-34.716811],[138.744181,-34.716859],[138.74413,-34.716881],[138.744,-34.716867]]}},{"type":"Feature","properties":{"tier":"arterial"},"geometry":{"type":"LineString","coordinates":[[138.689325,-34.702123],[138.689449,-34.702176],[138.689786,-34.702321]]}},{"type":"Feature","properties":{"tier":"regional"},"geometry":{"type":"LineString","coordinates":[[138.698689,-34.692191],[138.698718,-34.692204],[138.698808,-34.692236]]}},{"type":"Feature","properties":{"tier":"regional"},"geometry":{"type":"LineString","coordinates":[[138.698597,-34.692151],[138.698689,-34.692191]]}},{"type":"Feature","properties":{"tier":"regional"},"geometry":{"type":"LineString","coordinates":[[138.71191,-34.697868],[138.711941,-34.697819]]}},{"type":"Feature","properties":{"tier":"regional"},"geometry":{"type":"LineString","coordinates":[[138.71191,-34.697868],[138.711576,-34.697726],[138.711006,-34.697485],[138.710945,-34.69746],[138.710811,-34.697407],[138.710669,-34.697327]]}},{"type":"Feature","properties":{"tier":"regional"},"geometry":{"type":"LineString","coordinates":[[138.690641,-34.688703],[138.690912,-34.688816],[138.690964,-34.688881]]}},{"type":"Feature","properties":{"tier":"high"},"geometry":{"type":"LineString","coordinates":[[138.689372,-34.68972],[138.689752,-34.689116],[138.689867,-34.688943]]}},{"type":"Feature","properties":{"tier":"high"},"geometry":{"type":"LineString","coordinates":[[138.689188,-34.690016],[138.689372,-34.68972]]}},{"type":"Feature","properties":{"tier":"high"},"geometry":{"type":"LineString","coordinates":[[138.689867,-34.688943],[138.689923,-34.688848]]}},{"type":"Feature","properties":{"tier":"regional"},"geometry":{"type":"LineString","coordinates":[[138.690635,-34.688803],[138.690469,-34.688742],[138.69044,-34.688732],[138.690386,-34.688714]]}},{"type":"Feature","properties":{"tier":"regional"},"geometry":{"type":"LineString","coordinates":[[138.69109,-34.696053],[138.691219,-34.696016],[138.691365,-34.696007],[138.69144,-34.696003],[138.691548,-34.696001]]}},{"type":"Feature","properties":{"tier":"regional"},"geometry":{"type":"LineString","coordinates":[[138.705355,-34.698614],[138.705174,-34.698889]]}},{"type":"Feature","properties":{"tier":"regional"},"geometry":{"type":"LineString","coordinates":[[138.705174,-34.698889],[138.705032,-34.699129],[138.704823,-34.699456],[138.704554,-34.699888],[138.704322,-34.700246]]}},{"type":"Feature","properties":{"tier":"arterial"},"geometry":{"type":"LineString","coordinates":[[138.699808,-34.707595],[138.699852,-34.707615],[138.699888,-34.707651],[138.699904,-34.707688],[138.699904,-34.707728],[138.69989,-34.707765],[138.699862,-34.707797],[138.69984,-34.707811],[138.699815,-34.707822],[138.699788,-34.707829],[138.69976,-34.707832],[138.699712,-34.707826],[138.699668,-34.707808],[138.699635,-34.707779],[138.699614,-34.707743],[138.699608,-34.707704],[138.699618,-34.707665],[138.699638,-34.707636],[138.699666,-34.707613],[138.69971,-34.707594],[138.699759,-34.707587],[138.699808,-34.707595]]}},{"type":"Feature","properties":{"tier":"arterial"},"geometry":{"type":"LineString","coordinates":[[138.699888,-34.707651],[138.699992,-34.707706],[138.700093,-34.707767],[138.700244,-34.707823],[138.70044,-34.707854],[138.700899,-34.70788],[138.701746,-34.707924]]}},{"type":"Feature","properties":{"tier":"regional"},"geometry":{"type":"LineString","coordinates":[[138.710283,-34.700435],[138.710193,-34.700614]]}},{"type":"Feature","properties":{"tier":"regional"},"geometry":{"type":"LineString","coordinates":[[138.694116,-34.690862],[138.69409,-34.690916],[138.693994,-34.691098],[138.693854,-34.691332]]}},{"type":"Feature","properties":{"tier":"arterial"},"geometry":{"type":"LineString","coordinates":[[138.709079,-34.708055],[138.708691,-34.708049],[138.708489,-34.708042],[138.708279,-34.708031],[138.70807,-34.70802],[138.707783,-34.708006],[138.707726,-34.708004]]}},{"type":"Feature","properties":{"tier":"arterial"},"geometry":{"type":"LineString","coordinates":[[138.702905,-34.707955],[138.703158,-34.707959]]}}]}
