{"type":"FeatureCollection","features":[{"type":"Feature","properties":{"tier":"arterial"},"geometry":{"type":"LineString","coordinates":[[138.640074,-31.528583],[138.640204,-31.529523],[138.640365,-31.530578],[138.640484,-31.531531],[138.640529,-31.532015],[138.640574,-31.53266],[138.640607,-31.533371],[138.640623,-31.534763],[138.640661,-31.535603],[138.640695,-31.53594],[138.640783,-31.536575],[138.640936,-31.537226],[138.64139,-31.538815],[138.642292,-31.541137],[138.642704,-31.5422],[138.642901,-31.543034],[138.643075,-31.54478],[138.643158,-31.545226],[138.643283,-31.545629],[138.643473,-31.546048],[138.643807,-31.546577],[138.644811,-31.547948],[138.645248,-31.548599],[138.645579,-31.549209],[138.645876,-31.549892],[138.646115,-31.550497],[138.646304,-31.55115],[138.6466,-31.552496],[138.646763,-31.553086],[138.646879,-31.553394],[138.64704,-31.553777],[138.647613,-31.554754],[138.648128,-31.555591],[138.648643,-31.556484],[138.649089,-31.557401],[138.649347,-31.557861],[138.649594,-31.558278],[138.649827,-31.558633],[138.650022,-31.558926],[138.650666,-31.559797],[138.652158,-31.562169],[138.653007,-31.563626],[138.653198,-31.563965],[138.653419,-31.564393],[138.653568,-31.564819],[138.653646,-31.565076],[138.653809,-31.565801],[138.654179,-31.568228],[138.654318,-31.568924],[138.654489,-31.569562],[138.654572,-31.569814],[138.654715,-31.570178],[138.655075,-31.571003],[138.655433,-31.571795],[138.656118,-31.5734],[138.656311,-31.573939],[138.656402,-31.574324],[138.656616,-31.575441],[138.656706,-31.575996],[138.656745,-31.576274],[138.656749,-31.576552],[138.65672,-31.576857],[138.656659,-31.577145],[138.656586,-31.577403],[138.656477,-31.577675],[138.65636,-31.577903],[138.656184,-31.57818],[138.655914,-31.578552],[138.655539,-31.579044],[138.655231,-31.579432],[138.654782,-31.580029],[138.654537,-31.580305],[138.654256,-31.580575],[138.65402,-31.580767],[138.653763,-31.580952],[138.653235,-31.581303],[138.652092,-31.582067],[138.651698,-31.58233],[138.651567,-31.582447],[138.65129,-31.582721],[138.651079,-31.582967],[138.65091,-31.583188],[138.650804,-31.583367],[138.650702,-31.583575],[138.650613,-31.58381]]}},{"type":"Feature","properties":{"tier":"regional"},"geometry":{"type":"LineString","coordinates":[[138.622957,-31.520084],[138.622468,-31.520025],[138.622119,-31.51996],[138.621824,-31.51988],[138.62148,-31.519748],[138.62042,-31.519246],[138.619696,-31.518921],[138.619453,-31.518819],[138.619237,-31.518746],[138.618993,-31.518676],[138.618783,-31.518639],[138.61846,-31.518599],[138.618197,-31.518588],[138.617915,-31.518595],[138.61762,-31.518636],[138.61733,-31.518688],[138.617045,-31.518771],[138.616812,-31.51886],[138.616557,-31.518984],[138.616088,-31.519258],[138.615856,-31.519421],[138.615643,-31.519566],[138.614661,-31.520295],[138.613896,-31.520848],[138.611944,-31.522216]]}},{"type":"Feature","properties":{"tier":"regional"},"geometry":{"type":"LineString","coordinates":[[138.606684,-31.527036],[138.607019,-31.527137],[138.607532,-31.527159],[138.60786,-31.527116],[138.608097,-31.527019],[138.608252,-31.526912],[138.608387,-31.526813],[138.608538,-31.52664],[138.608677,-31.526434],[138.608761,-31.526169],[138.608893,-31.525338],[138.608958,-31.524925],[138.609056,-31.524595],[138.609254,-31.524262],[138.609476,-31.524004],[138.609838,-31.523684],[138.611944,-31.522216]]}},{"type":"Feature","properties":{"tier":"arterial"},"geometry":{"type":"LineString","coordinates":[[138.640074,-31.528583],[138.639938,-31.527262],[138.639913,-31.526556]]}},{"type":"Feature","properties":{"tier":"regional"},"geometry":{"type":"LineString","coordinates":[[138.636848,-31.52605],[138.636363,-31.52596],[138.634996,-31.525732],[138.634591,-31.525656],[138.634314,-31.525567],[138.634031,-31.525462],[138.633788,-31.525347],[138.633574,-31.525226],[138.633385,-31.525098],[138.6332,-31.52495],[138.632971,-31.524751],[138.631867,-31.523752],[138.630889,-31.522874],[138.629968,-31.522041],[138.628932,-31.521109],[138.62868,-31.520903],[138.628461,-31.520749],[138.628131,-31.520544],[138.627893,-31.52043],[138.627658,-31.520331],[138.627139,-31.520185],[138.62659,-31.520098],[138.625931,-31.52007],[138.622957,-31.520084]]}},{"type":"Feature","properties":{"tier":"arterial"},"geometry":{"type":"LineString","coordinates":[[138.529887,-31.718874],[138.526998,-31.720887],[138.524964,-31.7223],[138.524363,-31.722715],[138.523677,-31.723241],[138.52291,-31.723938],[138.521983,-31.724875],[138.520346,-31.726543],[138.519293,-31.727598],[138.517016,-31.729881],[138.516997,-31.729904],[138.516483,-31.730522],[138.516184,-31.731034],[138.51595,-31.731563],[138.515819,-31.732075],[138.515757,-31.732553],[138.515765,-31.732699],[138.515801,-31.733282],[138.515816,-31.733538],[138.515862,-31.733713],[138.515959,-31.734083],[138.516157,-31.734559],[138.516473,-31.735093],[138.516747,-31.735445],[138.516862,-31.735582],[138.518337,-31.736878],[138.518802,-31.737351],[138.519105,-31.737744],[138.519195,-31.737868],[138.519497,-31.738416],[138.519731,-31.739086],[138.520326,-31.741405],[138.520926,-31.743413],[138.521071,-31.744052],[138.521143,-31.744504],[138.521188,-31.745334],[138.521181,-31.745679],[138.52116,-31.745998],[138.521088,-31.74651],[138.521016,-31.746852],[138.520788,-31.747644],[138.520524,-31.748245],[138.520259,-31.748769],[138.52015,-31.748952]]}},{"type":"Feature","properties":{"tier":"arterial"},"geometry":{"type":"LineString","coordinates":[[138.650613,-31.58381],[138.650523,-31.584122],[138.650462,-31.584465],[138.650387,-31.585997],[138.650308,-31.586881],[138.650123,-31.588071],[138.648896,-31.593294],[138.648763,-31.594251],[138.64877,-31.594783],[138.648815,-31.596057],[138.648817,-31.598036]]}},{"type":"Feature","properties":{"tier":"arterial"},"geometry":{"type":"LineString","coordinates":[[138.609355,-31.660221],[138.608983,-31.660607],[138.608353,-31.66126],[138.607274,-31.662191],[138.606467,-31.662866],[138.605571,-31.663472],[138.604355,-31.664254],[138.601338,-31.666193],[138.598218,-31.668185],[138.598158,-31.668226],[138.597967,-31.668341],[138.589129,-31.674044],[138.588356,-31.674541],[138.585196,-31.676778],[138.583804,-31.677784],[138.583377,-31.678103],[138.583059,-31.678348],[138.582511,-31.6788],[138.58209,-31.679158],[138.581668,-31.679537],[138.581285,-31.679898],[138.580844,-31.680337],[138.580354,-31.680832],[138.579114,-31.682054],[138.578721,-31.682399],[138.57798,-31.682985]]}},{"type":"Feature","properties":{"tier":"arterial"},"geometry":{"type":"LineString","coordinates":[[138.636475,-31.638894],[138.635974,-31.639356],[138.631605,-31.643085],[138.631033,-31.643535],[138.62866,-31.645069],[138.627638,-31.645809],[138.627075,-31.646257],[138.6268,-31.646475],[138.625758,-31.647404],[138.625399,-31.647671],[138.625159,-31.647849],[138.62437,-31.648335],[138.621743,-31.649765],[138.620954,-31.650367],[138.620762,-31.650536],[138.620308,-31.650935],[138.619781,-31.651461],[138.619306,-31.651922],[138.618597,-31.652514],[138.617884,-31.653046],[138.615099,-31.654879],[138.614415,-31.65536],[138.613725,-31.655927],[138.612913,-31.65672],[138.610906,-31.658756]]}},{"type":"Feature","properties":{"tier":"arterial"},"geometry":{"type":"LineString","coordinates":[[138.610906,-31.658756],[138.609355,-31.660221]]}},{"type":"Feature","properties":{"tier":"arterial"},"geometry":{"type":"LineString","coordinates":[[138.645521,-31.49998],[138.645577,-31.500301],[138.645635,-31.50148],[138.645645,-31.501698],[138.646085,-31.503826],[138.646125,-31.504682],[138.646079,-31.504952],[138.646019,-31.505154],[138.644894,-31.50816],[138.644271,-31.509207],[138.644014,-31.509768],[138.64391,-31.510228],[138.643921,-31.510599],[138.64401,-31.511059],[138.644197,-31.511742],[138.64442,-31.512736],[138.644553,-31.513408],[138.64459,-31.513729],[138.644585,-31.513995],[138.644508,-31.514645],[138.644287,-31.515739],[138.644249,-31.516061],[138.644257,-31.516334],[138.644307,-31.516638],[138.644375,-31.51696],[138.644369,-31.51716],[138.644323,-31.5174],[138.644178,-31.517642],[138.643847,-31.518017],[138.643576,-31.518248],[138.643239,-31.51848],[138.642902,-31.518648],[138.642499,-31.518785],[138.641871,-31.518971],[138.641565,-31.519078],[138.641301,-31.519205],[138.641079,-31.519397],[138.640919,-31.519582],[138.640698,-31.520053],[138.640257,-31.521175],[138.639886,-31.522234],[138.639742,-31.522779],[138.639701,-31.523101],[138.63972,-31.523445],[138.639759,-31.523919],[138.639862,-31.525018],[138.639871,-31.525209],[138.639904,-31.525913],[138.639913,-31.526556]]}},{"type":"Feature","properties":{"tier":"arterial"},"geometry":{"type":"LineString","coordinates":[[138.57018,-31.687169],[138.569147,-31.687737],[138.567657,-31.688606],[138.567573,-31.688656],[138.567479,-31.688713],[138.567273,-31.688842],[138.567108,-31.688949],[138.566774,-31.689201],[138.566486,-31.689446]]}},{"type":"Feature","properties":{"tier":"regional"},"geometry":{"type":"LineString","coordinates":[[138.639913,-31.526556],[138.639379,-31.526478],[138.636848,-31.52605]]}},{"type":"Feature","properties":{"tier":"arterial"},"geometry":{"type":"LineString","coordinates":[[138.648817,-31.598036],[138.648661,-31.601478],[138.64867,-31.601869],[138.64873,-31.602334],[138.648796,-31.602662],[138.648986,-31.603382],[138.650076,-31.605904],[138.650833,-31.607797],[138.651185,-31.608749],[138.651432,-31.609523],[138.651542,-31.609882],[138.651597,-31.610192],[138.651671,-31.610636],[138.651687,-31.611063],[138.651685,-31.611549],[138.651678,-31.612114],[138.651627,-31.613752],[138.651587,-31.615015],[138.651601,-31.615656],[138.651643,-31.616255],[138.651711,-31.616836],[138.651808,-31.617582],[138.651872,-31.618073],[138.651887,-31.618527],[138.651858,-31.618806],[138.651791,-31.61922],[138.651786,-31.61925],[138.651626,-31.619848],[138.651097,-31.621823],[138.651085,-31.621855],[138.650882,-31.622419],[138.650745,-31.622674],[138.650573,-31.622908],[138.650359,-31.623127],[138.650051,-31.623361],[138.649689,-31.623618],[138.649126,-31.623973],[138.648274,-31.624564],[138.64803,-31.624751],[138.647787,-31.62499],[138.647597,-31.625234],[138.647426,-31.625513],[138.647256,-31.625885],[138.646956,-31.626634],[138.646888,-31.626796],[138.646851,-31.626892],[138.646773,-31.627093],[138.646673,-31.627338],[138.646502,-31.62758],[138.646212,-31.627914],[138.645797,-31.62833],[138.644715,-31.629588],[138.64336,-31.631202],[138.641399,-31.633282],[138.640822,-31.633916],[138.640714,-31.634041],[138.639401,-31.635555],[138.638608,-31.636505],[138.637648,-31.637568],[138.637547,-31.637681]]}},{"type":"Feature","properties":{"tier":"arterial"},"geometry":{"type":"LineString","coordinates":[[138.566486,-31.689446],[138.566104,-31.689816],[138.56586,-31.690104],[138.565634,-31.690408],[138.565446,-31.69072],[138.565192,-31.691231],[138.56507,-31.691517],[138.564979,-31.691806],[138.564921,-31.692055],[138.564866,-31.692368],[138.564854,-31.69252],[138.564804,-31.693054],[138.564723,-31.694816],[138.564681,-31.695408],[138.564634,-31.695812],[138.564565,-31.696175],[138.564476,-31.696518],[138.564364,-31.696861],[138.5642,-31.697259],[138.5639,-31.697831],[138.563692,-31.698165],[138.56339,-31.698567],[138.563167,-31.698833],[138.562887,-31.699132],[138.562613,-31.699385],[138.562313,-31.69964],[138.561808,-31.700014],[138.560847,-31.700512],[138.557738,-31.701897],[138.557186,-31.702176],[138.556422,-31.702642],[138.555852,-31.703022],[138.555382,-31.703395],[138.554894,-31.703817],[138.55442,-31.704324],[138.553614,-31.705377],[138.553274,-31.705925],[138.553041,-31.706374],[138.551663,-31.709348],[138.551084,-31.710229],[138.550453,-31.710903],[138.549725,-31.711486],[138.548758,-31.711993],[138.547904,-31.712327],[138.545988,-31.71308],[138.545131,-31.713466],[138.544033,-31.71405],[138.54221,-31.715188],[138.541027,-31.7159],[138.540373,-31.716227],[138.539772,-31.716482],[138.539039,-31.716722],[138.538422,-31.716854],[138.537473,-31.716965],[138.535536,-31.717162],[138.534856,-31.717232],[138.534097,-31.717296],[138.53344,-31.717389],[138.532887,-31.717488],[138.532419,-31.717607],[138.531893,-31.717783],[138.531094,-31.718132],[138.530323,-31.71858],[138.529887,-31.718874]]}},{"type":"Feature","properties":{"tier":"arterial"},"geometry":{"type":"LineString","coordinates":[[138.57798,-31.682985],[138.57787,-31.683061],[138.577444,-31.683356],[138.576925,-31.683682],[138.576262,-31.684037],[138.574409,-31.684972],[138.573921,-31.685213],[138.573739,-31.685304],[138.572597,-31.685841],[138.57018,-31.687169]]}},{"type":"Feature","properties":{"tier":"arterial"},"geometry":{"type":"LineString","coordinates":[[138.637547,-31.637681],[138.636475,-31.638894]]}},{"type":"Feature","properties":{"tier":"arterial"},"geometry":{"type":"LineString","coordinates":[[138.520099,-31.749036],[138.519931,-31.749318],[138.519256,-31.750436],[138.51875,-31.751315],[138.518639,-31.751506],[138.517966,-31.752864],[138.51406,-31.763921],[138.509951,-31.777601],[138.509501,-31.779038],[138.509071,-31.780226],[138.508607,-31.781319],[138.508168,-31.78224],[138.50688,-31.784511],[138.503386,-31.790553],[138.502957,-31.791226],[138.502456,-31.791899],[138.501781,-31.7926],[138.50107,-31.793177],[138.500435,-31.793612],[138.49998,-31.793874]]}},{"type":"Feature","properties":{"tier":"arterial"},"geometry":{"type":"LineString","coordinates":[[138.52015,-31.748952],[138.520099,-31.749036]]}}]}
