{"type":"FeatureCollection","features":[{"type":"Feature","properties":{"tier":"arterial"},"geometry":{"type":"LineString","coordinates":[[138.594397,-35.563512],[138.594404,-35.563558],[138.594415,-35.563616],[138.594422,-35.563681],[138.594432,-35.563753],[138.594444,-35.563813],[138.59446,-35.563861],[138.594498,-35.563934],[138.59453,-35.563982],[138.594553,-35.564017],[138.594612,-35.564084]]}},{"type":"Feature","properties":{"tier":"arterial"},"geometry":{"type":"LineString","coordinates":[[138.611634,-35.557083],[138.61153,-35.557009],[138.611478,-35.556974],[138.61145,-35.556957],[138.611053,-35.55678],[138.610859,-35.556711],[138.610635,-35.556662],[138.610473,-35.556654],[138.610445,-35.556655],[138.609876,-35.556679],[138.609254,-35.55672],[138.608699,-35.556755],[138.608398,-35.556775],[138.608069,-35.556809],[138.607094,-35.556944],[138.606574,-35.556937],[138.606162,-35.556932],[138.605764,-35.556927],[138.60492,-35.556916],[138.604418,-35.556907],[138.604322,-35.556905],[138.60316,-35.556884],[138.601824,-35.556862],[138.601615,-35.55686],[138.600649,-35.556833],[138.600308,-35.556827],[138.600098,-35.556828]]}},{"type":"Feature","properties":{"tier":"arterial"},"geometry":{"type":"LineString","coordinates":[[138.622678,-35.551405],[138.622783,-35.551465],[138.622878,-35.551514],[138.622948,-35.551542],[138.622993,-35.551552]]}},{"type":"Feature","properties":{"tier":"arterial"},"geometry":{"type":"LineString","coordinates":[[138.622678,-35.551405],[138.622655,-35.551389],[138.622308,-35.551162],[138.62226,-35.55113],[138.621754,-35.550794],[138.621509,-35.550632],[138.621364,-35.550539],[138.620932,-35.550254],[138.620416,-35.549923],[138.619853,-35.549555],[138.619593,-35.549383],[138.619248,-35.549155],[138.61841,-35.548619],[138.617346,-35.547895],[138.616238,-35.547165],[138.615715,-35.54682],[138.615149,-35.546438]]}},{"type":"Feature","properties":{"tier":"high"},"geometry":{"type":"LineString","coordinates":[[138.628422,-35.544862],[138.62882,-35.544249]]}},{"type":"Feature","properties":{"tier":"arterial"},"geometry":{"type":"LineString","coordinates":[[138.640303,-35.536358],[138.640423,-35.536338],[138.641357,-35.536199],[138.641391,-35.536194],[138.641488,-35.536179],[138.641578,-35.536166],[138.641632,-35.536157],[138.641767,-35.536137],[138.642053,-35.536094],[138.643786,-35.535831],[138.643924,-35.53581],[138.643974,-35.535802],[138.644738,-35.535688],[138.645927,-35.535509],[138.646452,-35.53543],[138.647679,-35.535243],[138.648925,-35.535057],[138.650082,-35.534885],[138.651733,-35.534635],[138.651934,-35.534604],[138.652592,-35.534503]]}},{"type":"Feature","properties":{"tier":"high"},"geometry":{"type":"LineString","coordinates":[[138.633892,-35.519046],[138.633975,-35.519065],[138.634041,-35.519096],[138.634092,-35.51914],[138.634112,-35.519188],[138.634133,-35.519247],[138.634131,-35.51931],[138.63411,-35.51936],[138.634066,-35.519421]]}},{"type":"Feature","properties":{"tier":"arterial"},"geometry":{"type":"LineString","coordinates":[[138.652592,-35.534503],[138.652917,-35.534454],[138.655473,-35.534068],[138.657631,-35.533738],[138.658264,-35.533643],[138.659071,-35.533523],[138.661608,-35.53314],[138.661913,-35.533094]]}},{"type":"Feature","properties":{"tier":"regional"},"geometry":{"type":"LineString","coordinates":[[138.680995,-35.530268],[138.681092,-35.530661],[138.681291,-35.531476],[138.681469,-35.532257],[138.681477,-35.532286],[138.681483,-35.53231],[138.681493,-35.532355],[138.681521,-35.532472],[138.681533,-35.532523],[138.681614,-35.532881],[138.681769,-35.533523],[138.682011,-35.534549],[138.682191,-35.535283],[138.682258,-35.535557],[138.682493,-35.536505],[138.682514,-35.536596]]}},{"type":"Feature","properties":{"tier":"high"},"geometry":{"type":"LineString","coordinates":[[138.633605,-35.519154],[138.633624,-35.519032],[138.633612,-35.518926],[138.633571,-35.518837],[138.633506,-35.518745],[138.633434,-35.518653],[138.633315,-35.5185],[138.633141,-35.518233],[138.632715,-35.517659],[138.632436,-35.517206]]}},{"type":"Feature","properties":{"tier":"high"},"geometry":{"type":"LineString","coordinates":[[138.63921,-35.53666],[138.639151,-35.536678],[138.639088,-35.53668],[138.639027,-35.536668],[138.638973,-35.536641],[138.638932,-35.536602],[138.638913,-35.536572],[138.638899,-35.536525],[138.638902,-35.536477],[138.638921,-35.536431],[138.638951,-35.536396],[138.638996,-35.536365],[138.63905,-35.536345],[138.639108,-35.536338],[138.639166,-35.536344],[138.639218,-35.536363],[138.639261,-35.536391],[138.639297,-35.536433],[138.639317,-35.536482],[138.639317,-35.536534],[138.639299,-35.536583],[138.639262,-35.536627],[138.63921,-35.53666]]}},{"type":"Feature","properties":{"tier":"arterial"},"geometry":{"type":"LineString","coordinates":[[138.564492,-35.577479],[138.564348,-35.577603],[138.564184,-35.577724],[138.55921,-35.579921],[138.546694,-35.585538],[138.542788,-35.587302],[138.541913,-35.587697],[138.540137,-35.588504],[138.536169,-35.590256],[138.529528,-35.592926],[138.528648,-35.593291],[138.527758,-35.593802],[138.52569,-35.595199],[138.525478,-35.595348],[138.525357,-35.595434],[138.524002,-35.596735],[138.523673,-35.59693],[138.523073,-35.597192],[138.522277,-35.597452],[138.521025,-35.597762],[138.520695,-35.597902],[138.520393,-35.598116],[138.520174,-35.598316],[138.51987,-35.598497],[138.519459,-35.59863],[138.517308,-35.599182],[138.516331,-35.59938],[138.512864,-35.599917],[138.512017,-35.600064],[138.510742,-35.600285],[138.507709,-35.600895],[138.507017,-35.601132],[138.503499,-35.602841],[138.503317,-35.602946],[138.502897,-35.603188],[138.502308,-35.603656],[138.501786,-35.60416],[138.50161,-35.604418],[138.501545,-35.604644],[138.501442,-35.605396],[138.50128,-35.606048],[138.501093,-35.60639],[138.500998,-35.606522],[138.500774,-35.606953],[138.500704,-35.6071],[138.500622,-35.607332],[138.500523,-35.607633],[138.500349,-35.608551],[138.500303,-35.608793],[138.500185,-35.609052],[138.49998,-35.609264]]}},{"type":"Feature","properties":{"tier":"arterial"},"geometry":{"type":"LineString","coordinates":[[138.542574,-35.502402],[138.543256,-35.501878],[138.54349,-35.50169],[138.543951,-35.501319],[138.54523,-35.500341],[138.545661,-35.49998]]}},{"type":"Feature","properties":{"tier":"regional"},"geometry":{"type":"LineString","coordinates":[[138.665258,-35.49998],[138.666115,-35.50076],[138.666959,-35.501633],[138.668285,-35.502729],[138.668424,-35.502812],[138.668701,-35.502904],[138.669114,-35.503037],[138.670793,-35.503832],[138.670895,-35.503906],[138.67099,-35.503999],[138.671048,-35.50417],[138.671085,-35.504347],[138.671109,-35.504517],[138.671083,-35.504718],[138.67107,-35.504745],[138.670991,-35.504908],[138.670873,-35.505048],[138.669986,-35.505771],[138.669838,-35.505926],[138.669731,-35.506057],[138.669633,-35.506217],[138.669386,-35.506728],[138.669028,-35.507504],[138.669009,-35.507836],[138.669049,-35.508446],[138.669256,-35.509055],[138.669304,-35.509216],[138.669336,-35.509338],[138.669342,-35.509448],[138.669331,-35.509579],[138.668981,-35.510297],[138.668691,-35.510929],[138.668553,-35.511229],[138.668312,-35.511629],[138.667695,-35.512537],[138.667462,-35.512897],[138.667367,-35.513155],[138.667319,-35.513308],[138.667295,-35.513426],[138.667282,-35.513524],[138.667295,-35.513657],[138.667322,-35.513782],[138.667401,-35.513916],[138.667604,-35.514074],[138.667657,-35.514116],[138.668266,-35.51453],[138.668862,-35.514899],[138.669454,-35.515096],[138.669559,-35.515131],[138.671147,-35.515622],[138.671407,-35.515639],[138.671847,-35.515587],[138.672373,-35.5155],[138.672759,-35.515472],[138.672958,-35.515454],[138.673113,-35.515466],[138.673285,-35.515531],[138.673403,-35.515622],[138.673523,-35.515783],[138.673579,-35.516003],[138.673644,-35.516259],[138.673717,-35.516543],[138.673763,-35.516741],[138.673961,-35.517591],[138.67424,-35.518832],[138.674264,-35.518938],[138.674393,-35.519573],[138.674462,-35.519783],[138.674594,-35.519936],[138.674757,-35.520047],[138.67487,-35.520235],[138.674932,-35.520523]]}},{"type":"Feature","properties":{"tier":"arterial"},"geometry":{"type":"LineString","coordinates":[[138.783738,-35.502862],[138.784063,-35.502748],[138.784212,-35.502716],[138.784582,-35.50258],[138.784695,-35.502482],[138.784847,-35.502347],[138.784946,-35.502252]]}},{"type":"Feature","properties":{"tier":"arterial"},"geometry":{"type":"LineString","coordinates":[[138.607497,-35.551196],[138.607633,-35.551042],[138.607744,-35.550918],[138.608057,-35.550527]]}},{"type":"Feature","properties":{"tier":"arterial"},"geometry":{"type":"LineString","coordinates":[[138.608057,-35.550527],[138.608269,-35.55023],[138.608474,-35.549899],[138.60867,-35.549548],[138.608777,-35.549332],[138.608847,-35.549172],[138.609001,-35.548786],[138.609142,-35.548383],[138.609174,-35.548245],[138.60929,-35.547723],[138.609329,-35.547456],[138.609367,-35.547063],[138.609378,-35.546771],[138.609375,-35.546444],[138.609351,-35.546012],[138.609297,-35.545649],[138.609237,-35.545351],[138.60915,-35.545004],[138.60906,-35.544685],[138.609028,-35.544599],[138.608872,-35.544193],[138.608738,-35.543859],[138.608539,-35.543422],[138.608393,-35.543036],[138.608322,-35.542786],[138.608261,-35.542516],[138.60821,-35.542122],[138.608195,-35.541914],[138.608193,-35.541746],[138.608222,-35.541423],[138.608259,-35.5412],[138.608306,-35.540988],[138.60835,-35.540845],[138.608418,-35.540624],[138.608479,-35.540471],[138.608691,-35.540019],[138.608826,-35.539777]]}},{"type":"Feature","properties":{"tier":"arterial"},"geometry":{"type":"LineString","coordinates":[[138.621904,-35.520391],[138.622213,-35.520256],[138.622509,-35.52014],[138.622813,-35.520031],[138.623109,-35.519938]]}},{"type":"Feature","properties":{"tier":"arterial"},"geometry":{"type":"LineString","coordinates":[[138.608826,-35.539777],[138.60901,-35.539422],[138.609932,-35.537802],[138.610405,-35.536983],[138.61064,-35.536558],[138.610897,-35.536103],[138.611164,-35.535631],[138.611388,-35.535248],[138.611748,-35.534607],[138.611926,-35.534303],[138.612223,-35.533789],[138.612558,-35.533157],[138.612677,-35.532902],[138.61282,-35.532535],[138.612936,-35.532198],[138.612987,-35.53204],[138.613076,-35.53172],[138.613197,-35.53114],[138.613227,-35.530964],[138.613302,-35.530292],[138.613365,-35.529978],[138.613457,-35.529628],[138.613596,-35.529168],[138.613885,-35.528474],[138.614056,-35.528125],[138.614245,-35.52779],[138.614456,-35.527441],[138.614652,-35.527149],[138.614833,-35.526902],[138.61498,-35.526704],[138.615063,-35.526602],[138.615134,-35.526522],[138.615293,-35.526328],[138.615566,-35.526036],[138.615874,-35.525731],[138.616098,-35.525522],[138.61643,-35.525236],[138.616665,-35.525057],[138.617029,-35.524758],[138.617215,-35.524599],[138.617576,-35.524268],[138.617912,-35.52394],[138.618077,-35.523768],[138.618708,-35.523058]]}},{"type":"Feature","properties":{"tier":"regional"},"geometry":{"type":"LineString","coordinates":[[138.826685,-35.531171],[138.826209,-35.531681],[138.825934,-35.531919],[138.825723,-35.532079],[138.825558,-35.53214],[138.825222,-35.532058],[138.824784,-35.531933],[138.824118,-35.531714],[138.823471,-35.531534],[138.822567,-35.531273],[138.821918,-35.531194],[138.820973,-35.531094],[138.820166,-35.531004],[138.819872,-35.530974],[138.819643,-35.530976],[138.819109,-35.531068],[138.818491,-35.531186],[138.818326,-35.531193],[138.818136,-35.531154],[138.817789,-35.530976],[138.81749,-35.530777],[138.817175,-35.530598],[138.816544,-35.530333],[138.815885,-35.530058],[138.815287,-35.529865],[138.814948,-35.529842],[138.814431,-35.529861],[138.813812,-35.52988],[138.813624,-35.529836],[138.813464,-35.529776],[138.813131,-35.529636],[138.812845,-35.529531],[138.81254,-35.529438],[138.812199,-35.529378],[138.811862,-35.529323],[138.811025,-35.529209],[138.810754,-35.529169],[138.810494,-35.529117],[138.80993,-35.528987],[138.809706,-35.528956],[138.809538,-35.528953],[138.809321,-35.528964],[138.808782,-35.529006],[138.808187,-35.529066],[138.807836,-35.529199],[138.807358,-35.529418],[138.80717,-35.52948],[138.806961,-35.529495],[138.806478,-35.529411],[138.805875,-35.529301],[138.805683,-35.529261],[138.805557,-35.529221],[138.80551,-35.529202],[138.805305,-35.529118],[138.805059,-35.52895],[138.804918,-35.528824],[138.804795,-35.52865],[138.804676,-35.528323],[138.80465,-35.528196]]}},{"type":"Feature","properties":{"tier":"high"},"geometry":{"type":"LineString","coordinates":[[138.636047,-35.528244],[138.635516,-35.527702],[138.635175,-35.527333],[138.635018,-35.527122],[138.634908,-35.526932],[138.634805,-35.526724],[138.634761,-35.526588]]}},{"type":"Feature","properties":{"tier":"regional"},"geometry":{"type":"LineString","coordinates":[[138.645306,-35.525021],[138.64488,-35.525075],[138.644585,-35.525115],[138.644317,-35.525132],[138.643991,-35.525119],[138.643629,-35.525069],[138.643479,-35.525031],[138.643045,-35.524868],[138.64255,-35.524584],[138.63625,-35.520098]]}},{"type":"Feature","properties":{"tier":"regional"},"geometry":{"type":"LineString","coordinates":[[138.645306,-35.525021],[138.645595,-35.524981],[138.647186,-35.524763],[138.647344,-35.524741]]}},{"type":"Feature","properties":{"tier":"arterial"},"geometry":{"type":"LineString","coordinates":[[138.778988,-35.504892],[138.779749,-35.504987]]}},{"type":"Feature","properties":{"tier":"arterial"},"geometry":{"type":"LineString","coordinates":[[138.711107,-35.49998],[138.71109,-35.500056],[138.710229,-35.50386]]}},{"type":"Feature","properties":{"tier":"arterial"},"geometry":{"type":"LineString","coordinates":[[138.784275,-35.503708],[138.784249,-35.503633],[138.784223,-35.503582],[138.7841,-35.503411],[138.784071,-35.503366],[138.783738,-35.502862],[138.783556,-35.502652],[138.782917,-35.501916],[138.782328,-35.501236],[138.781994,-35.500851],[138.781229,-35.49998]]}},{"type":"Feature","properties":{"tier":"arterial"},"geometry":{"type":"LineString","coordinates":[[138.782701,-35.505351],[138.782743,-35.505325],[138.782788,-35.505285],[138.782849,-35.505219],[138.782935,-35.505137],[138.783428,-35.504625],[138.783972,-35.504042],[138.78423,-35.503801],[138.784251,-35.503771],[138.784266,-35.503741],[138.784275,-35.503708]]}},{"type":"Feature","properties":{"tier":"regional"},"geometry":{"type":"LineString","coordinates":[[138.780878,-35.508512],[138.780959,-35.508577],[138.781787,-35.509021],[138.78263,-35.509483],[138.782738,-35.509575],[138.782845,-35.509748],[138.782907,-35.51001],[138.782912,-35.510239],[138.782896,-35.51059],[138.782882,-35.510879],[138.782904,-35.511053],[138.782947,-35.511195],[138.783073,-35.511376],[138.783306,-35.511542],[138.784071,-35.511857],[138.784275,-35.511983],[138.784438,-35.512165],[138.784557,-35.512358],[138.78461,-35.512507],[138.784712,-35.512963],[138.784723,-35.513155],[138.784719,-35.513309],[138.784664,-35.513673],[138.784591,-35.513836],[138.784514,-35.514011],[138.784179,-35.514527],[138.784102,-35.514645],[138.78404,-35.514889]]}},{"type":"Feature","properties":{"tier":"arterial"},"geometry":{"type":"LineString","coordinates":[[138.786217,-35.503073],[138.786634,-35.503449],[138.786936,-35.5037],[138.787222,-35.503911],[138.787544,-35.50414],[138.787966,-35.504402],[138.788345,-35.504621],[138.79001,-35.505454]]}},{"type":"Feature","properties":{"tier":"arterial"},"geometry":{"type":"LineString","coordinates":[[138.792179,-35.506932],[138.792241,-35.506983],[138.792295,-35.507036],[138.79237,-35.507108],[138.792427,-35.507162],[138.792485,-35.507225],[138.792569,-35.507319],[138.792665,-35.507433],[138.792783,-35.507568],[138.792963,-35.507745],[138.793002,-35.507779],[138.793132,-35.507894],[138.793298,-35.508018],[138.793505,-35.508153],[138.793603,-35.508198],[138.793735,-35.508258],[138.794107,-35.508413],[138.795323,-35.508868],[138.795389,-35.508892],[138.795869,-35.509049],[138.796301,-35.509163],[138.797727,-35.509537],[138.800219,-35.510168],[138.801101,-35.510348],[138.802333,-35.510458],[138.803181,-35.510473],[138.804186,-35.510476],[138.805896,-35.510499]]}},{"type":"Feature","properties":{"tier":"arterial"},"geometry":{"type":"LineString","coordinates":[[138.600576,-35.556196],[138.600371,-35.556314],[138.600271,-35.556391],[138.60023,-35.556439],[138.600203,-35.556512],[138.600199,-35.556576],[138.600214,-35.556644],[138.600237,-35.556693],[138.60027,-35.55672],[138.600323,-35.556756],[138.600379,-35.55678],[138.600649,-35.556833]]}},{"type":"Feature","properties":{"tier":"arterial"},"geometry":{"type":"LineString","coordinates":[[138.86757,-35.510617],[138.867505,-35.515306],[138.867496,-35.521231],[138.867445,-35.525268],[138.867419,-35.53159]]}},{"type":"Feature","properties":{"tier":"arterial"},"geometry":{"type":"LineString","coordinates":[[138.61413,-35.544164],[138.614107,-35.544162],[138.614085,-35.544156],[138.614059,-35.54414],[138.61404,-35.544118],[138.614032,-35.544092],[138.614034,-35.544065],[138.614047,-35.544041],[138.614066,-35.544024],[138.61409,-35.544012],[138.614117,-35.544005],[138.614145,-35.544006],[138.614172,-35.544013],[138.614199,-35.544028],[138.614218,-35.54405],[138.614227,-35.544075],[138.614226,-35.544098],[138.614217,-35.54412],[138.614201,-35.544139],[138.614179,-35.544154],[138.614153,-35.544162],[138.61413,-35.544164]]}},{"type":"Feature","properties":{"tier":"arterial"},"geometry":{"type":"LineString","coordinates":[[138.614047,-35.544041],[138.613872,-35.543876],[138.613374,-35.543484],[138.612285,-35.542626],[138.612076,-35.542462],[138.61134,-35.541913],[138.610569,-35.5413],[138.609971,-35.540823],[138.609854,-35.540682],[138.609721,-35.54049],[138.609642,-35.540363]]}},{"type":"Feature","properties":{"tier":"arterial"},"geometry":{"type":"LineString","coordinates":[[138.609131,-35.539716],[138.608734,-35.539388]]}},{"type":"Feature","properties":{"tier":"arterial"},"geometry":{"type":"LineString","coordinates":[[138.614227,-35.544075],[138.61425,-35.544143],[138.614286,-35.544249],[138.614317,-35.544351]]}},{"type":"Feature","properties":{"tier":"arterial"},"geometry":{"type":"LineString","coordinates":[[138.614317,-35.544351],[138.614252,-35.544266],[138.614183,-35.544192],[138.61413,-35.544164]]}},{"type":"Feature","properties":{"tier":"regional"},"geometry":{"type":"LineString","coordinates":[[138.59676,-35.540371],[138.597545,-35.540296],[138.598077,-35.540237],[138.59812,-35.540232],[138.598265,-35.540202],[138.598395,-35.540177],[138.598499,-35.540158],[138.598708,-35.540107],[138.599242,-35.539939],[138.599512,-35.539861],[138.599589,-35.539841],[138.599674,-35.539825],[138.599784,-35.539802],[138.59988,-35.539784],[138.600797,-35.53966],[138.600834,-35.539655],[138.601078,-35.539626],[138.602938,-35.539386],[138.603203,-35.53936],[138.603375,-35.539375],[138.603525,-35.539406],[138.603697,-35.539489],[138.603836,-35.53962],[138.603941,-35.539755],[138.604091,-35.540002],[138.604279,-35.540222]]}},{"type":"Feature","properties":{"tier":"arterial"},"geometry":{"type":"LineString","coordinates":[[138.608691,-35.540019],[138.608978,-35.540122],[138.609088,-35.540179],[138.609303,-35.540347],[138.609375,-35.540388],[138.609485,-35.540403],[138.609552,-35.540397],[138.609642,-35.540363]]}},{"type":"Feature","properties":{"tier":"arterial"},"geometry":{"type":"LineString","coordinates":[[138.608734,-35.539388],[138.607821,-35.538632],[138.607307,-35.538176],[138.606625,-35.537599],[138.606121,-35.537281],[138.605102,-35.536696],[138.603648,-35.535871],[138.60334,-35.535686],[138.603204,-35.535625],[138.603107,-35.53557],[138.602898,-35.535446],[138.602634,-35.53526],[138.601626,-35.534535],[138.60095,-35.533941],[138.600409,-35.533353],[138.599963,-35.532868],[138.599341,-35.532186],[138.599328,-35.532168],[138.599131,-35.531928],[138.59901,-35.531726],[138.59895,-35.531555],[138.598919,-35.531442],[138.598894,-35.531293],[138.598895,-35.531108],[138.598913,-35.530899],[138.598967,-35.530719],[138.599075,-35.530455],[138.599124,-35.530371],[138.599357,-35.530113],[138.599491,-35.529967],[138.60234,-35.527087],[138.602864,-35.526604],[138.603005,-35.526432],[138.603203,-35.526182],[138.603503,-35.525751],[138.603578,-35.525585],[138.603595,-35.525407],[138.603557,-35.524647],[138.603493,-35.523883],[138.603376,-35.522784],[138.603359,-35.522673],[138.603324,-35.522594],[138.603256,-35.522438],[138.60308,-35.522132],[138.602756,-35.521544],[138.602495,-35.521071],[138.602211,-35.520678],[138.60058,-35.518613],[138.599915,-35.51777],[138.599748,-35.517495],[138.59889,-35.515618],[138.598584,-35.51495],[138.598531,-35.514758],[138.598512,-35.514576],[138.598488,-35.512828],[138.598471,-35.511308],[138.598429,-35.511111],[138.598273,-35.510858],[138.597911,-35.510311],[138.597565,-35.509823],[138.597377,-35.509627],[138.596955,-35.509195],[138.596856,-35.509039],[138.596755,-35.508749],[138.59635,-35.50732],[138.596256,-35.507116],[138.5961,-35.506937],[138.594829,-35.505884],[138.594668,-35.505711],[138.59447,-35.50543],[138.593778,-35.504408],[138.593311,-35.503696],[138.593075,-35.503421],[138.592615,-35.50304],[138.59197,-35.502504],[138.590505,-35.501277],[138.590248,-35.501111],[138.589964,-35.501011],[138.588445,-35.500587],[138.588247,-35.500565],[138.588123,-35.500578],[138.586631,-35.500887],[138.585468,-35.501129],[138.584368,-35.50136],[138.584213,-35.501382],[138.583982,-35.501347],[138.58161,-35.500438],[138.580984,-35.500198],[138.580639,-35.500066],[138.580417,-35.49998]]}},{"type":"Feature","properties":{"tier":"regional"},"geometry":{"type":"LineString","coordinates":[[138.601078,-35.539626],[138.601069,-35.539591],[138.601072,-35.539555],[138.60108,-35.539521],[138.601096,-35.539487],[138.601147,-35.539425],[138.601193,-35.539374],[138.601484,-35.539059],[138.601641,-35.538858],[138.601657,-35.538827],[138.601676,-35.538793],[138.601685,-35.53876],[138.601744,-35.53855],[138.60183,-35.538262],[138.601893,-35.538009],[138.60194,-35.537855],[138.602153,-35.537417],[138.602278,-35.537201],[138.60257,-35.53669],[138.602833,-35.536237],[138.603053,-35.535852],[138.603204,-35.535625]]}},{"type":"Feature","properties":{"tier":"arterial"},"geometry":{"type":"LineString","coordinates":[[138.623109,-35.519938],[138.623398,-35.519857],[138.623571,-35.519818],[138.623756,-35.519782],[138.623919,-35.519757],[138.624141,-35.519727],[138.624677,-35.51969],[138.625515,-35.519649],[138.626828,-35.519556],[138.627392,-35.519522],[138.628399,-35.51946],[138.628627,-35.519449]]}},{"type":"Feature","properties":{"tier":"high"},"geometry":{"type":"LineString","coordinates":[[138.628422,-35.544862],[138.628335,-35.545],[138.628255,-35.545112],[138.628116,-35.54524],[138.627416,-35.545784],[138.627188,-35.545956],[138.626706,-35.546332],[138.626306,-35.546659],[138.625874,-35.547111],[138.625652,-35.547469],[138.625443,-35.547858],[138.625144,-35.548461],[138.625128,-35.548492],[138.624823,-35.549097],[138.624664,-35.549421],[138.624264,-35.549953],[138.624177,-35.550072],[138.624031,-35.550269],[138.623896,-35.550452],[138.623678,-35.550748],[138.623548,-35.550923],[138.623305,-35.551241],[138.6232,-35.551378]]}},{"type":"Feature","properties":{"tier":"high"},"geometry":{"type":"LineString","coordinates":[[138.621883,-35.553137],[138.621577,-35.553515],[138.621442,-35.553693],[138.621261,-35.553926],[138.621008,-35.554272],[138.620974,-35.554329],[138.62094,-35.554386],[138.620936,-35.554427]]}},{"type":"Feature","properties":{"tier":"high"},"geometry":{"type":"LineString","coordinates":[[138.620514,-35.555555],[138.620701,-35.555841]]}},{"type":"Feature","properties":{"tier":"arterial"},"geometry":{"type":"LineString","coordinates":[[138.622919,-35.55164],[138.622894,-35.551591],[138.622869,-35.551555],[138.622844,-35.551522],[138.622777,-35.551471],[138.622678,-35.551405]]}},{"type":"Feature","properties":{"tier":"arterial"},"geometry":{"type":"LineString","coordinates":[[138.612867,-35.557637],[138.612857,-35.557632],[138.612637,-35.557532],[138.612499,-35.557479],[138.612336,-35.557427]]}},{"type":"Feature","properties":{"tier":"arterial"},"geometry":{"type":"LineString","coordinates":[[138.609642,-35.540363],[138.609546,-35.54021],[138.609289,-35.539869],[138.609131,-35.539716]]}},{"type":"Feature","properties":{"tier":"arterial"},"geometry":{"type":"LineString","coordinates":[[138.640303,-35.536358],[138.639818,-35.536455],[138.63948,-35.536533],[138.639299,-35.536583]]}},{"type":"Feature","properties":{"tier":"high"},"geometry":{"type":"LineString","coordinates":[[138.638951,-35.536396],[138.638965,-35.536236],[138.638962,-35.53609],[138.638951,-35.535921]]}},{"type":"Feature","properties":{"tier":"high"},"geometry":{"type":"LineString","coordinates":[[138.638951,-35.535921],[138.639012,-35.536079],[138.639035,-35.536121],[138.639092,-35.536226],[138.639166,-35.536344]]}},{"type":"Feature","properties":{"tier":"high"},"geometry":{"type":"LineString","coordinates":[[138.63921,-35.53666],[138.639019,-35.536953],[138.638871,-35.537166]]}},{"type":"Feature","properties":{"tier":"high"},"geometry":{"type":"LineString","coordinates":[[138.638871,-35.537166],[138.638952,-35.536954],[138.638973,-35.536762],[138.638966,-35.536685],[138.638932,-35.536602]]}},{"type":"Feature","properties":{"tier":"arterial"},"geometry":{"type":"LineString","coordinates":[[138.639261,-35.536391],[138.639361,-35.536428],[138.639464,-35.536437],[138.639689,-35.53642],[138.639778,-35.536413],[138.640303,-35.536358]]}},{"type":"Feature","properties":{"tier":"arterial"},"geometry":{"type":"LineString","coordinates":[[138.593741,-35.562991],[138.593528,-35.563264]]}},{"type":"Feature","properties":{"tier":"arterial"},"geometry":{"type":"LineString","coordinates":[[138.710229,-35.50386],[138.709793,-35.505787],[138.709597,-35.506618],[138.70959,-35.506647],[138.709444,-35.507222],[138.709438,-35.507246]]}},{"type":"Feature","properties":{"tier":"arterial"},"geometry":{"type":"LineString","coordinates":[[138.615149,-35.546438],[138.615071,-35.54628],[138.61479,-35.545602],[138.614317,-35.544351]]}},{"type":"Feature","properties":{"tier":"arterial"},"geometry":{"type":"LineString","coordinates":[[138.594397,-35.563512],[138.594355,-35.563429],[138.594317,-35.563378],[138.59429,-35.56334],[138.594217,-35.563279],[138.59414,-35.56323],[138.594078,-35.5632],[138.594016,-35.56317],[138.593935,-35.563127]]}},{"type":"Feature","properties":{"tier":"high"},"geometry":{"type":"LineString","coordinates":[[138.637969,-35.531357],[138.638182,-35.532422],[138.638222,-35.532619],[138.638274,-35.532874],[138.638358,-35.533276],[138.638442,-35.533711],[138.638612,-35.534436],[138.638736,-35.534949],[138.638785,-35.53515],[138.638881,-35.535595],[138.638929,-35.535821],[138.638951,-35.535921]]}},{"type":"Feature","properties":{"tier":"regional"},"geometry":{"type":"LineString","coordinates":[[138.773513,-35.521912],[138.773555,-35.52172],[138.773615,-35.521427],[138.773787,-35.520576]]}},{"type":"Feature","properties":{"tier":"arterial"},"geometry":{"type":"LineString","coordinates":[[138.779749,-35.504987],[138.78151,-35.505202]]}},{"type":"Feature","properties":{"tier":"arterial"},"geometry":{"type":"LineString","coordinates":[[138.78151,-35.505202],[138.782356,-35.505308],[138.782597,-35.505333],[138.782701,-35.505351]]}},{"type":"Feature","properties":{"tier":"arterial"},"geometry":{"type":"LineString","coordinates":[[138.603875,-35.554015],[138.604522,-35.553519],[138.604845,-35.553265],[138.604983,-35.553159],[138.605105,-35.553067],[138.605196,-35.552988]]}},{"type":"Feature","properties":{"tier":"regional"},"geometry":{"type":"LineString","coordinates":[[138.599209,-35.577151],[138.599134,-35.577296],[138.598214,-35.578902],[138.598127,-35.579076],[138.598059,-35.579231],[138.597896,-35.579716],[138.597842,-35.579872],[138.597822,-35.579933],[138.5978,-35.580001],[138.597643,-35.580475]]}},{"type":"Feature","properties":{"tier":"arterial"},"geometry":{"type":"LineString","coordinates":[[138.594612,-35.564084],[138.594698,-35.564033],[138.594861,-35.563954],[138.594963,-35.563916],[138.595045,-35.563901],[138.596058,-35.563716],[138.596471,-35.56364],[138.598244,-35.563314],[138.599466,-35.563104],[138.600488,-35.562927],[138.602866,-35.562501],[138.603371,-35.562397]]}},{"type":"Feature","properties":{"tier":"regional"},"geometry":{"type":"LineString","coordinates":[[138.597685,-35.580562],[138.59767,-35.580576],[138.597649,-35.580586],[138.597626,-35.580589],[138.597611,-35.580588],[138.597597,-35.580585],[138.597578,-35.580575],[138.597564,-35.580561],[138.597556,-35.580544],[138.597555,-35.580526],[138.59756,-35.580508],[138.59757,-35.580495],[138.597585,-35.580483],[138.597603,-35.580476],[138.597623,-35.580473],[138.597643,-35.580475],[138.597661,-35.580481],[138.597677,-35.580491],[138.59769,-35.580507],[138.597696,-35.580526],[138.597694,-35.580545],[138.597685,-35.580562]]}},{"type":"Feature","properties":{"tier":"arterial"},"geometry":{"type":"LineString","coordinates":[[138.599652,-35.556634],[138.599675,-35.556635],[138.59976,-35.556663],[138.59984,-35.556721],[138.599848,-35.556734],[138.599867,-35.556763],[138.599886,-35.556794],[138.599898,-35.556848],[138.599887,-35.556928],[138.599882,-35.55694],[138.599869,-35.556967],[138.599798,-35.557041],[138.599784,-35.557047],[138.599685,-35.557089],[138.599601,-35.557094],[138.599575,-35.557095],[138.599563,-35.557091],[138.599454,-35.557058],[138.599412,-35.557031],[138.599375,-35.55699],[138.599353,-35.556965],[138.59933,-35.556904],[138.599327,-35.556895],[138.599324,-35.556851],[138.599336,-35.556794],[138.599357,-35.556753]]}},{"type":"Feature","properties":{"tier":"arterial"},"geometry":{"type":"LineString","coordinates":[[138.593573,-35.555416],[138.593632,-35.555465],[138.593701,-35.555519],[138.593833,-35.555597],[138.593967,-35.555663],[138.594133,-35.555733],[138.594326,-35.555805],[138.594562,-35.555884],[138.59512,-35.556055],[138.596578,-35.556505]]}},{"type":"Feature","properties":{"tier":"arterial"},"geometry":{"type":"LineString","coordinates":[[138.605196,-35.552988],[138.605423,-35.552834],[138.606023,-35.552438],[138.606304,-35.552244],[138.606548,-35.552066],[138.606854,-35.551811],[138.607134,-35.551554],[138.607426,-35.551276],[138.607497,-35.551196]]}},{"type":"Feature","properties":{"tier":"regional"},"geometry":{"type":"LineString","coordinates":[[138.599761,-35.55721],[138.599701,-35.557167],[138.599663,-35.557139],[138.599601,-35.557094]]}},{"type":"Feature","properties":{"tier":"arterial"},"geometry":{"type":"LineString","coordinates":[[138.593935,-35.563127],[138.593858,-35.563112],[138.593808,-35.563109],[138.593757,-35.563118],[138.593688,-35.56316],[138.593528,-35.563264]]}},{"type":"Feature","properties":{"tier":"arterial"},"geometry":{"type":"LineString","coordinates":[[138.599893,-35.556532],[138.599874,-35.556573],[138.599858,-35.556611],[138.599853,-35.556646],[138.59985,-35.556675],[138.599848,-35.556734]]}},{"type":"Feature","properties":{"tier":"arterial"},"geometry":{"type":"LineString","coordinates":[[138.599867,-35.556763],[138.599902,-35.556778],[138.599947,-35.556794],[138.599999,-35.556807],[138.600063,-35.556821],[138.600098,-35.556828]]}},{"type":"Feature","properties":{"tier":"arterial"},"geometry":{"type":"LineString","coordinates":[[138.599357,-35.557192],[138.59909,-35.557542],[138.598797,-35.557758],[138.597847,-35.558456],[138.597627,-35.558618],[138.596459,-35.559497],[138.596407,-35.559531],[138.596356,-35.55958],[138.596283,-35.559658],[138.596179,-35.559786],[138.596078,-35.559922],[138.595726,-35.560393],[138.595368,-35.560856],[138.594944,-35.561417],[138.594631,-35.561868],[138.594197,-35.56244],[138.59408,-35.56259]]}},{"type":"Feature","properties":{"tier":"arterial"},"geometry":{"type":"LineString","coordinates":[[138.600098,-35.556828],[138.600041,-35.556843],[138.600003,-35.556859],[138.59995,-35.556885],[138.599882,-35.55694]]}},{"type":"Feature","properties":{"tier":"arterial"},"geometry":{"type":"LineString","coordinates":[[138.599172,-35.556814],[138.599236,-35.556802],[138.599277,-35.556784],[138.599317,-35.55677],[138.599357,-35.556753]]}},{"type":"Feature","properties":{"tier":"regional"},"geometry":{"type":"LineString","coordinates":[[138.599784,-35.557047],[138.599775,-35.557071],[138.599763,-35.557105],[138.599758,-35.55717],[138.599761,-35.55721]]}},{"type":"Feature","properties":{"tier":"arterial"},"geometry":{"type":"LineString","coordinates":[[138.599893,-35.556532],[138.600025,-35.556427],[138.600142,-35.556351],[138.600375,-35.556258],[138.600576,-35.556196],[138.600761,-35.556138],[138.600901,-35.556086],[138.601005,-35.556038],[138.601123,-35.555983],[138.601256,-35.555909],[138.601437,-35.55579],[138.602109,-35.555303],[138.602738,-35.554869],[138.603249,-35.554487],[138.603647,-35.55419],[138.603875,-35.554015]]}},{"type":"Feature","properties":{"tier":"arterial"},"geometry":{"type":"LineString","coordinates":[[138.599563,-35.557091],[138.599539,-35.557097],[138.599489,-35.557112],[138.599447,-35.557132],[138.599398,-35.557161],[138.599357,-35.557192]]}},{"type":"Feature","properties":{"tier":"arterial"},"geometry":{"type":"LineString","coordinates":[[138.599652,-35.556634],[138.59971,-35.556611],[138.599758,-35.55659],[138.599802,-35.556571],[138.59984,-35.556554],[138.599893,-35.556532]]}},{"type":"Feature","properties":{"tier":"arterial"},"geometry":{"type":"LineString","coordinates":[[138.599357,-35.556753],[138.599386,-35.556723],[138.599418,-35.55669],[138.599482,-35.556654],[138.599563,-35.556632],[138.599652,-35.556634]]}},{"type":"Feature","properties":{"tier":"arterial"},"geometry":{"type":"LineString","coordinates":[[138.59408,-35.56259],[138.59393,-35.562842],[138.593892,-35.562933],[138.593892,-35.562968],[138.593905,-35.563006],[138.593946,-35.563068]]}},{"type":"Feature","properties":{"tier":"arterial"},"geometry":{"type":"LineString","coordinates":[[138.593741,-35.562991],[138.593946,-35.563068]]}},{"type":"Feature","properties":{"tier":"arterial"},"geometry":{"type":"LineString","coordinates":[[138.599357,-35.557192],[138.59937,-35.557148],[138.599374,-35.557123],[138.599375,-35.55704],[138.599375,-35.55699]]}},{"type":"Feature","properties":{"tier":"arterial"},"geometry":{"type":"LineString","coordinates":[[138.59933,-35.556904],[138.599296,-35.556881],[138.599264,-35.55686],[138.599238,-35.556845],[138.599172,-35.556814]]}},{"type":"Feature","properties":{"tier":"regional"},"geometry":{"type":"LineString","coordinates":[[138.590502,-35.545578],[138.591171,-35.544979],[138.59129,-35.544832],[138.591579,-35.544571],[138.592054,-35.544151],[138.592677,-35.543584],[138.593121,-35.543202],[138.593247,-35.54309],[138.593645,-35.542734],[138.594021,-35.542421],[138.594946,-35.541649],[138.595277,-35.541345],[138.595436,-35.541194],[138.595782,-35.540875],[138.59627,-35.540475],[138.596486,-35.540398],[138.59676,-35.540371]]}},{"type":"Feature","properties":{"tier":"arterial"},"geometry":{"type":"LineString","coordinates":[[138.593004,-35.545911],[138.593733,-35.546522],[138.59404,-35.547162],[138.594617,-35.548205],[138.59489,-35.548788],[138.595029,-35.549085],[138.595063,-35.549935],[138.595076,-35.550269],[138.594522,-35.551837],[138.594145,-35.552905],[138.593516,-35.553798],[138.593456,-35.553894],[138.5934,-35.554001],[138.593331,-35.554152],[138.593292,-35.554282],[138.593278,-35.554385],[138.593267,-35.554521],[138.593265,-35.554642],[138.593274,-35.554776],[138.593295,-35.554897],[138.593334,-35.555029],[138.59338,-35.555146],[138.593443,-35.555264],[138.593573,-35.555416]]}},{"type":"Feature","properties":{"tier":"arterial"},"geometry":{"type":"LineString","coordinates":[[138.593311,-35.503696],[138.593198,-35.503421],[138.593171,-35.503151],[138.593209,-35.502954],[138.593348,-35.502692],[138.593399,-35.502626],[138.593638,-35.502312],[138.594325,-35.501251],[138.594507,-35.501011],[138.594686,-35.500853],[138.595682,-35.500207],[138.596038,-35.49998]]}},{"type":"Feature","properties":{"tier":"arterial"},"geometry":{"type":"LineString","coordinates":[[138.598541,-35.49998],[138.598799,-35.500011],[138.599137,-35.500002],[138.599372,-35.49998]]}},{"type":"Feature","properties":{"tier":"arterial"},"geometry":{"type":"LineString","coordinates":[[138.867419,-35.53159],[138.875332,-35.53159],[138.875478,-35.531639]]}},{"type":"Feature","properties":{"tier":"arterial"},"geometry":{"type":"LineString","coordinates":[[138.785086,-35.50203],[138.78511,-35.502007],[138.785142,-35.501992],[138.785178,-35.501987],[138.785215,-35.501994],[138.785246,-35.50201],[138.785268,-35.502033],[138.785279,-35.50206],[138.785278,-35.502089],[138.785265,-35.502116],[138.785242,-35.502137],[138.785212,-35.502151],[138.785178,-35.502157],[138.785158,-35.502156],[138.785139,-35.502151],[138.78511,-35.502138],[138.785088,-35.502117],[138.785075,-35.502093],[138.785073,-35.50206],[138.785086,-35.50203]]}},{"type":"Feature","properties":{"tier":"arterial"},"geometry":{"type":"LineString","coordinates":[[138.785139,-35.502151],[138.784946,-35.502252]]}},{"type":"Feature","properties":{"tier":"arterial"},"geometry":{"type":"LineString","coordinates":[[138.785359,-35.50228],[138.785178,-35.502157]]}},{"type":"Feature","properties":{"tier":"arterial"},"geometry":{"type":"LineString","coordinates":[[138.785278,-35.502089],[138.785279,-35.502139],[138.785307,-35.502206],[138.785359,-35.50228]]}},{"type":"Feature","properties":{"tier":"arterial"},"geometry":{"type":"LineString","coordinates":[[138.785359,-35.50228],[138.785733,-35.502615],[138.786006,-35.502873],[138.786217,-35.503073]]}},{"type":"Feature","properties":{"tier":"arterial"},"geometry":{"type":"LineString","coordinates":[[138.784946,-35.502252],[138.785075,-35.502093]]}},{"type":"Feature","properties":{"tier":"arterial"},"geometry":{"type":"LineString","coordinates":[[138.79001,-35.505454],[138.791066,-35.506141],[138.7916,-35.506506],[138.792179,-35.506932]]}},{"type":"Feature","properties":{"tier":"arterial"},"geometry":{"type":"LineString","coordinates":[[138.805896,-35.510499],[138.808157,-35.510529],[138.816277,-35.510546],[138.821783,-35.510553],[138.824111,-35.510556],[138.829205,-35.510562],[138.829562,-35.510562],[138.833521,-35.510557],[138.836485,-35.510536],[138.836608,-35.510537],[138.837014,-35.510539],[138.838751,-35.510542],[138.839884,-35.510544],[138.840199,-35.510544],[138.84139,-35.510546],[138.841995,-35.51055],[138.850012,-35.510546],[138.850623,-35.510546],[138.852079,-35.51055],[138.855943,-35.510563],[138.858147,-35.51057],[138.859228,-35.510573],[138.861046,-35.510557],[138.861162,-35.510558],[138.86757,-35.510617]]}},{"type":"Feature","properties":{"tier":"arterial"},"geometry":{"type":"LineString","coordinates":[[138.768947,-35.505337],[138.770664,-35.505159],[138.772788,-35.50496],[138.774876,-35.504762],[138.775517,-35.504701],[138.775962,-35.504665],[138.776265,-35.504634]]}},{"type":"Feature","properties":{"tier":"arterial"},"geometry":{"type":"LineString","coordinates":[[138.762705,-35.505911],[138.768347,-35.505392],[138.768947,-35.505337]]}},{"type":"Feature","properties":{"tier":"arterial"},"geometry":{"type":"LineString","coordinates":[[138.528068,-35.501635],[138.528165,-35.501714],[138.529105,-35.501957],[138.530149,-35.5024],[138.530168,-35.502408],[138.530723,-35.502756],[138.531478,-35.503202],[138.532065,-35.503468],[138.532428,-35.503633],[138.534454,-35.504059],[138.535067,-35.504213],[138.535242,-35.504256],[138.535612,-35.504349],[138.536196,-35.50451],[138.53684,-35.504668],[138.538237,-35.505011],[138.539012,-35.50519],[138.54125,-35.505686],[138.541362,-35.505714],[138.541649,-35.505786],[138.542628,-35.506033],[138.543101,-35.506171],[138.543943,-35.506734],[138.545063,-35.507687],[138.545686,-35.508175],[138.547333,-35.50927],[138.547715,-35.509663],[138.547977,-35.509908],[138.548106,-35.510058],[138.549211,-35.51146],[138.54985,-35.512539],[138.550072,-35.512825],[138.550189,-35.512942],[138.550337,-35.51309],[138.552035,-35.514335],[138.552738,-35.51526],[138.553105,-35.515917],[138.55359,-35.516784],[138.554869,-35.518454],[138.555553,-35.519881],[138.556225,-35.520624],[138.556796,-35.521407],[138.556984,-35.521921],[138.557864,-35.526584],[138.557913,-35.526728],[138.55835,-35.5274],[138.558924,-35.528455],[138.559389,-35.528999],[138.560888,-35.530296],[138.564061,-35.532958],[138.567812,-35.536135],[138.568285,-35.536526],[138.569955,-35.537911],[138.572108,-35.539749],[138.573468,-35.54087],[138.574358,-35.541416],[138.575792,-35.542257],[138.577146,-35.543067],[138.577869,-35.543501],[138.578653,-35.54394],[138.579592,-35.544478],[138.580449,-35.544994]]}},{"type":"Feature","properties":{"tier":"high"},"geometry":{"type":"LineString","coordinates":[[138.630847,-35.514606],[138.630514,-35.514074],[138.630326,-35.513712],[138.6302,-35.513391],[138.630125,-35.513193],[138.630053,-35.512954],[138.629951,-35.512517],[138.629871,-35.512319],[138.629213,-35.510074],[138.628572,-35.507833],[138.628081,-35.506181],[138.627993,-35.505821],[138.627945,-35.505566],[138.627894,-35.505375],[138.627891,-35.505236],[138.627877,-35.505102],[138.627883,-35.504959],[138.627898,-35.504739],[138.627896,-35.504669],[138.627902,-35.504621],[138.627916,-35.504499],[138.628659,-35.49998]]}},{"type":"Feature","properties":{"tier":"arterial"},"geometry":{"type":"LineString","coordinates":[[138.628627,-35.519449],[138.629474,-35.519407],[138.629792,-35.519385],[138.630107,-35.519376],[138.630306,-35.519386],[138.630562,-35.519408],[138.630768,-35.51942],[138.630979,-35.519418],[138.631514,-35.519378]]}},{"type":"Feature","properties":{"tier":"arterial"},"geometry":{"type":"LineString","coordinates":[[138.776642,-35.504668],[138.77662,-35.504681],[138.776581,-35.504689],[138.77655,-35.504684],[138.776519,-35.504668],[138.776509,-35.504656],[138.776502,-35.504648],[138.776494,-35.504618],[138.776499,-35.504593],[138.776512,-35.504578],[138.776519,-35.504568],[138.776539,-35.504556],[138.776581,-35.504548],[138.776615,-35.504553],[138.776642,-35.504568],[138.776657,-35.504584],[138.776667,-35.504618],[138.776661,-35.504645],[138.776642,-35.504668]]}},{"type":"Feature","properties":{"tier":"arterial"},"geometry":{"type":"LineString","coordinates":[[138.778988,-35.504892],[138.778624,-35.504847],[138.778235,-35.5048],[138.776871,-35.504635]]}},{"type":"Feature","properties":{"tier":"arterial"},"geometry":{"type":"LineString","coordinates":[[138.776871,-35.504635],[138.776745,-35.504652],[138.776642,-35.504668]]}},{"type":"Feature","properties":{"tier":"arterial"},"geometry":{"type":"LineString","coordinates":[[138.776265,-35.504634],[138.776353,-35.504607],[138.776428,-35.50459],[138.776512,-35.504578]]}},{"type":"Feature","properties":{"tier":"arterial"},"geometry":{"type":"LineString","coordinates":[[138.776509,-35.504656],[138.776425,-35.504644],[138.776362,-35.504638],[138.776265,-35.504634]]}},{"type":"Feature","properties":{"tier":"arterial"},"geometry":{"type":"LineString","coordinates":[[138.776642,-35.504568],[138.776746,-35.504596],[138.776823,-35.504616],[138.776871,-35.504635]]}},{"type":"Feature","properties":{"tier":"high"},"geometry":{"type":"LineString","coordinates":[[138.620789,-35.555968],[138.620766,-35.555992],[138.620735,-35.556009],[138.620711,-35.556015],[138.620686,-35.556017],[138.620661,-35.556014],[138.620638,-35.556006],[138.620618,-35.555994],[138.620598,-35.555974],[138.620586,-35.55595],[138.620583,-35.555925],[138.620589,-35.5559],[138.620599,-35.555882],[138.620614,-35.555867],[138.620639,-35.555851],[138.620669,-35.555842],[138.620701,-35.555841],[138.620723,-35.555844],[138.620744,-35.555852],[138.620762,-35.555862],[138.620777,-35.555875],[138.620789,-35.555891],[138.620796,-35.555908],[138.620799,-35.555938],[138.620789,-35.555968]]}},{"type":"Feature","properties":{"tier":"arterial"},"geometry":{"type":"LineString","coordinates":[[138.61204,-35.557381],[138.612014,-35.557407],[138.611996,-35.557419],[138.611953,-35.557438],[138.611898,-35.557445],[138.611869,-35.557443],[138.611811,-35.557425],[138.611783,-35.557406],[138.611759,-35.557382],[138.611742,-35.557351],[138.611735,-35.557313],[138.611739,-35.557284],[138.611748,-35.557264],[138.611755,-35.557248],[138.611783,-35.557218],[138.611813,-35.557198],[138.611851,-35.557184],[138.61186,-35.557183],[138.611898,-35.557179],[138.611938,-35.557182],[138.611983,-35.557198],[138.611996,-35.557206],[138.612015,-35.557218],[138.612041,-35.557245],[138.612059,-35.557282],[138.612063,-35.557313],[138.612056,-35.557349],[138.61204,-35.557381]]}},{"type":"Feature","properties":{"tier":"high"},"geometry":{"type":"LineString","coordinates":[[138.623096,-35.551674],[138.623082,-35.551687],[138.623065,-35.551698],[138.623045,-35.551705],[138.62303,-35.551708],[138.623007,-35.551708],[138.622985,-35.551705],[138.622964,-35.551697],[138.622946,-35.551685],[138.622932,-35.55167],[138.622922,-35.551653],[138.622919,-35.55164],[138.622918,-35.551621],[138.622924,-35.551602],[138.622935,-35.551584],[138.622951,-35.55157],[138.622971,-35.551559],[138.622993,-35.551552],[138.623014,-35.55155],[138.623038,-35.551552],[138.623062,-35.55156],[138.623082,-35.551572],[138.623098,-35.551587],[138.623108,-35.551604],[138.623112,-35.551623],[138.623112,-35.551641],[138.623106,-35.551658],[138.623096,-35.551674]]}},{"type":"Feature","properties":{"tier":"arterial"},"geometry":{"type":"LineString","coordinates":[[138.611783,-35.557406],[138.611723,-35.557414],[138.611674,-35.557426],[138.611623,-35.557448],[138.611172,-35.557744],[138.610977,-35.557871],[138.610878,-35.557927],[138.610771,-35.557981],[138.610659,-35.558035],[138.610418,-35.558092]]}},{"type":"Feature","properties":{"tier":"arterial"},"geometry":{"type":"LineString","coordinates":[[138.610418,-35.558092],[138.609911,-35.558285],[138.609735,-35.558362],[138.609636,-35.558419],[138.60937,-35.558584],[138.609275,-35.558652],[138.609171,-35.558736],[138.609085,-35.558813],[138.608689,-35.559232],[138.608365,-35.559571],[138.608004,-35.559899],[138.607772,-35.560048],[138.607483,-35.560209]]}},{"type":"Feature","properties":{"tier":"arterial"},"geometry":{"type":"LineString","coordinates":[[138.610418,-35.558092],[138.610624,-35.557995],[138.610785,-35.557904],[138.610885,-35.557839],[138.61096,-35.557793],[138.611128,-35.557678],[138.611643,-35.557356],[138.611739,-35.557284]]}},{"type":"Feature","properties":{"tier":"high"},"geometry":{"type":"LineString","coordinates":[[138.621261,-35.553926],[138.621205,-35.553897]]}},{"type":"Feature","properties":{"tier":"arterial"},"geometry":{"type":"LineString","coordinates":[[138.611748,-35.557264],[138.611707,-35.557176],[138.611634,-35.557083]]}},{"type":"Feature","properties":{"tier":"arterial"},"geometry":{"type":"LineString","coordinates":[[138.611634,-35.557083],[138.611751,-35.557138],[138.61186,-35.557183]]}},{"type":"Feature","properties":{"tier":"arterial"},"geometry":{"type":"LineString","coordinates":[[138.617164,-35.557046],[138.617189,-35.5571]]}},{"type":"Feature","properties":{"tier":"high"},"geometry":{"type":"LineString","coordinates":[[138.622064,-35.552897],[138.621993,-35.55286]]}},{"type":"Feature","properties":{"tier":"high"},"geometry":{"type":"LineString","coordinates":[[138.6232,-35.551378],[138.623134,-35.551499],[138.623098,-35.551587]]}},{"type":"Feature","properties":{"tier":"high"},"geometry":{"type":"LineString","coordinates":[[138.62882,-35.544249],[138.629066,-35.543868],[138.629298,-35.543546],[138.629583,-35.543202],[138.629952,-35.542885],[138.630424,-35.542584],[138.631478,-35.541967],[138.63176,-35.541828],[138.631917,-35.541751],[138.632301,-35.541596],[138.632632,-35.541512],[138.633387,-35.54132],[138.634004,-35.541205],[138.634579,-35.541075],[138.634955,-35.540951],[138.635544,-35.540641],[138.635997,-35.540388],[138.636598,-35.539997],[138.636724,-35.539915],[138.636932,-35.539782],[138.637242,-35.539588],[138.637372,-35.539507],[138.637616,-35.539301],[138.637784,-35.539099],[138.637978,-35.538805],[138.638267,-35.538278],[138.638302,-35.538215],[138.638587,-35.537712],[138.638871,-35.537166]]}},{"type":"Feature","properties":{"tier":"high"},"geometry":{"type":"LineString","coordinates":[[138.623014,-35.55155],[138.623101,-35.551482],[138.6232,-35.551378]]}},{"type":"Feature","properties":{"tier":"arterial"},"geometry":{"type":"LineString","coordinates":[[138.616719,-35.557196],[138.616744,-35.557249]]}},{"type":"Feature","properties":{"tier":"arterial"},"geometry":{"type":"LineString","coordinates":[[138.615653,-35.557628],[138.615536,-35.557642],[138.615494,-35.557643],[138.61546,-35.557632]]}},{"type":"Feature","properties":{"tier":"arterial"},"geometry":{"type":"LineString","coordinates":[[138.564492,-35.577479],[138.564115,-35.577374],[138.563674,-35.577223],[138.56336,-35.577101],[138.5631,-35.576986],[138.562872,-35.576868],[138.562614,-35.576731],[138.561387,-35.576032],[138.5591,-35.574728],[138.558972,-35.574666],[138.558798,-35.574585],[138.558613,-35.574505],[138.558412,-35.574425],[138.558174,-35.574339],[138.557985,-35.574277],[138.557805,-35.574223],[138.557595,-35.574165],[138.557354,-35.574107],[138.557105,-35.574055],[138.556914,-35.574021],[138.556689,-35.573986],[138.556555,-35.573969],[138.55637,-35.573945],[138.554599,-35.573776],[138.550799,-35.5734],[138.547832,-35.57311],[138.546997,-35.573031],[138.545784,-35.572917],[138.543182,-35.572669],[138.542778,-35.572619],[138.54259,-35.572594],[138.542386,-35.572558],[138.542178,-35.572514],[138.542044,-35.572481],[138.541865,-35.572431],[138.541666,-35.572367],[138.541484,-35.572301],[138.541295,-35.572225],[138.541136,-35.572153],[138.540902,-35.572035],[138.540774,-35.571964],[138.540633,-35.571879],[138.540526,-35.57181],[138.540397,-35.571721],[138.540273,-35.571629],[138.540171,-35.571548],[138.54006,-35.571454],[138.539944,-35.571349],[138.539852,-35.571259],[138.53959,-35.571018],[138.5393,-35.570743],[138.539107,-35.570567],[138.538913,-35.570414],[138.538693,-35.570252],[138.538497,-35.570117],[138.538215,-35.569953],[138.537946,-35.56981],[138.537627,-35.569652],[138.537281,-35.569507],[138.535321,-35.568737],[138.534865,-35.568538],[138.534674,-35.568435],[138.534486,-35.568327],[138.534294,-35.568213],[138.534116,-35.56809],[138.533927,-35.56796],[138.533819,-35.567878],[138.533562,-35.567681],[138.533339,-35.567498],[138.533098,-35.567301],[138.530829,-35.565469],[138.529428,-35.564319],[138.52906,-35.563996],[138.528712,-35.563659],[138.528221,-35.563152],[138.527612,-35.562557],[138.527046,-35.561999],[138.526596,-35.561552],[138.525686,-35.560649],[138.525483,-35.56043],[138.525345,-35.560266],[138.525149,-35.560017],[138.524995,-35.55978],[138.524649,-35.559218],[138.524121,-35.558361],[138.52401,-35.558218],[138.523918,-35.558113],[138.523837,-35.55803],[138.523729,-35.557928],[138.523622,-35.557837],[138.523493,-35.557737],[138.523389,-35.557665],[138.523298,-35.557606],[138.523176,-35.557534],[138.523056,-35.557469],[138.522931,-35.557409],[138.52278,-35.557344],[138.52262,-35.557283],[138.522461,-35.557231],[138.5223,-35.557186],[138.522164,-35.557154],[138.522015,-35.557125],[138.52184,-35.557099],[138.521617,-35.557076],[138.521421,-35.557067],[138.521312,-35.557066],[138.521198,-35.557064],[138.52101,-35.557068],[138.520758,-35.557087],[138.520529,-35.557119],[138.520289,-35.557168],[138.520127,-35.55721],[138.519917,-35.557277],[138.519725,-35.55735],[138.519498,-35.557455],[138.5193,-35.557563],[138.518693,-35.557902],[138.518301,-35.558123],[138.518021,-35.558297],[138.517818,-35.55844],[138.517593,-35.558612],[138.517367,-35.558793],[138.516345,-35.559711],[138.516183,-35.559853],[138.516066,-35.559944],[138.51591,-35.560054],[138.515743,-35.560156],[138.515514,-35.560278],[138.515325,-35.560362],[138.515173,-35.560422],[138.514967,-35.560491],[138.514782,-35.560542],[138.514591,-35.560585],[138.514362,-35.560623],[138.514147,-35.560648],[138.513944,-35.56066],[138.513771,-35.560663],[138.513694,-35.560662],[138.512317,-35.560651],[138.511214,-35.560631],[138.510915,-35.560629],[138.510658,-35.560637],[138.510366,-35.560659],[138.510114,-35.560693],[138.509869,-35.560747],[138.509683,-35.560806],[138.509465,-35.560878],[138.509286,-35.560954],[138.508916,-35.561135],[138.508401,-35.561403],[138.508119,-35.561526],[138.507894,-35.561616],[138.507666,-35.561674],[138.507411,-35.561728],[138.507115,-35.561777],[138.506907,-35.561797],[138.50663,-35.561809],[138.506392,-35.561797],[138.506127,-35.561779],[138.504591,-35.561644],[138.503728,-35.561568],[138.501339,-35.561349],[138.50095,-35.561315],[138.500635,-35.561307],[138.500359,-35.561314],[138.500098,-35.561338],[138.49998,-35.561357]]}},{"type":"Feature","properties":{"tier":"high"},"geometry":{"type":"LineString","coordinates":[[138.620809,-35.554372],[138.620855,-35.554348],[138.620888,-35.554319],[138.620915,-35.554296],[138.620953,-35.554249],[138.621046,-35.554119],[138.621205,-35.553897],[138.621381,-35.553664],[138.621442,-35.553586],[138.621473,-35.553539],[138.621505,-35.553499],[138.621812,-35.553101]]}},{"type":"Feature","properties":{"tier":"high"},"geometry":{"type":"LineString","coordinates":[[138.620614,-35.555867],[138.620514,-35.555555]]}},{"type":"Feature","properties":{"tier":"high"},"geometry":{"type":"LineString","coordinates":[[138.620514,-35.555555],[138.620394,-35.555326],[138.620373,-35.555278],[138.620362,-35.55523],[138.620359,-35.555179],[138.620362,-35.55513],[138.620372,-35.555097],[138.620385,-35.555056]]}},{"type":"Feature","properties":{"tier":"arterial"},"geometry":{"type":"LineString","coordinates":[[138.670526,-35.531816],[138.670621,-35.531802],[138.670678,-35.531793],[138.67101,-35.531743],[138.671235,-35.531709],[138.671464,-35.531675],[138.67226,-35.531555],[138.673459,-35.531369],[138.674416,-35.531231],[138.674472,-35.531224],[138.675509,-35.531074],[138.676818,-35.530885],[138.676933,-35.530868],[138.677876,-35.530742],[138.678548,-35.530635],[138.678917,-35.530576],[138.679982,-35.530418],[138.680853,-35.530289],[138.680995,-35.530268],[138.681668,-35.530168],[138.68207,-35.530108],[138.682534,-35.530039],[138.682998,-35.529962],[138.683427,-35.529896],[138.683449,-35.529892],[138.683886,-35.529827],[138.684322,-35.529752],[138.684433,-35.529734],[138.684929,-35.529575],[138.685197,-35.529469],[138.685417,-35.529365]]}},{"type":"Feature","properties":{"tier":"arterial"},"geometry":{"type":"LineString","coordinates":[[138.661913,-35.533094],[138.662519,-35.533003]]}},{"type":"Feature","properties":{"tier":"arterial"},"geometry":{"type":"LineString","coordinates":[[138.613448,-35.557906],[138.612867,-35.557637]]}},{"type":"Feature","properties":{"tier":"arterial"},"geometry":{"type":"LineString","coordinates":[[138.612336,-35.557427],[138.61204,-35.557381]]}},{"type":"Feature","properties":{"tier":"arterial"},"geometry":{"type":"LineString","coordinates":[[138.613448,-35.557906],[138.613531,-35.557921],[138.613572,-35.557935],[138.613634,-35.557954],[138.613653,-35.55796],[138.613721,-35.557976],[138.613797,-35.557991],[138.613858,-35.558001],[138.613937,-35.558009],[138.61401,-35.558014],[138.614079,-35.558015],[138.61413,-35.558014],[138.61418,-35.558012],[138.614236,-35.558008],[138.614291,-35.558002],[138.614363,-35.557991],[138.614437,-35.557976],[138.614521,-35.557955],[138.614802,-35.557864],[138.615354,-35.557669],[138.61546,-35.557632],[138.615551,-35.5576],[138.616229,-35.55736],[138.616516,-35.557264],[138.616719,-35.557196]]}},{"type":"Feature","properties":{"tier":"arterial"},"geometry":{"type":"LineString","coordinates":[[138.612059,-35.557282],[138.612167,-35.557341],[138.612336,-35.557427]]}},{"type":"Feature","properties":{"tier":"arterial"},"geometry":{"type":"LineString","coordinates":[[138.620618,-35.555994],[138.62044,-35.556032],[138.620125,-35.55614],[138.619469,-35.556359]]}},{"type":"Feature","properties":{"tier":"regional"},"geometry":{"type":"LineString","coordinates":[[138.604759,-35.572108],[138.604737,-35.572142],[138.604681,-35.572223],[138.604493,-35.572492],[138.604328,-35.572762],[138.604214,-35.572948],[138.604139,-35.573068],[138.604096,-35.573138],[138.604043,-35.573209],[138.603993,-35.573272],[138.603929,-35.573346],[138.603853,-35.573428],[138.6037,-35.573569],[138.603386,-35.573853],[138.603298,-35.573932],[138.603121,-35.574091],[138.602755,-35.574415],[138.602451,-35.574688],[138.602431,-35.574707],[138.601956,-35.575142],[138.601858,-35.575253],[138.601825,-35.575284]]}},{"type":"Feature","properties":{"tier":"regional"},"geometry":{"type":"LineString","coordinates":[[138.599293,-35.577052],[138.599326,-35.577006],[138.599401,-35.57693],[138.599691,-35.576691],[138.599851,-35.576567],[138.599926,-35.576505],[138.600011,-35.576446],[138.600056,-35.576411],[138.600144,-35.576353],[138.600279,-35.576259],[138.60055,-35.576106],[138.600934,-35.57589],[138.601135,-35.575777],[138.601284,-35.575688],[138.601382,-35.575623],[138.601511,-35.575533],[138.601667,-35.575419],[138.601724,-35.575368]]}},{"type":"Feature","properties":{"tier":"regional"},"geometry":{"type":"LineString","coordinates":[[138.601724,-35.575368],[138.60171,-35.57535],[138.601705,-35.575334],[138.601707,-35.575313],[138.601711,-35.575303],[138.601726,-35.575286],[138.601741,-35.575276],[138.601765,-35.575269],[138.60178,-35.575268],[138.601805,-35.575272],[138.601819,-35.575278],[138.601825,-35.575284],[138.601844,-35.575301],[138.601851,-35.575325],[138.601848,-35.575346],[138.601843,-35.575356],[138.60182,-35.575377],[138.601797,-35.575385],[138.601777,-35.575387],[138.601752,-35.575383],[138.601724,-35.575368]]}},{"type":"Feature","properties":{"tier":"regional"},"geometry":{"type":"LineString","coordinates":[[138.610972,-35.565387],[138.610941,-35.565382],[138.610914,-35.56537],[138.610891,-35.565349],[138.610878,-35.565323],[138.610876,-35.565295],[138.610886,-35.565269],[138.610906,-35.565246],[138.610935,-35.565231],[138.610962,-35.565224],[138.610991,-35.565224],[138.611018,-35.56523],[138.611042,-35.565243],[138.611061,-35.565261],[138.611074,-35.565284],[138.611077,-35.565309],[138.611071,-35.565334],[138.611055,-35.565357],[138.611032,-35.565374],[138.611003,-35.565384],[138.610972,-35.565387]]}},{"type":"Feature","properties":{"tier":"regional"},"geometry":{"type":"LineString","coordinates":[[138.608675,-35.567999],[138.608577,-35.568147],[138.608265,-35.568532],[138.608202,-35.568615],[138.60815,-35.568682],[138.607928,-35.568942],[138.607605,-35.569354],[138.60757,-35.569394],[138.607515,-35.569452],[138.607453,-35.569519],[138.607357,-35.569616],[138.607251,-35.569715],[138.606776,-35.570141],[138.605915,-35.570913],[138.605545,-35.571254],[138.60523,-35.571562],[138.605087,-35.571705],[138.604991,-35.571808],[138.604852,-35.571996],[138.604828,-35.572027]]}},{"type":"Feature","properties":{"tier":"regional"},"geometry":{"type":"LineString","coordinates":[[138.608675,-35.567999],[138.608655,-35.567986],[138.608644,-35.567972],[138.608638,-35.567952],[138.608639,-35.567935],[138.608649,-35.567916],[138.608661,-35.567904],[138.608682,-35.567892],[138.608702,-35.567888],[138.608733,-35.567889],[138.608762,-35.567903],[138.608765,-35.567906],[138.608777,-35.567919],[138.608784,-35.567932],[138.608786,-35.567953],[138.608782,-35.567966],[138.60877,-35.567985],[138.608758,-35.567995],[138.608735,-35.568005],[138.608717,-35.568008],[138.608691,-35.568005],[138.608675,-35.567999]]}},{"type":"Feature","properties":{"tier":"regional"},"geometry":{"type":"LineString","coordinates":[[138.610914,-35.56537],[138.610763,-35.565478],[138.610499,-35.565776],[138.610357,-35.565928],[138.610219,-35.566077],[138.610179,-35.56612],[138.610082,-35.566223],[138.610001,-35.566321],[138.609844,-35.566515],[138.609674,-35.566704],[138.609285,-35.567222],[138.60913,-35.567429],[138.608808,-35.567851],[138.608765,-35.567906]]}},{"type":"Feature","properties":{"tier":"regional"},"geometry":{"type":"LineString","coordinates":[[138.604759,-35.572108],[138.604742,-35.572097],[138.604735,-35.572088],[138.604729,-35.572072],[138.60473,-35.572055],[138.604738,-35.572039],[138.604749,-35.572029],[138.604767,-35.572019],[138.604778,-35.572017],[138.604806,-35.572018],[138.604828,-35.572027],[138.604842,-35.57204],[138.604849,-35.572053],[138.604851,-35.57207],[138.604849,-35.572079],[138.604834,-35.5721],[138.604817,-35.57211],[138.604804,-35.572114],[138.604782,-35.572115],[138.604759,-35.572108]]}},{"type":"Feature","properties":{"tier":"regional"},"geometry":{"type":"LineString","coordinates":[[138.597822,-35.587236],[138.597879,-35.587197],[138.597916,-35.587155],[138.597944,-35.58709],[138.598018,-35.586709],[138.598037,-35.586601],[138.598041,-35.58652],[138.598032,-35.586448],[138.598,-35.586351],[138.597963,-35.58628],[138.597931,-35.586226],[138.597913,-35.586203]]}},{"type":"Feature","properties":{"tier":"arterial"},"geometry":{"type":"LineString","coordinates":[[138.619446,-35.556316],[138.619469,-35.556359]]}},{"type":"Feature","properties":{"tier":"high"},"geometry":{"type":"LineString","coordinates":[[138.621883,-35.553137],[138.621812,-35.553101]]}},{"type":"Feature","properties":{"tier":"arterial"},"geometry":{"type":"LineString","coordinates":[[138.503317,-35.602946],[138.503105,-35.603758],[138.503031,-35.604128],[138.502997,-35.604568],[138.502991,-35.605351],[138.502883,-35.606037],[138.502752,-35.606514],[138.502678,-35.607084],[138.502655,-35.607742],[138.502558,-35.60815],[138.502262,-35.608895],[138.50192,-35.609688],[138.501738,-35.610063],[138.501367,-35.610577],[138.501025,-35.610985],[138.500689,-35.611439],[138.50045,-35.611855],[138.500307,-35.61211],[138.500211,-35.612462],[138.500171,-35.612791],[138.500097,-35.613213],[138.49998,-35.613825]]}},{"type":"Feature","properties":{"tier":"regional"},"geometry":{"type":"LineString","coordinates":[[138.647344,-35.524741],[138.649386,-35.524421],[138.651262,-35.52412],[138.65228,-35.523968],[138.655668,-35.523437],[138.656045,-35.523378],[138.657832,-35.523098],[138.65933,-35.522864],[138.659942,-35.522768],[138.662014,-35.522444]]}},{"type":"Feature","properties":{"tier":"arterial"},"geometry":{"type":"LineString","coordinates":[[138.875509,-35.546723],[138.875487,-35.546635],[138.875478,-35.546564],[138.875513,-35.54039],[138.875581,-35.53803],[138.87553,-35.534852],[138.875564,-35.531723],[138.875478,-35.531639]]}},{"type":"Feature","properties":{"tier":"arterial"},"geometry":{"type":"LineString","coordinates":[[138.72348,-35.49998],[138.723431,-35.500303],[138.723349,-35.500757],[138.723313,-35.500877],[138.723227,-35.501115],[138.723158,-35.50127],[138.723096,-35.501385],[138.723003,-35.501535],[138.722802,-35.501796],[138.722696,-35.501916],[138.722474,-35.502126],[138.7223,-35.502266],[138.722112,-35.502392],[138.721832,-35.502542],[138.721615,-35.502645],[138.721336,-35.502754],[138.721093,-35.502823],[138.720782,-35.502892],[138.720511,-35.502932],[138.720197,-35.502961],[138.718527,-35.503112],[138.71728,-35.503224],[138.715995,-35.503341],[138.714747,-35.503454],[138.714316,-35.503493],[138.712903,-35.503625],[138.712119,-35.503694],[138.711738,-35.503728],[138.711495,-35.503749],[138.710978,-35.503794],[138.710229,-35.50386]]}},{"type":"Feature","properties":{"tier":"arterial"},"geometry":{"type":"LineString","coordinates":[[138.592615,-35.50304],[138.592843,-35.502979],[138.593399,-35.502626]]}},{"type":"Feature","properties":{"tier":"regional"},"geometry":{"type":"LineString","coordinates":[[138.786831,-35.521888],[138.787016,-35.522132],[138.787465,-35.52244],[138.787926,-35.522674],[138.788424,-35.522884],[138.789765,-35.52332],[138.790525,-35.523563],[138.79125,-35.523875],[138.791935,-35.524202],[138.792598,-35.52455],[138.793127,-35.524795],[138.793688,-35.524973],[138.794587,-35.525126],[138.795475,-35.52528],[138.796052,-35.525408],[138.796899,-35.52568],[138.797825,-35.526078],[138.798769,-35.526502],[138.799756,-35.526631],[138.801696,-35.527211],[138.803153,-35.527825],[138.803615,-35.52796],[138.804508,-35.528162],[138.80465,-35.528196],[138.805297,-35.528286],[138.805409,-35.528309],[138.805566,-35.528336],[138.806027,-35.528425],[138.806565,-35.528582],[138.80686,-35.528662],[138.806996,-35.528699],[138.807323,-35.528749],[138.807974,-35.528809]]}},{"type":"Feature","properties":{"tier":"regional"},"geometry":{"type":"LineString","coordinates":[[138.774147,-35.518799],[138.774392,-35.517587],[138.774433,-35.517384],[138.774568,-35.516716],[138.774841,-35.51537],[138.774924,-35.514946],[138.775288,-35.513086],[138.775503,-35.511954],[138.775593,-35.511503],[138.775989,-35.509505],[138.776259,-35.508141],[138.776305,-35.507913],[138.776469,-35.507089],[138.776514,-35.506338],[138.776522,-35.506147],[138.776559,-35.505223],[138.776581,-35.504689]]}},{"type":"Feature","properties":{"tier":"regional"},"geometry":{"type":"LineString","coordinates":[[138.773787,-35.520576],[138.773996,-35.519543],[138.774069,-35.51918],[138.774147,-35.518799]]}},{"type":"Feature","properties":{"tier":"regional"},"geometry":{"type":"LineString","coordinates":[[138.786347,-35.518188],[138.786392,-35.51829],[138.786544,-35.518668],[138.786583,-35.518764],[138.786686,-35.519021],[138.786768,-35.519225],[138.786869,-35.519474],[138.78698,-35.519818],[138.787003,-35.51998],[138.786992,-35.520299],[138.786922,-35.520609],[138.786697,-35.521268],[138.786733,-35.521712],[138.786831,-35.521888]]}},{"type":"Feature","properties":{"tier":"regional"},"geometry":{"type":"LineString","coordinates":[[138.597913,-35.586203],[138.597845,-35.58612],[138.597629,-35.585867],[138.597594,-35.585823],[138.597421,-35.585529],[138.5972,-35.584838],[138.597138,-35.584646],[138.596983,-35.584203],[138.59694,-35.584036],[138.596915,-35.583891],[138.596902,-35.58372],[138.596904,-35.583575],[138.596923,-35.583326],[138.597,-35.58292],[138.597016,-35.582855],[138.597153,-35.582213],[138.59733,-35.58141],[138.597381,-35.581224],[138.597597,-35.580585]]}},{"type":"Feature","properties":{"tier":"arterial"},"geometry":{"type":"LineString","coordinates":[[138.582049,-35.545721],[138.583332,-35.545948],[138.584035,-35.546063],[138.585074,-35.546131],[138.585868,-35.545983],[138.586689,-35.545677],[138.587924,-35.545359],[138.588525,-35.545335],[138.589582,-35.545437],[138.590344,-35.545554],[138.590502,-35.545578],[138.591536,-35.545677],[138.593004,-35.545911]]}},{"type":"Feature","properties":{"tier":"arterial"},"geometry":{"type":"LineString","coordinates":[[138.598018,-35.556782],[138.599172,-35.556814]]}},{"type":"Feature","properties":{"tier":"regional"},"geometry":{"type":"LineString","coordinates":[[138.623478,-35.534645],[138.623463,-35.534592],[138.623192,-35.534204],[138.623141,-35.534051],[138.623079,-35.533842],[138.623031,-35.533721],[138.622972,-35.533619],[138.622913,-35.533534],[138.622773,-35.533455],[138.622602,-35.533235],[138.622387,-35.533062],[138.622121,-35.53276]]}},{"type":"Feature","properties":{"tier":"arterial"},"geometry":{"type":"LineString","coordinates":[[138.687956,-35.517342],[138.688328,-35.516633],[138.688548,-35.516204],[138.688995,-35.515338],[138.689468,-35.514413],[138.689589,-35.514176],[138.689743,-35.513939],[138.689887,-35.513761],[138.690041,-35.513609],[138.690181,-35.513484],[138.690342,-35.51336],[138.690492,-35.513252],[138.690646,-35.513166],[138.690824,-35.513077],[138.690988,-35.513007],[138.69119,-35.512935],[138.69138,-35.512879],[138.691538,-35.512835],[138.691736,-35.512793],[138.691944,-35.512761],[138.691972,-35.512756],[138.692393,-35.512691],[138.692745,-35.512642],[138.692781,-35.512637],[138.693437,-35.512546],[138.69405,-35.512455],[138.694225,-35.51243],[138.695189,-35.512287],[138.696802,-35.512046],[138.69864,-35.511772],[138.698988,-35.511721],[138.69984,-35.511592],[138.701474,-35.511344],[138.702725,-35.511157],[138.703232,-35.511081],[138.704035,-35.510961],[138.704266,-35.510922],[138.704432,-35.51089],[138.704569,-35.510857],[138.70475,-35.510805],[138.705016,-35.510702]]}},{"type":"Feature","properties":{"tier":"regional"},"geometry":{"type":"LineString","coordinates":[[138.68739,-35.518722],[138.687243,-35.518744],[138.686239,-35.518888],[138.685521,-35.518991],[138.684024,-35.519205],[138.683875,-35.519227],[138.683322,-35.519306],[138.68283,-35.519376],[138.68162,-35.51955],[138.680934,-35.519648],[138.68021,-35.519752],[138.678755,-35.519954],[138.678014,-35.520072],[138.677924,-35.520079],[138.676173,-35.520339],[138.674932,-35.520523],[138.674615,-35.520578],[138.67382,-35.520691],[138.672227,-35.520919],[138.670928,-35.521117],[138.670333,-35.521207],[138.667238,-35.521678],[138.662998,-35.522306],[138.662014,-35.522444]]}},{"type":"Feature","properties":{"tier":"arterial"},"geometry":{"type":"LineString","coordinates":[[138.618708,-35.523058],[138.618869,-35.522873],[138.619048,-35.522675],[138.61943,-35.522278],[138.619826,-35.521892],[138.620172,-35.521562],[138.620444,-35.521321],[138.620652,-35.521157],[138.620837,-35.521017],[138.621073,-35.520858],[138.62135,-35.520687],[138.621574,-35.520564],[138.621904,-35.520391]]}},{"type":"Feature","properties":{"tier":"high"},"geometry":{"type":"LineString","coordinates":[[138.633747,-35.519476],[138.633672,-35.51944],[138.633603,-35.51937],[138.633575,-35.519301],[138.633577,-35.519221]]}},{"type":"Feature","properties":{"tier":"high"},"geometry":{"type":"LineString","coordinates":[[138.633605,-35.519154],[138.633688,-35.519084],[138.633782,-35.519047],[138.633892,-35.519046]]}},{"type":"Feature","properties":{"tier":"high"},"geometry":{"type":"LineString","coordinates":[[138.634066,-35.519421],[138.634032,-35.519575],[138.634022,-35.519687],[138.634025,-35.51979],[138.634023,-35.519888],[138.634036,-35.520021],[138.634064,-35.520236]]}},{"type":"Feature","properties":{"tier":"arterial"},"geometry":{"type":"LineString","coordinates":[[138.709017,-35.507676],[138.709186,-35.507528],[138.70932,-35.507395],[138.709428,-35.50728]]}},{"type":"Feature","properties":{"tier":"arterial"},"geometry":{"type":"LineString","coordinates":[[138.709438,-35.507246],[138.7095,-35.507362],[138.709688,-35.507493]]}},{"type":"Feature","properties":{"tier":"arterial"},"geometry":{"type":"LineString","coordinates":[[138.632685,-35.519323],[138.632938,-35.519341],[138.633166,-35.519352],[138.633344,-35.519334],[138.633445,-35.519296],[138.633577,-35.519221]]}},{"type":"Feature","properties":{"tier":"arterial"},"geometry":{"type":"LineString","coordinates":[[138.633672,-35.51944],[138.633579,-35.519428],[138.633505,-35.519423],[138.633397,-35.519426],[138.633217,-35.519429],[138.632836,-35.519423],[138.632721,-35.51942],[138.632233,-35.519406],[138.631874,-35.519389],[138.631514,-35.519378]]}},{"type":"Feature","properties":{"tier":"arterial"},"geometry":{"type":"LineString","coordinates":[[138.631514,-35.519378],[138.631938,-35.51936],[138.632295,-35.51934],[138.632685,-35.519323]]}},{"type":"Feature","properties":{"tier":"high"},"geometry":{"type":"LineString","coordinates":[[138.632436,-35.517206],[138.632227,-35.516825],[138.632076,-35.516565],[138.631016,-35.514875],[138.630847,-35.514606]]}},{"type":"Feature","properties":{"tier":"high"},"geometry":{"type":"LineString","coordinates":[[138.632436,-35.517206],[138.632544,-35.517306],[138.632826,-35.517682],[138.633064,-35.518031],[138.633164,-35.518154],[138.63324,-35.518236],[138.63335,-35.518355],[138.633434,-35.518455],[138.633509,-35.518547],[138.633569,-35.518651],[138.633631,-35.518775],[138.633675,-35.518863],[138.633735,-35.518939],[138.63381,-35.519],[138.633892,-35.519046]]}},{"type":"Feature","properties":{"tier":"high"},"geometry":{"type":"LineString","coordinates":[[138.634219,-35.522081],[138.634168,-35.521903],[138.634119,-35.521624],[138.634055,-35.520969],[138.634031,-35.520698],[138.633996,-35.520504],[138.63395,-35.520292],[138.633929,-35.520163],[138.633926,-35.52003],[138.633942,-35.519901],[138.633945,-35.519794],[138.633926,-35.519696],[138.633889,-35.519615],[138.633822,-35.519541],[138.633747,-35.519476]]}},{"type":"Feature","properties":{"tier":"high"},"geometry":{"type":"LineString","coordinates":[[138.634064,-35.520236],[138.634111,-35.520582],[138.634224,-35.521805],[138.634219,-35.522081]]}},{"type":"Feature","properties":{"tier":"regional"},"geometry":{"type":"LineString","coordinates":[[138.634545,-35.519135],[138.634653,-35.519142],[138.63472,-35.519161],[138.634817,-35.51922],[138.635096,-35.519373],[138.63549,-35.519602],[138.635865,-35.519818],[138.63625,-35.520098]]}},{"type":"Feature","properties":{"tier":"regional"},"geometry":{"type":"LineString","coordinates":[[138.633975,-35.519065],[138.634095,-35.519089],[138.63421,-35.519104],[138.634361,-35.51912],[138.634545,-35.519135]]}},{"type":"Feature","properties":{"tier":"regional"},"geometry":{"type":"LineString","coordinates":[[138.63625,-35.520098],[138.635984,-35.519944],[138.635816,-35.519852],[138.635573,-35.51974],[138.635334,-35.519629],[138.635186,-35.519555],[138.635066,-35.519485],[138.634963,-35.519417],[138.634848,-35.519329],[138.634758,-35.519262],[138.634656,-35.519215],[138.634505,-35.519185],[138.63439,-35.519201],[138.634301,-35.519226],[138.634215,-35.519268],[138.63411,-35.51936]]}},{"type":"Feature","properties":{"tier":"high"},"geometry":{"type":"LineString","coordinates":[[138.633577,-35.519221],[138.633605,-35.519154]]}},{"type":"Feature","properties":{"tier":"regional"},"geometry":{"type":"LineString","coordinates":[[138.599268,-35.577047],[138.599293,-35.577052],[138.599314,-35.577064],[138.599329,-35.577082],[138.599336,-35.577103],[138.599334,-35.577124],[138.599323,-35.577143],[138.599306,-35.577157],[138.599285,-35.577166],[138.599262,-35.577169],[138.599238,-35.577167],[138.599217,-35.577158],[138.599209,-35.577151],[138.5992,-35.577145],[138.599189,-35.577128],[138.599185,-35.577109],[138.599188,-35.577089],[138.599199,-35.577072],[138.599218,-35.577057],[138.599242,-35.577048],[138.599268,-35.577047]]}},{"type":"Feature","properties":{"tier":"high"},"geometry":{"type":"LineString","coordinates":[[138.634066,-35.519421],[138.633962,-35.519481],[138.633858,-35.519495],[138.633747,-35.519476]]}},{"type":"Feature","properties":{"tier":"arterial"},"geometry":{"type":"LineString","coordinates":[[138.709017,-35.507676],[138.709178,-35.507611],[138.709367,-35.507544]]}},{"type":"Feature","properties":{"tier":"arterial"},"geometry":{"type":"LineString","coordinates":[[138.709688,-35.507493],[138.709788,-35.507489],[138.70991,-35.50749],[138.710039,-35.507498],[138.710177,-35.507506],[138.710265,-35.507518],[138.711264,-35.507678],[138.711702,-35.507749],[138.711979,-35.507791],[138.713749,-35.508067]]}},{"type":"Feature","properties":{"tier":"high"},"geometry":{"type":"LineString","coordinates":[[138.621993,-35.55286],[138.622036,-35.552803],[138.622584,-35.552117],[138.622705,-35.551966],[138.622821,-35.551821],[138.622861,-35.551766],[138.622871,-35.551749],[138.6229,-35.551704],[138.622922,-35.551653]]}},{"type":"Feature","properties":{"tier":"high"},"geometry":{"type":"LineString","coordinates":[[138.621812,-35.553101],[138.621944,-35.552923],[138.621993,-35.55286]]}},{"type":"Feature","properties":{"tier":"high"},"geometry":{"type":"LineString","coordinates":[[138.622064,-35.552897],[138.622,-35.552981],[138.621883,-35.553137]]}},{"type":"Feature","properties":{"tier":"high"},"geometry":{"type":"LineString","coordinates":[[138.62303,-35.551708],[138.622991,-35.55174],[138.622945,-35.551786],[138.622938,-35.551793],[138.622735,-35.552049],[138.622064,-35.552897]]}},{"type":"Feature","properties":{"tier":"arterial"},"geometry":{"type":"LineString","coordinates":[[138.662519,-35.533003],[138.664146,-35.532789],[138.664336,-35.532764],[138.664782,-35.532664],[138.665906,-35.532495],[138.666363,-35.532424],[138.668641,-35.53209],[138.669567,-35.531955],[138.670526,-35.531816]]}},{"type":"Feature","properties":{"tier":"arterial"},"geometry":{"type":"LineString","coordinates":[[138.685417,-35.529365],[138.685672,-35.52922],[138.686005,-35.528987],[138.686159,-35.52887],[138.68635,-35.528713],[138.6865,-35.528562],[138.686519,-35.52854],[138.686641,-35.5284],[138.687078,-35.527753],[138.68759,-35.526937],[138.687693,-35.526748],[138.68795,-35.526325],[138.688169,-35.525942],[138.688264,-35.525716],[138.688331,-35.525519],[138.688374,-35.525361],[138.688402,-35.525206],[138.688433,-35.525031],[138.688448,-35.524724],[138.688442,-35.524561],[138.688425,-35.524387],[138.688399,-35.524201],[138.688356,-35.523981],[138.688222,-35.523392],[138.687742,-35.521208],[138.687547,-35.520322],[138.687439,-35.519849],[138.687367,-35.51941],[138.687361,-35.519102],[138.687379,-35.518772],[138.68739,-35.518722]]}},{"type":"Feature","properties":{"tier":"high"},"geometry":{"type":"LineString","coordinates":[[138.634761,-35.526588],[138.634716,-35.526424],[138.634685,-35.526269],[138.634658,-35.526049],[138.634595,-35.525542],[138.634487,-35.524558],[138.634348,-35.523202],[138.63429,-35.522662],[138.634219,-35.522081]]}},{"type":"Feature","properties":{"tier":"arterial"},"geometry":{"type":"LineString","coordinates":[[138.705016,-35.510702],[138.705227,-35.510595],[138.705378,-35.510484],[138.705559,-35.51035],[138.70594,-35.510048],[138.706395,-35.509689],[138.70735,-35.508933],[138.707627,-35.508714],[138.708504,-35.50802],[138.70879,-35.50781],[138.708852,-35.507767],[138.708903,-35.507732],[138.709017,-35.507676]]}},{"type":"Feature","properties":{"tier":"arterial"},"geometry":{"type":"LineString","coordinates":[[138.713749,-35.508067],[138.720134,-35.509075],[138.721972,-35.509373]]}},{"type":"Feature","properties":{"tier":"regional"},"geometry":{"type":"LineString","coordinates":[[138.784049,-35.515439],[138.784156,-35.515712],[138.784269,-35.515893],[138.785054,-35.516692],[138.785339,-35.516957],[138.785776,-35.517378],[138.786036,-35.517672],[138.786182,-35.517878],[138.786347,-35.518188]]}},{"type":"Feature","properties":{"tier":"regional"},"geometry":{"type":"LineString","coordinates":[[138.784013,-35.515115],[138.784049,-35.515439]]}},{"type":"Feature","properties":{"tier":"regional"},"geometry":{"type":"LineString","coordinates":[[138.78404,-35.514889],[138.784013,-35.515115]]}},{"type":"Feature","properties":{"tier":"arterial"},"geometry":{"type":"LineString","coordinates":[[138.709438,-35.507246],[138.709428,-35.50728]]}},{"type":"Feature","properties":{"tier":"arterial"},"geometry":{"type":"LineString","coordinates":[[138.68739,-35.518722],[138.687475,-35.518416],[138.687581,-35.518128],[138.687956,-35.517342]]}},{"type":"Feature","properties":{"tier":"arterial"},"geometry":{"type":"LineString","coordinates":[[138.727827,-35.509088],[138.729123,-35.508975],[138.729251,-35.508963],[138.729582,-35.508934],[138.733629,-35.50858],[138.735228,-35.50844],[138.738499,-35.508139],[138.741879,-35.507858],[138.74281,-35.507766],[138.748556,-35.507213],[138.754755,-35.506643],[138.75504,-35.506617],[138.761822,-35.505992],[138.762705,-35.505911]]}},{"type":"Feature","properties":{"tier":"arterial"},"geometry":{"type":"LineString","coordinates":[[138.721972,-35.509373],[138.722318,-35.509423],[138.722857,-35.509481],[138.723324,-35.509463],[138.723739,-35.509446],[138.726118,-35.509238],[138.727827,-35.509088]]}},{"type":"Feature","properties":{"tier":"arterial"},"geometry":{"type":"LineString","coordinates":[[138.54241,-35.502528],[138.542574,-35.502402]]}},{"type":"Feature","properties":{"tier":"arterial"},"geometry":{"type":"LineString","coordinates":[[138.539012,-35.50519],[138.540793,-35.503771],[138.54241,-35.502528]]}},{"type":"Feature","properties":{"tier":"arterial"},"geometry":{"type":"LineString","coordinates":[[138.580547,-35.545053],[138.581263,-35.545439],[138.582049,-35.545721]]}},{"type":"Feature","properties":{"tier":"arterial"},"geometry":{"type":"LineString","coordinates":[[138.580449,-35.544994],[138.580547,-35.545053]]}},{"type":"Feature","properties":{"tier":"high"},"geometry":{"type":"LineString","coordinates":[[138.620839,-35.554561],[138.620797,-35.554576],[138.620761,-35.554596],[138.620737,-35.554622],[138.620627,-35.554759],[138.620487,-35.554942],[138.620385,-35.555056]]}},{"type":"Feature","properties":{"tier":"high"},"geometry":{"type":"LineString","coordinates":[[138.620385,-35.555056],[138.620451,-35.5549],[138.620574,-35.554735],[138.620686,-35.5546],[138.620713,-35.554565],[138.620719,-35.554543],[138.620723,-35.554523],[138.620719,-35.554496]]}},{"type":"Feature","properties":{"tier":"high"},"geometry":{"type":"LineString","coordinates":[[138.62072,-35.554432],[138.62074,-35.554404],[138.620771,-35.554383],[138.620809,-35.554372],[138.620849,-35.554372],[138.620887,-35.554383],[138.620916,-35.554402],[138.620936,-35.554427],[138.620946,-35.554456],[138.620944,-35.554486],[138.62093,-35.554514],[138.620906,-35.554538],[138.620875,-35.554553],[138.620839,-35.554561],[138.620802,-35.554558],[138.620768,-35.554547],[138.620738,-35.554525],[138.620719,-35.554496],[138.620712,-35.554464],[138.62072,-35.554432]]}},{"type":"Feature","properties":{"tier":"arterial"},"geometry":{"type":"LineString","coordinates":[[138.59408,-35.56259],[138.593741,-35.562991]]}},{"type":"Feature","properties":{"tier":"arterial"},"geometry":{"type":"LineString","coordinates":[[138.709367,-35.507544],[138.709525,-35.507513],[138.709688,-35.507493]]}},{"type":"Feature","properties":{"tier":"arterial"},"geometry":{"type":"LineString","coordinates":[[138.709428,-35.50728],[138.709367,-35.507544]]}},{"type":"Feature","properties":{"tier":"regional"},"geometry":{"type":"LineString","coordinates":[[138.86757,-35.510617],[138.876122,-35.510622],[138.880287,-35.510647],[138.884646,-35.510672],[138.893149,-35.51071],[138.893177,-35.51071]]}},{"type":"Feature","properties":{"tier":"arterial"},"geometry":{"type":"LineString","coordinates":[[138.593946,-35.563068],[138.594105,-35.563157],[138.594168,-35.563195],[138.594225,-35.563234],[138.594267,-35.563265],[138.594313,-35.563307],[138.594343,-35.563342],[138.594372,-35.563386],[138.594389,-35.563434],[138.594397,-35.563512]]}},{"type":"Feature","properties":{"tier":"arterial"},"geometry":{"type":"LineString","coordinates":[[138.593935,-35.563127],[138.593741,-35.562991]]}},{"type":"Feature","properties":{"tier":"arterial"},"geometry":{"type":"LineString","coordinates":[[138.593528,-35.563264],[138.592744,-35.564333],[138.592587,-35.564536],[138.592059,-35.565249],[138.591815,-35.56558],[138.590088,-35.5679],[138.589188,-35.569119],[138.589111,-35.569217],[138.588972,-35.569396],[138.587629,-35.571191],[138.587524,-35.571331],[138.587186,-35.571747],[138.586792,-35.57219],[138.586384,-35.572623],[138.585927,-35.573065],[138.58535,-35.573581],[138.584878,-35.573959],[138.584205,-35.574451],[138.584008,-35.574585],[138.58386,-35.574685],[138.583555,-35.574882],[138.583205,-35.575094],[138.582746,-35.575357],[138.58268,-35.575392],[138.582352,-35.575567],[138.581791,-35.575845],[138.581235,-35.576095],[138.580724,-35.576311],[138.580311,-35.576471],[138.57983,-35.576643],[138.579389,-35.576748],[138.578896,-35.5769],[138.578421,-35.577032],[138.57799,-35.577143],[138.577459,-35.577275],[138.577154,-35.577336],[138.576465,-35.577452],[138.575933,-35.577542],[138.575368,-35.577607],[138.574807,-35.577656],[138.574223,-35.577692],[138.573681,-35.577711],[138.573025,-35.577703],[138.572124,-35.577709],[138.569508,-35.577717],[138.566947,-35.577721],[138.56633,-35.577725],[138.56594,-35.577708],[138.565671,-35.577681],[138.565255,-35.577629],[138.564894,-35.577566],[138.564531,-35.57749],[138.564492,-35.577479]]}},{"type":"Feature","properties":{"tier":"arterial"},"geometry":{"type":"LineString","coordinates":[[138.525788,-35.49998],[138.526204,-35.500138],[138.526467,-35.500312],[138.527913,-35.501506]]}},{"type":"Feature","properties":{"tier":"arterial"},"geometry":{"type":"LineString","coordinates":[[138.527913,-35.501506],[138.528068,-35.501635]]}},{"type":"Feature","properties":{"tier":"arterial"},"geometry":{"type":"LineString","coordinates":[[138.619446,-35.556316],[138.619817,-35.556197],[138.620374,-35.556008],[138.620451,-35.555977],[138.620589,-35.5559]]}},{"type":"Feature","properties":{"tier":"arterial"},"geometry":{"type":"LineString","coordinates":[[138.619469,-35.556359],[138.618543,-35.556663]]}},{"type":"Feature","properties":{"tier":"arterial"},"geometry":{"type":"LineString","coordinates":[[138.618543,-35.556663],[138.617941,-35.55686],[138.617283,-35.55707],[138.617189,-35.5571]]}},{"type":"Feature","properties":{"tier":"arterial"},"geometry":{"type":"LineString","coordinates":[[138.618519,-35.556613],[138.619446,-35.556316]]}},{"type":"Feature","properties":{"tier":"arterial"},"geometry":{"type":"LineString","coordinates":[[138.616744,-35.557249],[138.616288,-35.557404],[138.615653,-35.557628],[138.615291,-35.557756],[138.614828,-35.557903],[138.614463,-35.558016],[138.614418,-35.558028],[138.614357,-35.558043],[138.614299,-35.558053],[138.614239,-35.558062],[138.614193,-35.558067],[138.614132,-35.55807],[138.614081,-35.558071],[138.614039,-35.558071],[138.613998,-35.558069],[138.613996,-35.558069],[138.613953,-35.558065],[138.613882,-35.558057],[138.613827,-35.558047],[138.613747,-35.558029],[138.613672,-35.558007],[138.61363,-35.557992],[138.613609,-35.557985],[138.613548,-35.557959],[138.61352,-35.557946],[138.613448,-35.557906]]}},{"type":"Feature","properties":{"tier":"arterial"},"geometry":{"type":"LineString","coordinates":[[138.616719,-35.557196],[138.617164,-35.557046]]}},{"type":"Feature","properties":{"tier":"arterial"},"geometry":{"type":"LineString","coordinates":[[138.617164,-35.557046],[138.618005,-35.556778],[138.618519,-35.556613]]}},{"type":"Feature","properties":{"tier":"arterial"},"geometry":{"type":"LineString","coordinates":[[138.617189,-35.5571],[138.617125,-35.557122],[138.616744,-35.557249]]}},{"type":"Feature","properties":{"tier":"arterial"},"geometry":{"type":"LineString","coordinates":[[138.605106,-35.561498],[138.605028,-35.561544],[138.604938,-35.561605],[138.60426,-35.562107],[138.604159,-35.562173],[138.604092,-35.562212],[138.604042,-35.562239],[138.603981,-35.562263],[138.603841,-35.562294],[138.603371,-35.562397]]}},{"type":"Feature","properties":{"tier":"arterial"},"geometry":{"type":"LineString","coordinates":[[138.607483,-35.560209],[138.606634,-35.560669],[138.606519,-35.560732],[138.606346,-35.560826],[138.605933,-35.56105],[138.605106,-35.561498]]}},{"type":"Feature","properties":{"tier":"high"},"geometry":{"type":"LineString","coordinates":[[138.637338,-35.529608],[138.637211,-35.529446],[138.637059,-35.529276],[138.636047,-35.528244]]}},{"type":"Feature","properties":{"tier":"high"},"geometry":{"type":"LineString","coordinates":[[138.637338,-35.529608],[138.637431,-35.529762],[138.637621,-35.530115],[138.637672,-35.530245],[138.637733,-35.530442],[138.637804,-35.530715],[138.637856,-35.530885],[138.637909,-35.53106],[138.637969,-35.531357]]}},{"type":"Feature","properties":{"tier":"arterial"},"geometry":{"type":"LineString","coordinates":[[138.596578,-35.556505],[138.596829,-35.556582],[138.597035,-35.556645],[138.597212,-35.556691],[138.597438,-35.556733],[138.598018,-35.556782]]}}]}
