{"type":"FeatureCollection","features":[{"type":"Feature","properties":{"tier":"high"},"geometry":{"type":"LineString","coordinates":[[138.72981,-34.63305],[138.730274,-34.632407],[138.730441,-34.632053],[138.730579,-34.631785],[138.730698,-34.631533],[138.730807,-34.631271],[138.730886,-34.631047],[138.730971,-34.63077],[138.731045,-34.630529],[138.731056,-34.630476]]}},{"type":"Feature","properties":{"tier":"regional"},"geometry":{"type":"LineString","coordinates":[[138.688657,-34.681938],[138.687774,-34.681529]]}},{"type":"Feature","properties":{"tier":"arterial"},"geometry":{"type":"LineString","coordinates":[[138.68748,-34.633198],[138.688463,-34.632967],[138.691861,-34.632179],[138.694721,-34.631505],[138.694884,-34.631466],[138.695294,-34.631369],[138.698677,-34.630579],[138.700571,-34.630134],[138.702098,-34.629775],[138.70296,-34.629587],[138.703727,-34.62939],[138.703964,-34.629324],[138.704387,-34.629207],[138.705873,-34.628763],[138.706618,-34.628541],[138.709703,-34.627609],[138.711043,-34.627234]]}},{"type":"Feature","properties":{"tier":"regional"},"geometry":{"type":"LineString","coordinates":[[138.736938,-34.630004],[138.736979,-34.630082],[138.737149,-34.630253],[138.737304,-34.63048],[138.737362,-34.630632],[138.737386,-34.630733],[138.737405,-34.630878],[138.737401,-34.630984],[138.7373,-34.631189],[138.737232,-34.631299],[138.737217,-34.63132]]}},{"type":"Feature","properties":{"tier":"regional"},"geometry":{"type":"LineString","coordinates":[[138.742534,-34.627347],[138.742407,-34.627313],[138.741503,-34.627315],[138.741379,-34.627303],[138.741242,-34.627281],[138.741182,-34.627261],[138.740956,-34.627163],[138.740756,-34.627052],[138.739954,-34.6266],[138.73913,-34.626121],[138.738381,-34.625693],[138.737759,-34.625308],[138.737207,-34.62498]]}},{"type":"Feature","properties":{"tier":"regional"},"geometry":{"type":"LineString","coordinates":[[138.75002,-34.641279],[138.749925,-34.641225],[138.747189,-34.639651],[138.746466,-34.639237],[138.745782,-34.638843]]}},{"type":"Feature","properties":{"tier":"regional"},"geometry":{"type":"LineString","coordinates":[[138.739163,-34.635037],[138.739701,-34.634388],[138.740086,-34.63393],[138.74065,-34.633242],[138.741163,-34.632637],[138.741329,-34.63244],[138.741928,-34.631718],[138.742446,-34.631094],[138.742795,-34.630686],[138.743165,-34.630253],[138.743213,-34.630178],[138.743248,-34.630097],[138.743259,-34.630034]]}},{"type":"Feature","properties":{"tier":"regional"},"geometry":{"type":"LineString","coordinates":[[138.737046,-34.633848],[138.737161,-34.633932],[138.737202,-34.633959],[138.737304,-34.634012]]}},{"type":"Feature","properties":{"tier":"regional"},"geometry":{"type":"LineString","coordinates":[[138.735731,-34.632943],[138.735765,-34.632916],[138.735799,-34.632877],[138.735848,-34.632819]]}},{"type":"Feature","properties":{"tier":"regional"},"geometry":{"type":"LineString","coordinates":[[138.737135,-34.631285],[138.737222,-34.631191],[138.737304,-34.630997],[138.737304,-34.630762],[138.737222,-34.630517],[138.737124,-34.630372],[138.736875,-34.630079]]}},{"type":"Feature","properties":{"tier":"regional"},"geometry":{"type":"LineString","coordinates":[[138.736755,-34.629962],[138.736721,-34.629938],[138.736674,-34.629895],[138.735658,-34.628966],[138.73563,-34.628952],[138.735557,-34.628929]]}},{"type":"Feature","properties":{"tier":"regional"},"geometry":{"type":"LineString","coordinates":[[138.735651,-34.628857],[138.735677,-34.628881],[138.735703,-34.628906],[138.735721,-34.628922],[138.736751,-34.629843],[138.736839,-34.629922]]}},{"type":"Feature","properties":{"tier":"regional"},"geometry":{"type":"LineString","coordinates":[[138.735414,-34.628833],[138.735373,-34.628796],[138.735334,-34.628757],[138.73455,-34.628317]]}},{"type":"Feature","properties":{"tier":"regional"},"geometry":{"type":"LineString","coordinates":[[138.73425,-34.628098],[138.734314,-34.628124],[138.734406,-34.628176]]}},{"type":"Feature","properties":{"tier":"arterial"},"geometry":{"type":"LineString","coordinates":[[138.734346,-34.627981],[138.734357,-34.628032],[138.734364,-34.62806],[138.734372,-34.628082],[138.734389,-34.628129],[138.734406,-34.628176]]}},{"type":"Feature","properties":{"tier":"regional"},"geometry":{"type":"LineString","coordinates":[[138.746334,-34.626256],[138.74585,-34.625984],[138.745693,-34.625858]]}},{"type":"Feature","properties":{"tier":"high"},"geometry":{"type":"LineString","coordinates":[[138.733522,-34.62901],[138.733352,-34.629191]]}},{"type":"Feature","properties":{"tier":"regional"},"geometry":{"type":"LineString","coordinates":[[138.737245,-34.634146],[138.737235,-34.634114]]}},{"type":"Feature","properties":{"tier":"high"},"geometry":{"type":"LineString","coordinates":[[138.732944,-34.629492],[138.732776,-34.629616],[138.732406,-34.629871],[138.732025,-34.630176],[138.731751,-34.630459],[138.731535,-34.630725],[138.731336,-34.631034],[138.73085,-34.631862],[138.730777,-34.631994],[138.730662,-34.632171],[138.730536,-34.632317]]}},{"type":"Feature","properties":{"tier":"regional"},"geometry":{"type":"LineString","coordinates":[[138.735419,-34.628863],[138.735414,-34.628833]]}},{"type":"Feature","properties":{"tier":"regional"},"geometry":{"type":"LineString","coordinates":[[138.736875,-34.630079],[138.736839,-34.630085],[138.736795,-34.630077],[138.736768,-34.630061],[138.736751,-34.630043],[138.736743,-34.63003],[138.736739,-34.630004],[138.736745,-34.629974],[138.736755,-34.629962]]}},{"type":"Feature","properties":{"tier":"regional"},"geometry":{"type":"LineString","coordinates":[[138.742628,-34.627645],[138.742612,-34.62743],[138.742597,-34.627397]]}},{"type":"Feature","properties":{"tier":"regional"},"geometry":{"type":"LineString","coordinates":[[138.735731,-34.632943],[138.735771,-34.632955],[138.735804,-34.632977],[138.735827,-34.633007],[138.735836,-34.633042],[138.73583,-34.633077],[138.735811,-34.633109]]}},{"type":"Feature","properties":{"tier":"regional"},"geometry":{"type":"LineString","coordinates":[[138.737304,-34.634012],[138.737358,-34.634002],[138.737405,-34.634011],[138.737444,-34.634031],[138.737468,-34.634065],[138.73748,-34.634103]]}},{"type":"Feature","properties":{"tier":"regional"},"geometry":{"type":"LineString","coordinates":[[138.742597,-34.627397],[138.742564,-34.627368],[138.742534,-34.627347]]}},{"type":"Feature","properties":{"tier":"arterial"},"geometry":{"type":"LineString","coordinates":[[138.736817,-34.62498],[138.736647,-34.62518],[138.73645,-34.625413],[138.736339,-34.625557],[138.735948,-34.626021],[138.73578,-34.626233]]}},{"type":"Feature","properties":{"tier":"regional"},"geometry":{"type":"LineString","coordinates":[[138.743259,-34.630034],[138.743255,-34.62998],[138.743248,-34.629916],[138.743232,-34.629847],[138.743194,-34.629754],[138.742911,-34.629085],[138.742718,-34.628617],[138.74263,-34.628401],[138.74262,-34.628355],[138.742611,-34.628307],[138.742607,-34.628267],[138.742604,-34.628214],[138.742628,-34.627645]]}},{"type":"Feature","properties":{"tier":"regional"},"geometry":{"type":"LineString","coordinates":[[138.737234,-34.631396],[138.737218,-34.631418],[138.737207,-34.631429],[138.73718,-34.631446],[138.737135,-34.631454],[138.73711,-34.631452],[138.737083,-34.631445]]}},{"type":"Feature","properties":{"tier":"regional"},"geometry":{"type":"LineString","coordinates":[[138.736401,-34.632161],[138.737022,-34.631445],[138.737046,-34.631415]]}},{"type":"Feature","properties":{"tier":"regional"},"geometry":{"type":"LineString","coordinates":[[138.735651,-34.628857],[138.735647,-34.628871],[138.735621,-34.628903],[138.735585,-34.628925],[138.735557,-34.628929]]}},{"type":"Feature","properties":{"tier":"regional"},"geometry":{"type":"LineString","coordinates":[[138.73455,-34.628317],[138.734242,-34.628246],[138.734115,-34.628261]]}},{"type":"Feature","properties":{"tier":"regional"},"geometry":{"type":"LineString","coordinates":[[138.735811,-34.633109],[138.735776,-34.633135],[138.735732,-34.63315],[138.735685,-34.63315],[138.735641,-34.633136],[138.735606,-34.633109],[138.735585,-34.633074],[138.735581,-34.633036],[138.735595,-34.632998],[138.735619,-34.632972],[138.735652,-34.632952],[138.73569,-34.632943],[138.735731,-34.632943]]}},{"type":"Feature","properties":{"tier":"regional"},"geometry":{"type":"LineString","coordinates":[[138.695579,-34.667888],[138.696028,-34.668069],[138.696209,-34.668142]]}},{"type":"Feature","properties":{"tier":"regional"},"geometry":{"type":"LineString","coordinates":[[138.689212,-34.666708],[138.689287,-34.666731],[138.689331,-34.666743],[138.689388,-34.666755],[138.68951,-34.666762],[138.69147,-34.666808],[138.691977,-34.666824],[138.69286,-34.666824],[138.693034,-34.666829],[138.693185,-34.666852],[138.693252,-34.666872],[138.693335,-34.666908],[138.69337,-34.666923],[138.693916,-34.667142],[138.694037,-34.6672],[138.694254,-34.667311],[138.694443,-34.667392]]}},{"type":"Feature","properties":{"tier":"high"},"geometry":{"type":"LineString","coordinates":[[138.69342,-34.68371],[138.693255,-34.683784],[138.693236,-34.68379],[138.693216,-34.683797],[138.693189,-34.683803],[138.693167,-34.683809],[138.693141,-34.683812],[138.693109,-34.683811]]}},{"type":"Feature","properties":{"tier":"regional"},"geometry":{"type":"LineString","coordinates":[[138.693109,-34.683811],[138.693047,-34.683787],[138.693014,-34.683774],[138.692854,-34.68371]]}},{"type":"Feature","properties":{"tier":"high"},"geometry":{"type":"LineString","coordinates":[[138.692988,-34.684006],[138.692984,-34.683947],[138.692983,-34.68392],[138.69298,-34.683899],[138.692969,-34.683855],[138.692951,-34.683821],[138.692932,-34.683792],[138.692911,-34.683765],[138.692854,-34.68371]]}},{"type":"Feature","properties":{"tier":"high"},"geometry":{"type":"LineString","coordinates":[[138.693302,-34.683902],[138.693275,-34.68404],[138.693274,-34.684057],[138.693274,-34.684079],[138.693276,-34.684112],[138.693283,-34.684156],[138.693292,-34.684196],[138.693307,-34.684238],[138.693318,-34.684268],[138.693342,-34.684328]]}},{"type":"Feature","properties":{"tier":"high"},"geometry":{"type":"LineString","coordinates":[[138.696643,-34.678601],[138.696669,-34.678662],[138.69666,-34.678691],[138.696652,-34.678728],[138.696644,-34.678774],[138.696641,-34.678798],[138.696638,-34.678841],[138.696641,-34.67886],[138.696648,-34.678899],[138.696659,-34.678941]]}},{"type":"Feature","properties":{"tier":"regional"},"geometry":{"type":"LineString","coordinates":[[138.696289,-34.678787],[138.696474,-34.678864]]}},{"type":"Feature","properties":{"tier":"regional"},"geometry":{"type":"LineString","coordinates":[[138.696659,-34.678941],[138.696676,-34.678947],[138.696938,-34.679058],[138.697102,-34.679135],[138.697276,-34.679222]]}},{"type":"Feature","properties":{"tier":"regional"},"geometry":{"type":"LineString","coordinates":[[138.702386,-34.681921],[138.702338,-34.681894],[138.702309,-34.681875],[138.702247,-34.681852],[138.702171,-34.681824],[138.702107,-34.681798],[138.701979,-34.681746],[138.701619,-34.681596],[138.701487,-34.681514]]}},{"type":"Feature","properties":{"tier":"arterial"},"geometry":{"type":"LineString","coordinates":[[138.696425,-34.678943],[138.696229,-34.678873]]}},{"type":"Feature","properties":{"tier":"arterial"},"geometry":{"type":"LineString","coordinates":[[138.696229,-34.678873],[138.696168,-34.678847],[138.696076,-34.678813]]}},{"type":"Feature","properties":{"tier":"arterial"},"geometry":{"type":"LineString","coordinates":[[138.695406,-34.678404],[138.695904,-34.678608],[138.696198,-34.678749],[138.696219,-34.678758],[138.696289,-34.678787]]}},{"type":"Feature","properties":{"tier":"high"},"geometry":{"type":"LineString","coordinates":[[138.696093,-34.679086],[138.696093,-34.678933],[138.696094,-34.678901]]}},{"type":"Feature","properties":{"tier":"arterial"},"geometry":{"type":"LineString","coordinates":[[138.707425,-34.655245],[138.705359,-34.654059],[138.705253,-34.653998],[138.70518,-34.653956],[138.70514,-34.653933],[138.705069,-34.653892],[138.704804,-34.65374],[138.70324,-34.652842],[138.702729,-34.652548],[138.699993,-34.650977]]}},{"type":"Feature","properties":{"tier":"high"},"geometry":{"type":"LineString","coordinates":[[138.731352,-34.630273],[138.731294,-34.630504],[138.731214,-34.630796],[138.731133,-34.631046],[138.730999,-34.6314],[138.730813,-34.631808],[138.730688,-34.632061],[138.730536,-34.632317]]}},{"type":"Feature","properties":{"tier":"high"},"geometry":{"type":"LineString","coordinates":[[138.731175,-34.629907],[138.731209,-34.629634],[138.731237,-34.629297],[138.731246,-34.628971],[138.731239,-34.628639],[138.731224,-34.628425],[138.73119,-34.628122],[138.731133,-34.627788],[138.731069,-34.627503],[138.730988,-34.627192],[138.730881,-34.626863],[138.73079,-34.626604],[138.73073,-34.626429],[138.730296,-34.625137],[138.730243,-34.62498]]}},{"type":"Feature","properties":{"tier":"high"},"geometry":{"type":"LineString","coordinates":[[138.730493,-34.62498],[138.730728,-34.625674],[138.731009,-34.626498],[138.731114,-34.626816],[138.73121,-34.62713],[138.731284,-34.627376],[138.731326,-34.62756],[138.731363,-34.62774],[138.731403,-34.627953],[138.731435,-34.628162],[138.731461,-34.628386],[138.731477,-34.628614],[138.731486,-34.628921]]}},{"type":"Feature","properties":{"tier":"high"},"geometry":{"type":"LineString","coordinates":[[138.731433,-34.62979],[138.731352,-34.630273]]}},{"type":"Feature","properties":{"tier":"high"},"geometry":{"type":"LineString","coordinates":[[138.731056,-34.630476],[138.731175,-34.629907]]}},{"type":"Feature","properties":{"tier":"high"},"geometry":{"type":"LineString","coordinates":[[138.691386,-34.686544],[138.691389,-34.686409],[138.691388,-34.686387],[138.69138,-34.686361],[138.691376,-34.686355],[138.691368,-34.686341],[138.691353,-34.686319],[138.691328,-34.686301],[138.691286,-34.686274],[138.691125,-34.686174]]}},{"type":"Feature","properties":{"tier":"high"},"geometry":{"type":"LineString","coordinates":[[138.702081,-34.668565],[138.702069,-34.668455],[138.702077,-34.668406],[138.702077,-34.668365],[138.702075,-34.668337],[138.702066,-34.668304],[138.702053,-34.668273],[138.702034,-34.668245],[138.702013,-34.668216],[138.701917,-34.668127]]}},{"type":"Feature","properties":{"tier":"high"},"geometry":{"type":"LineString","coordinates":[[138.70254,-34.668131],[138.70246,-34.668177],[138.702407,-34.668208],[138.702356,-34.668234],[138.70232,-34.66825],[138.702284,-34.668259],[138.70225,-34.668261]]}},{"type":"Feature","properties":{"tier":"high"},"geometry":{"type":"LineString","coordinates":[[138.701841,-34.668097],[138.702071,-34.66813],[138.702113,-34.668129],[138.702151,-34.668121],[138.702186,-34.668113],[138.702215,-34.668104],[138.70225,-34.66809],[138.702277,-34.668075],[138.702408,-34.667984]]}},{"type":"Feature","properties":{"tier":"high"},"geometry":{"type":"LineString","coordinates":[[138.697041,-34.677063],[138.697132,-34.677063],[138.697167,-34.677057],[138.697211,-34.677045],[138.697245,-34.677034],[138.697281,-34.67702],[138.697431,-34.67696]]}},{"type":"Feature","properties":{"tier":"high"},"geometry":{"type":"LineString","coordinates":[[138.710091,-34.656817],[138.710044,-34.656872]]}},{"type":"Feature","properties":{"tier":"high"},"geometry":{"type":"LineString","coordinates":[[138.696474,-34.678864],[138.696425,-34.678943]]}},{"type":"Feature","properties":{"tier":"high"},"geometry":{"type":"LineString","coordinates":[[138.696229,-34.678873],[138.696289,-34.678787]]}},{"type":"Feature","properties":{"tier":"high"},"geometry":{"type":"LineString","coordinates":[[138.70254,-34.668131],[138.702297,-34.66856]]}},{"type":"Feature","properties":{"tier":"high"},"geometry":{"type":"LineString","coordinates":[[138.728034,-34.635147],[138.728297,-34.634761],[138.728929,-34.633884]]}},{"type":"Feature","properties":{"tier":"high"},"geometry":{"type":"LineString","coordinates":[[138.697165,-34.677384],[138.697431,-34.67696]]}},{"type":"Feature","properties":{"tier":"arterial"},"geometry":{"type":"LineString","coordinates":[[138.734038,-34.628219],[138.734316,-34.627853]]}},{"type":"Feature","properties":{"tier":"high"},"geometry":{"type":"LineString","coordinates":[[138.692626,-34.684965],[138.692566,-34.685059],[138.692392,-34.685335],[138.692159,-34.685699],[138.692102,-34.685789],[138.692042,-34.685886]]}},{"type":"Feature","properties":{"tier":"high"},"geometry":{"type":"LineString","coordinates":[[138.71465,-34.651103],[138.715535,-34.650051],[138.716636,-34.648741],[138.71704,-34.648254],[138.717109,-34.648173],[138.717194,-34.648073]]}},{"type":"Feature","properties":{"tier":"high"},"geometry":{"type":"LineString","coordinates":[[138.696643,-34.678601],[138.696526,-34.678782],[138.696509,-34.678808],[138.696474,-34.678864]]}},{"type":"Feature","properties":{"tier":"high"},"geometry":{"type":"LineString","coordinates":[[138.696289,-34.678787],[138.696321,-34.678732],[138.696389,-34.678618]]}},{"type":"Feature","properties":{"tier":"high"},"geometry":{"type":"LineString","coordinates":[[138.693109,-34.683811],[138.693135,-34.683844],[138.693143,-34.68387],[138.69315,-34.6839],[138.69315,-34.683928],[138.693143,-34.684143]]}},{"type":"Feature","properties":{"tier":"arterial"},"geometry":{"type":"LineString","coordinates":[[138.695904,-34.678608],[138.695981,-34.67861],[138.696116,-34.678639],[138.69625,-34.678647],[138.696284,-34.678644],[138.696313,-34.678642],[138.696345,-34.678635],[138.696389,-34.678618]]}},{"type":"Feature","properties":{"tier":"high"},"geometry":{"type":"LineString","coordinates":[[138.70225,-34.668261],[138.702269,-34.668296],[138.702279,-34.66833],[138.702286,-34.66838],[138.702286,-34.668424],[138.702286,-34.668481],[138.702297,-34.66856]]}},{"type":"Feature","properties":{"tier":"high"},"geometry":{"type":"LineString","coordinates":[[138.691525,-34.686326],[138.69158,-34.686353],[138.691607,-34.686375],[138.691629,-34.686397],[138.691642,-34.68642],[138.691654,-34.686446],[138.691657,-34.686477],[138.691655,-34.686511],[138.691638,-34.686604]]}},{"type":"Feature","properties":{"tier":"high"},"geometry":{"type":"LineString","coordinates":[[138.691125,-34.686174],[138.691378,-34.686229],[138.691414,-34.686232],[138.691438,-34.686231],[138.691461,-34.686226],[138.691486,-34.686218],[138.691619,-34.686178]]}},{"type":"Feature","properties":{"tier":"high"},"geometry":{"type":"LineString","coordinates":[[138.696799,-34.679116],[138.696708,-34.679118],[138.696645,-34.679108],[138.696581,-34.679098],[138.696521,-34.679091],[138.696447,-34.679086],[138.696421,-34.679085],[138.696388,-34.679088],[138.696315,-34.679118]]}},{"type":"Feature","properties":{"tier":"high"},"geometry":{"type":"LineString","coordinates":[[138.693342,-34.684328],[138.693295,-34.684294],[138.693264,-34.684275],[138.693236,-34.684264],[138.693206,-34.684258],[138.693172,-34.684257],[138.693147,-34.684261],[138.693139,-34.684262],[138.693106,-34.684269],[138.693054,-34.684288]]}},{"type":"Feature","properties":{"tier":"high"},"geometry":{"type":"LineString","coordinates":[[138.697165,-34.677384],[138.69715,-34.677273],[138.697152,-34.677234],[138.697152,-34.677204],[138.697149,-34.677177],[138.697135,-34.67715],[138.697103,-34.677122],[138.697041,-34.677063]]}},{"type":"Feature","properties":{"tier":"high"},"geometry":{"type":"LineString","coordinates":[[138.706122,-34.661451],[138.706128,-34.661301],[138.706133,-34.661265],[138.706133,-34.661233],[138.706126,-34.661197],[138.706116,-34.661165],[138.706099,-34.661134],[138.706079,-34.661107],[138.70606,-34.661084],[138.706033,-34.661062],[138.706007,-34.661047],[138.705939,-34.660996]]}},{"type":"Feature","properties":{"tier":"regional"},"geometry":{"type":"LineString","coordinates":[[138.713094,-34.686595],[138.713017,-34.686677],[138.713005,-34.686689],[138.71293,-34.68677]]}},{"type":"Feature","properties":{"tier":"regional"},"geometry":{"type":"LineString","coordinates":[[138.713754,-34.686764],[138.714336,-34.68702]]}},{"type":"Feature","properties":{"tier":"regional"},"geometry":{"type":"LineString","coordinates":[[138.700356,-34.681013],[138.700256,-34.68097],[138.699963,-34.680845]]}},{"type":"Feature","properties":{"tier":"regional"},"geometry":{"type":"LineString","coordinates":[[138.699433,-34.680644],[138.699385,-34.680625],[138.699172,-34.680524],[138.698827,-34.680345],[138.698632,-34.680231],[138.698482,-34.680133],[138.698324,-34.680017],[138.698187,-34.679914],[138.698006,-34.679779],[138.697823,-34.679656],[138.697643,-34.679544],[138.697565,-34.679496],[138.697241,-34.679313],[138.697073,-34.679229],[138.696799,-34.679116],[138.696513,-34.678978],[138.696486,-34.678967],[138.696425,-34.678943]]}},{"type":"Feature","properties":{"tier":"regional"},"geometry":{"type":"LineString","coordinates":[[138.701487,-34.681514],[138.701364,-34.681459],[138.700917,-34.681255]]}},{"type":"Feature","properties":{"tier":"regional"},"geometry":{"type":"LineString","coordinates":[[138.700356,-34.681013],[138.700561,-34.681078],[138.700662,-34.681117]]}},{"type":"Feature","properties":{"tier":"regional"},"geometry":{"type":"LineString","coordinates":[[138.700917,-34.681255],[138.700678,-34.681181],[138.700635,-34.681161],[138.700584,-34.681138]]}},{"type":"Feature","properties":{"tier":"regional"},"geometry":{"type":"LineString","coordinates":[[138.70965,-34.685031],[138.709345,-34.684901],[138.708928,-34.68472],[138.708626,-34.684572]]}},{"type":"Feature","properties":{"tier":"regional"},"geometry":{"type":"LineString","coordinates":[[138.702691,-34.681921],[138.702754,-34.681966],[138.702781,-34.681985],[138.702805,-34.682002],[138.702912,-34.682065],[138.703118,-34.682169],[138.703371,-34.682309]]}},{"type":"Feature","properties":{"tier":"regional"},"geometry":{"type":"LineString","coordinates":[[138.715452,-34.68752],[138.715329,-34.687468],[138.714442,-34.68708],[138.714336,-34.68702]]}},{"type":"Feature","properties":{"tier":"regional"},"geometry":{"type":"LineString","coordinates":[[138.703371,-34.682309],[138.703092,-34.682207],[138.702872,-34.682109],[138.702765,-34.682062],[138.702734,-34.682051],[138.702708,-34.682042],[138.702649,-34.682028],[138.702601,-34.682034]]}},{"type":"Feature","properties":{"tier":"regional"},"geometry":{"type":"LineString","coordinates":[[138.713185,-34.686505],[138.713238,-34.686544],[138.713292,-34.686568],[138.713327,-34.68658],[138.713501,-34.686641],[138.713754,-34.686764]]}},{"type":"Feature","properties":{"tier":"regional"},"geometry":{"type":"LineString","coordinates":[[138.710294,-34.685287],[138.710378,-34.685326],[138.711093,-34.685636],[138.711788,-34.685936],[138.71234,-34.686154],[138.712487,-34.686212],[138.712631,-34.68627]]}},{"type":"Feature","properties":{"tier":"regional"},"geometry":{"type":"LineString","coordinates":[[138.712631,-34.68627],[138.712767,-34.686316],[138.712875,-34.686374],[138.712927,-34.686389],[138.713032,-34.686418]]}},{"type":"Feature","properties":{"tier":"regional"},"geometry":{"type":"LineString","coordinates":[[138.708626,-34.684572],[138.708962,-34.684681],[138.709397,-34.684857],[138.709682,-34.684981]]}},{"type":"Feature","properties":{"tier":"regional"},"geometry":{"type":"LineString","coordinates":[[138.712959,-34.686525],[138.712834,-34.686408],[138.712789,-34.686367],[138.712631,-34.68627]]}},{"type":"Feature","properties":{"tier":"regional"},"geometry":{"type":"LineString","coordinates":[[138.713754,-34.686764],[138.713406,-34.686648],[138.713266,-34.686614],[138.713173,-34.686595],[138.713121,-34.686589]]}},{"type":"Feature","properties":{"tier":"regional"},"geometry":{"type":"LineString","coordinates":[[138.703371,-34.682309],[138.703631,-34.682422],[138.704728,-34.682893],[138.70592,-34.6834],[138.706269,-34.683552],[138.706727,-34.683751]]}},{"type":"Feature","properties":{"tier":"regional"},"geometry":{"type":"LineString","coordinates":[[138.701487,-34.681514],[138.701649,-34.681556],[138.701987,-34.681687],[138.702119,-34.681741],[138.70221,-34.681773],[138.70227,-34.68179],[138.70233,-34.681801],[138.70235,-34.681803],[138.702396,-34.681808],[138.702474,-34.681807]]}},{"type":"Feature","properties":{"tier":"regional"},"geometry":{"type":"LineString","coordinates":[[138.714336,-34.68702],[138.714448,-34.687056],[138.71482,-34.687178],[138.715217,-34.687358],[138.715366,-34.687421],[138.715594,-34.68752]]}},{"type":"Feature","properties":{"tier":"regional"},"geometry":{"type":"LineString","coordinates":[[138.75002,-34.680808],[138.749469,-34.680717],[138.749176,-34.680663],[138.749047,-34.680633],[138.748969,-34.680605],[138.748938,-34.680595],[138.74889,-34.680579],[138.748796,-34.680533],[138.747415,-34.679834],[138.746988,-34.679622],[138.746734,-34.679508],[138.746544,-34.679434],[138.74621,-34.67932],[138.745631,-34.679135],[138.745278,-34.679018],[138.744886,-34.678895],[138.744765,-34.678857],[138.743697,-34.678523],[138.743308,-34.678396],[138.742998,-34.678303],[138.742656,-34.67821],[138.742445,-34.678144],[138.742343,-34.67811],[138.742292,-34.678085],[138.742233,-34.678053],[138.742184,-34.67802],[138.742107,-34.677965],[138.742015,-34.677894],[138.741775,-34.67769],[138.740881,-34.676918],[138.740591,-34.67669],[138.740528,-34.676646],[138.74047,-34.676615],[138.740412,-34.676588],[138.740355,-34.676567],[138.740258,-34.676541],[138.740052,-34.676504],[138.739321,-34.676376],[138.739184,-34.676362],[138.739075,-34.676356],[138.738954,-34.676359],[138.738844,-34.676378],[138.738675,-34.676422],[138.738191,-34.676579],[138.736737,-34.677053],[138.734678,-34.677719],[138.734429,-34.677788],[138.734188,-34.677842],[138.734013,-34.677873],[138.733765,-34.677912],[138.733565,-34.677937],[138.733208,-34.677977],[138.732434,-34.678063],[138.732076,-34.678104],[138.731832,-34.678144],[138.731615,-34.678189],[138.731418,-34.678236],[138.73124,-34.678282],[138.731066,-34.678324],[138.731011,-34.678337],[138.73096,-34.678348],[138.730905,-34.678356],[138.730847,-34.678362],[138.730794,-34.678366],[138.730737,-34.678367],[138.73072,-34.678367],[138.730644,-34.678364],[138.730558,-34.678354],[138.730502,-34.678345],[138.730431,-34.67833],[138.730375,-34.678315],[138.730332,-34.678302],[138.729582,-34.678069],[138.728721,-34.677802],[138.727286,-34.677382],[138.727002,-34.677283],[138.726187,-34.676994],[138.726121,-34.676969],[138.726059,-34.676942],[138.726002,-34.676912],[138.725954,-34.676881],[138.725908,-34.676847],[138.725867,-34.67681],[138.725832,-34.676773],[138.725817,-34.676756],[138.725785,-34.676713],[138.725761,-34.676673],[138.72573,-34.67661],[138.725709,-34.676549],[138.725684,-34.676454],[138.725595,-34.676074],[138.725577,-34.676017],[138.725536,-34.67591],[138.725484,-34.675815],[138.725428,-34.675746],[138.725307,-34.675638],[138.724681,-34.675118],[138.724254,-34.67473],[138.723548,-34.67409],[138.722668,-34.67329],[138.722551,-34.673193],[138.722502,-34.673156],[138.722464,-34.673126],[138.722378,-34.673077],[138.722297,-34.673037],[138.722126,-34.67296],[138.721929,-34.672882],[138.720327,-34.672257],[138.720082,-34.672162],[138.718578,-34.671576],[138.717109,-34.671],[138.715535,-34.670389],[138.715292,-34.6703]]}},{"type":"Feature","properties":{"tier":"regional"},"geometry":{"type":"LineString","coordinates":[[138.703799,-34.665906],[138.703613,-34.665852]]}},{"type":"Feature","properties":{"tier":"regional"},"geometry":{"type":"LineString","coordinates":[[138.702197,-34.682437],[138.702236,-34.68238],[138.702258,-34.682321],[138.702275,-34.682244],[138.702289,-34.682179],[138.702301,-34.682145],[138.702364,-34.682037],[138.702404,-34.681978]]}},{"type":"Feature","properties":{"tier":"regional"},"geometry":{"type":"LineString","coordinates":[[138.702552,-34.682045],[138.702501,-34.682098],[138.70248,-34.682122],[138.702462,-34.682161],[138.702453,-34.682195],[138.702446,-34.682239],[138.702439,-34.682276],[138.702415,-34.68234],[138.702368,-34.682419],[138.702305,-34.682487]]}},{"type":"Feature","properties":{"tier":"regional"},"geometry":{"type":"LineString","coordinates":[[138.699469,-34.680586],[138.699433,-34.680644]]}},{"type":"Feature","properties":{"tier":"regional"},"geometry":{"type":"LineString","coordinates":[[138.715329,-34.687468],[138.715366,-34.687421]]}},{"type":"Feature","properties":{"tier":"regional"},"geometry":{"type":"LineString","coordinates":[[138.715329,-34.687468],[138.71532,-34.68752]]}},{"type":"Feature","properties":{"tier":"regional"},"geometry":{"type":"LineString","coordinates":[[138.715271,-34.68752],[138.715329,-34.687468]]}},{"type":"Feature","properties":{"tier":"regional"},"geometry":{"type":"LineString","coordinates":[[138.712959,-34.686525],[138.712958,-34.686504],[138.71296,-34.686488],[138.712965,-34.686472],[138.712974,-34.686458],[138.712985,-34.686445],[138.712999,-34.686434],[138.713015,-34.686425],[138.713032,-34.686418],[138.713052,-34.686414],[138.713071,-34.686412],[138.713091,-34.686414],[138.71311,-34.686418],[138.713128,-34.686425],[138.713144,-34.686434],[138.713158,-34.686445],[138.713169,-34.686459],[138.713178,-34.686473],[138.713183,-34.686489],[138.713185,-34.686505],[138.713183,-34.68652],[138.713179,-34.686535],[138.713172,-34.686548],[138.713163,-34.686561],[138.713151,-34.686572],[138.713137,-34.686582],[138.713121,-34.686589]]}},{"type":"Feature","properties":{"tier":"regional"},"geometry":{"type":"LineString","coordinates":[[138.702642,-34.682012],[138.702622,-34.682024],[138.702601,-34.682034],[138.702577,-34.682041],[138.702552,-34.682045],[138.702529,-34.682045],[138.702507,-34.682042],[138.702486,-34.682037],[138.702465,-34.68203],[138.702447,-34.68202],[138.70243,-34.682007],[138.702415,-34.681993],[138.702404,-34.681978],[138.702394,-34.681959],[138.702389,-34.681941],[138.702386,-34.681921],[138.702388,-34.681901],[138.702394,-34.681881],[138.702404,-34.681862],[138.702417,-34.681845],[138.702434,-34.681829],[138.702453,-34.681817],[138.702474,-34.681807],[138.702493,-34.681801],[138.702512,-34.681797],[138.702541,-34.681795],[138.702569,-34.681797],[138.702597,-34.681804],[138.702622,-34.681815],[138.702644,-34.68183],[138.702663,-34.681848],[138.702673,-34.681861],[138.70268,-34.681874],[138.702686,-34.681889],[138.702689,-34.681905],[138.702691,-34.681921],[138.702688,-34.681941],[138.702682,-34.681961],[138.702672,-34.68198],[138.702659,-34.681997],[138.702642,-34.682012]]}},{"type":"Feature","properties":{"tier":"regional"},"geometry":{"type":"LineString","coordinates":[[138.73425,-34.628098],[138.73426,-34.628008],[138.734316,-34.627853]]}},{"type":"Feature","properties":{"tier":"arterial"},"geometry":{"type":"LineString","coordinates":[[138.734038,-34.628219],[138.734168,-34.628127],[138.73425,-34.628098]]}},{"type":"Feature","properties":{"tier":"arterial"},"geometry":{"type":"LineString","coordinates":[[138.736238,-34.625566],[138.736339,-34.625557]]}},{"type":"Feature","properties":{"tier":"arterial"},"geometry":{"type":"LineString","coordinates":[[138.734722,-34.627341],[138.73482,-34.627391]]}},{"type":"Feature","properties":{"tier":"arterial"},"geometry":{"type":"LineString","coordinates":[[138.692151,-34.676962],[138.691996,-34.676885],[138.691684,-34.67673],[138.691616,-34.676696],[138.691578,-34.676678],[138.691224,-34.676511],[138.691011,-34.676387]]}},{"type":"Feature","properties":{"tier":"arterial"},"geometry":{"type":"LineString","coordinates":[[138.691011,-34.676387],[138.691233,-34.676445],[138.691555,-34.676579],[138.691621,-34.676607],[138.69166,-34.676624],[138.692048,-34.676813],[138.69213,-34.676853]]}},{"type":"Feature","properties":{"tier":"arterial"},"geometry":{"type":"LineString","coordinates":[[138.689548,-34.675898],[138.690291,-34.676114],[138.690645,-34.676237],[138.691011,-34.676387]]}},{"type":"Feature","properties":{"tier":"arterial"},"geometry":{"type":"LineString","coordinates":[[138.689548,-34.675898],[138.689306,-34.675861],[138.688644,-34.675698],[138.688302,-34.6756],[138.687932,-34.675487],[138.68748,-34.675341]]}},{"type":"Feature","properties":{"tier":"arterial"},"geometry":{"type":"LineString","coordinates":[[138.68748,-34.675261],[138.687984,-34.675411],[138.688345,-34.675525],[138.68852,-34.675579],[138.688872,-34.675675],[138.689436,-34.675836],[138.689548,-34.675898]]}},{"type":"Feature","properties":{"tier":"regional"},"geometry":{"type":"LineString","coordinates":[[138.689187,-34.64157],[138.691193,-34.637906],[138.692644,-34.635317],[138.694673,-34.631593],[138.694721,-34.631505]]}},{"type":"Feature","properties":{"tier":"regional"},"geometry":{"type":"LineString","coordinates":[[138.746334,-34.626256],[138.746742,-34.626477],[138.747032,-34.626637]]}},{"type":"Feature","properties":{"tier":"arterial"},"geometry":{"type":"LineString","coordinates":[[138.734115,-34.628261],[138.733683,-34.628839],[138.733522,-34.62901]]}},{"type":"Feature","properties":{"tier":"regional"},"geometry":{"type":"LineString","coordinates":[[138.737235,-34.634114],[138.737124,-34.633972],[138.737046,-34.633848]]}},{"type":"Feature","properties":{"tier":"regional"},"geometry":{"type":"LineString","coordinates":[[138.737046,-34.633848],[138.736622,-34.633577],[138.736502,-34.633507],[138.73631,-34.633397],[138.735811,-34.633109]]}},{"type":"Feature","properties":{"tier":"regional"},"geometry":{"type":"LineString","coordinates":[[138.73748,-34.634103],[138.737514,-34.634124],[138.737714,-34.634235]]}},{"type":"Feature","properties":{"tier":"regional"},"geometry":{"type":"LineString","coordinates":[[138.737714,-34.634235],[138.737554,-34.634202],[138.737451,-34.634191],[138.737416,-34.634191]]}},{"type":"Feature","properties":{"tier":"regional"},"geometry":{"type":"LineString","coordinates":[[138.73455,-34.628317],[138.734298,-34.628179],[138.73428,-34.628156],[138.73425,-34.628098]]}},{"type":"Feature","properties":{"tier":"regional"},"geometry":{"type":"LineString","coordinates":[[138.737083,-34.631445],[138.73657,-34.632084],[138.735866,-34.632916],[138.735861,-34.632922],[138.735848,-34.632947],[138.735827,-34.633007]]}},{"type":"Feature","properties":{"tier":"regional"},"geometry":{"type":"LineString","coordinates":[[138.689469,-34.68227],[138.689234,-34.68219],[138.689111,-34.682149]]}},{"type":"Feature","properties":{"tier":"regional"},"geometry":{"type":"LineString","coordinates":[[138.689144,-34.682085],[138.689258,-34.68215],[138.689312,-34.68218],[138.689469,-34.68227]]}},{"type":"Feature","properties":{"tier":"regional"},"geometry":{"type":"LineString","coordinates":[[138.688926,-34.682103],[138.688835,-34.682042],[138.688815,-34.682029],[138.688657,-34.681938]]}},{"type":"Feature","properties":{"tier":"regional"},"geometry":{"type":"LineString","coordinates":[[138.688657,-34.681938],[138.688846,-34.681987],[138.688867,-34.681989],[138.688997,-34.682]]}},{"type":"Feature","properties":{"tier":"regional"},"geometry":{"type":"LineString","coordinates":[[138.68914,-34.682108],[138.689129,-34.68213],[138.689111,-34.682149],[138.689083,-34.682166],[138.689049,-34.682175],[138.689018,-34.682175],[138.688988,-34.682167],[138.688962,-34.682154],[138.688942,-34.682134],[138.688932,-34.682119],[138.688926,-34.682103],[138.688924,-34.682077],[138.688931,-34.682052],[138.688947,-34.682029],[138.688969,-34.682012],[138.688997,-34.682],[138.689023,-34.681995],[138.689055,-34.681996],[138.689086,-34.682005],[138.689112,-34.682021],[138.689129,-34.68204],[138.68914,-34.682062],[138.689144,-34.682085],[138.68914,-34.682108]]}},{"type":"Feature","properties":{"tier":"regional"},"geometry":{"type":"LineString","coordinates":[[138.692854,-34.68371],[138.691733,-34.683233],[138.691678,-34.683209],[138.690394,-34.682663],[138.689669,-34.682355],[138.689469,-34.68227]]}},{"type":"Feature","properties":{"tier":"regional"},"geometry":{"type":"LineString","coordinates":[[138.689044,-34.666677],[138.689059,-34.666605],[138.689068,-34.66655],[138.68908,-34.666501]]}},{"type":"Feature","properties":{"tier":"regional"},"geometry":{"type":"LineString","coordinates":[[138.68753,-34.669915],[138.687563,-34.669829],[138.68757,-34.669801],[138.687578,-34.669756],[138.687586,-34.669717],[138.687601,-34.669673],[138.687614,-34.669644],[138.68764,-34.669595],[138.68772,-34.66946],[138.687769,-34.669379],[138.687828,-34.669274],[138.687931,-34.669092],[138.687996,-34.668974],[138.688053,-34.66887],[138.688405,-34.668243],[138.688452,-34.668165],[138.688508,-34.668059],[138.688919,-34.667347],[138.688956,-34.667282],[138.689017,-34.667167],[138.689041,-34.667103],[138.689048,-34.66706],[138.68905,-34.667026],[138.689043,-34.666993],[138.689031,-34.666961]]}},{"type":"Feature","properties":{"tier":"regional"},"geometry":{"type":"LineString","coordinates":[[138.691591,-34.662726],[138.691465,-34.663029],[138.691412,-34.663128],[138.691363,-34.663217],[138.69116,-34.663574]]}},{"type":"Feature","properties":{"tier":"regional"},"geometry":{"type":"LineString","coordinates":[[138.687485,-34.670076],[138.68748,-34.670075]]}},{"type":"Feature","properties":{"tier":"high"},"geometry":{"type":"LineString","coordinates":[[138.693109,-34.683811],[138.693143,-34.683758],[138.693534,-34.683139],[138.693616,-34.683009]]}},{"type":"Feature","properties":{"tier":"high"},"geometry":{"type":"LineString","coordinates":[[138.691977,-34.685612],[138.692007,-34.685563],[138.692057,-34.685483],[138.692178,-34.685295],[138.692493,-34.684793]]}},{"type":"Feature","properties":{"tier":"regional"},"geometry":{"type":"LineString","coordinates":[[138.68748,-34.666715],[138.688216,-34.666725],[138.688748,-34.666733],[138.688878,-34.666726],[138.688947,-34.666716],[138.689012,-34.666696]]}},{"type":"Feature","properties":{"tier":"regional"},"geometry":{"type":"LineString","coordinates":[[138.687738,-34.670019],[138.687733,-34.670044],[138.687721,-34.670067],[138.687704,-34.670088],[138.687681,-34.670105],[138.687653,-34.670118],[138.687623,-34.670125],[138.687591,-34.670126],[138.68756,-34.670122],[138.687531,-34.670111],[138.687505,-34.670096],[138.687485,-34.670076],[138.68748,-34.670068]]}},{"type":"Feature","properties":{"tier":"regional"},"geometry":{"type":"LineString","coordinates":[[138.68748,-34.669959],[138.687489,-34.669946],[138.687508,-34.669929],[138.68753,-34.669915],[138.687566,-34.669903],[138.687606,-34.6699],[138.687645,-34.669906],[138.68768,-34.669921],[138.687698,-34.669933],[138.687713,-34.669948],[138.687727,-34.66997],[138.687736,-34.669994],[138.687738,-34.670019]]}},{"type":"Feature","properties":{"tier":"regional"},"geometry":{"type":"LineString","coordinates":[[138.68911,-34.666664],[138.689146,-34.666669],[138.689176,-34.666679],[138.689194,-34.666693],[138.689212,-34.666708],[138.689227,-34.66673],[138.689238,-34.666751],[138.689243,-34.66677],[138.689249,-34.666794],[138.689249,-34.666823],[138.689242,-34.666853],[138.689233,-34.666884],[138.689217,-34.666914],[138.689202,-34.666932],[138.689179,-34.666953],[138.689135,-34.666967],[138.68911,-34.66697],[138.689089,-34.666971],[138.689066,-34.666969],[138.689031,-34.666961],[138.689015,-34.66695],[138.688997,-34.666934],[138.688973,-34.666902],[138.68896,-34.666868],[138.688955,-34.666843],[138.688952,-34.666812],[138.688955,-34.666784],[138.688961,-34.666764],[138.688975,-34.666735],[138.688991,-34.666714],[138.689012,-34.666696],[138.689026,-34.666685],[138.689044,-34.666677],[138.689079,-34.666666],[138.68911,-34.666664]]}},{"type":"Feature","properties":{"tier":"regional"},"geometry":{"type":"LineString","coordinates":[[138.68748,-34.64478],[138.687596,-34.644565],[138.688038,-34.643745],[138.688648,-34.642583],[138.688689,-34.642504],[138.688722,-34.642442]]}},{"type":"Feature","properties":{"tier":"regional"},"geometry":{"type":"LineString","coordinates":[[138.712457,-34.68752],[138.712715,-34.68711],[138.71292,-34.686787],[138.71293,-34.68677]]}},{"type":"Feature","properties":{"tier":"regional"},"geometry":{"type":"LineString","coordinates":[[138.728025,-34.68752],[138.728388,-34.687429],[138.728427,-34.687419],[138.728483,-34.687409],[138.728534,-34.687402],[138.728581,-34.687399],[138.728618,-34.687398],[138.728678,-34.6874],[138.728739,-34.687407],[138.728776,-34.687413],[138.728827,-34.687424],[138.728872,-34.687436],[138.728915,-34.687451],[138.728962,-34.68747],[138.728995,-34.687486],[138.729046,-34.687514],[138.729056,-34.68752]]}},{"type":"Feature","properties":{"tier":"regional"},"geometry":{"type":"LineString","coordinates":[[138.731263,-34.68752],[138.731564,-34.687083],[138.732204,-34.686158],[138.732645,-34.685514],[138.7328,-34.685326],[138.732955,-34.685178],[138.733144,-34.685003],[138.73339,-34.684781],[138.733478,-34.684692],[138.733646,-34.684473],[138.733815,-34.684247],[138.733905,-34.684121],[138.734055,-34.683906],[138.734258,-34.683604],[138.734323,-34.683477],[138.734334,-34.683452],[138.734348,-34.683431],[138.734364,-34.683412],[138.734381,-34.683397],[138.734396,-34.683385],[138.734417,-34.683372],[138.734435,-34.683364],[138.734464,-34.683353],[138.734481,-34.683348],[138.734503,-34.683344],[138.734523,-34.683342],[138.734547,-34.683341],[138.734573,-34.683342],[138.735178,-34.683397],[138.737026,-34.683568],[138.73877,-34.68372],[138.739096,-34.683733],[138.739347,-34.683755],[138.74009,-34.68385],[138.740389,-34.683879],[138.740827,-34.683916],[138.74108,-34.68394]]}},{"type":"Feature","properties":{"tier":"regional"},"geometry":{"type":"LineString","coordinates":[[138.707334,-34.684015],[138.708141,-34.684362],[138.708626,-34.684572]]}},{"type":"Feature","properties":{"tier":"regional"},"geometry":{"type":"LineString","coordinates":[[138.698343,-34.68752],[138.698359,-34.687473],[138.698386,-34.687399],[138.698416,-34.687325],[138.698452,-34.687243],[138.698486,-34.687171],[138.698527,-34.687089],[138.698573,-34.687005],[138.698624,-34.686917],[138.698679,-34.68683],[138.698784,-34.686673],[138.699033,-34.686298],[138.699213,-34.686028],[138.699356,-34.685795],[138.699444,-34.685645],[138.699453,-34.685629],[138.699508,-34.685514],[138.699545,-34.685437],[138.699551,-34.68542],[138.699633,-34.685211],[138.699679,-34.685099],[138.69971,-34.685036],[138.699753,-34.684956],[138.699805,-34.684873],[138.699828,-34.68484],[138.699856,-34.684801],[138.699909,-34.684734],[138.699968,-34.684666],[138.70002,-34.684611],[138.700088,-34.684546],[138.70013,-34.684509],[138.700162,-34.684482],[138.70021,-34.684444],[138.700272,-34.684398],[138.700334,-34.684356],[138.700398,-34.684315],[138.700479,-34.684268],[138.700559,-34.684226],[138.700626,-34.684194],[138.700692,-34.684165],[138.700825,-34.684107],[138.700835,-34.684102],[138.701013,-34.684024],[138.701068,-34.683997],[138.701145,-34.683955],[138.701219,-34.683907],[138.701278,-34.683862],[138.701322,-34.683823],[138.701378,-34.683767],[138.701435,-34.683699],[138.701477,-34.683639],[138.701676,-34.683321],[138.701893,-34.682973],[138.702054,-34.682673]]}},{"type":"Feature","properties":{"tier":"regional"},"geometry":{"type":"LineString","coordinates":[[138.713121,-34.686589],[138.713094,-34.686595]]}},{"type":"Feature","properties":{"tier":"regional"},"geometry":{"type":"LineString","coordinates":[[138.71293,-34.68677],[138.712945,-34.686683],[138.71295,-34.686648],[138.712975,-34.686551]]}},{"type":"Feature","properties":{"tier":"regional"},"geometry":{"type":"LineString","coordinates":[[138.713094,-34.686595],[138.713071,-34.686596],[138.713048,-34.686594],[138.713026,-34.686588],[138.713006,-34.686579],[138.712989,-34.686566],[138.712975,-34.686551],[138.712966,-34.686535],[138.712959,-34.686525]]}},{"type":"Feature","properties":{"tier":"regional"},"geometry":{"type":"LineString","coordinates":[[138.68748,-34.669948],[138.687489,-34.669946]]}},{"type":"Feature","properties":{"tier":"regional"},"geometry":{"type":"LineString","coordinates":[[138.688997,-34.666934],[138.688929,-34.666911],[138.688871,-34.666903],[138.688149,-34.666893],[138.68748,-34.666885]]}},{"type":"Feature","properties":{"tier":"regional"},"geometry":{"type":"LineString","coordinates":[[138.694403,-34.667462],[138.694259,-34.667402],[138.694104,-34.667347],[138.693849,-34.667255],[138.693755,-34.667218],[138.693338,-34.667046],[138.6933,-34.667035],[138.693201,-34.667004],[138.693102,-34.666979],[138.693012,-34.666968],[138.692856,-34.666964],[138.692284,-34.666952],[138.691975,-34.666947],[138.691496,-34.666938],[138.691465,-34.666933],[138.691031,-34.666925],[138.690312,-34.666903],[138.689906,-34.666897],[138.689496,-34.66689],[138.689389,-34.666893],[138.689328,-34.6669],[138.68927,-34.666912],[138.689202,-34.666932]]}},{"type":"Feature","properties":{"tier":"regional"},"geometry":{"type":"LineString","coordinates":[[138.695579,-34.667888],[138.695301,-34.667789],[138.695112,-34.667727],[138.694941,-34.667667],[138.694785,-34.667607],[138.694672,-34.667563]]}},{"type":"Feature","properties":{"tier":"regional"},"geometry":{"type":"LineString","coordinates":[[138.694708,-34.667501],[138.694984,-34.667617],[138.695175,-34.667694],[138.695306,-34.667745],[138.695436,-34.667807],[138.695579,-34.667888]]}},{"type":"Feature","properties":{"tier":"regional"},"geometry":{"type":"LineString","coordinates":[[138.694443,-34.667392],[138.694542,-34.667431],[138.694621,-34.667462],[138.694708,-34.667501]]}},{"type":"Feature","properties":{"tier":"regional"},"geometry":{"type":"LineString","coordinates":[[138.694672,-34.667563],[138.694583,-34.667529],[138.694502,-34.667499],[138.694403,-34.667462]]}},{"type":"Feature","properties":{"tier":"regional"},"geometry":{"type":"LineString","coordinates":[[138.689563,-34.670081],[138.68957,-34.670049],[138.68959,-34.67002],[138.689608,-34.670006],[138.689628,-34.669995],[138.689666,-34.669986],[138.689705,-34.669987],[138.689742,-34.669998],[138.689759,-34.670008],[138.689773,-34.67002],[138.689793,-34.670048],[138.6898,-34.670079],[138.689795,-34.670111],[138.689778,-34.67014],[138.689758,-34.670157],[138.689733,-34.67017],[138.6897,-34.670179],[138.689666,-34.670179],[138.689633,-34.670172],[138.689604,-34.670156],[138.689588,-34.670143],[138.689569,-34.670114],[138.689563,-34.670081]]}},{"type":"Feature","properties":{"tier":"regional"},"geometry":{"type":"LineString","coordinates":[[138.689588,-34.670143],[138.689534,-34.67012],[138.689432,-34.670097],[138.687834,-34.670059],[138.687704,-34.670088]]}},{"type":"Feature","properties":{"tier":"regional"},"geometry":{"type":"LineString","coordinates":[[138.687713,-34.669948],[138.687835,-34.66999],[138.689366,-34.670029],[138.689494,-34.670046],[138.689541,-34.670036],[138.68959,-34.67002]]}},{"type":"Feature","properties":{"tier":"regional"},"geometry":{"type":"LineString","coordinates":[[138.68908,-34.666501],[138.689099,-34.666453],[138.68913,-34.666395],[138.68915,-34.666364],[138.689187,-34.666316],[138.689229,-34.666276],[138.689249,-34.666257],[138.689278,-34.666231],[138.689343,-34.666176],[138.689438,-34.666091],[138.689669,-34.665883],[138.689798,-34.665767],[138.689832,-34.665725],[138.689836,-34.66572],[138.689846,-34.665702],[138.689882,-34.665644],[138.690065,-34.665323],[138.690165,-34.665151],[138.690211,-34.665073],[138.690227,-34.665044],[138.690653,-34.664273],[138.690765,-34.664109],[138.690807,-34.664035],[138.690813,-34.663991]]}},{"type":"Feature","properties":{"tier":"regional"},"geometry":{"type":"LineString","coordinates":[[138.691093,-34.663543],[138.691264,-34.663236],[138.691342,-34.663101],[138.691397,-34.663004],[138.691591,-34.662726]]}},{"type":"Feature","properties":{"tier":"regional"},"geometry":{"type":"LineString","coordinates":[[138.689179,-34.666953],[138.689148,-34.666993],[138.689137,-34.667028],[138.689132,-34.667055],[138.689131,-34.667092],[138.689122,-34.667133],[138.689101,-34.667183],[138.688731,-34.667823],[138.688581,-34.668086],[138.688522,-34.668191],[138.68848,-34.668269],[138.688342,-34.668504],[138.688061,-34.668998],[138.687993,-34.669118],[138.687893,-34.669296],[138.687832,-34.669405],[138.687786,-34.669486],[138.687729,-34.669588],[138.687679,-34.669686],[138.687664,-34.669728],[138.687657,-34.669757],[138.687653,-34.669787],[138.687653,-34.6698],[138.687654,-34.669833],[138.68768,-34.669921]]}},{"type":"Feature","properties":{"tier":"regional"},"geometry":{"type":"LineString","coordinates":[[138.690887,-34.664014],[138.690878,-34.664046],[138.690828,-34.664133],[138.690531,-34.664645],[138.690299,-34.665072],[138.69024,-34.665181],[138.690126,-34.665379],[138.689944,-34.665701],[138.689909,-34.665758],[138.68987,-34.665811],[138.689825,-34.665858],[138.689683,-34.66598],[138.689499,-34.666137],[138.6894,-34.666222],[138.689321,-34.66629],[138.689306,-34.666305],[138.689267,-34.666342],[138.689216,-34.666399],[138.689188,-34.666447],[138.689173,-34.666481],[138.689161,-34.666518],[138.689155,-34.666554],[138.689154,-34.666591],[138.689161,-34.666632],[138.689176,-34.666679]]}},{"type":"Feature","properties":{"tier":"regional"},"geometry":{"type":"LineString","coordinates":[[138.747032,-34.626637],[138.749487,-34.62806],[138.749839,-34.628105],[138.75002,-34.6281]]}},{"type":"Feature","properties":{"tier":"high"},"geometry":{"type":"LineString","coordinates":[[138.728929,-34.633884],[138.729144,-34.633577],[138.729306,-34.633319],[138.72944,-34.633088],[138.729579,-34.632784],[138.72974,-34.632398],[138.72984,-34.632101],[138.730034,-34.631521],[138.730132,-34.631282],[138.730222,-34.631105],[138.730351,-34.630908],[138.730498,-34.630712],[138.730654,-34.630546],[138.730794,-34.630417],[138.730926,-34.630304],[138.731292,-34.630045],[138.731475,-34.629944],[138.731566,-34.629905],[138.731692,-34.629846],[138.732099,-34.629686]]}},{"type":"Feature","properties":{"tier":"arterial"},"geometry":{"type":"LineString","coordinates":[[138.711043,-34.627234],[138.712563,-34.626761],[138.714354,-34.626227],[138.715527,-34.625877],[138.71789,-34.625166]]}},{"type":"Feature","properties":{"tier":"regional"},"geometry":{"type":"LineString","coordinates":[[138.739163,-34.635037],[138.738383,-34.634605],[138.737714,-34.634235]]}},{"type":"Feature","properties":{"tier":"regional"},"geometry":{"type":"LineString","coordinates":[[138.74108,-34.68394],[138.741936,-34.68402],[138.742858,-34.684099],[138.743456,-34.684137],[138.743668,-34.684143],[138.743994,-34.684139],[138.744513,-34.684114],[138.745114,-34.684072],[138.745921,-34.68402],[138.746431,-34.683982],[138.747793,-34.683884],[138.74817,-34.683855],[138.748264,-34.683841],[138.748312,-34.683832],[138.748358,-34.683816],[138.748392,-34.683799],[138.748429,-34.683773],[138.748434,-34.683769],[138.748455,-34.683749],[138.748482,-34.683715],[138.748499,-34.683683],[138.74851,-34.683651],[138.748515,-34.683624],[138.748531,-34.683505],[138.748636,-34.682727],[138.74879,-34.681614],[138.748895,-34.68088],[138.748938,-34.680595]]}},{"type":"Feature","properties":{"tier":"high"},"geometry":{"type":"LineString","coordinates":[[138.696094,-34.678901],[138.69609,-34.678866],[138.696089,-34.678842],[138.696076,-34.678813]]}},{"type":"Feature","properties":{"tier":"arterial"},"geometry":{"type":"LineString","coordinates":[[138.699675,-34.650793],[138.696477,-34.648207],[138.694062,-34.646201],[138.693895,-34.646063],[138.689333,-34.642416]]}},{"type":"Feature","properties":{"tier":"arterial"},"geometry":{"type":"LineString","coordinates":[[138.699993,-34.650977],[138.699675,-34.650793]]}},{"type":"Feature","properties":{"tier":"regional"},"geometry":{"type":"LineString","coordinates":[[138.715292,-34.6703],[138.71441,-34.669957],[138.712757,-34.669338],[138.711212,-34.668746],[138.709534,-34.668097],[138.707921,-34.667482],[138.706503,-34.666936],[138.704717,-34.66625],[138.703799,-34.665906]]}},{"type":"Feature","properties":{"tier":"high"},"geometry":{"type":"LineString","coordinates":[[138.705939,-34.660996],[138.706035,-34.661011],[138.706094,-34.661017],[138.706141,-34.66102],[138.706194,-34.661014],[138.706245,-34.661008],[138.70628,-34.660996],[138.706318,-34.660972],[138.706337,-34.660958],[138.706373,-34.660929],[138.706512,-34.660858]]}},{"type":"Feature","properties":{"tier":"regional"},"geometry":{"type":"LineString","coordinates":[[138.735848,-34.632819],[138.736312,-34.632271],[138.736401,-34.632161]]}},{"type":"Feature","properties":{"tier":"regional"},"geometry":{"type":"LineString","coordinates":[[138.69337,-34.666923],[138.6933,-34.667035]]}},{"type":"Feature","properties":{"tier":"regional"},"geometry":{"type":"LineString","coordinates":[[138.709871,-34.685063],[138.710138,-34.685194],[138.710294,-34.685287]]}},{"type":"Feature","properties":{"tier":"regional"},"geometry":{"type":"LineString","coordinates":[[138.710294,-34.685287],[138.710117,-34.685232],[138.709847,-34.685116]]}},{"type":"Feature","properties":{"tier":"high"},"geometry":{"type":"LineString","coordinates":[[138.728229,-34.635207],[138.7276,-34.635953],[138.72713,-34.636518]]}},{"type":"Feature","properties":{"tier":"high"},"geometry":{"type":"LineString","coordinates":[[138.724504,-34.639362],[138.724581,-34.639271],[138.724677,-34.639159],[138.725258,-34.638476],[138.726645,-34.63681],[138.726813,-34.63661]]}},{"type":"Feature","properties":{"tier":"high"},"geometry":{"type":"LineString","coordinates":[[138.691619,-34.686178],[138.691775,-34.685929],[138.691816,-34.685867],[138.691977,-34.685612]]}},{"type":"Feature","properties":{"tier":"arterial"},"geometry":{"type":"LineString","coordinates":[[138.692612,-34.677194],[138.692411,-34.677091],[138.692151,-34.676962]]}},{"type":"Feature","properties":{"tier":"arterial"},"geometry":{"type":"LineString","coordinates":[[138.69213,-34.676853],[138.692666,-34.67712]]}},{"type":"Feature","properties":{"tier":"arterial"},"geometry":{"type":"LineString","coordinates":[[138.693109,-34.677339],[138.693223,-34.677395],[138.694151,-34.677843],[138.694184,-34.677859],[138.694304,-34.677917],[138.694432,-34.677976]]}},{"type":"Feature","properties":{"tier":"arterial"},"geometry":{"type":"LineString","coordinates":[[138.695395,-34.678527],[138.695009,-34.678343],[138.694559,-34.678131],[138.694385,-34.678051],[138.694139,-34.677925],[138.69342,-34.677592],[138.692612,-34.677194]]}},{"type":"Feature","properties":{"tier":"regional"},"geometry":{"type":"LineString","coordinates":[[138.699963,-34.680845],[138.6998,-34.680792],[138.699433,-34.680644]]}},{"type":"Feature","properties":{"tier":"regional"},"geometry":{"type":"LineString","coordinates":[[138.699469,-34.680586],[138.699818,-34.68076],[138.699963,-34.680845]]}},{"type":"Feature","properties":{"tier":"regional"},"geometry":{"type":"LineString","coordinates":[[138.700584,-34.681138],[138.700526,-34.681108],[138.700356,-34.681013]]}},{"type":"Feature","properties":{"tier":"regional"},"geometry":{"type":"LineString","coordinates":[[138.700662,-34.681117],[138.700762,-34.681163],[138.700917,-34.681255]]}},{"type":"Feature","properties":{"tier":"regional"},"geometry":{"type":"LineString","coordinates":[[138.702054,-34.682673],[138.702077,-34.682592],[138.702109,-34.68255]]}},{"type":"Feature","properties":{"tier":"regional"},"geometry":{"type":"LineString","coordinates":[[138.702305,-34.682487],[138.70224,-34.68254],[138.70217,-34.682589]]}},{"type":"Feature","properties":{"tier":"regional"},"geometry":{"type":"LineString","coordinates":[[138.702109,-34.68255],[138.702197,-34.682437]]}},{"type":"Feature","properties":{"tier":"regional"},"geometry":{"type":"LineString","coordinates":[[138.70217,-34.682589],[138.702123,-34.682626],[138.702054,-34.682673]]}},{"type":"Feature","properties":{"tier":"regional"},"geometry":{"type":"LineString","coordinates":[[138.706727,-34.683751],[138.707153,-34.683937],[138.70726,-34.683983],[138.707334,-34.684015]]}},{"type":"Feature","properties":{"tier":"regional"},"geometry":{"type":"LineString","coordinates":[[138.709847,-34.685116],[138.70965,-34.685031]]}},{"type":"Feature","properties":{"tier":"regional"},"geometry":{"type":"LineString","coordinates":[[138.709682,-34.684981],[138.709871,-34.685063]]}},{"type":"Feature","properties":{"tier":"high"},"geometry":{"type":"LineString","coordinates":[[138.695955,-34.67969],[138.695507,-34.680401]]}},{"type":"Feature","properties":{"tier":"high"},"geometry":{"type":"LineString","coordinates":[[138.69539,-34.680202],[138.695731,-34.679654],[138.696093,-34.679086]]}},{"type":"Feature","properties":{"tier":"high"},"geometry":{"type":"LineString","coordinates":[[138.696093,-34.679086],[138.696176,-34.678954],[138.696192,-34.678928],[138.696229,-34.678873]]}},{"type":"Feature","properties":{"tier":"high"},"geometry":{"type":"LineString","coordinates":[[138.695317,-34.680319],[138.695507,-34.680401]]}},{"type":"Feature","properties":{"tier":"high"},"geometry":{"type":"LineString","coordinates":[[138.696425,-34.678943],[138.696381,-34.679014],[138.696315,-34.679118]]}},{"type":"Feature","properties":{"tier":"high"},"geometry":{"type":"LineString","coordinates":[[138.694603,-34.681447],[138.694785,-34.681159]]}},{"type":"Feature","properties":{"tier":"high"},"geometry":{"type":"LineString","coordinates":[[138.695507,-34.680401],[138.694786,-34.681537]]}},{"type":"Feature","properties":{"tier":"high"},"geometry":{"type":"LineString","coordinates":[[138.692988,-34.684006],[138.693066,-34.683883],[138.693109,-34.683811]]}},{"type":"Feature","properties":{"tier":"high"},"geometry":{"type":"LineString","coordinates":[[138.703613,-34.665852],[138.704046,-34.665107],[138.704143,-34.664936],[138.704756,-34.663849]]}},{"type":"Feature","properties":{"tier":"high"},"geometry":{"type":"LineString","coordinates":[[138.704938,-34.663896],[138.704315,-34.664997],[138.704224,-34.665158],[138.703799,-34.665906]]}},{"type":"Feature","properties":{"tier":"high"},"geometry":{"type":"LineString","coordinates":[[138.704756,-34.663849],[138.704892,-34.663609],[138.705521,-34.662502]]}},{"type":"Feature","properties":{"tier":"arterial"},"geometry":{"type":"LineString","coordinates":[[138.709934,-34.656727],[138.710091,-34.656817]]}},{"type":"Feature","properties":{"tier":"high"},"geometry":{"type":"LineString","coordinates":[[138.709682,-34.65703],[138.709766,-34.656929],[138.709822,-34.656862],[138.709882,-34.65679]]}},{"type":"Feature","properties":{"tier":"high"},"geometry":{"type":"LineString","coordinates":[[138.707403,-34.659771],[138.707699,-34.659412],[138.70887,-34.658004],[138.708994,-34.657854]]}},{"type":"Feature","properties":{"tier":"arterial"},"geometry":{"type":"LineString","coordinates":[[138.734346,-34.627981],[138.73425,-34.628098]]}},{"type":"Feature","properties":{"tier":"high"},"geometry":{"type":"LineString","coordinates":[[138.719547,-34.645576],[138.717344,-34.648162]]}},{"type":"Feature","properties":{"tier":"high"},"geometry":{"type":"LineString","coordinates":[[138.723505,-34.640564],[138.724048,-34.63992],[138.724264,-34.639653]]}},{"type":"Feature","properties":{"tier":"high"},"geometry":{"type":"LineString","coordinates":[[138.712576,-34.653883],[138.711532,-34.655101]]}},{"type":"Feature","properties":{"tier":"high"},"geometry":{"type":"LineString","coordinates":[[138.702081,-34.668565],[138.70225,-34.668261]]}},{"type":"Feature","properties":{"tier":"high"},"geometry":{"type":"LineString","coordinates":[[138.698617,-34.675456],[138.698555,-34.675565],[138.698034,-34.676395],[138.697204,-34.677711]]}},{"type":"Feature","properties":{"tier":"high"},"geometry":{"type":"LineString","coordinates":[[138.697072,-34.677918],[138.69686,-34.678251],[138.696643,-34.678601]]}},{"type":"Feature","properties":{"tier":"high"},"geometry":{"type":"LineString","coordinates":[[138.696874,-34.677846],[138.696968,-34.677696],[138.697165,-34.677384]]}},{"type":"Feature","properties":{"tier":"high"},"geometry":{"type":"LineString","coordinates":[[138.694786,-34.681537],[138.69474,-34.68161],[138.694236,-34.682414],[138.694178,-34.682507]]}},{"type":"Feature","properties":{"tier":"high"},"geometry":{"type":"LineString","coordinates":[[138.691386,-34.686544],[138.69149,-34.686382],[138.691525,-34.686326]]}},{"type":"Feature","properties":{"tier":"high"},"geometry":{"type":"LineString","coordinates":[[138.69342,-34.68371],[138.693362,-34.683801],[138.693313,-34.683882],[138.693302,-34.683902],[138.693143,-34.684143]]}},{"type":"Feature","properties":{"tier":"arterial"},"geometry":{"type":"LineString","coordinates":[[138.733551,-34.62884],[138.733631,-34.628756],[138.733741,-34.628615],[138.734038,-34.628219]]}},{"type":"Feature","properties":{"tier":"high"},"geometry":{"type":"LineString","coordinates":[[138.732546,-34.629507],[138.732685,-34.629445],[138.732925,-34.629328],[138.733119,-34.629208],[138.733242,-34.62912],[138.733321,-34.629051]]}},{"type":"Feature","properties":{"tier":"high"},"geometry":{"type":"LineString","coordinates":[[138.732099,-34.629686],[138.732546,-34.629507]]}},{"type":"Feature","properties":{"tier":"arterial"},"geometry":{"type":"LineString","coordinates":[[138.733321,-34.629051],[138.733376,-34.629003],[138.733551,-34.62884]]}},{"type":"Feature","properties":{"tier":"high"},"geometry":{"type":"LineString","coordinates":[[138.709934,-34.656727],[138.709993,-34.656657],[138.710037,-34.656604]]}},{"type":"Feature","properties":{"tier":"high"},"geometry":{"type":"LineString","coordinates":[[138.717344,-34.648162],[138.714515,-34.651574]]}},{"type":"Feature","properties":{"tier":"high"},"geometry":{"type":"LineString","coordinates":[[138.706122,-34.661451],[138.706252,-34.661236],[138.706324,-34.661113],[138.706388,-34.661027],[138.706448,-34.66094],[138.706512,-34.660858]]}},{"type":"Feature","properties":{"tier":"arterial"},"geometry":{"type":"LineString","coordinates":[[138.709615,-34.656548],[138.709778,-34.656644],[138.709862,-34.656689],[138.709934,-34.656727]]}},{"type":"Feature","properties":{"tier":"regional"},"geometry":{"type":"LineString","coordinates":[[138.698271,-34.67991],[138.69845,-34.680035],[138.698669,-34.680171],[138.698976,-34.680338],[138.699173,-34.68044],[138.699396,-34.68055],[138.699469,-34.680586]]}},{"type":"Feature","properties":{"tier":"regional"},"geometry":{"type":"LineString","coordinates":[[138.696474,-34.678864],[138.696533,-34.678888],[138.696659,-34.678941]]}},{"type":"Feature","properties":{"tier":"arterial"},"geometry":{"type":"LineString","coordinates":[[138.696076,-34.678813],[138.695895,-34.678742],[138.695395,-34.678527]]}},{"type":"Feature","properties":{"tier":"high"},"geometry":{"type":"LineString","coordinates":[[138.691255,-34.687324],[138.691137,-34.68752]]}},{"type":"Feature","properties":{"tier":"high"},"geometry":{"type":"LineString","coordinates":[[138.690768,-34.68752],[138.691386,-34.686544]]}},{"type":"Feature","properties":{"tier":"high"},"geometry":{"type":"LineString","coordinates":[[138.703325,-34.666366],[138.703613,-34.665852]]}},{"type":"Feature","properties":{"tier":"high"},"geometry":{"type":"LineString","coordinates":[[138.702408,-34.667984],[138.702521,-34.667783],[138.702899,-34.667121],[138.703112,-34.666743]]}},{"type":"Feature","properties":{"tier":"high"},"geometry":{"type":"LineString","coordinates":[[138.696315,-34.679118],[138.695955,-34.67969]]}},{"type":"Feature","properties":{"tier":"regional"},"geometry":{"type":"LineString","coordinates":[[138.697276,-34.679222],[138.697437,-34.679311],[138.697621,-34.679426],[138.697767,-34.679527],[138.697969,-34.679684],[138.698271,-34.67991]]}},{"type":"Feature","properties":{"tier":"high"},"geometry":{"type":"LineString","coordinates":[[138.696545,-34.678372],[138.696874,-34.677846]]}},{"type":"Feature","properties":{"tier":"high"},"geometry":{"type":"LineString","coordinates":[[138.696389,-34.678618],[138.696545,-34.678372]]}},{"type":"Feature","properties":{"tier":"arterial"},"geometry":{"type":"LineString","coordinates":[[138.694432,-34.677976],[138.695097,-34.678262],[138.695221,-34.67832],[138.695406,-34.678404]]}},{"type":"Feature","properties":{"tier":"arterial"},"geometry":{"type":"LineString","coordinates":[[138.692666,-34.67712],[138.693109,-34.677339]]}},{"type":"Feature","properties":{"tier":"high"},"geometry":{"type":"LineString","coordinates":[[138.691951,-34.686032],[138.691839,-34.686219],[138.691758,-34.686366],[138.691726,-34.686431],[138.691638,-34.686604]]}},{"type":"Feature","properties":{"tier":"high"},"geometry":{"type":"LineString","coordinates":[[138.724588,-34.639541],[138.724451,-34.639706],[138.723041,-34.641412],[138.719547,-34.645576]]}},{"type":"Feature","properties":{"tier":"high"},"geometry":{"type":"LineString","coordinates":[[138.71246,-34.653714],[138.713426,-34.652557],[138.714107,-34.651747],[138.714484,-34.6513],[138.714544,-34.651229],[138.714583,-34.651182],[138.71465,-34.651103]]}},{"type":"Feature","properties":{"tier":"high"},"geometry":{"type":"LineString","coordinates":[[138.717194,-34.648073],[138.717739,-34.64743],[138.718839,-34.646114],[138.72026,-34.644425]]}},{"type":"Feature","properties":{"tier":"high"},"geometry":{"type":"LineString","coordinates":[[138.726987,-34.63669],[138.726044,-34.637805]]}},{"type":"Feature","properties":{"tier":"high"},"geometry":{"type":"LineString","coordinates":[[138.733352,-34.629191],[138.732944,-34.629492]]}},{"type":"Feature","properties":{"tier":"high"},"geometry":{"type":"LineString","coordinates":[[138.728034,-34.635147],[138.72981,-34.63305]]}},{"type":"Feature","properties":{"tier":"regional"},"geometry":{"type":"LineString","coordinates":[[138.745266,-34.625481],[138.745108,-34.625469],[138.744966,-34.625453],[138.74485,-34.625427],[138.744719,-34.625366],[138.744643,-34.625326],[138.744522,-34.625262],[138.744395,-34.625146]]}},{"type":"Feature","properties":{"tier":"regional"},"geometry":{"type":"LineString","coordinates":[[138.745479,-34.625541],[138.745452,-34.62555],[138.745421,-34.625554],[138.745389,-34.625554],[138.745359,-34.625548],[138.74533,-34.625537],[138.745304,-34.625522],[138.745283,-34.625503],[138.745266,-34.625481],[138.745257,-34.625462],[138.745252,-34.625443],[138.74525,-34.625423],[138.745252,-34.625403],[138.745258,-34.625383],[138.745267,-34.625365],[138.74528,-34.625347],[138.745295,-34.625332],[138.745314,-34.625319],[138.74534,-34.625306],[138.745368,-34.625297],[138.745398,-34.625293],[138.745428,-34.625293],[138.745457,-34.625299],[138.745484,-34.625308],[138.745509,-34.625321],[138.74553,-34.625338],[138.745547,-34.625357],[138.745559,-34.625379],[138.745566,-34.625402],[138.745569,-34.625426],[138.745565,-34.62545],[138.745557,-34.625473],[138.745544,-34.625494],[138.745526,-34.625513],[138.745504,-34.625529],[138.745479,-34.625541]]}},{"type":"Feature","properties":{"tier":"regional"},"geometry":{"type":"LineString","coordinates":[[138.745314,-34.625319],[138.745361,-34.625017],[138.745371,-34.62498]]}},{"type":"Feature","properties":{"tier":"regional"},"geometry":{"type":"LineString","coordinates":[[138.745456,-34.62498],[138.745457,-34.625299]]}},{"type":"Feature","properties":{"tier":"regional"},"geometry":{"type":"LineString","coordinates":[[138.745526,-34.625513],[138.745553,-34.625572],[138.745602,-34.625683],[138.745646,-34.625761],[138.745693,-34.625858]]}},{"type":"Feature","properties":{"tier":"regional"},"geometry":{"type":"LineString","coordinates":[[138.745693,-34.625858],[138.745566,-34.625754],[138.745461,-34.625593],[138.745389,-34.625554]]}},{"type":"Feature","properties":{"tier":"high"},"geometry":{"type":"LineString","coordinates":[[138.70225,-34.668261],[138.702408,-34.667984]]}},{"type":"Feature","properties":{"tier":"high"},"geometry":{"type":"LineString","coordinates":[[138.701735,-34.669558],[138.701518,-34.66994],[138.701473,-34.67002],[138.701156,-34.67058],[138.700553,-34.671635],[138.700374,-34.671942],[138.700206,-34.672247],[138.700086,-34.672471],[138.699995,-34.672651],[138.699916,-34.672837],[138.699817,-34.673065],[138.69963,-34.673567],[138.69958,-34.673691],[138.69946,-34.673944],[138.699349,-34.674166],[138.699221,-34.674392]]}},{"type":"Feature","properties":{"tier":"high"},"geometry":{"type":"LineString","coordinates":[[138.72713,-34.636518],[138.727007,-34.636666]]}},{"type":"Feature","properties":{"tier":"high"},"geometry":{"type":"LineString","coordinates":[[138.727007,-34.636666],[138.726987,-34.63669]]}},{"type":"Feature","properties":{"tier":"high"},"geometry":{"type":"LineString","coordinates":[[138.726844,-34.636573],[138.727624,-34.63564],[138.728034,-34.635147]]}},{"type":"Feature","properties":{"tier":"high"},"geometry":{"type":"LineString","coordinates":[[138.726813,-34.63661],[138.726844,-34.636573]]}},{"type":"Feature","properties":{"tier":"high"},"geometry":{"type":"LineString","coordinates":[[138.711532,-34.655101],[138.711376,-34.65501]]}},{"type":"Feature","properties":{"tier":"high"},"geometry":{"type":"LineString","coordinates":[[138.703121,-34.667107],[138.702799,-34.667678],[138.70254,-34.668131]]}},{"type":"Feature","properties":{"tier":"high"},"geometry":{"type":"LineString","coordinates":[[138.698303,-34.67556],[138.698411,-34.675377],[138.698772,-34.674755],[138.699115,-34.67415],[138.699279,-34.673851],[138.699353,-34.673706],[138.699422,-34.67357],[138.699662,-34.672953],[138.699774,-34.672686],[138.699868,-34.672493],[138.699977,-34.672284],[138.700062,-34.672122],[138.700155,-34.67196],[138.700228,-34.671826],[138.700686,-34.671027],[138.701601,-34.669406]]}},{"type":"Feature","properties":{"tier":"high"},"geometry":{"type":"LineString","coordinates":[[138.693998,-34.682405],[138.694139,-34.682379],[138.694236,-34.682414]]}},{"type":"Feature","properties":{"tier":"high"},"geometry":{"type":"LineString","coordinates":[[138.693765,-34.68316],[138.69363,-34.683178],[138.693534,-34.683139]]}},{"type":"Feature","properties":{"tier":"high"},"geometry":{"type":"LineString","coordinates":[[138.693143,-34.684143],[138.693054,-34.684288]]}},{"type":"Feature","properties":{"tier":"high"},"geometry":{"type":"LineString","coordinates":[[138.71434,-34.651781],[138.714296,-34.651834],[138.714047,-34.652131],[138.712576,-34.653883]]}},{"type":"Feature","properties":{"tier":"high"},"geometry":{"type":"LineString","coordinates":[[138.714515,-34.651574],[138.71434,-34.651781]]}},{"type":"Feature","properties":{"tier":"high"},"geometry":{"type":"LineString","coordinates":[[138.731486,-34.628921],[138.73148,-34.629225],[138.731463,-34.62953],[138.731433,-34.62979]]}},{"type":"Feature","properties":{"tier":"arterial"},"geometry":{"type":"LineString","coordinates":[[138.73425,-34.628098],[138.734115,-34.628261]]}},{"type":"Feature","properties":{"tier":"regional"},"geometry":{"type":"LineString","coordinates":[[138.734406,-34.628176],[138.735362,-34.628713],[138.735482,-34.628743]]}},{"type":"Feature","properties":{"tier":"regional"},"geometry":{"type":"LineString","coordinates":[[138.744395,-34.625146],[138.744495,-34.625184],[138.744671,-34.625283],[138.744808,-34.62535],[138.744924,-34.625382],[138.745123,-34.625396],[138.745267,-34.625365]]}},{"type":"Feature","properties":{"tier":"regional"},"geometry":{"type":"LineString","coordinates":[[138.744395,-34.625146],[138.744083,-34.624989]]}},{"type":"Feature","properties":{"tier":"high"},"geometry":{"type":"LineString","coordinates":[[138.710818,-34.655947],[138.710273,-34.656604]]}},{"type":"Feature","properties":{"tier":"high"},"geometry":{"type":"LineString","coordinates":[[138.711441,-34.655207],[138.710818,-34.655947]]}},{"type":"Feature","properties":{"tier":"high"},"geometry":{"type":"LineString","coordinates":[[138.710273,-34.656604],[138.710152,-34.656746],[138.710091,-34.656817]]}},{"type":"Feature","properties":{"tier":"high"},"geometry":{"type":"LineString","coordinates":[[138.709202,-34.657602],[138.709651,-34.657067],[138.709682,-34.65703]]}},{"type":"Feature","properties":{"tier":"high"},"geometry":{"type":"LineString","coordinates":[[138.708994,-34.657854],[138.709202,-34.657602]]}},{"type":"Feature","properties":{"tier":"high"},"geometry":{"type":"LineString","coordinates":[[138.709882,-34.65679],[138.709934,-34.656727]]}},{"type":"Feature","properties":{"tier":"high"},"geometry":{"type":"LineString","coordinates":[[138.710273,-34.656604],[138.710268,-34.656782],[138.710267,-34.656795],[138.710263,-34.656915]]}},{"type":"Feature","properties":{"tier":"high"},"geometry":{"type":"LineString","coordinates":[[138.71035,-34.657058],[138.710047,-34.657024],[138.710033,-34.657023],[138.709909,-34.657034]]}},{"type":"Feature","properties":{"tier":"high"},"geometry":{"type":"LineString","coordinates":[[138.709682,-34.65703],[138.709676,-34.656947],[138.709689,-34.656864],[138.709688,-34.656809],[138.709684,-34.656683]]}},{"type":"Feature","properties":{"tier":"arterial"},"geometry":{"type":"LineString","coordinates":[[138.709882,-34.65679],[138.70981,-34.656751],[138.709684,-34.656683],[138.709536,-34.656603],[138.709165,-34.656357],[138.709005,-34.656198]]}},{"type":"Feature","properties":{"tier":"arterial"},"geometry":{"type":"LineString","coordinates":[[138.709005,-34.656198],[138.709447,-34.656449],[138.709615,-34.656548]]}},{"type":"Feature","properties":{"tier":"high"},"geometry":{"type":"LineString","coordinates":[[138.709615,-34.656548],[138.70992,-34.656593],[138.709948,-34.656597],[138.710037,-34.656604]]}},{"type":"Feature","properties":{"tier":"arterial"},"geometry":{"type":"LineString","coordinates":[[138.709005,-34.656198],[138.708379,-34.655794],[138.707425,-34.655245]]}},{"type":"Feature","properties":{"tier":"high"},"geometry":{"type":"LineString","coordinates":[[138.710044,-34.656872],[138.709994,-34.656932],[138.709909,-34.657034]]}},{"type":"Feature","properties":{"tier":"high"},"geometry":{"type":"LineString","coordinates":[[138.709909,-34.657034],[138.7098,-34.657162],[138.706968,-34.660587],[138.706722,-34.660878],[138.706518,-34.661155],[138.706403,-34.661326],[138.706292,-34.661504],[138.704938,-34.663896]]}},{"type":"Feature","properties":{"tier":"high"},"geometry":{"type":"LineString","coordinates":[[138.710037,-34.656604],[138.710574,-34.655959],[138.711376,-34.65501],[138.71148,-34.654887],[138.71246,-34.653714]]}},{"type":"Feature","properties":{"tier":"high"},"geometry":{"type":"LineString","coordinates":[[138.726044,-34.637805],[138.725711,-34.638201]]}},{"type":"Feature","properties":{"tier":"high"},"geometry":{"type":"LineString","coordinates":[[138.725711,-34.638201],[138.724831,-34.639252]]}},{"type":"Feature","properties":{"tier":"high"},"geometry":{"type":"LineString","coordinates":[[138.724831,-34.639252],[138.724738,-34.639363],[138.724663,-34.639451]]}},{"type":"Feature","properties":{"tier":"high"},"geometry":{"type":"LineString","coordinates":[[138.724264,-34.639653],[138.724425,-34.639455]]}},{"type":"Feature","properties":{"tier":"high"},"geometry":{"type":"LineString","coordinates":[[138.723063,-34.641089],[138.723505,-34.640564]]}},{"type":"Feature","properties":{"tier":"high"},"geometry":{"type":"LineString","coordinates":[[138.72026,-34.644425],[138.722159,-34.642142],[138.723063,-34.641089]]}},{"type":"Feature","properties":{"tier":"high"},"geometry":{"type":"LineString","coordinates":[[138.724272,-34.639233],[138.7245,-34.639214],[138.724522,-34.639212],[138.724677,-34.639159]]}},{"type":"Feature","properties":{"tier":"high"},"geometry":{"type":"LineString","coordinates":[[138.724264,-34.639653],[138.724264,-34.639461],[138.724215,-34.639335]]}},{"type":"Feature","properties":{"tier":"high"},"geometry":{"type":"LineString","coordinates":[[138.724831,-34.639252],[138.724844,-34.639413],[138.724845,-34.639424],[138.724879,-34.639571]]}},{"type":"Feature","properties":{"tier":"high"},"geometry":{"type":"LineString","coordinates":[[138.724841,-34.639684],[138.724616,-34.639675],[138.724599,-34.639674],[138.724451,-34.639706]]}},{"type":"Feature","properties":{"tier":"high"},"geometry":{"type":"LineString","coordinates":[[138.724663,-34.639451],[138.724588,-34.639541]]}},{"type":"Feature","properties":{"tier":"high"},"geometry":{"type":"LineString","coordinates":[[138.724425,-34.639455],[138.724504,-34.639362]]}},{"type":"Feature","properties":{"tier":"high"},"geometry":{"type":"LineString","coordinates":[[138.714544,-34.651229],[138.714479,-34.651095],[138.714443,-34.651006]]}},{"type":"Feature","properties":{"tier":"high"},"geometry":{"type":"LineString","coordinates":[[138.691638,-34.686604],[138.69154,-34.686799],[138.691255,-34.687324]]}},{"type":"Feature","properties":{"tier":"arterial"},"geometry":{"type":"LineString","coordinates":[[138.73482,-34.627391],[138.734706,-34.627531],[138.734397,-34.62792],[138.734366,-34.627958],[138.734346,-34.627981]]}},{"type":"Feature","properties":{"tier":"arterial"},"geometry":{"type":"LineString","coordinates":[[138.734722,-34.627341],[138.73491,-34.627112],[138.735147,-34.626851],[138.735489,-34.626452],[138.735655,-34.626261]]}},{"type":"Feature","properties":{"tier":"regional"},"geometry":{"type":"LineString","coordinates":[[138.744083,-34.624989],[138.744067,-34.62498]]}},{"type":"Feature","properties":{"tier":"arterial"},"geometry":{"type":"LineString","coordinates":[[138.73578,-34.626233],[138.735592,-34.626454],[138.735234,-34.626895],[138.73521,-34.626923],[138.735073,-34.627088],[138.73482,-34.627391]]}},{"type":"Feature","properties":{"tier":"arterial"},"geometry":{"type":"LineString","coordinates":[[138.735655,-34.626261],[138.735713,-34.626194]]}},{"type":"Feature","properties":{"tier":"arterial"},"geometry":{"type":"LineString","coordinates":[[138.735713,-34.626194],[138.735883,-34.625999],[138.736238,-34.625566],[138.736374,-34.625405],[138.736727,-34.62498]]}},{"type":"Feature","properties":{"tier":"regional"},"geometry":{"type":"LineString","coordinates":[[138.687774,-34.681529],[138.687645,-34.681472],[138.687561,-34.681436],[138.687517,-34.681416],[138.68748,-34.6814]]}},{"type":"Feature","properties":{"tier":"arterial"},"geometry":{"type":"LineString","coordinates":[[138.734316,-34.627853],[138.734722,-34.627341]]}},{"type":"Feature","properties":{"tier":"regional"},"geometry":{"type":"LineString","coordinates":[[138.735535,-34.628933],[138.735486,-34.628926],[138.735449,-34.628903],[138.735419,-34.628863]]}},{"type":"Feature","properties":{"tier":"regional"},"geometry":{"type":"LineString","coordinates":[[138.735557,-34.628929],[138.735535,-34.628933]]}},{"type":"Feature","properties":{"tier":"regional"},"geometry":{"type":"LineString","coordinates":[[138.735656,-34.628823],[138.735656,-34.628833],[138.735651,-34.628857]]}},{"type":"Feature","properties":{"tier":"regional"},"geometry":{"type":"LineString","coordinates":[[138.735604,-34.628753],[138.735621,-34.628763],[138.735644,-34.628788],[138.735656,-34.628823]]}},{"type":"Feature","properties":{"tier":"regional"},"geometry":{"type":"LineString","coordinates":[[138.735482,-34.628743],[138.735535,-34.628733],[138.735582,-34.628742],[138.735604,-34.628753]]}},{"type":"Feature","properties":{"tier":"regional"},"geometry":{"type":"LineString","coordinates":[[138.735414,-34.628833],[138.735424,-34.628797],[138.735449,-34.628763],[138.735482,-34.628743]]}},{"type":"Feature","properties":{"tier":"regional"},"geometry":{"type":"LineString","coordinates":[[138.736909,-34.629946],[138.736915,-34.629951],[138.736933,-34.629975],[138.736938,-34.630004]]}},{"type":"Feature","properties":{"tier":"regional"},"geometry":{"type":"LineString","coordinates":[[138.736839,-34.629922],[138.736878,-34.629927],[138.736909,-34.629946]]}},{"type":"Feature","properties":{"tier":"regional"},"geometry":{"type":"LineString","coordinates":[[138.736755,-34.629962],[138.736768,-34.629946],[138.736806,-34.629927],[138.736839,-34.629922]]}},{"type":"Feature","properties":{"tier":"regional"},"geometry":{"type":"LineString","coordinates":[[138.736938,-34.630004],[138.736935,-34.630031],[138.736909,-34.630061],[138.736875,-34.630079]]}},{"type":"Feature","properties":{"tier":"regional"},"geometry":{"type":"LineString","coordinates":[[138.737217,-34.63132],[138.737226,-34.631337],[138.737237,-34.63137],[138.737234,-34.631396]]}},{"type":"Feature","properties":{"tier":"regional"},"geometry":{"type":"LineString","coordinates":[[138.737135,-34.631285],[138.737147,-34.631286],[138.737181,-34.631293],[138.737207,-34.63131],[138.737217,-34.63132]]}},{"type":"Feature","properties":{"tier":"regional"},"geometry":{"type":"LineString","coordinates":[[138.737049,-34.631321],[138.737062,-34.63131],[138.737096,-34.631293],[138.737135,-34.631285]]}},{"type":"Feature","properties":{"tier":"regional"},"geometry":{"type":"LineString","coordinates":[[138.737046,-34.631415],[138.737037,-34.631394],[138.737032,-34.63137],[138.73704,-34.63134],[138.737049,-34.631321]]}},{"type":"Feature","properties":{"tier":"regional"},"geometry":{"type":"LineString","coordinates":[[138.737083,-34.631445],[138.737057,-34.631431],[138.737046,-34.631415]]}},{"type":"Feature","properties":{"tier":"regional"},"geometry":{"type":"LineString","coordinates":[[138.737376,-34.634203],[138.737358,-34.634204],[138.737313,-34.634195],[138.737271,-34.634175],[138.737245,-34.634146]]}},{"type":"Feature","properties":{"tier":"regional"},"geometry":{"type":"LineString","coordinates":[[138.737416,-34.634191],[138.737376,-34.634203]]}},{"type":"Feature","properties":{"tier":"regional"},"geometry":{"type":"LineString","coordinates":[[138.73748,-34.634103],[138.737469,-34.634142],[138.737444,-34.634175],[138.737416,-34.634191]]}},{"type":"Feature","properties":{"tier":"regional"},"geometry":{"type":"LineString","coordinates":[[138.737235,-34.634114],[138.737235,-34.634103],[138.737242,-34.634066],[138.737271,-34.634031],[138.737304,-34.634012]]}},{"type":"Feature","properties":{"tier":"arterial"},"geometry":{"type":"LineString","coordinates":[[138.735073,-34.627088],[138.73491,-34.627112]]}},{"type":"Feature","properties":{"tier":"high"},"geometry":{"type":"LineString","coordinates":[[138.694785,-34.681159],[138.695317,-34.680319]]}},{"type":"Feature","properties":{"tier":"high"},"geometry":{"type":"LineString","coordinates":[[138.695317,-34.680319],[138.69539,-34.680202]]}},{"type":"Feature","properties":{"tier":"high"},"geometry":{"type":"LineString","coordinates":[[138.697204,-34.677711],[138.697072,-34.677918]]}},{"type":"Feature","properties":{"tier":"high"},"geometry":{"type":"LineString","coordinates":[[138.697564,-34.676756],[138.698303,-34.67556]]}},{"type":"Feature","properties":{"tier":"high"},"geometry":{"type":"LineString","coordinates":[[138.697431,-34.67696],[138.697564,-34.676756]]}},{"type":"Feature","properties":{"tier":"high"},"geometry":{"type":"LineString","coordinates":[[138.699221,-34.674392],[138.69898,-34.67482],[138.698617,-34.675456]]}},{"type":"Feature","properties":{"tier":"high"},"geometry":{"type":"LineString","coordinates":[[138.703112,-34.666743],[138.703325,-34.666366]]}},{"type":"Feature","properties":{"tier":"high"},"geometry":{"type":"LineString","coordinates":[[138.701601,-34.669406],[138.702081,-34.668565]]}},{"type":"Feature","properties":{"tier":"high"},"geometry":{"type":"LineString","coordinates":[[138.702297,-34.66856],[138.70218,-34.668772],[138.701735,-34.669558]]}},{"type":"Feature","properties":{"tier":"high"},"geometry":{"type":"LineString","coordinates":[[138.703799,-34.665906],[138.703121,-34.667107]]}},{"type":"Feature","properties":{"tier":"high"},"geometry":{"type":"LineString","coordinates":[[138.705521,-34.662502],[138.706122,-34.661451]]}},{"type":"Feature","properties":{"tier":"high"},"geometry":{"type":"LineString","coordinates":[[138.707128,-34.660104],[138.707403,-34.659771]]}},{"type":"Feature","properties":{"tier":"high"},"geometry":{"type":"LineString","coordinates":[[138.706512,-34.660858],[138.706616,-34.660722],[138.70671,-34.660611],[138.706939,-34.660334],[138.707128,-34.660104]]}},{"type":"Feature","properties":{"tier":"high"},"geometry":{"type":"LineString","coordinates":[[138.711532,-34.655101],[138.711441,-34.655207]]}},{"type":"Feature","properties":{"tier":"high"},"geometry":{"type":"LineString","coordinates":[[138.730162,-34.632886],[138.729883,-34.63324],[138.729491,-34.633712],[138.728848,-34.634471],[138.728229,-34.635207]]}},{"type":"Feature","properties":{"tier":"high"},"geometry":{"type":"LineString","coordinates":[[138.730536,-34.632317],[138.730471,-34.632427],[138.730345,-34.632621],[138.730162,-34.632886]]}},{"type":"Feature","properties":{"tier":"high"},"geometry":{"type":"LineString","coordinates":[[138.693616,-34.683009],[138.693998,-34.682405]]}},{"type":"Feature","properties":{"tier":"high"},"geometry":{"type":"LineString","coordinates":[[138.693998,-34.682405],[138.694477,-34.681647],[138.694603,-34.681447]]}},{"type":"Feature","properties":{"tier":"high"},"geometry":{"type":"LineString","coordinates":[[138.693765,-34.68316],[138.693663,-34.683323]]}},{"type":"Feature","properties":{"tier":"high"},"geometry":{"type":"LineString","coordinates":[[138.694178,-34.682507],[138.693959,-34.682856],[138.693765,-34.68316]]}},{"type":"Feature","properties":{"tier":"high"},"geometry":{"type":"LineString","coordinates":[[138.691525,-34.686326],[138.69154,-34.686303],[138.691619,-34.686178]]}},{"type":"Feature","properties":{"tier":"high"},"geometry":{"type":"LineString","coordinates":[[138.692042,-34.685886],[138.691951,-34.686032]]}},{"type":"Feature","properties":{"tier":"high"},"geometry":{"type":"LineString","coordinates":[[138.692779,-34.684722],[138.692717,-34.684819],[138.692626,-34.684965]]}},{"type":"Feature","properties":{"tier":"high"},"geometry":{"type":"LineString","coordinates":[[138.692493,-34.684793],[138.692571,-34.68467]]}},{"type":"Feature","properties":{"tier":"high"},"geometry":{"type":"LineString","coordinates":[[138.692042,-34.685886],[138.691917,-34.685908],[138.691816,-34.685867]]}},{"type":"Feature","properties":{"tier":"high"},"geometry":{"type":"LineString","coordinates":[[138.692493,-34.684793],[138.692612,-34.684777],[138.692717,-34.684819]]}},{"type":"Feature","properties":{"tier":"high"},"geometry":{"type":"LineString","coordinates":[[138.692571,-34.68467],[138.692899,-34.684146],[138.692988,-34.684006]]}},{"type":"Feature","properties":{"tier":"high"},"geometry":{"type":"LineString","coordinates":[[138.693054,-34.684288],[138.692965,-34.684429],[138.692779,-34.684722]]}},{"type":"Feature","properties":{"tier":"high"},"geometry":{"type":"LineString","coordinates":[[138.693663,-34.683323],[138.69342,-34.68371]]}},{"type":"Feature","properties":{"tier":"regional"},"geometry":{"type":"LineString","coordinates":[[138.690929,-34.663942],[138.690934,-34.66396],[138.690931,-34.663978],[138.690927,-34.663985],[138.690922,-34.663994],[138.690907,-34.664006],[138.690887,-34.664014],[138.690866,-34.664016],[138.690845,-34.664013],[138.690827,-34.664004],[138.690813,-34.663991],[138.690804,-34.663975],[138.690803,-34.663958],[138.690808,-34.66394],[138.69082,-34.663925],[138.690838,-34.663914],[138.690859,-34.663909],[138.690881,-34.663909],[138.690901,-34.663916],[138.690918,-34.663927],[138.690929,-34.663942]]}},{"type":"Feature","properties":{"tier":"regional"},"geometry":{"type":"LineString","coordinates":[[138.690859,-34.663909],[138.690922,-34.663845],[138.690945,-34.663805],[138.691093,-34.663543]]}},{"type":"Feature","properties":{"tier":"regional"},"geometry":{"type":"LineString","coordinates":[[138.69116,-34.663574],[138.691011,-34.663829],[138.690977,-34.663887],[138.690929,-34.663942]]}},{"type":"Feature","properties":{"tier":"regional"},"geometry":{"type":"LineString","coordinates":[[138.745782,-34.638843],[138.745005,-34.638395],[138.744166,-34.63791],[138.743345,-34.637442],[138.743237,-34.63738],[138.74323,-34.637375],[138.742289,-34.636857],[138.740453,-34.635788],[138.739163,-34.635037]]}},{"type":"Feature","properties":{"tier":"regional"},"geometry":{"type":"LineString","coordinates":[[138.689187,-34.64157],[138.689167,-34.641671],[138.689107,-34.641779],[138.689057,-34.64186],[138.689011,-34.641969]]}},{"type":"Feature","properties":{"tier":"regional"},"geometry":{"type":"LineString","coordinates":[[138.688883,-34.641917],[138.688946,-34.641846],[138.689009,-34.641773],[138.689096,-34.64166],[138.689187,-34.64157]]}},{"type":"Feature","properties":{"tier":"regional"},"geometry":{"type":"LineString","coordinates":[[138.688908,-34.642146],[138.688857,-34.642232],[138.68882,-34.642302],[138.688783,-34.642383],[138.688722,-34.642442]]}},{"type":"Feature","properties":{"tier":"regional"},"geometry":{"type":"LineString","coordinates":[[138.688722,-34.642442],[138.688719,-34.64236],[138.688762,-34.642264],[138.688778,-34.642216],[138.688781,-34.642169],[138.68878,-34.642121],[138.688776,-34.642092]]}},{"type":"Feature","properties":{"tier":"arterial"},"geometry":{"type":"LineString","coordinates":[[138.688756,-34.642043],[138.68865,-34.64193],[138.688542,-34.641823],[138.688476,-34.641737]]}},{"type":"Feature","properties":{"tier":"arterial"},"geometry":{"type":"LineString","coordinates":[[138.689333,-34.642416],[138.689274,-34.642398],[138.689198,-34.642342],[138.689067,-34.642234],[138.688928,-34.642143]]}},{"type":"Feature","properties":{"tier":"arterial"},"geometry":{"type":"LineString","coordinates":[[138.688476,-34.641737],[138.688583,-34.641775],[138.688689,-34.641844],[138.688775,-34.641887],[138.688862,-34.64192]]}},{"type":"Feature","properties":{"tier":"arterial"},"geometry":{"type":"LineString","coordinates":[[138.689034,-34.642021],[138.689115,-34.642143],[138.689191,-34.642243],[138.689262,-34.642316],[138.689315,-34.642366],[138.689333,-34.642416]]}},{"type":"Feature","properties":{"tier":"arterial"},"geometry":{"type":"LineString","coordinates":[[138.688763,-34.642069],[138.688756,-34.642043],[138.688758,-34.64201],[138.688771,-34.64198],[138.688794,-34.641953],[138.688825,-34.641933],[138.688862,-34.64192],[138.688883,-34.641917],[138.688913,-34.641918],[138.688942,-34.641924],[138.688969,-34.641934],[138.688993,-34.64195],[138.689011,-34.641969],[138.689026,-34.641994],[138.689034,-34.642021],[138.689032,-34.642053],[138.689019,-34.642084],[138.688996,-34.642111],[138.688965,-34.642131],[138.688928,-34.642143],[138.688908,-34.642146],[138.688877,-34.642145],[138.688847,-34.642139],[138.688819,-34.642128],[138.688795,-34.642112],[138.688776,-34.642092],[138.688763,-34.642069]]}},{"type":"Feature","properties":{"tier":"arterial"},"geometry":{"type":"LineString","coordinates":[[138.688476,-34.641737],[138.68748,-34.640925]]}},{"type":"Feature","properties":{"tier":"arterial"},"geometry":{"type":"LineString","coordinates":[[138.71789,-34.625166],[138.718506,-34.62498]]}}]}
