{"type":"FeatureCollection","features":[{"type":"Feature","properties":{"tier":"high"},"geometry":{"type":"LineString","coordinates":[[138.597136,-34.89875],[138.597217,-34.898642]]}},{"type":"Feature","properties":{"tier":"high"},"geometry":{"type":"LineString","coordinates":[[138.59597,-34.898809],[138.594969,-34.898874],[138.594934,-34.898876],[138.594852,-34.898887]]}},{"type":"Feature","properties":{"tier":"high"},"geometry":{"type":"LineString","coordinates":[[138.609154,-34.901762],[138.609197,-34.901753],[138.60923,-34.901744],[138.609263,-34.901731],[138.609299,-34.901714],[138.609339,-34.901692],[138.60938,-34.901665]]}},{"type":"Feature","properties":{"tier":"arterial"},"geometry":{"type":"LineString","coordinates":[[138.611096,-34.904981],[138.610982,-34.905045],[138.610798,-34.905149]]}},{"type":"Feature","properties":{"tier":"high"},"geometry":{"type":"LineString","coordinates":[[138.597217,-34.898642],[138.597299,-34.898641],[138.597368,-34.898642],[138.597442,-34.898645]]}},{"type":"Feature","properties":{"tier":"high"},"geometry":{"type":"LineString","coordinates":[[138.594733,-34.89878],[138.594838,-34.898772]]}},{"type":"Feature","properties":{"tier":"high"},"geometry":{"type":"LineString","coordinates":[[138.597442,-34.898645],[138.597328,-34.898757]]}},{"type":"Feature","properties":{"tier":"high"},"geometry":{"type":"LineString","coordinates":[[138.597217,-34.898642],[138.597283,-34.89857],[138.597444,-34.898392]]}},{"type":"Feature","properties":{"tier":"arterial"},"geometry":{"type":"LineString","coordinates":[[138.597328,-34.898757],[138.597255,-34.898827],[138.597224,-34.898858],[138.597146,-34.898939],[138.597064,-34.899026],[138.596999,-34.8991],[138.596504,-34.899672]]}},{"type":"Feature","properties":{"tier":"high"},"geometry":{"type":"LineString","coordinates":[[138.600097,-34.896192],[138.600173,-34.896123]]}},{"type":"Feature","properties":{"tier":"high"},"geometry":{"type":"LineString","coordinates":[[138.597901,-34.89817],[138.597763,-34.898541],[138.597758,-34.898589],[138.59778,-34.898646],[138.597818,-34.898688]]}},{"type":"Feature","properties":{"tier":"high"},"geometry":{"type":"LineString","coordinates":[[138.603282,-34.892885],[138.603271,-34.892626],[138.603251,-34.892399]]}},{"type":"Feature","properties":{"tier":"high"},"geometry":{"type":"LineString","coordinates":[[138.602947,-34.893757],[138.603058,-34.893607],[138.60311,-34.893544],[138.603145,-34.893496],[138.603162,-34.893471],[138.603188,-34.893433],[138.603204,-34.893405],[138.603228,-34.893358],[138.603245,-34.893321]]}},{"type":"Feature","properties":{"tier":"arterial"},"geometry":{"type":"LineString","coordinates":[[138.603762,-34.893574],[138.603566,-34.893554],[138.603518,-34.893549],[138.603481,-34.893541],[138.603457,-34.893535],[138.603417,-34.893519],[138.603376,-34.893499]]}},{"type":"Feature","properties":{"tier":"high"},"geometry":{"type":"LineString","coordinates":[[138.602947,-34.893757],[138.603182,-34.893592],[138.603233,-34.893557],[138.603274,-34.893531],[138.603303,-34.893515],[138.603376,-34.893499]]}},{"type":"Feature","properties":{"tier":"arterial"},"geometry":{"type":"LineString","coordinates":[[138.609451,-34.893339],[138.609353,-34.893342],[138.609204,-34.893346],[138.609013,-34.89335],[138.60873,-34.893346],[138.608505,-34.893336]]}},{"type":"Feature","properties":{"tier":"arterial"},"geometry":{"type":"LineString","coordinates":[[138.594329,-34.901215],[138.594443,-34.901453],[138.594502,-34.90173],[138.594509,-34.901759]]}},{"type":"Feature","properties":{"tier":"arterial"},"geometry":{"type":"LineString","coordinates":[[138.596607,-34.899393],[138.59684,-34.899123],[138.597044,-34.898871],[138.597062,-34.898848],[138.597136,-34.89875]]}},{"type":"Feature","properties":{"tier":"high"},"geometry":{"type":"LineString","coordinates":[[138.597442,-34.898645],[138.59757,-34.898657]]}},{"type":"Feature","properties":{"tier":"high"},"geometry":{"type":"LineString","coordinates":[[138.597328,-34.898757],[138.59723,-34.898752],[138.597136,-34.89875]]}},{"type":"Feature","properties":{"tier":"high"},"geometry":{"type":"LineString","coordinates":[[138.603154,-34.900239],[138.603118,-34.900253],[138.60309,-34.90026],[138.603057,-34.900267],[138.603015,-34.90027],[138.602934,-34.90027]]}},{"type":"Feature","properties":{"tier":"high"},"geometry":{"type":"LineString","coordinates":[[138.607439,-34.901445],[138.607508,-34.901489],[138.607556,-34.901523],[138.60757,-34.901534],[138.607575,-34.901541],[138.607577,-34.901547],[138.607578,-34.901553],[138.607574,-34.901581]]}},{"type":"Feature","properties":{"tier":"high"},"geometry":{"type":"LineString","coordinates":[[138.609231,-34.902612],[138.609214,-34.902558],[138.609201,-34.902521],[138.60919,-34.902487],[138.609176,-34.902444],[138.609166,-34.902412],[138.609157,-34.902379],[138.609155,-34.902341],[138.609155,-34.902304],[138.609156,-34.90224],[138.609159,-34.902012],[138.60916,-34.901992],[138.609158,-34.901925]]}},{"type":"Feature","properties":{"tier":"high"},"geometry":{"type":"LineString","coordinates":[[138.609154,-34.901762],[138.609159,-34.901672],[138.609172,-34.901425],[138.609181,-34.901341],[138.609199,-34.901241],[138.609226,-34.901106]]}},{"type":"Feature","properties":{"tier":"high"},"geometry":{"type":"LineString","coordinates":[[138.609274,-34.901446],[138.609285,-34.901486],[138.609301,-34.901529],[138.609321,-34.90157],[138.609333,-34.901594],[138.60938,-34.901665]]}},{"type":"Feature","properties":{"tier":"high"},"geometry":{"type":"LineString","coordinates":[[138.60938,-34.901665],[138.609404,-34.901698],[138.609435,-34.901735],[138.609487,-34.901789],[138.609555,-34.901854],[138.609635,-34.901922],[138.609673,-34.901952],[138.609724,-34.901993]]}},{"type":"Feature","properties":{"tier":"high"},"geometry":{"type":"LineString","coordinates":[[138.609593,-34.893338],[138.609567,-34.893394],[138.609541,-34.893458],[138.609443,-34.89378],[138.609398,-34.894337],[138.609356,-34.894441]]}},{"type":"Feature","properties":{"tier":"high"},"geometry":{"type":"LineString","coordinates":[[138.615263,-34.887784],[138.615383,-34.887692],[138.615466,-34.887629],[138.615621,-34.887511],[138.615714,-34.88744],[138.616919,-34.886521],[138.61739,-34.886158]]}},{"type":"Feature","properties":{"tier":"arterial"},"geometry":{"type":"LineString","coordinates":[[138.609593,-34.893338],[138.609451,-34.893339]]}},{"type":"Feature","properties":{"tier":"arterial"},"geometry":{"type":"LineString","coordinates":[[138.609222,-34.893257],[138.609282,-34.893254],[138.609392,-34.893247],[138.609407,-34.893246],[138.6095,-34.89324]]}},{"type":"Feature","properties":{"tier":"arterial"},"geometry":{"type":"LineString","coordinates":[[138.6095,-34.89324],[138.609645,-34.893239]]}},{"type":"Feature","properties":{"tier":"high"},"geometry":{"type":"LineString","coordinates":[[138.609451,-34.893339],[138.609476,-34.893287],[138.6095,-34.89324]]}},{"type":"Feature","properties":{"tier":"high"},"geometry":{"type":"LineString","coordinates":[[138.6095,-34.89324],[138.609537,-34.893179],[138.609545,-34.893165],[138.609588,-34.893099],[138.609604,-34.893075],[138.60962,-34.893054],[138.609644,-34.893026],[138.609703,-34.892953],[138.609729,-34.892923],[138.609779,-34.892866],[138.609802,-34.892841],[138.610038,-34.892586]]}},{"type":"Feature","properties":{"tier":"high"},"geometry":{"type":"LineString","coordinates":[[138.609845,-34.892971],[138.609718,-34.893125],[138.609703,-34.893146],[138.609682,-34.89318],[138.609645,-34.893239]]}},{"type":"Feature","properties":{"tier":"high"},"geometry":{"type":"LineString","coordinates":[[138.609645,-34.893239],[138.609619,-34.893287],[138.609593,-34.893338]]}},{"type":"Feature","properties":{"tier":"high"},"geometry":{"type":"LineString","coordinates":[[138.609313,-34.893821],[138.609324,-34.893763],[138.609342,-34.893688],[138.609405,-34.893451],[138.609416,-34.893422],[138.609451,-34.893339]]}},{"type":"Feature","properties":{"tier":"high"},"geometry":{"type":"LineString","coordinates":[[138.609313,-34.893821],[138.609308,-34.893764],[138.609296,-34.893586],[138.609295,-34.893534],[138.609293,-34.893499],[138.609288,-34.893471],[138.60928,-34.893442],[138.609271,-34.89342],[138.609255,-34.893398],[138.609235,-34.893372],[138.609204,-34.893346]]}},{"type":"Feature","properties":{"tier":"high"},"geometry":{"type":"LineString","coordinates":[[138.595963,-34.8987],[138.59597,-34.898809]]}},{"type":"Feature","properties":{"tier":"arterial"},"geometry":{"type":"LineString","coordinates":[[138.594733,-34.89878],[138.594727,-34.898709],[138.594717,-34.898527],[138.594698,-34.898247],[138.594696,-34.898049],[138.594735,-34.897635]]}},{"type":"Feature","properties":{"tier":"arterial"},"geometry":{"type":"LineString","coordinates":[[138.594735,-34.897635],[138.594736,-34.897525],[138.594696,-34.896954],[138.594659,-34.89643]]}},{"type":"Feature","properties":{"tier":"arterial"},"geometry":{"type":"LineString","coordinates":[[138.59474,-34.898898],[138.594733,-34.89878]]}},{"type":"Feature","properties":{"tier":"arterial"},"geometry":{"type":"LineString","coordinates":[[138.594838,-34.898772],[138.594852,-34.898887]]}},{"type":"Feature","properties":{"tier":"arterial"},"geometry":{"type":"LineString","coordinates":[[138.594494,-34.900119],[138.594509,-34.899919],[138.594696,-34.899333],[138.594724,-34.899193],[138.594735,-34.899081],[138.594739,-34.899005],[138.594739,-34.899002],[138.59474,-34.898972],[138.59474,-34.898898]]}},{"type":"Feature","properties":{"tier":"arterial"},"geometry":{"type":"LineString","coordinates":[[138.594735,-34.897635],[138.594791,-34.898061],[138.594812,-34.898422],[138.594818,-34.898505],[138.594827,-34.898669],[138.594829,-34.898703],[138.594838,-34.898772]]}},{"type":"Feature","properties":{"tier":"arterial"},"geometry":{"type":"LineString","coordinates":[[138.609982,-34.89327],[138.610007,-34.893277],[138.610056,-34.893292],[138.610107,-34.893312],[138.610162,-34.893337],[138.610213,-34.893369],[138.610259,-34.893401],[138.610279,-34.893416],[138.61031,-34.893443],[138.610364,-34.893504],[138.610431,-34.893583]]}},{"type":"Feature","properties":{"tier":"arterial"},"geometry":{"type":"LineString","coordinates":[[138.610431,-34.893583],[138.610241,-34.893496],[138.610178,-34.893463],[138.610114,-34.89343],[138.61003,-34.893393],[138.609967,-34.893371],[138.609907,-34.893359],[138.609847,-34.89335],[138.609754,-34.893338],[138.609724,-34.893337],[138.609593,-34.893338]]}},{"type":"Feature","properties":{"tier":"regional"},"geometry":{"type":"LineString","coordinates":[[138.60938,-34.901665],[138.609451,-34.901569],[138.609496,-34.901507],[138.609518,-34.90148],[138.609564,-34.901423]]}},{"type":"Feature","properties":{"tier":"regional"},"geometry":{"type":"LineString","coordinates":[[138.609926,-34.901156],[138.609824,-34.901261]]}},{"type":"Feature","properties":{"tier":"regional"},"geometry":{"type":"LineString","coordinates":[[138.609926,-34.901156],[138.610043,-34.901063]]}},{"type":"Feature","properties":{"tier":"arterial"},"geometry":{"type":"LineString","coordinates":[[138.594139,-34.888232],[138.594057,-34.888235]]}},{"type":"Feature","properties":{"tier":"regional"},"geometry":{"type":"LineString","coordinates":[[138.595908,-34.90596],[138.595812,-34.905982]]}},{"type":"Feature","properties":{"tier":"arterial"},"geometry":{"type":"LineString","coordinates":[[138.610798,-34.905149],[138.610757,-34.905172],[138.61067,-34.905219],[138.610465,-34.905336],[138.610139,-34.905507],[138.609628,-34.905785],[138.608911,-34.906174],[138.608734,-34.90627]]}},{"type":"Feature","properties":{"tier":"high"},"geometry":{"type":"LineString","coordinates":[[138.599485,-34.89925],[138.598774,-34.899042]]}},{"type":"Feature","properties":{"tier":"high"},"geometry":{"type":"LineString","coordinates":[[138.609721,-34.903351],[138.609404,-34.902963],[138.609308,-34.902827],[138.609279,-34.902752]]}},{"type":"Feature","properties":{"tier":"high"},"geometry":{"type":"LineString","coordinates":[[138.595057,-34.898753],[138.595963,-34.8987]]}},{"type":"Feature","properties":{"tier":"high"},"geometry":{"type":"LineString","coordinates":[[138.620216,-34.884138],[138.620175,-34.884169],[138.620146,-34.884191],[138.619987,-34.884311]]}},{"type":"Feature","properties":{"tier":"high"},"geometry":{"type":"LineString","coordinates":[[138.622052,-34.882608],[138.622238,-34.882472],[138.622772,-34.882077],[138.623165,-34.881774]]}},{"type":"Feature","properties":{"tier":"high"},"geometry":{"type":"LineString","coordinates":[[138.609158,-34.901925],[138.609155,-34.901826],[138.609154,-34.901762]]}},{"type":"Feature","properties":{"tier":"high"},"geometry":{"type":"LineString","coordinates":[[138.609231,-34.902612],[138.609245,-34.902407],[138.609244,-34.902234],[138.609246,-34.902144],[138.609257,-34.902039],[138.609261,-34.902012],[138.609278,-34.901946]]}},{"type":"Feature","properties":{"tier":"high"},"geometry":{"type":"LineString","coordinates":[[138.622108,-34.882694],[138.621881,-34.882869],[138.621878,-34.882872],[138.621875,-34.882874],[138.621796,-34.882934]]}},{"type":"Feature","properties":{"tier":"regional"},"geometry":{"type":"LineString","coordinates":[[138.61445,-34.880856],[138.61444,-34.880713],[138.614427,-34.880554],[138.614425,-34.880524],[138.614419,-34.880459]]}},{"type":"Feature","properties":{"tier":"regional"},"geometry":{"type":"LineString","coordinates":[[138.614781,-34.884323],[138.614688,-34.88409],[138.614679,-34.883996]]}},{"type":"Feature","properties":{"tier":"arterial"},"geometry":{"type":"LineString","coordinates":[[138.619908,-34.88317],[138.619892,-34.882912],[138.61984,-34.882281],[138.619827,-34.882131],[138.619826,-34.882108],[138.619817,-34.881993]]}},{"type":"Feature","properties":{"tier":"regional"},"geometry":{"type":"LineString","coordinates":[[138.614997,-34.887622],[138.615017,-34.887858],[138.61502,-34.887895],[138.615027,-34.887962]]}},{"type":"Feature","properties":{"tier":"regional"},"geometry":{"type":"LineString","coordinates":[[138.614346,-34.877349],[138.614335,-34.87741],[138.614336,-34.877439],[138.614336,-34.877454],[138.614345,-34.877524],[138.614366,-34.877738],[138.61442,-34.878415],[138.614426,-34.878491],[138.614448,-34.8788],[138.614457,-34.878925],[138.614472,-34.879132],[138.614478,-34.879218],[138.614481,-34.879255],[138.614516,-34.879774],[138.614542,-34.880103],[138.61455,-34.88022],[138.614554,-34.880277]]}},{"type":"Feature","properties":{"tier":"regional"},"geometry":{"type":"LineString","coordinates":[[138.614781,-34.884323],[138.614783,-34.884384],[138.614801,-34.884803],[138.614823,-34.885025],[138.614902,-34.886213],[138.614905,-34.886272],[138.614931,-34.886651],[138.614938,-34.886741],[138.614975,-34.887282],[138.614979,-34.88742],[138.61498,-34.88745]]}},{"type":"Feature","properties":{"tier":"regional"},"geometry":{"type":"LineString","coordinates":[[138.614155,-34.877119],[138.614164,-34.877024],[138.614165,-34.877013],[138.614166,-34.876964],[138.614117,-34.876257],[138.61406,-34.875454],[138.614027,-34.87498]]}},{"type":"Feature","properties":{"tier":"regional"},"geometry":{"type":"LineString","coordinates":[[138.614577,-34.880457],[138.614581,-34.880517],[138.614583,-34.880539],[138.614597,-34.880682],[138.614613,-34.880849],[138.614651,-34.881387],[138.614715,-34.882293],[138.614778,-34.883182],[138.614837,-34.884009]]}},{"type":"Feature","properties":{"tier":"regional"},"geometry":{"type":"LineString","coordinates":[[138.620528,-34.893265],[138.620902,-34.893004],[138.621401,-34.892656],[138.621809,-34.892341],[138.62248,-34.891825],[138.623063,-34.891382],[138.623123,-34.891336],[138.623229,-34.891251],[138.624049,-34.890599],[138.624153,-34.890516]]}},{"type":"Feature","properties":{"tier":"regional"},"geometry":{"type":"LineString","coordinates":[[138.615734,-34.896464],[138.615981,-34.896283],[138.616027,-34.896249],[138.616084,-34.896203],[138.616373,-34.89597]]}},{"type":"Feature","properties":{"tier":"arterial"},"geometry":{"type":"LineString","coordinates":[[138.61094,-34.894038],[138.612073,-34.895046],[138.612269,-34.89522],[138.61227,-34.895221],[138.61234,-34.895284],[138.612417,-34.895352],[138.612546,-34.895467],[138.613237,-34.896083],[138.613469,-34.896289],[138.613695,-34.89649]]}},{"type":"Feature","properties":{"tier":"regional"},"geometry":{"type":"LineString","coordinates":[[138.616373,-34.89597],[138.616486,-34.895886],[138.616618,-34.895787],[138.616687,-34.895736],[138.617148,-34.895382],[138.617222,-34.895325]]}},{"type":"Feature","properties":{"tier":"high"},"geometry":{"type":"LineString","coordinates":[[138.62407,-34.884522],[138.624881,-34.885235],[138.62502,-34.88535]]}},{"type":"Feature","properties":{"tier":"regional"},"geometry":{"type":"LineString","coordinates":[[138.617648,-34.895019],[138.61775,-34.89493],[138.617802,-34.894885],[138.617963,-34.894743],[138.618195,-34.894567],[138.618742,-34.89415]]}},{"type":"Feature","properties":{"tier":"high"},"geometry":{"type":"LineString","coordinates":[[138.597472,-34.89877],[138.597328,-34.898757]]}},{"type":"Feature","properties":{"tier":"high"},"geometry":{"type":"LineString","coordinates":[[138.594641,-34.898907],[138.594322,-34.898921],[138.59373,-34.898947]]}},{"type":"Feature","properties":{"tier":"high"},"geometry":{"type":"LineString","coordinates":[[138.605619,-34.900927],[138.605865,-34.900996],[138.60668,-34.901227]]}},{"type":"Feature","properties":{"tier":"high"},"geometry":{"type":"LineString","coordinates":[[138.609845,-34.902099],[138.610238,-34.902409],[138.610384,-34.902549],[138.610564,-34.902729],[138.610648,-34.902835],[138.610695,-34.902894]]}},{"type":"Feature","properties":{"tier":"high"},"geometry":{"type":"LineString","coordinates":[[138.601657,-34.899908],[138.601708,-34.899884],[138.601749,-34.899874],[138.601848,-34.899859]]}},{"type":"Feature","properties":{"tier":"high"},"geometry":{"type":"LineString","coordinates":[[138.608321,-34.901725],[138.608471,-34.901771],[138.608638,-34.901816],[138.608804,-34.901857],[138.608987,-34.901894],[138.609027,-34.901901],[138.609158,-34.901925]]}},{"type":"Feature","properties":{"tier":"regional"},"geometry":{"type":"LineString","coordinates":[[138.599503,-34.902159],[138.599483,-34.902204],[138.599432,-34.902248],[138.599411,-34.902257],[138.599365,-34.902286]]}},{"type":"Feature","properties":{"tier":"high"},"geometry":{"type":"LineString","coordinates":[[138.609274,-34.901446],[138.6093,-34.901466],[138.609323,-34.901482],[138.609345,-34.901494],[138.60936,-34.901499],[138.609371,-34.901501],[138.609385,-34.901503],[138.609396,-34.901503],[138.609419,-34.9015],[138.609446,-34.901496],[138.609518,-34.90148]]}},{"type":"Feature","properties":{"tier":"high"},"geometry":{"type":"LineString","coordinates":[[138.596925,-34.898659],[138.597077,-34.898569],[138.597177,-34.898529],[138.597325,-34.898457],[138.597444,-34.898392]]}},{"type":"Feature","properties":{"tier":"high"},"geometry":{"type":"LineString","coordinates":[[138.59986,-34.896389],[138.599881,-34.896332],[138.599877,-34.896302],[138.599867,-34.896272],[138.599832,-34.89624],[138.599738,-34.896195]]}},{"type":"Feature","properties":{"tier":"high"},"geometry":{"type":"LineString","coordinates":[[138.594818,-34.898505],[138.594938,-34.898673],[138.595057,-34.898753]]}},{"type":"Feature","properties":{"tier":"high"},"geometry":{"type":"LineString","coordinates":[[138.594351,-34.898812],[138.594561,-34.898728],[138.594633,-34.898686],[138.594671,-34.898653],[138.594717,-34.898527]]}},{"type":"Feature","properties":{"tier":"high"},"geometry":{"type":"LineString","coordinates":[[138.594696,-34.899333],[138.594665,-34.899138],[138.594637,-34.899056],[138.594602,-34.899007],[138.59454,-34.898965],[138.594436,-34.898947],[138.594322,-34.898921]]}},{"type":"Feature","properties":{"tier":"high"},"geometry":{"type":"LineString","coordinates":[[138.602788,-34.885834],[138.602909,-34.885828]]}},{"type":"Feature","properties":{"tier":"high"},"geometry":{"type":"LineString","coordinates":[[138.603352,-34.892238],[138.60324,-34.892242]]}},{"type":"Feature","properties":{"tier":"high"},"geometry":{"type":"LineString","coordinates":[[138.603243,-34.890597],[138.603133,-34.890604]]}},{"type":"Feature","properties":{"tier":"high"},"geometry":{"type":"LineString","coordinates":[[138.602999,-34.888762],[138.603117,-34.888757]]}},{"type":"Feature","properties":{"tier":"high"},"geometry":{"type":"LineString","coordinates":[[138.602451,-34.879574],[138.602416,-34.879557],[138.602386,-34.879522],[138.602322,-34.879413]]}},{"type":"Feature","properties":{"tier":"high"},"geometry":{"type":"LineString","coordinates":[[138.602156,-34.875531],[138.602173,-34.87576],[138.602204,-34.876196],[138.602227,-34.8765],[138.602234,-34.876597],[138.602244,-34.876741],[138.602246,-34.876768],[138.602248,-34.876795],[138.602254,-34.876873]]}},{"type":"Feature","properties":{"tier":"high"},"geometry":{"type":"LineString","coordinates":[[138.603164,-34.88951],[138.603053,-34.889516]]}},{"type":"Feature","properties":{"tier":"high"},"geometry":{"type":"LineString","coordinates":[[138.603104,-34.88861],[138.602987,-34.888619]]}},{"type":"Feature","properties":{"tier":"high"},"geometry":{"type":"LineString","coordinates":[[138.60341,-34.893033],[138.603479,-34.893194],[138.603553,-34.893346],[138.603577,-34.893391],[138.603598,-34.893419],[138.603622,-34.893447],[138.603646,-34.893467],[138.603678,-34.893486]]}},{"type":"Feature","properties":{"tier":"high"},"geometry":{"type":"LineString","coordinates":[[138.62029,-34.882098],[138.620558,-34.882174],[138.620708,-34.882219],[138.620795,-34.882254],[138.620867,-34.882291],[138.620944,-34.882342],[138.621021,-34.882395],[138.621101,-34.882461],[138.621335,-34.882659],[138.621446,-34.882757],[138.621484,-34.882785],[138.621533,-34.882814],[138.621593,-34.882846],[138.621622,-34.882863],[138.62169,-34.882889]]}},{"type":"Feature","properties":{"tier":"high"},"geometry":{"type":"LineString","coordinates":[[138.622108,-34.882694],[138.622015,-34.88283],[138.622007,-34.88285],[138.622007,-34.882867],[138.622014,-34.882903],[138.622033,-34.882935],[138.622062,-34.88297],[138.622162,-34.883096]]}},{"type":"Feature","properties":{"tier":"high"},"geometry":{"type":"LineString","coordinates":[[138.619537,-34.876888],[138.619448,-34.87697]]}},{"type":"Feature","properties":{"tier":"high"},"geometry":{"type":"LineString","coordinates":[[138.619027,-34.884907],[138.6193,-34.884702],[138.619847,-34.884291],[138.619882,-34.884264]]}},{"type":"Feature","properties":{"tier":"high"},"geometry":{"type":"LineString","coordinates":[[138.619971,-34.883797],[138.620048,-34.883865],[138.620077,-34.883894],[138.620105,-34.883915],[138.620126,-34.883933],[138.62016,-34.883948],[138.620194,-34.883953],[138.620238,-34.883953],[138.620302,-34.883948]]}},{"type":"Feature","properties":{"tier":"arterial"},"geometry":{"type":"LineString","coordinates":[[138.594459,-34.893379],[138.594482,-34.893779],[138.594501,-34.894121]]}},{"type":"Feature","properties":{"tier":"arterial"},"geometry":{"type":"LineString","coordinates":[[138.594391,-34.893117],[138.594385,-34.893034],[138.594369,-34.892802],[138.594359,-34.892665]]}},{"type":"Feature","properties":{"tier":"high"},"geometry":{"type":"LineString","coordinates":[[138.60322,-34.890251],[138.603109,-34.890256]]}},{"type":"Feature","properties":{"tier":"high"},"geometry":{"type":"LineString","coordinates":[[138.603067,-34.888056],[138.60295,-34.888062]]}},{"type":"Feature","properties":{"tier":"high"},"geometry":{"type":"LineString","coordinates":[[138.603033,-34.887617],[138.602916,-34.887622]]}},{"type":"Feature","properties":{"tier":"high"},"geometry":{"type":"LineString","coordinates":[[138.601148,-34.895452],[138.601071,-34.895387]]}},{"type":"Feature","properties":{"tier":"high"},"geometry":{"type":"LineString","coordinates":[[138.614997,-34.887622],[138.6151,-34.887749],[138.615123,-34.887766],[138.615147,-34.887777],[138.615181,-34.887786],[138.615209,-34.887786],[138.615263,-34.887784]]}},{"type":"Feature","properties":{"tier":"high"},"geometry":{"type":"LineString","coordinates":[[138.612351,-34.890172],[138.612315,-34.89027],[138.612309,-34.890301],[138.612306,-34.890365],[138.612306,-34.890388],[138.612313,-34.89045],[138.612331,-34.890559]]}},{"type":"Feature","properties":{"tier":"high"},"geometry":{"type":"LineString","coordinates":[[138.609845,-34.892971],[138.609834,-34.89301],[138.609828,-34.893032],[138.609824,-34.893061],[138.609823,-34.893083],[138.609823,-34.893108],[138.609824,-34.893124],[138.609827,-34.893136],[138.609831,-34.893147],[138.609837,-34.893158],[138.609843,-34.893166],[138.609858,-34.893182],[138.609876,-34.893196],[138.60989,-34.893208],[138.609982,-34.89327]]}},{"type":"Feature","properties":{"tier":"arterial"},"geometry":{"type":"LineString","coordinates":[[138.594865,-34.903302],[138.594969,-34.903276]]}},{"type":"Feature","properties":{"tier":"high"},"geometry":{"type":"LineString","coordinates":[[138.61151,-34.90392],[138.611578,-34.904151],[138.611592,-34.904291],[138.611599,-34.904369],[138.611507,-34.904659],[138.611414,-34.904759]]}},{"type":"Feature","properties":{"tier":"regional"},"geometry":{"type":"LineString","coordinates":[[138.603911,-34.90627],[138.604301,-34.906055],[138.604355,-34.90604]]}},{"type":"Feature","properties":{"tier":"regional"},"geometry":{"type":"LineString","coordinates":[[138.600231,-34.905012],[138.600127,-34.905017],[138.599943,-34.905048],[138.599757,-34.905072]]}},{"type":"Feature","properties":{"tier":"regional"},"geometry":{"type":"LineString","coordinates":[[138.599757,-34.905072],[138.599931,-34.905019],[138.600055,-34.904977],[138.600108,-34.904958],[138.600201,-34.904924]]}},{"type":"Feature","properties":{"tier":"regional"},"geometry":{"type":"LineString","coordinates":[[138.598908,-34.902421],[138.599052,-34.902352],[138.599089,-34.902333],[138.59916,-34.902295]]}},{"type":"Feature","properties":{"tier":"regional"},"geometry":{"type":"LineString","coordinates":[[138.599213,-34.902369],[138.599111,-34.902394],[138.599067,-34.902406],[138.598908,-34.902421]]}},{"type":"Feature","properties":{"tier":"regional"},"geometry":{"type":"LineString","coordinates":[[138.59934,-34.902351],[138.599354,-34.902398],[138.599367,-34.902443],[138.599369,-34.902552]]}},{"type":"Feature","properties":{"tier":"regional"},"geometry":{"type":"LineString","coordinates":[[138.599369,-34.902552],[138.599303,-34.902436],[138.599291,-34.902422],[138.599258,-34.90238]]}},{"type":"Feature","properties":{"tier":"regional"},"geometry":{"type":"LineString","coordinates":[[138.59934,-34.902351],[138.599323,-34.902364],[138.599303,-34.902373],[138.599281,-34.902379],[138.599258,-34.90238],[138.599248,-34.902379],[138.599232,-34.902376],[138.599213,-34.902369],[138.599191,-34.902356],[138.599174,-34.902338],[138.599163,-34.902317],[138.59916,-34.902295]]}},{"type":"Feature","properties":{"tier":"regional"},"geometry":{"type":"LineString","coordinates":[[138.60156,-34.900025],[138.601134,-34.900478],[138.60097,-34.900651]]}},{"type":"Feature","properties":{"tier":"regional"},"geometry":{"type":"LineString","coordinates":[[138.599321,-34.902226],[138.599365,-34.90221],[138.599415,-34.902198],[138.599503,-34.902159]]}},{"type":"Feature","properties":{"tier":"regional"},"geometry":{"type":"LineString","coordinates":[[138.599187,-34.902239],[138.599181,-34.902185],[138.599183,-34.902158],[138.599193,-34.902076]]}},{"type":"Feature","properties":{"tier":"regional"},"geometry":{"type":"LineString","coordinates":[[138.599193,-34.902076],[138.599251,-34.902144],[138.59926,-34.902163],[138.599275,-34.902212]]}},{"type":"Feature","properties":{"tier":"high"},"geometry":{"type":"LineString","coordinates":[[138.612331,-34.890559],[138.612247,-34.89054],[138.612192,-34.890537],[138.612138,-34.890535],[138.612129,-34.890535],[138.61207,-34.890538],[138.61199,-34.89056]]}},{"type":"Feature","properties":{"tier":"high"},"geometry":{"type":"LineString","coordinates":[[138.609226,-34.901106],[138.60925,-34.899694],[138.609252,-34.899524],[138.609272,-34.898197],[138.609275,-34.898006],[138.60928,-34.897748],[138.609297,-34.89726],[138.609324,-34.895997]]}},{"type":"Feature","properties":{"tier":"high"},"geometry":{"type":"LineString","coordinates":[[138.603547,-34.893621],[138.60351,-34.893629],[138.603465,-34.893639],[138.603416,-34.893651],[138.603366,-34.893667],[138.603314,-34.893685],[138.603264,-34.893707],[138.60322,-34.893731],[138.603155,-34.893769]]}},{"type":"Feature","properties":{"tier":"regional"},"geometry":{"type":"LineString","coordinates":[[138.614164,-34.87498],[138.614187,-34.875282],[138.614199,-34.875445],[138.614201,-34.875482],[138.614235,-34.875929],[138.614261,-34.876253],[138.614283,-34.876542],[138.614302,-34.876856],[138.614309,-34.876917],[138.61433,-34.87702],[138.614353,-34.877133]]}},{"type":"Feature","properties":{"tier":"regional"},"geometry":{"type":"LineString","coordinates":[[138.614417,-34.880289],[138.614416,-34.880226],[138.614416,-34.880213],[138.614411,-34.880085],[138.614385,-34.879783],[138.614335,-34.879225],[138.614309,-34.878936],[138.614272,-34.878505],[138.614264,-34.878411],[138.614222,-34.87773],[138.614211,-34.877593],[138.614203,-34.87754],[138.614177,-34.877437],[138.61417,-34.877411],[138.614154,-34.877358]]}},{"type":"Feature","properties":{"tier":"regional"},"geometry":{"type":"LineString","coordinates":[[138.614367,-34.880373],[138.614369,-34.880354],[138.614375,-34.880336],[138.614385,-34.880318],[138.614399,-34.880303],[138.614417,-34.880289],[138.614441,-34.880277],[138.614469,-34.880269],[138.614498,-34.880266],[138.614527,-34.880269],[138.614554,-34.880277]]}},{"type":"Feature","properties":{"tier":"regional"},"geometry":{"type":"LineString","coordinates":[[138.61438,-34.87732],[138.614364,-34.877336],[138.614346,-34.877349],[138.614317,-34.877364],[138.614285,-34.877374],[138.614252,-34.877378],[138.614218,-34.877377],[138.614185,-34.87737],[138.614154,-34.877358],[138.614137,-34.877349],[138.614123,-34.877338],[138.614098,-34.877313],[138.614081,-34.877283],[138.614072,-34.877251],[138.614072,-34.877238],[138.614076,-34.877207],[138.614089,-34.877178],[138.614109,-34.877152],[138.614122,-34.877139],[138.614138,-34.877128],[138.614155,-34.877119],[138.614179,-34.877109],[138.614204,-34.877103],[138.61423,-34.877099],[138.614257,-34.8771],[138.614283,-34.877103],[138.614308,-34.87711],[138.614332,-34.87712],[138.614353,-34.877133],[138.614365,-34.877142],[138.614375,-34.877152],[138.614392,-34.877172],[138.614403,-34.877195],[138.61441,-34.877218],[138.614412,-34.877241],[138.61441,-34.877262],[138.614404,-34.877283],[138.614394,-34.877302],[138.61438,-34.87732]]}},{"type":"Feature","properties":{"tier":"regional"},"geometry":{"type":"LineString","coordinates":[[138.617473,-34.895104],[138.617575,-34.895055],[138.617648,-34.895019]]}},{"type":"Feature","properties":{"tier":"regional"},"geometry":{"type":"LineString","coordinates":[[138.617385,-34.89526],[138.617222,-34.895325]]}},{"type":"Feature","properties":{"tier":"regional"},"geometry":{"type":"LineString","coordinates":[[138.61744,-34.895267],[138.617412,-34.895267],[138.617385,-34.89526],[138.617359,-34.895246],[138.617339,-34.895227],[138.617327,-34.895204],[138.617324,-34.895175],[138.617333,-34.895147],[138.617345,-34.895129],[138.617363,-34.895114],[138.617385,-34.895103],[138.617414,-34.895097],[138.617444,-34.895097],[138.617473,-34.895104],[138.617499,-34.895118],[138.617518,-34.895138],[138.61753,-34.895161],[138.617533,-34.895182],[138.61753,-34.895204],[138.61752,-34.895224],[138.617497,-34.895247],[138.617467,-34.895262],[138.61744,-34.895267]]}},{"type":"Feature","properties":{"tier":"arterial"},"geometry":{"type":"LineString","coordinates":[[138.594659,-34.89643],[138.594613,-34.895759],[138.594599,-34.895561],[138.594589,-34.895407],[138.594576,-34.895215],[138.594575,-34.895205],[138.594574,-34.895187],[138.59457,-34.895131],[138.594564,-34.895046],[138.594563,-34.895028],[138.594563,-34.895026],[138.594552,-34.894863],[138.594501,-34.894121]]}},{"type":"Feature","properties":{"tier":"high"},"geometry":{"type":"LineString","coordinates":[[138.599717,-34.899217],[138.5997,-34.899227],[138.599687,-34.899234],[138.599671,-34.89924],[138.599644,-34.899245],[138.599615,-34.89925],[138.599582,-34.899252],[138.599543,-34.899253],[138.599485,-34.89925]]}},{"type":"Feature","properties":{"tier":"arterial"},"geometry":{"type":"LineString","coordinates":[[138.593812,-34.884345],[138.593803,-34.88418],[138.593801,-34.884137],[138.593801,-34.884126],[138.593788,-34.883892],[138.593783,-34.88385],[138.59377,-34.883743],[138.59373,-34.883117]]}},{"type":"Feature","properties":{"tier":"arterial"},"geometry":{"type":"LineString","coordinates":[[138.593817,-34.884471],[138.593878,-34.884714],[138.593893,-34.884802],[138.593919,-34.88496],[138.59393,-34.885111],[138.593959,-34.885484]]}},{"type":"Feature","properties":{"tier":"high"},"geometry":{"type":"LineString","coordinates":[[138.609158,-34.901925],[138.609278,-34.901946]]}},{"type":"Feature","properties":{"tier":"high"},"geometry":{"type":"LineString","coordinates":[[138.609278,-34.901946],[138.609299,-34.901871],[138.609316,-34.90182],[138.609335,-34.901768],[138.609354,-34.901724],[138.60938,-34.901665]]}},{"type":"Feature","properties":{"tier":"high"},"geometry":{"type":"LineString","coordinates":[[138.612043,-34.90627],[138.611826,-34.905949],[138.611774,-34.905862],[138.611572,-34.90558],[138.611389,-34.905362]]}},{"type":"Feature","properties":{"tier":"high"},"geometry":{"type":"LineString","coordinates":[[138.602116,-34.87498],[138.602133,-34.875203]]}},{"type":"Feature","properties":{"tier":"high"},"geometry":{"type":"LineString","coordinates":[[138.602635,-34.88201],[138.602657,-34.88225],[138.602676,-34.882491],[138.602683,-34.882602],[138.602691,-34.882731],[138.602705,-34.882972],[138.602721,-34.883231]]}},{"type":"Feature","properties":{"tier":"high"},"geometry":{"type":"LineString","coordinates":[[138.602815,-34.884492],[138.60285,-34.885043],[138.602909,-34.885828]]}},{"type":"Feature","properties":{"tier":"high"},"geometry":{"type":"LineString","coordinates":[[138.603067,-34.888056],[138.603104,-34.88861]]}},{"type":"Feature","properties":{"tier":"high"},"geometry":{"type":"LineString","coordinates":[[138.602133,-34.876799],[138.602074,-34.875991]]}},{"type":"Feature","properties":{"tier":"high"},"geometry":{"type":"LineString","coordinates":[[138.602412,-34.894263],[138.602528,-34.894165]]}},{"type":"Feature","properties":{"tier":"high"},"geometry":{"type":"LineString","coordinates":[[138.600598,-34.895775],[138.601071,-34.895387]]}},{"type":"Feature","properties":{"tier":"high"},"geometry":{"type":"LineString","coordinates":[[138.597786,-34.898285],[138.597537,-34.898544],[138.59751,-34.898574],[138.597442,-34.898645]]}},{"type":"Feature","properties":{"tier":"high"},"geometry":{"type":"LineString","coordinates":[[138.598328,-34.897631],[138.599289,-34.896851]]}},{"type":"Feature","properties":{"tier":"high"},"geometry":{"type":"LineString","coordinates":[[138.60324,-34.892242],[138.603211,-34.891726]]}},{"type":"Feature","properties":{"tier":"high"},"geometry":{"type":"LineString","coordinates":[[138.60327,-34.890933],[138.603306,-34.89144],[138.603312,-34.891511]]}},{"type":"Feature","properties":{"tier":"high"},"geometry":{"type":"LineString","coordinates":[[138.602484,-34.880024],[138.602515,-34.880433],[138.602521,-34.880519]]}},{"type":"Feature","properties":{"tier":"high"},"geometry":{"type":"LineString","coordinates":[[138.603053,-34.889516],[138.602999,-34.888762]]}},{"type":"Feature","properties":{"tier":"high"},"geometry":{"type":"LineString","coordinates":[[138.602897,-34.887333],[138.602875,-34.88703],[138.602871,-34.886982],[138.602862,-34.886852]]}},{"type":"Feature","properties":{"tier":"high"},"geometry":{"type":"LineString","coordinates":[[138.602403,-34.880523],[138.602344,-34.87972]]}},{"type":"Feature","properties":{"tier":"high"},"geometry":{"type":"LineString","coordinates":[[138.602613,-34.88342],[138.602594,-34.88316]]}},{"type":"Feature","properties":{"tier":"high"},"geometry":{"type":"LineString","coordinates":[[138.60341,-34.893033],[138.603403,-34.893244],[138.603406,-34.893314],[138.603403,-34.893359],[138.603397,-34.893401],[138.603389,-34.893445],[138.603376,-34.893499]]}},{"type":"Feature","properties":{"tier":"high"},"geometry":{"type":"LineString","coordinates":[[138.598928,-34.89728],[138.598183,-34.897887],[138.598165,-34.897901]]}},{"type":"Feature","properties":{"tier":"arterial"},"geometry":{"type":"LineString","coordinates":[[138.596106,-34.900142],[138.594705,-34.901818],[138.594682,-34.901845]]}},{"type":"Feature","properties":{"tier":"arterial"},"geometry":{"type":"LineString","coordinates":[[138.594592,-34.902073],[138.594855,-34.902939]]}},{"type":"Feature","properties":{"tier":"arterial"},"geometry":{"type":"LineString","coordinates":[[138.594725,-34.902921],[138.594453,-34.902077]]}},{"type":"Feature","properties":{"tier":"arterial"},"geometry":{"type":"LineString","coordinates":[[138.595249,-34.904388],[138.595124,-34.904023],[138.595008,-34.903691]]}},{"type":"Feature","properties":{"tier":"arterial"},"geometry":{"type":"LineString","coordinates":[[138.595589,-34.905011],[138.59568,-34.905265]]}},{"type":"Feature","properties":{"tier":"arterial"},"geometry":{"type":"LineString","coordinates":[[138.594969,-34.903276],[138.595008,-34.903394],[138.59523,-34.903999],[138.595341,-34.904309],[138.595434,-34.904572],[138.59546,-34.904646]]}},{"type":"Feature","properties":{"tier":"arterial"},"geometry":{"type":"LineString","coordinates":[[138.595812,-34.905982],[138.59577,-34.905867],[138.595661,-34.905565],[138.595585,-34.905355]]}},{"type":"Feature","properties":{"tier":"regional"},"geometry":{"type":"LineString","coordinates":[[138.624153,-34.890516],[138.624182,-34.890479],[138.6242,-34.890432],[138.624172,-34.890363],[138.624,-34.89008],[138.623994,-34.890037],[138.624008,-34.889994],[138.624038,-34.889966],[138.624072,-34.889949]]}},{"type":"Feature","properties":{"tier":"regional"},"geometry":{"type":"LineString","coordinates":[[138.624072,-34.889949],[138.624176,-34.889913],[138.62502,-34.889616]]}},{"type":"Feature","properties":{"tier":"arterial"},"geometry":{"type":"LineString","coordinates":[[138.616964,-34.899403],[138.6175,-34.899885],[138.617921,-34.900278]]}},{"type":"Feature","properties":{"tier":"arterial"},"geometry":{"type":"LineString","coordinates":[[138.617921,-34.900278],[138.618368,-34.900657],[138.618835,-34.901008]]}},{"type":"Feature","properties":{"tier":"arterial"},"geometry":{"type":"LineString","coordinates":[[138.618835,-34.901008],[138.619139,-34.901224],[138.619431,-34.901443],[138.620086,-34.901933],[138.620547,-34.90227],[138.621043,-34.902632],[138.621518,-34.902979],[138.621988,-34.903323],[138.622102,-34.903402],[138.622449,-34.903667],[138.622522,-34.903723],[138.622611,-34.903793],[138.622737,-34.903912],[138.62287,-34.904042],[138.622924,-34.904097],[138.623315,-34.904518],[138.623704,-34.904934],[138.624098,-34.90536],[138.624519,-34.905796],[138.624927,-34.906239],[138.624957,-34.90627]]}},{"type":"Feature","properties":{"tier":"regional"},"geometry":{"type":"LineString","coordinates":[[138.59373,-34.90212],[138.593879,-34.902084],[138.594259,-34.901995],[138.594291,-34.901987],[138.594417,-34.901954]]}},{"type":"Feature","properties":{"tier":"arterial"},"geometry":{"type":"LineString","coordinates":[[138.604642,-34.893508],[138.604218,-34.893552],[138.603762,-34.893574]]}},{"type":"Feature","properties":{"tier":"arterial"},"geometry":{"type":"LineString","coordinates":[[138.608505,-34.893336],[138.608844,-34.893273]]}},{"type":"Feature","properties":{"tier":"arterial"},"geometry":{"type":"LineString","coordinates":[[138.606685,-34.893407],[138.607351,-34.893378],[138.608065,-34.893349],[138.608505,-34.893336]]}},{"type":"Feature","properties":{"tier":"regional"},"geometry":{"type":"LineString","coordinates":[[138.600677,-34.90627],[138.600664,-34.906234],[138.600356,-34.905362]]}},{"type":"Feature","properties":{"tier":"high"},"geometry":{"type":"LineString","coordinates":[[138.608752,-34.902019],[138.608729,-34.902001],[138.608706,-34.901984],[138.608672,-34.90196],[138.608611,-34.901923],[138.60854,-34.901888],[138.608473,-34.90186],[138.608395,-34.901833],[138.608299,-34.901802],[138.607846,-34.901661],[138.607574,-34.901581],[138.607073,-34.901439],[138.606473,-34.901269],[138.606398,-34.901248]]}},{"type":"Feature","properties":{"tier":"regional"},"geometry":{"type":"LineString","coordinates":[[138.599365,-34.902286],[138.599365,-34.902304],[138.599361,-34.902321],[138.599352,-34.902337],[138.59934,-34.902351]]}},{"type":"Feature","properties":{"tier":"high"},"geometry":{"type":"LineString","coordinates":[[138.596622,-34.898673],[138.596925,-34.898659]]}},{"type":"Feature","properties":{"tier":"high"},"geometry":{"type":"LineString","coordinates":[[138.597444,-34.898392],[138.597507,-34.898322],[138.598029,-34.897877]]}},{"type":"Feature","properties":{"tier":"regional"},"geometry":{"type":"LineString","coordinates":[[138.594969,-34.903276],[138.595057,-34.903255],[138.595077,-34.903251],[138.595126,-34.903243],[138.595287,-34.90321],[138.595461,-34.903183],[138.595809,-34.903127],[138.596162,-34.903047],[138.596215,-34.903034],[138.596245,-34.903028],[138.596613,-34.902943],[138.597448,-34.902752],[138.597519,-34.902736],[138.59813,-34.902596],[138.598517,-34.90251],[138.598823,-34.90244],[138.598908,-34.902421]]}},{"type":"Feature","properties":{"tier":"high"},"geometry":{"type":"LineString","coordinates":[[138.621691,-34.883007],[138.6216,-34.882962]]}},{"type":"Feature","properties":{"tier":"high"},"geometry":{"type":"LineString","coordinates":[[138.62169,-34.882889],[138.621796,-34.882934]]}},{"type":"Feature","properties":{"tier":"high"},"geometry":{"type":"LineString","coordinates":[[138.622315,-34.88317],[138.622362,-34.883194],[138.622468,-34.88325]]}},{"type":"Feature","properties":{"tier":"high"},"geometry":{"type":"LineString","coordinates":[[138.6216,-34.882962],[138.621532,-34.88293],[138.621419,-34.882852],[138.621305,-34.882758],[138.621138,-34.882611],[138.621048,-34.882517],[138.620955,-34.882442],[138.62086,-34.882376],[138.620732,-34.882313],[138.62059,-34.882268],[138.620391,-34.882216]]}},{"type":"Feature","properties":{"tier":"arterial"},"geometry":{"type":"LineString","coordinates":[[138.596504,-34.899672],[138.596405,-34.899787]]}},{"type":"Feature","properties":{"tier":"arterial"},"geometry":{"type":"LineString","coordinates":[[138.593959,-34.885484],[138.593978,-34.88577],[138.593984,-34.885854],[138.59399,-34.885948],[138.594009,-34.886192],[138.594021,-34.886361],[138.594043,-34.886687],[138.594072,-34.887125],[138.594079,-34.88723],[138.594083,-34.887306],[138.594114,-34.887812],[138.594132,-34.888132],[138.594139,-34.888232],[138.594156,-34.888479],[138.59417,-34.888697],[138.594182,-34.888868]]}},{"type":"Feature","properties":{"tier":"arterial"},"geometry":{"type":"LineString","coordinates":[[138.594101,-34.888871],[138.594089,-34.8887],[138.594057,-34.888235],[138.594049,-34.88812],[138.594036,-34.887815],[138.594027,-34.887638],[138.594008,-34.887309],[138.59399,-34.886976],[138.593988,-34.886949],[138.593967,-34.88669],[138.593942,-34.886388],[138.593928,-34.886195],[138.593914,-34.885939],[138.593907,-34.885858],[138.593901,-34.885782],[138.593877,-34.885488]]}},{"type":"Feature","properties":{"tier":"arterial"},"geometry":{"type":"LineString","coordinates":[[138.594298,-34.890434],[138.594306,-34.890546],[138.59434,-34.891023],[138.594354,-34.891197],[138.594373,-34.891494],[138.594394,-34.891944],[138.594412,-34.892303],[138.594413,-34.892342],[138.594423,-34.892512],[138.59443,-34.892662]]}},{"type":"Feature","properties":{"tier":"arterial"},"geometry":{"type":"LineString","coordinates":[[138.593877,-34.885488],[138.593851,-34.885115],[138.593837,-34.884908],[138.593815,-34.88458],[138.593817,-34.884471]]}},{"type":"Feature","properties":{"tier":"regional"},"geometry":{"type":"LineString","coordinates":[[138.614634,-34.897326],[138.614706,-34.897269],[138.614721,-34.897257],[138.61496,-34.897069],[138.615309,-34.896795],[138.615401,-34.896722],[138.615532,-34.89662],[138.615734,-34.896464]]}},{"type":"Feature","properties":{"tier":"regional"},"geometry":{"type":"LineString","coordinates":[[138.617222,-34.895325],[138.617277,-34.895261],[138.617327,-34.895204]]}},{"type":"Feature","properties":{"tier":"regional"},"geometry":{"type":"LineString","coordinates":[[138.617648,-34.895019],[138.617602,-34.895075],[138.61753,-34.895161]]}},{"type":"Feature","properties":{"tier":"high"},"geometry":{"type":"LineString","coordinates":[[138.62502,-34.885528],[138.625013,-34.885522],[138.624826,-34.885364],[138.624337,-34.884933],[138.624,-34.884654],[138.623952,-34.884613]]}},{"type":"Feature","properties":{"tier":"high"},"geometry":{"type":"LineString","coordinates":[[138.601159,-34.895443],[138.601148,-34.895452]]}},{"type":"Feature","properties":{"tier":"high"},"geometry":{"type":"LineString","coordinates":[[138.601071,-34.895387],[138.601142,-34.895327],[138.602083,-34.894538],[138.602412,-34.894263]]}},{"type":"Feature","properties":{"tier":"high"},"geometry":{"type":"LineString","coordinates":[[138.60668,-34.901227],[138.606659,-34.901237],[138.606636,-34.901244],[138.606606,-34.901252],[138.606576,-34.901257],[138.606473,-34.901269]]}},{"type":"Feature","properties":{"tier":"high"},"geometry":{"type":"LineString","coordinates":[[138.60668,-34.901227],[138.607108,-34.901351],[138.607294,-34.901402]]}},{"type":"Feature","properties":{"tier":"high"},"geometry":{"type":"LineString","coordinates":[[138.599717,-34.899217],[138.600094,-34.89933],[138.600894,-34.899579],[138.600967,-34.899602]]}},{"type":"Feature","properties":{"tier":"high"},"geometry":{"type":"LineString","coordinates":[[138.595963,-34.8987],[138.596622,-34.898673]]}},{"type":"Feature","properties":{"tier":"high"},"geometry":{"type":"LineString","coordinates":[[138.59373,-34.898843],[138.594351,-34.898812]]}},{"type":"Feature","properties":{"tier":"high"},"geometry":{"type":"LineString","coordinates":[[138.600753,-34.899638],[138.600235,-34.899479],[138.599485,-34.89925]]}},{"type":"Feature","properties":{"tier":"high"},"geometry":{"type":"LineString","coordinates":[[138.59757,-34.898657],[138.597677,-34.89867],[138.597818,-34.898688],[138.597915,-34.898708]]}},{"type":"Feature","properties":{"tier":"high"},"geometry":{"type":"LineString","coordinates":[[138.59474,-34.898898],[138.594641,-34.898907]]}},{"type":"Feature","properties":{"tier":"high"},"geometry":{"type":"LineString","coordinates":[[138.594852,-34.898887],[138.59474,-34.898898]]}},{"type":"Feature","properties":{"tier":"high"},"geometry":{"type":"LineString","coordinates":[[138.602138,-34.876879],[138.602133,-34.876799]]}},{"type":"Feature","properties":{"tier":"high"},"geometry":{"type":"LineString","coordinates":[[138.602205,-34.877821],[138.602202,-34.877773],[138.602184,-34.877514],[138.602167,-34.877302]]}},{"type":"Feature","properties":{"tier":"high"},"geometry":{"type":"LineString","coordinates":[[138.602325,-34.877872],[138.602352,-34.878257],[138.602386,-34.878673],[138.602392,-34.87874]]}},{"type":"Feature","properties":{"tier":"high"},"geometry":{"type":"LineString","coordinates":[[138.60228,-34.878836],[138.602277,-34.878797],[138.602269,-34.878681],[138.602217,-34.877975],[138.602205,-34.877821]]}},{"type":"Feature","properties":{"tier":"high"},"geometry":{"type":"LineString","coordinates":[[138.602344,-34.87972],[138.602332,-34.879545],[138.602322,-34.879413],[138.602313,-34.879291],[138.602299,-34.879089],[138.602284,-34.878896],[138.60228,-34.878836]]}},{"type":"Feature","properties":{"tier":"high"},"geometry":{"type":"LineString","coordinates":[[138.602392,-34.87874],[138.602419,-34.879163],[138.602439,-34.879423],[138.602451,-34.879574]]}},{"type":"Feature","properties":{"tier":"high"},"geometry":{"type":"LineString","coordinates":[[138.602451,-34.879574],[138.602484,-34.880024]]}},{"type":"Feature","properties":{"tier":"high"},"geometry":{"type":"LineString","coordinates":[[138.60241,-34.880627],[138.602403,-34.880523]]}},{"type":"Feature","properties":{"tier":"high"},"geometry":{"type":"LineString","coordinates":[[138.602425,-34.88083],[138.60241,-34.880627]]}},{"type":"Feature","properties":{"tier":"high"},"geometry":{"type":"LineString","coordinates":[[138.602434,-34.880954],[138.602425,-34.88083]]}},{"type":"Feature","properties":{"tier":"high"},"geometry":{"type":"LineString","coordinates":[[138.6025,-34.881866],[138.60249,-34.881727],[138.602455,-34.881248]]}},{"type":"Feature","properties":{"tier":"high"},"geometry":{"type":"LineString","coordinates":[[138.602552,-34.880949],[138.6026,-34.881548],[138.602619,-34.881848]]}},{"type":"Feature","properties":{"tier":"high"},"geometry":{"type":"LineString","coordinates":[[138.60267,-34.884202],[138.602793,-34.884195]]}},{"type":"Feature","properties":{"tier":"high"},"geometry":{"type":"LineString","coordinates":[[138.60267,-34.884202],[138.602633,-34.883694],[138.602613,-34.88342]]}},{"type":"Feature","properties":{"tier":"high"},"geometry":{"type":"LineString","coordinates":[[138.602699,-34.8846],[138.602685,-34.884424]]}},{"type":"Feature","properties":{"tier":"high"},"geometry":{"type":"LineString","coordinates":[[138.602793,-34.884195],[138.602815,-34.884492]]}},{"type":"Feature","properties":{"tier":"arterial"},"geometry":{"type":"LineString","coordinates":[[138.594182,-34.888868],[138.594194,-34.889025]]}},{"type":"Feature","properties":{"tier":"arterial"},"geometry":{"type":"LineString","coordinates":[[138.594114,-34.889028],[138.594101,-34.888871]]}},{"type":"Feature","properties":{"tier":"arterial"},"geometry":{"type":"LineString","coordinates":[[138.594185,-34.889932],[138.594167,-34.889705],[138.59416,-34.889603]]}},{"type":"Feature","properties":{"tier":"arterial"},"geometry":{"type":"LineString","coordinates":[[138.594215,-34.890309],[138.594185,-34.889932]]}},{"type":"Feature","properties":{"tier":"arterial"},"geometry":{"type":"LineString","coordinates":[[138.594264,-34.889929],[138.59429,-34.890306]]}},{"type":"Feature","properties":{"tier":"arterial"},"geometry":{"type":"LineString","coordinates":[[138.594242,-34.889616],[138.594248,-34.889702],[138.594264,-34.889929]]}},{"type":"Feature","properties":{"tier":"arterial"},"geometry":{"type":"LineString","coordinates":[[138.59429,-34.890306],[138.594298,-34.890434]]}},{"type":"Feature","properties":{"tier":"arterial"},"geometry":{"type":"LineString","coordinates":[[138.594194,-34.889025],[138.594209,-34.889202],[138.594232,-34.889491],[138.594242,-34.889616]]}},{"type":"Feature","properties":{"tier":"arterial"},"geometry":{"type":"LineString","coordinates":[[138.59416,-34.889603],[138.594152,-34.889505],[138.594128,-34.889206],[138.594114,-34.889028]]}},{"type":"Feature","properties":{"tier":"arterial"},"geometry":{"type":"LineString","coordinates":[[138.594225,-34.890436],[138.594215,-34.890309]]}},{"type":"Feature","properties":{"tier":"arterial"},"geometry":{"type":"LineString","coordinates":[[138.594459,-34.893379],[138.594391,-34.893117]]}},{"type":"Feature","properties":{"tier":"arterial"},"geometry":{"type":"LineString","coordinates":[[138.594455,-34.893124],[138.594459,-34.893379]]}},{"type":"Feature","properties":{"tier":"high"},"geometry":{"type":"LineString","coordinates":[[138.612072,-34.890309],[138.612135,-34.890237]]}},{"type":"Feature","properties":{"tier":"high"},"geometry":{"type":"LineString","coordinates":[[138.612148,-34.890376],[138.612092,-34.890441],[138.612082,-34.890453],[138.61199,-34.89056]]}},{"type":"Feature","properties":{"tier":"high"},"geometry":{"type":"LineString","coordinates":[[138.610038,-34.892586],[138.611498,-34.89096],[138.611637,-34.890804]]}},{"type":"Feature","properties":{"tier":"high"},"geometry":{"type":"LineString","coordinates":[[138.602916,-34.887622],[138.602897,-34.887333]]}},{"type":"Feature","properties":{"tier":"high"},"geometry":{"type":"LineString","coordinates":[[138.602918,-34.887643],[138.602916,-34.887622]]}},{"type":"Feature","properties":{"tier":"high"},"geometry":{"type":"LineString","coordinates":[[138.603033,-34.887617],[138.603042,-34.887727]]}},{"type":"Feature","properties":{"tier":"high"},"geometry":{"type":"LineString","coordinates":[[138.60295,-34.888062],[138.602918,-34.887643]]}},{"type":"Feature","properties":{"tier":"high"},"geometry":{"type":"LineString","coordinates":[[138.603042,-34.887727],[138.603067,-34.888056]]}},{"type":"Feature","properties":{"tier":"high"},"geometry":{"type":"LineString","coordinates":[[138.603024,-34.887488],[138.603033,-34.887617]]}},{"type":"Feature","properties":{"tier":"high"},"geometry":{"type":"LineString","coordinates":[[138.603164,-34.88951],[138.603193,-34.889837]]}},{"type":"Feature","properties":{"tier":"high"},"geometry":{"type":"LineString","coordinates":[[138.603077,-34.889836],[138.603053,-34.889516]]}},{"type":"Feature","properties":{"tier":"high"},"geometry":{"type":"LineString","coordinates":[[138.603109,-34.890256],[138.603077,-34.889836]]}},{"type":"Feature","properties":{"tier":"high"},"geometry":{"type":"LineString","coordinates":[[138.603133,-34.890604],[138.603109,-34.890256]]}},{"type":"Feature","properties":{"tier":"high"},"geometry":{"type":"LineString","coordinates":[[138.60322,-34.890251],[138.603241,-34.890563]]}},{"type":"Feature","properties":{"tier":"high"},"geometry":{"type":"LineString","coordinates":[[138.603193,-34.889837],[138.60322,-34.890251]]}},{"type":"Feature","properties":{"tier":"high"},"geometry":{"type":"LineString","coordinates":[[138.603243,-34.890597],[138.603268,-34.890904],[138.60327,-34.890933]]}},{"type":"Feature","properties":{"tier":"high"},"geometry":{"type":"LineString","coordinates":[[138.603241,-34.890563],[138.603243,-34.890597]]}},{"type":"Feature","properties":{"tier":"high"},"geometry":{"type":"LineString","coordinates":[[138.60315,-34.890829],[138.603133,-34.890604]]}},{"type":"Feature","properties":{"tier":"high"},"geometry":{"type":"LineString","coordinates":[[138.603352,-34.892238],[138.603369,-34.892491]]}},{"type":"Feature","properties":{"tier":"high"},"geometry":{"type":"LineString","coordinates":[[138.603351,-34.892206],[138.603352,-34.892238]]}},{"type":"Feature","properties":{"tier":"high"},"geometry":{"type":"LineString","coordinates":[[138.603251,-34.892399],[138.60324,-34.892242]]}},{"type":"Feature","properties":{"tier":"high"},"geometry":{"type":"LineString","coordinates":[[138.619798,-34.881729],[138.619785,-34.881449]]}},{"type":"Feature","properties":{"tier":"high"},"geometry":{"type":"LineString","coordinates":[[138.602987,-34.888619],[138.60295,-34.888062]]}},{"type":"Feature","properties":{"tier":"high"},"geometry":{"type":"LineString","coordinates":[[138.619417,-34.87498],[138.619472,-34.87582]]}},{"type":"Feature","properties":{"tier":"high"},"geometry":{"type":"LineString","coordinates":[[138.619365,-34.875825],[138.619334,-34.875335],[138.619312,-34.874985],[138.619312,-34.87498]]}},{"type":"Feature","properties":{"tier":"high"},"geometry":{"type":"LineString","coordinates":[[138.619365,-34.875825],[138.619472,-34.87582]]}},{"type":"Feature","properties":{"tier":"high"},"geometry":{"type":"LineString","coordinates":[[138.613136,-34.889531],[138.613054,-34.889452]]}},{"type":"Feature","properties":{"tier":"high"},"geometry":{"type":"LineString","coordinates":[[138.612351,-34.890172],[138.612244,-34.890279],[138.612219,-34.890304],[138.612148,-34.890376]]}},{"type":"Feature","properties":{"tier":"high"},"geometry":{"type":"LineString","coordinates":[[138.613136,-34.889531],[138.613046,-34.889599]]}},{"type":"Feature","properties":{"tier":"high"},"geometry":{"type":"LineString","coordinates":[[138.612135,-34.890237],[138.612435,-34.889956],[138.612591,-34.889814],[138.613054,-34.889452]]}},{"type":"Feature","properties":{"tier":"high"},"geometry":{"type":"LineString","coordinates":[[138.613476,-34.889273],[138.613384,-34.889189]]}},{"type":"Feature","properties":{"tier":"high"},"geometry":{"type":"LineString","coordinates":[[138.613384,-34.889189],[138.613668,-34.888978],[138.614317,-34.888496]]}},{"type":"Feature","properties":{"tier":"high"},"geometry":{"type":"LineString","coordinates":[[138.613054,-34.889452],[138.613384,-34.889189]]}},{"type":"Feature","properties":{"tier":"high"},"geometry":{"type":"LineString","coordinates":[[138.613476,-34.889273],[138.613334,-34.889381]]}},{"type":"Feature","properties":{"tier":"high"},"geometry":{"type":"LineString","coordinates":[[138.614808,-34.888264],[138.614674,-34.888365],[138.614393,-34.888579],[138.614085,-34.888812],[138.613476,-34.889273]]}},{"type":"Feature","properties":{"tier":"high"},"geometry":{"type":"LineString","coordinates":[[138.61507,-34.888061],[138.614942,-34.88816],[138.614808,-34.888264]]}},{"type":"Feature","properties":{"tier":"high"},"geometry":{"type":"LineString","coordinates":[[138.615027,-34.887962],[138.61507,-34.888061]]}},{"type":"Feature","properties":{"tier":"high"},"geometry":{"type":"LineString","coordinates":[[138.616034,-34.887327],[138.615166,-34.887987],[138.615142,-34.888005],[138.61507,-34.888061]]}},{"type":"Feature","properties":{"tier":"high"},"geometry":{"type":"LineString","coordinates":[[138.615027,-34.887962],[138.615122,-34.887891],[138.615263,-34.887784]]}},{"type":"Feature","properties":{"tier":"high"},"geometry":{"type":"LineString","coordinates":[[138.614317,-34.888496],[138.61492,-34.888043],[138.614954,-34.888018]]}},{"type":"Feature","properties":{"tier":"high"},"geometry":{"type":"LineString","coordinates":[[138.61739,-34.886158],[138.61747,-34.88623]]}},{"type":"Feature","properties":{"tier":"high"},"geometry":{"type":"LineString","coordinates":[[138.617954,-34.885727],[138.618537,-34.885281],[138.618863,-34.885033],[138.619027,-34.884907]]}},{"type":"Feature","properties":{"tier":"high"},"geometry":{"type":"LineString","coordinates":[[138.61739,-34.886158],[138.617954,-34.885727]]}},{"type":"Feature","properties":{"tier":"high"},"geometry":{"type":"LineString","coordinates":[[138.61747,-34.88623],[138.617021,-34.886573],[138.616775,-34.886761],[138.616381,-34.887062],[138.616034,-34.887327]]}},{"type":"Feature","properties":{"tier":"high"},"geometry":{"type":"LineString","coordinates":[[138.618038,-34.885797],[138.61747,-34.88623]]}},{"type":"Feature","properties":{"tier":"high"},"geometry":{"type":"LineString","coordinates":[[138.6216,-34.882962],[138.62169,-34.882889]]}},{"type":"Feature","properties":{"tier":"high"},"geometry":{"type":"LineString","coordinates":[[138.621501,-34.883038],[138.621527,-34.883016],[138.6216,-34.882962]]}},{"type":"Feature","properties":{"tier":"high"},"geometry":{"type":"LineString","coordinates":[[138.621691,-34.883007],[138.621617,-34.883059],[138.621147,-34.883418]]}},{"type":"Feature","properties":{"tier":"high"},"geometry":{"type":"LineString","coordinates":[[138.621796,-34.882934],[138.621691,-34.883007]]}},{"type":"Feature","properties":{"tier":"high"},"geometry":{"type":"LineString","coordinates":[[138.621147,-34.883418],[138.620609,-34.883835],[138.620448,-34.88396],[138.620216,-34.884138]]}},{"type":"Feature","properties":{"tier":"high"},"geometry":{"type":"LineString","coordinates":[[138.62169,-34.882889],[138.621768,-34.882829],[138.622052,-34.882608]]}},{"type":"Feature","properties":{"tier":"high"},"geometry":{"type":"LineString","coordinates":[[138.623683,-34.881514],[138.62361,-34.881438]]}},{"type":"Feature","properties":{"tier":"high"},"geometry":{"type":"LineString","coordinates":[[138.624475,-34.880912],[138.623683,-34.881514]]}},{"type":"Feature","properties":{"tier":"high"},"geometry":{"type":"LineString","coordinates":[[138.62361,-34.881438],[138.623713,-34.88136]]}},{"type":"Feature","properties":{"tier":"high"},"geometry":{"type":"LineString","coordinates":[[138.623165,-34.881774],[138.62361,-34.881438]]}},{"type":"Feature","properties":{"tier":"high"},"geometry":{"type":"LineString","coordinates":[[138.624475,-34.880912],[138.624394,-34.880842]]}},{"type":"Feature","properties":{"tier":"high"},"geometry":{"type":"LineString","coordinates":[[138.62482,-34.880649],[138.624639,-34.880787],[138.624475,-34.880912]]}},{"type":"Feature","properties":{"tier":"high"},"geometry":{"type":"LineString","coordinates":[[138.62502,-34.880498],[138.62482,-34.880649]]}},{"type":"Feature","properties":{"tier":"high"},"geometry":{"type":"LineString","coordinates":[[138.624735,-34.880581],[138.624808,-34.880524],[138.62502,-34.880362]]}},{"type":"Feature","properties":{"tier":"high"},"geometry":{"type":"LineString","coordinates":[[138.624394,-34.880842],[138.624494,-34.880766],[138.624558,-34.880717],[138.624735,-34.880581]]}},{"type":"Feature","properties":{"tier":"high"},"geometry":{"type":"LineString","coordinates":[[138.619548,-34.877053],[138.619458,-34.877004]]}},{"type":"Feature","properties":{"tier":"high"},"geometry":{"type":"LineString","coordinates":[[138.619548,-34.877053],[138.619559,-34.877834]]}},{"type":"Feature","properties":{"tier":"high"},"geometry":{"type":"LineString","coordinates":[[138.619458,-34.877004],[138.619448,-34.87697]]}},{"type":"Feature","properties":{"tier":"high"},"geometry":{"type":"LineString","coordinates":[[138.619559,-34.877834],[138.619492,-34.877575],[138.61948,-34.87736],[138.619458,-34.877004]]}},{"type":"Feature","properties":{"tier":"high"},"geometry":{"type":"LineString","coordinates":[[138.619446,-34.876894],[138.619537,-34.876888]]}},{"type":"Feature","properties":{"tier":"high"},"geometry":{"type":"LineString","coordinates":[[138.619472,-34.87582],[138.619537,-34.876888]]}},{"type":"Feature","properties":{"tier":"high"},"geometry":{"type":"LineString","coordinates":[[138.619446,-34.876894],[138.619428,-34.876638],[138.61941,-34.876394],[138.619398,-34.87624],[138.619365,-34.875825]]}},{"type":"Feature","properties":{"tier":"regional"},"geometry":{"type":"LineString","coordinates":[[138.614679,-34.883996],[138.61462,-34.883189],[138.614555,-34.882301],[138.61449,-34.881395],[138.61445,-34.880856]]}},{"type":"Feature","properties":{"tier":"regional"},"geometry":{"type":"LineString","coordinates":[[138.614837,-34.884009],[138.614834,-34.884094],[138.614781,-34.884323]]}},{"type":"Feature","properties":{"tier":"high"},"geometry":{"type":"LineString","coordinates":[[138.603369,-34.892491],[138.60341,-34.893033]]}},{"type":"Feature","properties":{"tier":"high"},"geometry":{"type":"LineString","coordinates":[[138.604637,-34.900762],[138.604243,-34.900646],[138.603831,-34.900524],[138.602934,-34.90027],[138.601657,-34.899908]]}},{"type":"Feature","properties":{"tier":"high"},"geometry":{"type":"LineString","coordinates":[[138.601657,-34.899908],[138.600886,-34.899676],[138.600753,-34.899638]]}},{"type":"Feature","properties":{"tier":"high"},"geometry":{"type":"LineString","coordinates":[[138.600967,-34.899602],[138.601493,-34.899756],[138.601848,-34.899859],[138.60195,-34.899889]]}},{"type":"Feature","properties":{"tier":"high"},"geometry":{"type":"LineString","coordinates":[[138.606398,-34.901248],[138.605816,-34.901088],[138.604991,-34.900861],[138.604637,-34.900762]]}},{"type":"Feature","properties":{"tier":"high"},"geometry":{"type":"LineString","coordinates":[[138.598165,-34.897901],[138.597956,-34.89811]]}},{"type":"Feature","properties":{"tier":"high"},"geometry":{"type":"LineString","coordinates":[[138.609356,-34.894441],[138.6093,-34.894302],[138.60931,-34.893889],[138.609313,-34.893821]]}},{"type":"Feature","properties":{"tier":"high"},"geometry":{"type":"LineString","coordinates":[[138.603762,-34.893574],[138.603683,-34.893591],[138.603608,-34.89361],[138.603547,-34.893621]]}},{"type":"Feature","properties":{"tier":"high"},"geometry":{"type":"LineString","coordinates":[[138.60263,-34.894078],[138.602947,-34.893757]]}},{"type":"Feature","properties":{"tier":"arterial"},"geometry":{"type":"LineString","coordinates":[[138.619998,-34.883905],[138.620029,-34.88403],[138.620033,-34.884059],[138.620033,-34.884103],[138.62003,-34.884142]]}},{"type":"Feature","properties":{"tier":"high"},"geometry":{"type":"LineString","coordinates":[[138.598185,-34.898776],[138.598586,-34.89888],[138.599717,-34.899217]]}},{"type":"Feature","properties":{"tier":"high"},"geometry":{"type":"LineString","coordinates":[[138.597915,-34.898708],[138.598035,-34.898739],[138.598185,-34.898776]]}},{"type":"Feature","properties":{"tier":"high"},"geometry":{"type":"LineString","coordinates":[[138.602613,-34.88342],[138.602736,-34.883414]]}},{"type":"Feature","properties":{"tier":"high"},"geometry":{"type":"LineString","coordinates":[[138.602736,-34.883414],[138.602793,-34.884195]]}},{"type":"Feature","properties":{"tier":"high"},"geometry":{"type":"LineString","coordinates":[[138.602721,-34.883231],[138.602736,-34.883414]]}},{"type":"Feature","properties":{"tier":"high"},"geometry":{"type":"LineString","coordinates":[[138.612765,-34.905645],[138.612787,-34.90627]]}},{"type":"Feature","properties":{"tier":"high"},"geometry":{"type":"LineString","coordinates":[[138.610879,-34.903126],[138.611107,-34.903413],[138.61151,-34.90392]]}},{"type":"Feature","properties":{"tier":"high"},"geometry":{"type":"LineString","coordinates":[[138.610069,-34.892719],[138.609893,-34.892914],[138.609845,-34.892971]]}},{"type":"Feature","properties":{"tier":"high"},"geometry":{"type":"LineString","coordinates":[[138.609226,-34.901106],[138.609248,-34.901241],[138.609256,-34.901306],[138.609263,-34.90137],[138.609267,-34.901408],[138.609274,-34.901446]]}},{"type":"Feature","properties":{"tier":"high"},"geometry":{"type":"LineString","coordinates":[[138.610837,-34.904678],[138.610783,-34.904617],[138.610643,-34.904455],[138.610212,-34.903947],[138.609742,-34.903375],[138.609721,-34.903351]]}},{"type":"Feature","properties":{"tier":"arterial"},"geometry":{"type":"LineString","coordinates":[[138.609645,-34.893239],[138.609758,-34.89324],[138.609806,-34.893242],[138.609859,-34.893247],[138.609915,-34.893255],[138.609948,-34.893262],[138.609982,-34.89327]]}},{"type":"Feature","properties":{"tier":"high"},"geometry":{"type":"LineString","coordinates":[[138.594351,-34.898812],[138.594621,-34.89879],[138.594622,-34.89879],[138.594656,-34.898787],[138.594733,-34.89878]]}},{"type":"Feature","properties":{"tier":"high"},"geometry":{"type":"LineString","coordinates":[[138.609278,-34.901946],[138.609398,-34.901969],[138.609459,-34.901984],[138.609534,-34.902003],[138.609615,-34.90203],[138.609845,-34.902099]]}},{"type":"Feature","properties":{"tier":"regional"},"geometry":{"type":"LineString","coordinates":[[138.61498,-34.88745],[138.614997,-34.887622]]}},{"type":"Feature","properties":{"tier":"high"},"geometry":{"type":"LineString","coordinates":[[138.622615,-34.883495],[138.622424,-34.883379],[138.622289,-34.883301],[138.622109,-34.883204],[138.62197,-34.883133],[138.621791,-34.883048],[138.621757,-34.883034],[138.621691,-34.883007]]}},{"type":"Feature","properties":{"tier":"high"},"geometry":{"type":"LineString","coordinates":[[138.623683,-34.881514],[138.622852,-34.882147]]}},{"type":"Feature","properties":{"tier":"high"},"geometry":{"type":"LineString","coordinates":[[138.621796,-34.882934],[138.621858,-34.882961],[138.622162,-34.883096]]}},{"type":"Feature","properties":{"tier":"high"},"geometry":{"type":"LineString","coordinates":[[138.594838,-34.898772],[138.594922,-34.898765],[138.595057,-34.898753]]}},{"type":"Feature","properties":{"tier":"high"},"geometry":{"type":"LineString","coordinates":[[138.620152,-34.882152],[138.619943,-34.882095],[138.619917,-34.882087],[138.619861,-34.882064],[138.619836,-34.882032],[138.619817,-34.881993]]}},{"type":"Feature","properties":{"tier":"high"},"geometry":{"type":"LineString","coordinates":[[138.619987,-34.884311],[138.619769,-34.884477],[138.619592,-34.884612],[138.619381,-34.884773],[138.618549,-34.885407],[138.618198,-34.885675],[138.618038,-34.885797]]}},{"type":"Feature","properties":{"tier":"high"},"geometry":{"type":"LineString","coordinates":[[138.622852,-34.882147],[138.622524,-34.882383],[138.622291,-34.882558]]}},{"type":"Feature","properties":{"tier":"arterial"},"geometry":{"type":"LineString","coordinates":[[138.603678,-34.893486],[138.603761,-34.893485],[138.603973,-34.89348],[138.604106,-34.893479],[138.604193,-34.893481],[138.604321,-34.893488],[138.604642,-34.893508]]}},{"type":"Feature","properties":{"tier":"high"},"geometry":{"type":"LineString","coordinates":[[138.601966,-34.894757],[138.601336,-34.895289],[138.601159,-34.895443]]}},{"type":"Feature","properties":{"tier":"high"},"geometry":{"type":"LineString","coordinates":[[138.603155,-34.893769],[138.601966,-34.894757]]}},{"type":"Feature","properties":{"tier":"arterial"},"geometry":{"type":"LineString","coordinates":[[138.604642,-34.893508],[138.605189,-34.893478]]}},{"type":"Feature","properties":{"tier":"high"},"geometry":{"type":"LineString","coordinates":[[138.602528,-34.894165],[138.60263,-34.894078]]}},{"type":"Feature","properties":{"tier":"high"},"geometry":{"type":"LineString","coordinates":[[138.603286,-34.892946],[138.603282,-34.892885]]}},{"type":"Feature","properties":{"tier":"high"},"geometry":{"type":"LineString","coordinates":[[138.603245,-34.893321],[138.603291,-34.893155],[138.603292,-34.893054],[138.603286,-34.892946]]}},{"type":"Feature","properties":{"tier":"high"},"geometry":{"type":"LineString","coordinates":[[138.611637,-34.890804],[138.611998,-34.890393],[138.612006,-34.890384],[138.612017,-34.890372],[138.612072,-34.890309]]}},{"type":"Feature","properties":{"tier":"arterial"},"geometry":{"type":"LineString","coordinates":[[138.60612,-34.893439],[138.606685,-34.893407]]}},{"type":"Feature","properties":{"tier":"arterial"},"geometry":{"type":"LineString","coordinates":[[138.605189,-34.893478],[138.60612,-34.893439]]}},{"type":"Feature","properties":{"tier":"regional"},"geometry":{"type":"LineString","coordinates":[[138.611151,-34.90013],[138.611652,-34.899698],[138.612044,-34.899386],[138.613009,-34.89858],[138.61317,-34.898445],[138.614008,-34.897805],[138.61413,-34.897711],[138.614541,-34.897397],[138.614547,-34.897392],[138.614634,-34.897326]]}},{"type":"Feature","properties":{"tier":"high"},"geometry":{"type":"LineString","coordinates":[[138.604112,-34.90051],[138.604948,-34.900743],[138.605619,-34.900927]]}},{"type":"Feature","properties":{"tier":"high"},"geometry":{"type":"LineString","coordinates":[[138.603154,-34.900239],[138.603833,-34.900433],[138.604112,-34.90051]]}},{"type":"Feature","properties":{"tier":"high"},"geometry":{"type":"LineString","coordinates":[[138.602619,-34.881848],[138.602635,-34.88201]]}},{"type":"Feature","properties":{"tier":"high"},"geometry":{"type":"LineString","coordinates":[[138.602685,-34.884424],[138.60267,-34.884202]]}},{"type":"Feature","properties":{"tier":"arterial"},"geometry":{"type":"LineString","coordinates":[[138.594417,-34.901954],[138.594534,-34.901859]]}},{"type":"Feature","properties":{"tier":"high"},"geometry":{"type":"LineString","coordinates":[[138.600036,-34.89636],[138.599475,-34.896818],[138.599374,-34.89691]]}},{"type":"Feature","properties":{"tier":"high"},"geometry":{"type":"LineString","coordinates":[[138.601148,-34.895452],[138.600396,-34.896072]]}},{"type":"Feature","properties":{"tier":"high"},"geometry":{"type":"LineString","coordinates":[[138.598029,-34.897877],[138.598328,-34.897631]]}},{"type":"Feature","properties":{"tier":"arterial"},"geometry":{"type":"LineString","coordinates":[[138.616897,-34.899341],[138.616964,-34.899403]]}},{"type":"Feature","properties":{"tier":"arterial"},"geometry":{"type":"LineString","coordinates":[[138.595911,-34.90627],[138.59586,-34.906123],[138.59585,-34.906093],[138.595812,-34.905982]]}},{"type":"Feature","properties":{"tier":"arterial"},"geometry":{"type":"LineString","coordinates":[[138.595704,-34.905348],[138.595802,-34.905667]]}},{"type":"Feature","properties":{"tier":"arterial"},"geometry":{"type":"LineString","coordinates":[[138.595802,-34.905667],[138.595853,-34.905808],[138.595866,-34.905843],[138.595908,-34.90596]]}},{"type":"Feature","properties":{"tier":"arterial"},"geometry":{"type":"LineString","coordinates":[[138.595908,-34.90596],[138.595948,-34.906071],[138.596019,-34.90627]]}},{"type":"Feature","properties":{"tier":"high"},"geometry":{"type":"LineString","coordinates":[[138.602133,-34.875203],[138.602156,-34.875531]]}},{"type":"Feature","properties":{"tier":"high"},"geometry":{"type":"LineString","coordinates":[[138.602074,-34.875991],[138.602063,-34.875844],[138.602057,-34.875766],[138.602,-34.87498]]}},{"type":"Feature","properties":{"tier":"high"},"geometry":{"type":"LineString","coordinates":[[138.602455,-34.881248],[138.602434,-34.880954]]}},{"type":"Feature","properties":{"tier":"high"},"geometry":{"type":"LineString","coordinates":[[138.602522,-34.882169],[138.60251,-34.882009],[138.6025,-34.881866]]}},{"type":"Feature","properties":{"tier":"high"},"geometry":{"type":"LineString","coordinates":[[138.602594,-34.88316],[138.602579,-34.882959]]}},{"type":"Feature","properties":{"tier":"high"},"geometry":{"type":"LineString","coordinates":[[138.602579,-34.882959],[138.602557,-34.882655],[138.602554,-34.882605],[138.602522,-34.882169]]}},{"type":"Feature","properties":{"tier":"high"},"geometry":{"type":"LineString","coordinates":[[138.602788,-34.885834],[138.602749,-34.885301],[138.602699,-34.8846]]}},{"type":"Feature","properties":{"tier":"high"},"geometry":{"type":"LineString","coordinates":[[138.602909,-34.885828],[138.602973,-34.886761]]}},{"type":"Feature","properties":{"tier":"high"},"geometry":{"type":"LineString","coordinates":[[138.602973,-34.886761],[138.602985,-34.88693],[138.602988,-34.886974],[138.603003,-34.887247]]}},{"type":"Feature","properties":{"tier":"high"},"geometry":{"type":"LineString","coordinates":[[138.602862,-34.886852],[138.602788,-34.885834]]}},{"type":"Feature","properties":{"tier":"high"},"geometry":{"type":"LineString","coordinates":[[138.603003,-34.887247],[138.603024,-34.887488]]}},{"type":"Feature","properties":{"tier":"high"},"geometry":{"type":"LineString","coordinates":[[138.602999,-34.888762],[138.602987,-34.888619]]}},{"type":"Feature","properties":{"tier":"high"},"geometry":{"type":"LineString","coordinates":[[138.603117,-34.888757],[138.603129,-34.888993],[138.603154,-34.889368],[138.603164,-34.88951]]}},{"type":"Feature","properties":{"tier":"high"},"geometry":{"type":"LineString","coordinates":[[138.603104,-34.88861],[138.603117,-34.888757]]}},{"type":"Feature","properties":{"tier":"high"},"geometry":{"type":"LineString","coordinates":[[138.603151,-34.890847],[138.60315,-34.890829]]}},{"type":"Feature","properties":{"tier":"high"},"geometry":{"type":"LineString","coordinates":[[138.603174,-34.891153],[138.603156,-34.89091],[138.603151,-34.890847]]}},{"type":"Feature","properties":{"tier":"high"},"geometry":{"type":"LineString","coordinates":[[138.603198,-34.891486],[138.603174,-34.891153]]}},{"type":"Feature","properties":{"tier":"high"},"geometry":{"type":"LineString","coordinates":[[138.603211,-34.891726],[138.603198,-34.891486]]}},{"type":"Feature","properties":{"tier":"high"},"geometry":{"type":"LineString","coordinates":[[138.603312,-34.891511],[138.603331,-34.891812],[138.603337,-34.891911],[138.603351,-34.892206]]}},{"type":"Feature","properties":{"tier":"high"},"geometry":{"type":"LineString","coordinates":[[138.603376,-34.893499],[138.603357,-34.893541],[138.603319,-34.893602],[138.603296,-34.893633],[138.603275,-34.89366],[138.603247,-34.89369],[138.603222,-34.893714],[138.603191,-34.893741],[138.603155,-34.893769]]}},{"type":"Feature","properties":{"tier":"arterial"},"geometry":{"type":"LineString","coordinates":[[138.603376,-34.893499],[138.603345,-34.893478],[138.603329,-34.893464],[138.603314,-34.893449],[138.603297,-34.893433],[138.603279,-34.893411],[138.603263,-34.893386],[138.603252,-34.893356],[138.603245,-34.893321]]}},{"type":"Feature","properties":{"tier":"arterial"},"geometry":{"type":"LineString","coordinates":[[138.603376,-34.893499],[138.603497,-34.893487],[138.603538,-34.893486],[138.603588,-34.893485],[138.603631,-34.893485],[138.603678,-34.893486]]}},{"type":"Feature","properties":{"tier":"high"},"geometry":{"type":"LineString","coordinates":[[138.62003,-34.884142],[138.620126,-34.884074],[138.620302,-34.883948]]}},{"type":"Feature","properties":{"tier":"high"},"geometry":{"type":"LineString","coordinates":[[138.62003,-34.884142],[138.620021,-34.884209],[138.620009,-34.884253],[138.619987,-34.884311]]}},{"type":"Feature","properties":{"tier":"high"},"geometry":{"type":"LineString","coordinates":[[138.620302,-34.883948],[138.620599,-34.883735],[138.621067,-34.883359],[138.621501,-34.883038]]}},{"type":"Feature","properties":{"tier":"high"},"geometry":{"type":"LineString","coordinates":[[138.619882,-34.884264],[138.62003,-34.884142]]}},{"type":"Feature","properties":{"tier":"regional"},"geometry":{"type":"LineString","coordinates":[[138.614627,-34.880363],[138.614626,-34.880386],[138.61462,-34.880407],[138.614609,-34.880427]]}},{"type":"Feature","properties":{"tier":"regional"},"geometry":{"type":"LineString","coordinates":[[138.614419,-34.880459],[138.614403,-34.880447],[138.614389,-34.880433]]}},{"type":"Feature","properties":{"tier":"regional"},"geometry":{"type":"LineString","coordinates":[[138.614389,-34.880433],[138.614373,-34.880405],[138.614367,-34.880373]]}},{"type":"Feature","properties":{"tier":"regional"},"geometry":{"type":"LineString","coordinates":[[138.614609,-34.880427],[138.614595,-34.880443],[138.614577,-34.880457]]}},{"type":"Feature","properties":{"tier":"regional"},"geometry":{"type":"LineString","coordinates":[[138.614577,-34.880457],[138.614548,-34.880471],[138.614515,-34.880479],[138.614481,-34.880479],[138.614448,-34.880472],[138.614419,-34.880459]]}},{"type":"Feature","properties":{"tier":"regional"},"geometry":{"type":"LineString","coordinates":[[138.614554,-34.880277],[138.614577,-34.880289],[138.614596,-34.880304],[138.614611,-34.880322],[138.614621,-34.880342]]}},{"type":"Feature","properties":{"tier":"regional"},"geometry":{"type":"LineString","coordinates":[[138.614621,-34.880342],[138.614627,-34.880363]]}},{"type":"Feature","properties":{"tier":"arterial"},"geometry":{"type":"LineString","coordinates":[[138.594682,-34.901845],[138.59455,-34.901926]]}},{"type":"Feature","properties":{"tier":"arterial"},"geometry":{"type":"LineString","coordinates":[[138.594453,-34.902077],[138.594417,-34.901954]]}},{"type":"Feature","properties":{"tier":"arterial"},"geometry":{"type":"LineString","coordinates":[[138.594509,-34.901759],[138.594534,-34.901859]]}},{"type":"Feature","properties":{"tier":"regional"},"geometry":{"type":"LineString","coordinates":[[138.60097,-34.900651],[138.600446,-34.901186],[138.60013,-34.901514],[138.599503,-34.902159]]}},{"type":"Feature","properties":{"tier":"high"},"geometry":{"type":"LineString","coordinates":[[138.597136,-34.89875],[138.597079,-34.89875],[138.597023,-34.898751],[138.59597,-34.898809]]}},{"type":"Feature","properties":{"tier":"regional"},"geometry":{"type":"LineString","coordinates":[[138.600178,-34.904864],[138.600165,-34.904826],[138.600151,-34.904788],[138.599737,-34.903642],[138.599701,-34.903535],[138.599369,-34.902552]]}},{"type":"Feature","properties":{"tier":"regional"},"geometry":{"type":"LineString","coordinates":[[138.596698,-34.905777],[138.596421,-34.905841],[138.596338,-34.90586],[138.596058,-34.905925],[138.59602,-34.905934],[138.595908,-34.90596]]}},{"type":"Feature","properties":{"tier":"regional"},"geometry":{"type":"LineString","coordinates":[[138.599757,-34.905072],[138.599615,-34.905105],[138.599531,-34.905124],[138.599139,-34.905214],[138.599101,-34.905223],[138.598481,-34.905366],[138.598406,-34.905383],[138.598012,-34.905474],[138.597929,-34.905493],[138.597727,-34.90554],[138.596757,-34.905764],[138.596698,-34.905777]]}},{"type":"Feature","properties":{"tier":"arterial"},"geometry":{"type":"LineString","coordinates":[[138.59455,-34.901926],[138.594592,-34.902073]]}},{"type":"Feature","properties":{"tier":"regional"},"geometry":{"type":"LineString","coordinates":[[138.610043,-34.901063],[138.610532,-34.900658],[138.610754,-34.900469],[138.611151,-34.90013]]}},{"type":"Feature","properties":{"tier":"regional"},"geometry":{"type":"LineString","coordinates":[[138.618742,-34.89415],[138.618814,-34.894098],[138.619067,-34.893945],[138.620461,-34.8933],[138.620528,-34.893265]]}},{"type":"Feature","properties":{"tier":"high"},"geometry":{"type":"LineString","coordinates":[[138.614954,-34.888018],[138.615027,-34.887962]]}},{"type":"Feature","properties":{"tier":"regional"},"geometry":{"type":"LineString","coordinates":[[138.609705,-34.90131],[138.609926,-34.901156]]}},{"type":"Feature","properties":{"tier":"high"},"geometry":{"type":"LineString","coordinates":[[138.609724,-34.901993],[138.609845,-34.902099]]}},{"type":"Feature","properties":{"tier":"regional"},"geometry":{"type":"LineString","coordinates":[[138.609824,-34.901261],[138.609754,-34.901334],[138.609709,-34.901383],[138.60969,-34.901407],[138.609664,-34.901443],[138.609639,-34.901482],[138.609623,-34.901515],[138.609609,-34.90156],[138.609605,-34.901578],[138.609601,-34.901595],[138.609596,-34.901628],[138.609593,-34.901654],[138.609592,-34.901675],[138.609594,-34.901709],[138.609598,-34.901744],[138.60961,-34.901791],[138.609673,-34.901952]]}},{"type":"Feature","properties":{"tier":"high"},"geometry":{"type":"LineString","coordinates":[[138.61199,-34.89056],[138.610842,-34.891849],[138.610069,-34.892719]]}},{"type":"Feature","properties":{"tier":"high"},"geometry":{"type":"LineString","coordinates":[[138.611096,-34.904981],[138.611079,-34.90496],[138.611055,-34.90493],[138.610837,-34.904678]]}},{"type":"Feature","properties":{"tier":"high"},"geometry":{"type":"LineString","coordinates":[[138.611389,-34.905362],[138.611147,-34.905044],[138.611133,-34.905025],[138.611096,-34.904981]]}},{"type":"Feature","properties":{"tier":"high"},"geometry":{"type":"LineString","coordinates":[[138.620152,-34.882152],[138.620037,-34.882151],[138.619947,-34.882163],[138.619903,-34.882214],[138.61984,-34.882281]]}},{"type":"Feature","properties":{"tier":"high"},"geometry":{"type":"LineString","coordinates":[[138.619785,-34.881449],[138.619759,-34.880993],[138.619748,-34.8808]]}},{"type":"Feature","properties":{"tier":"high"},"geometry":{"type":"LineString","coordinates":[[138.619729,-34.880473],[138.619707,-34.880138]]}},{"type":"Feature","properties":{"tier":"high"},"geometry":{"type":"LineString","coordinates":[[138.619707,-34.880138],[138.619642,-34.879053]]}},{"type":"Feature","properties":{"tier":"high"},"geometry":{"type":"LineString","coordinates":[[138.619642,-34.879053],[138.61963,-34.878859],[138.619588,-34.878161]]}},{"type":"Feature","properties":{"tier":"high"},"geometry":{"type":"LineString","coordinates":[[138.609159,-34.902618],[138.609076,-34.90244],[138.609051,-34.902386],[138.609028,-34.90234],[138.60899,-34.902278],[138.60895,-34.902222],[138.608918,-34.90218],[138.608886,-34.902143],[138.608824,-34.902085],[138.608752,-34.902019]]}},{"type":"Feature","properties":{"tier":"high"},"geometry":{"type":"LineString","coordinates":[[138.61151,-34.90392],[138.611896,-34.904399],[138.612592,-34.905242],[138.612664,-34.905409]]}},{"type":"Feature","properties":{"tier":"high"},"geometry":{"type":"LineString","coordinates":[[138.612664,-34.905409],[138.612765,-34.905645]]}},{"type":"Feature","properties":{"tier":"high"},"geometry":{"type":"LineString","coordinates":[[138.619448,-34.87697],[138.619446,-34.876894]]}},{"type":"Feature","properties":{"tier":"high"},"geometry":{"type":"LineString","coordinates":[[138.619537,-34.876888],[138.619548,-34.877053]]}},{"type":"Feature","properties":{"tier":"high"},"geometry":{"type":"LineString","coordinates":[[138.602254,-34.876873],[138.602287,-34.877379],[138.602316,-34.877741],[138.602325,-34.877872]]}},{"type":"Feature","properties":{"tier":"high"},"geometry":{"type":"LineString","coordinates":[[138.602521,-34.880519],[138.602552,-34.880949]]}},{"type":"Feature","properties":{"tier":"arterial"},"geometry":{"type":"LineString","coordinates":[[138.594855,-34.902939],[138.59492,-34.903135],[138.594931,-34.903158],[138.594969,-34.903276]]}},{"type":"Feature","properties":{"tier":"arterial"},"geometry":{"type":"LineString","coordinates":[[138.596405,-34.899787],[138.596106,-34.900142]]}},{"type":"Feature","properties":{"tier":"regional"},"geometry":{"type":"LineString","coordinates":[[138.599187,-34.902239],[138.599205,-34.902225],[138.599227,-34.902216],[138.599251,-34.902212],[138.599275,-34.902212],[138.599297,-34.902216],[138.599321,-34.902226],[138.599337,-34.902238],[138.599351,-34.902252],[138.59936,-34.902269],[138.599365,-34.902286]]}},{"type":"Feature","properties":{"tier":"regional"},"geometry":{"type":"LineString","coordinates":[[138.59916,-34.902295],[138.599162,-34.90228],[138.599167,-34.902265],[138.599175,-34.902251],[138.599187,-34.902239]]}},{"type":"Feature","properties":{"tier":"arterial"},"geometry":{"type":"LineString","coordinates":[[138.608844,-34.893273],[138.609222,-34.893257]]}},{"type":"Feature","properties":{"tier":"high"},"geometry":{"type":"LineString","coordinates":[[138.600316,-34.896006],[138.600598,-34.895775]]}},{"type":"Feature","properties":{"tier":"high"},"geometry":{"type":"LineString","coordinates":[[138.600396,-34.896072],[138.600244,-34.896194]]}},{"type":"Feature","properties":{"tier":"high"},"geometry":{"type":"LineString","coordinates":[[138.600244,-34.896194],[138.600036,-34.89636]]}},{"type":"Feature","properties":{"tier":"high"},"geometry":{"type":"LineString","coordinates":[[138.600173,-34.896123],[138.600316,-34.896006]]}},{"type":"Feature","properties":{"tier":"high"},"geometry":{"type":"LineString","coordinates":[[138.599374,-34.89691],[138.599289,-34.896851]]}},{"type":"Feature","properties":{"tier":"high"},"geometry":{"type":"LineString","coordinates":[[138.599289,-34.896851],[138.59986,-34.896389],[138.600097,-34.896192]]}},{"type":"Feature","properties":{"tier":"high"},"geometry":{"type":"LineString","coordinates":[[138.623713,-34.88136],[138.62413,-34.881043],[138.624394,-34.880842]]}},{"type":"Feature","properties":{"tier":"high"},"geometry":{"type":"LineString","coordinates":[[138.613334,-34.889381],[138.613136,-34.889531]]}},{"type":"Feature","properties":{"tier":"high"},"geometry":{"type":"LineString","coordinates":[[138.612919,-34.889695],[138.61266,-34.889892],[138.612496,-34.890028],[138.612351,-34.890172]]}},{"type":"Feature","properties":{"tier":"high"},"geometry":{"type":"LineString","coordinates":[[138.613046,-34.889599],[138.612919,-34.889695]]}},{"type":"Feature","properties":{"tier":"high"},"geometry":{"type":"LineString","coordinates":[[138.60195,-34.899889],[138.603154,-34.900239]]}},{"type":"Feature","properties":{"tier":"arterial"},"geometry":{"type":"LineString","coordinates":[[138.594865,-34.903302],[138.594822,-34.903185],[138.594725,-34.902921]]}},{"type":"Feature","properties":{"tier":"arterial"},"geometry":{"type":"LineString","coordinates":[[138.59546,-34.904646],[138.595349,-34.904672]]}},{"type":"Feature","properties":{"tier":"arterial"},"geometry":{"type":"LineString","coordinates":[[138.59546,-34.904646],[138.595589,-34.905011]]}},{"type":"Feature","properties":{"tier":"arterial"},"geometry":{"type":"LineString","coordinates":[[138.595349,-34.904672],[138.595322,-34.904596],[138.595249,-34.904388]]}},{"type":"Feature","properties":{"tier":"arterial"},"geometry":{"type":"LineString","coordinates":[[138.59568,-34.905265],[138.595704,-34.905348]]}},{"type":"Feature","properties":{"tier":"arterial"},"geometry":{"type":"LineString","coordinates":[[138.595563,-34.905293],[138.595478,-34.905045],[138.595349,-34.904672]]}},{"type":"Feature","properties":{"tier":"arterial"},"geometry":{"type":"LineString","coordinates":[[138.595585,-34.905355],[138.595563,-34.905293]]}},{"type":"Feature","properties":{"tier":"regional"},"geometry":{"type":"LineString","coordinates":[[138.595361,-34.906086],[138.594689,-34.906241],[138.594565,-34.90627]]}},{"type":"Feature","properties":{"tier":"regional"},"geometry":{"type":"LineString","coordinates":[[138.604537,-34.906142],[138.604476,-34.906066],[138.604463,-34.906063],[138.604355,-34.90604]]}},{"type":"Feature","properties":{"tier":"arterial"},"geometry":{"type":"LineString","coordinates":[[138.594329,-34.901215],[138.594321,-34.901081],[138.594322,-34.900964],[138.594328,-34.900877],[138.59434,-34.900761],[138.594357,-34.900646],[138.594374,-34.90054],[138.594394,-34.900444],[138.594426,-34.900323],[138.59446,-34.900213],[138.594494,-34.900119]]}},{"type":"Feature","properties":{"tier":"regional"},"geometry":{"type":"LineString","coordinates":[[138.601657,-34.899908],[138.601579,-34.900005],[138.60156,-34.900025]]}},{"type":"Feature","properties":{"tier":"arterial"},"geometry":{"type":"LineString","coordinates":[[138.594359,-34.892665],[138.594348,-34.892513],[138.594337,-34.892348],[138.594313,-34.89195],[138.594302,-34.891756],[138.594289,-34.891497],[138.594271,-34.891199],[138.594261,-34.891026],[138.594233,-34.890558],[138.594225,-34.890436]]}},{"type":"Feature","properties":{"tier":"arterial"},"geometry":{"type":"LineString","coordinates":[[138.59443,-34.892662],[138.594438,-34.892798],[138.594446,-34.892948]]}},{"type":"Feature","properties":{"tier":"arterial"},"geometry":{"type":"LineString","coordinates":[[138.594446,-34.892948],[138.59445,-34.893024],[138.594455,-34.893124]]}},{"type":"Feature","properties":{"tier":"arterial"},"geometry":{"type":"LineString","coordinates":[[138.59455,-34.901926],[138.594417,-34.901954]]}},{"type":"Feature","properties":{"tier":"arterial"},"geometry":{"type":"LineString","coordinates":[[138.594534,-34.901859],[138.59455,-34.901926]]}},{"type":"Feature","properties":{"tier":"arterial"},"geometry":{"type":"LineString","coordinates":[[138.594534,-34.901859],[138.594631,-34.901781],[138.596607,-34.899393]]}},{"type":"Feature","properties":{"tier":"arterial"},"geometry":{"type":"LineString","coordinates":[[138.594852,-34.898887],[138.59486,-34.898967],[138.594844,-34.89922],[138.594816,-34.899372],[138.594794,-34.899458],[138.594763,-34.89955],[138.59462,-34.899949],[138.594494,-34.900119]]}},{"type":"Feature","properties":{"tier":"arterial"},"geometry":{"type":"LineString","coordinates":[[138.594417,-34.901954],[138.594389,-34.901815],[138.594324,-34.901466],[138.594329,-34.901215]]}},{"type":"Feature","properties":{"tier":"regional"},"geometry":{"type":"LineString","coordinates":[[138.600231,-34.905012],[138.600201,-34.904924]]}},{"type":"Feature","properties":{"tier":"arterial"},"geometry":{"type":"LineString","coordinates":[[138.593817,-34.884471],[138.593814,-34.884417],[138.593812,-34.884379],[138.593812,-34.884345]]}},{"type":"Feature","properties":{"tier":"high"},"geometry":{"type":"LineString","coordinates":[[138.619588,-34.878161],[138.619559,-34.877834]]}},{"type":"Feature","properties":{"tier":"regional"},"geometry":{"type":"LineString","coordinates":[[138.604639,-34.90627],[138.604537,-34.906142]]}},{"type":"Feature","properties":{"tier":"high"},"geometry":{"type":"LineString","coordinates":[[138.608844,-34.893273],[138.60935,-34.893157],[138.609394,-34.893147],[138.609424,-34.893133],[138.609644,-34.893026]]}},{"type":"Feature","properties":{"tier":"regional"},"geometry":{"type":"LineString","coordinates":[[138.600201,-34.904924],[138.600178,-34.904864]]}},{"type":"Feature","properties":{"tier":"high"},"geometry":{"type":"LineString","coordinates":[[138.602167,-34.877302],[138.602145,-34.876968],[138.602138,-34.876879]]}},{"type":"Feature","properties":{"tier":"arterial"},"geometry":{"type":"LineString","coordinates":[[138.619882,-34.884264],[138.61991,-34.884144],[138.619902,-34.883967],[138.61995,-34.883761]]}},{"type":"Feature","properties":{"tier":"arterial"},"geometry":{"type":"LineString","coordinates":[[138.595008,-34.903691],[138.594918,-34.903446],[138.594906,-34.903415],[138.594865,-34.903302]]}},{"type":"Feature","properties":{"tier":"arterial"},"geometry":{"type":"LineString","coordinates":[[138.595322,-34.904596],[138.595434,-34.904572]]}},{"type":"Feature","properties":{"tier":"regional"},"geometry":{"type":"LineString","coordinates":[[138.595812,-34.905982],[138.595705,-34.906006],[138.595675,-34.906014],[138.595361,-34.906086]]}},{"type":"Feature","properties":{"tier":"arterial"},"geometry":{"type":"LineString","coordinates":[[138.61995,-34.883761],[138.619971,-34.883797],[138.619998,-34.883905]]}},{"type":"Feature","properties":{"tier":"arterial"},"geometry":{"type":"LineString","coordinates":[[138.61995,-34.883761],[138.619935,-34.883573],[138.619908,-34.88317]]}},{"type":"Feature","properties":{"tier":"high"},"geometry":{"type":"LineString","coordinates":[[138.619748,-34.8808],[138.619729,-34.880473]]}},{"type":"Feature","properties":{"tier":"regional"},"geometry":{"type":"LineString","coordinates":[[138.600356,-34.905362],[138.600269,-34.905115],[138.600259,-34.905088],[138.600231,-34.905012]]}},{"type":"Feature","properties":{"tier":"high"},"geometry":{"type":"LineString","coordinates":[[138.622782,-34.883618],[138.622615,-34.883495]]}},{"type":"Feature","properties":{"tier":"high"},"geometry":{"type":"LineString","coordinates":[[138.619817,-34.881993],[138.619806,-34.881843],[138.619798,-34.881729]]}},{"type":"Feature","properties":{"tier":"high"},"geometry":{"type":"LineString","coordinates":[[138.619951,-34.881938],[138.619986,-34.881978],[138.620021,-34.882005],[138.620072,-34.882027],[138.62029,-34.882098]]}},{"type":"Feature","properties":{"tier":"high"},"geometry":{"type":"LineString","coordinates":[[138.622162,-34.883096],[138.622186,-34.883108],[138.622315,-34.88317]]}},{"type":"Feature","properties":{"tier":"high"},"geometry":{"type":"LineString","coordinates":[[138.620391,-34.882216],[138.620152,-34.882152]]}},{"type":"Feature","properties":{"tier":"high"},"geometry":{"type":"LineString","coordinates":[[138.622291,-34.882558],[138.622108,-34.882694]]}},{"type":"Feature","properties":{"tier":"high"},"geometry":{"type":"LineString","coordinates":[[138.619798,-34.881729],[138.619924,-34.881906],[138.619951,-34.881938]]}},{"type":"Feature","properties":{"tier":"high"},"geometry":{"type":"LineString","coordinates":[[138.609324,-34.895997],[138.609329,-34.895764],[138.609343,-34.895426],[138.609356,-34.894441]]}},{"type":"Feature","properties":{"tier":"high"},"geometry":{"type":"LineString","coordinates":[[138.623952,-34.884613],[138.623709,-34.884408],[138.623456,-34.884194],[138.623263,-34.884032],[138.623008,-34.883798],[138.622803,-34.883634],[138.622782,-34.883618]]}},{"type":"Feature","properties":{"tier":"high"},"geometry":{"type":"LineString","coordinates":[[138.622468,-34.88325],[138.622573,-34.883317],[138.622787,-34.883459],[138.623027,-34.883646],[138.62383,-34.884321],[138.62407,-34.884522]]}},{"type":"Feature","properties":{"tier":"arterial"},"geometry":{"type":"LineString","coordinates":[[138.613695,-34.89649],[138.614527,-34.897231],[138.61454,-34.897243],[138.614634,-34.897326],[138.614693,-34.897379],[138.614697,-34.897382],[138.615006,-34.897658],[138.615076,-34.89772],[138.61512,-34.897759],[138.615433,-34.898038],[138.615552,-34.898144],[138.616045,-34.898583],[138.616475,-34.898966],[138.616783,-34.89924],[138.616855,-34.899304],[138.616897,-34.899341]]}},{"type":"Feature","properties":{"tier":"arterial"},"geometry":{"type":"LineString","coordinates":[[138.610431,-34.893583],[138.61094,-34.894038]]}},{"type":"Feature","properties":{"tier":"high"},"geometry":{"type":"LineString","coordinates":[[138.608321,-34.901725],[138.608647,-34.901746],[138.608789,-34.901759],[138.608869,-34.901767],[138.608917,-34.90177],[138.60901,-34.901772],[138.60905,-34.901772],[138.609097,-34.901768],[138.609154,-34.901762]]}},{"type":"Feature","properties":{"tier":"high"},"geometry":{"type":"LineString","coordinates":[[138.609279,-34.902752],[138.609159,-34.902618]]}},{"type":"Feature","properties":{"tier":"high"},"geometry":{"type":"LineString","coordinates":[[138.610695,-34.902894],[138.610879,-34.903126]]}},{"type":"Feature","properties":{"tier":"high"},"geometry":{"type":"LineString","coordinates":[[138.611414,-34.904759],[138.611322,-34.904858],[138.611184,-34.904933],[138.611155,-34.904949],[138.611096,-34.904981]]}},{"type":"Feature","properties":{"tier":"high"},"geometry":{"type":"LineString","coordinates":[[138.610798,-34.905149],[138.61083,-34.905077],[138.61086,-34.905009],[138.610873,-34.904983],[138.610883,-34.904888],[138.610863,-34.904781],[138.610837,-34.904678]]}},{"type":"Feature","properties":{"tier":"high"},"geometry":{"type":"LineString","coordinates":[[138.609279,-34.902752],[138.609231,-34.902612]]}},{"type":"Feature","properties":{"tier":"high"},"geometry":{"type":"LineString","coordinates":[[138.607294,-34.901402],[138.607439,-34.901445],[138.607704,-34.901524]]}},{"type":"Feature","properties":{"tier":"high"},"geometry":{"type":"LineString","coordinates":[[138.607704,-34.901524],[138.607961,-34.901609],[138.608321,-34.901725]]}},{"type":"Feature","properties":{"tier":"regional"},"geometry":{"type":"LineString","coordinates":[[138.609564,-34.901423],[138.609605,-34.901386],[138.60965,-34.90135],[138.609705,-34.90131]]}},{"type":"Feature","properties":{"tier":"high"},"geometry":{"type":"LineString","coordinates":[[138.601493,-34.899756],[138.601563,-34.899801],[138.601624,-34.899845],[138.601635,-34.899855],[138.601645,-34.899869],[138.601651,-34.899881],[138.601655,-34.899893],[138.601657,-34.899908]]}},{"type":"Feature","properties":{"tier":"high"},"geometry":{"type":"LineString","coordinates":[[138.600235,-34.899479],[138.600166,-34.899435],[138.600118,-34.899399],[138.600104,-34.899385],[138.600092,-34.899372],[138.600085,-34.899355],[138.600089,-34.899344],[138.600094,-34.89933]]}},{"type":"Feature","properties":{"tier":"high"},"geometry":{"type":"LineString","coordinates":[[138.597956,-34.89811],[138.597901,-34.89817]]}},{"type":"Feature","properties":{"tier":"high"},"geometry":{"type":"LineString","coordinates":[[138.597901,-34.89817],[138.597786,-34.898285]]}},{"type":"Feature","properties":{"tier":"high"},"geometry":{"type":"LineString","coordinates":[[138.599374,-34.89691],[138.599074,-34.897161]]}},{"type":"Feature","properties":{"tier":"high"},"geometry":{"type":"LineString","coordinates":[[138.599074,-34.897161],[138.598928,-34.89728]]}},{"type":"Feature","properties":{"tier":"high"},"geometry":{"type":"LineString","coordinates":[[138.598468,-34.89897],[138.598066,-34.898876],[138.597607,-34.898787],[138.597504,-34.898774],[138.597472,-34.89877]]}},{"type":"Feature","properties":{"tier":"high"},"geometry":{"type":"LineString","coordinates":[[138.598774,-34.899042],[138.598468,-34.89897]]}},{"type":"Feature","properties":{"tier":"high"},"geometry":{"type":"LineString","coordinates":[[138.596925,-34.898659],[138.597056,-34.898651],[138.597116,-34.898648],[138.597217,-34.898642]]}},{"type":"Feature","properties":{"tier":"high"},"geometry":{"type":"LineString","coordinates":[[138.605816,-34.901088],[138.605681,-34.901001],[138.605648,-34.900981],[138.605627,-34.90096],[138.605619,-34.900927]]}},{"type":"Feature","properties":{"tier":"high"},"geometry":{"type":"LineString","coordinates":[[138.604243,-34.900646],[138.604152,-34.90058],[138.604126,-34.900561],[138.604117,-34.900554],[138.604113,-34.900548],[138.604108,-34.900538],[138.604108,-34.900531],[138.604109,-34.900522],[138.604112,-34.90051]]}}]}
