{"type":"FeatureCollection","features":[{"type":"Feature","properties":{"tier":"arterial"},"geometry":{"type":"LineString","coordinates":[[138.992298,-26.99998],[138.992131,-27.000043],[138.988459,-27.001154],[138.981393,-27.00327],[138.971157,-27.006347],[138.970221,-27.006615],[138.969327,-27.006985],[138.962466,-27.010028],[138.953849,-27.013824],[138.945562,-27.017663],[138.935626,-27.022025],[138.921759,-27.028107],[138.914902,-27.030779],[138.914006,-27.031128],[138.90841,-27.033308],[138.897129,-27.037741],[138.896306,-27.038087],[138.894621,-27.038704],[138.893892,-27.039026],[138.893516,-27.039246],[138.893159,-27.039485],[138.892835,-27.039776],[138.892534,-27.040094],[138.892046,-27.040648],[138.891714,-27.04105],[138.88912,-27.044081],[138.885196,-27.048595],[138.877026,-27.058094],[138.869468,-27.06713],[138.8629,-27.074845],[138.860616,-27.077612],[138.859922,-27.078397],[138.859086,-27.078975],[138.858291,-27.079437],[138.857391,-27.079771],[138.850492,-27.082245],[138.846231,-27.083754],[138.844959,-27.084383],[138.843217,-27.085578],[138.835532,-27.091038],[138.833719,-27.092318],[138.831541,-27.093839],[138.82917,-27.095525],[138.827716,-27.096535],[138.827185,-27.096974],[138.826686,-27.097461],[138.826362,-27.097815],[138.826123,-27.098158],[138.825927,-27.098498],[138.825755,-27.098872],[138.82373,-27.104605],[138.822966,-27.106836],[138.82248,-27.108208],[138.822136,-27.109214],[138.821273,-27.111625],[138.820158,-27.114848],[138.818956,-27.118257],[138.818484,-27.119613],[138.818148,-27.120517],[138.817984,-27.120868],[138.817731,-27.1212],[138.815904,-27.123093],[138.814289,-27.124755],[138.812825,-27.126221],[138.811017,-27.128087],[138.808404,-27.130766],[138.806221,-27.13301],[138.804869,-27.134389],[138.802262,-27.137072],[138.800921,-27.138438],[138.79995,-27.139545],[138.799172,-27.140467],[138.796595,-27.144538],[138.795052,-27.147011],[138.793395,-27.149971],[138.791801,-27.152954],[138.7898,-27.156701],[138.788894,-27.158419],[138.787869,-27.160123],[138.786775,-27.161779],[138.785385,-27.163851],[138.784913,-27.16459],[138.784575,-27.165235],[138.784313,-27.165793],[138.783739,-27.167292],[138.783047,-27.169058],[138.778436,-27.18104],[138.777908,-27.182812],[138.777692,-27.184648],[138.776948,-27.191672],[138.776276,-27.197371],[138.775928,-27.201439],[138.775858,-27.201866],[138.775762,-27.202322],[138.775659,-27.20268],[138.775525,-27.203132],[138.775316,-27.203562],[138.774898,-27.204366],[138.774445,-27.205111],[138.774244,-27.205416],[138.773348,-27.206792],[138.770172,-27.211506],[138.76634,-27.217158],[138.76526,-27.218951],[138.764228,-27.221725],[138.76262,-27.22642],[138.761588,-27.229579],[138.761252,-27.231585],[138.76094,-27.23415],[138.759137,-27.246298],[138.757641,-27.256158],[138.757391,-27.257818],[138.757061,-27.260028],[138.756935,-27.260862],[138.756876,-27.261668],[138.756876,-27.262534],[138.756916,-27.26313],[138.757021,-27.263683],[138.757332,-27.264496],[138.758274,-27.266508],[138.760049,-27.270347],[138.761618,-27.273777],[138.764815,-27.280761],[138.768238,-27.288083],[138.771647,-27.295522],[138.772487,-27.297312],[138.772862,-27.298206],[138.773018,-27.298718],[138.773088,-27.299009],[138.773173,-27.299398],[138.773206,-27.299703],[138.773246,-27.300158],[138.773257,-27.300635],[138.773203,-27.301607],[138.773042,-27.303666],[138.772822,-27.307323],[138.772516,-27.312075],[138.772055,-27.319334],[138.772007,-27.320821],[138.771948,-27.321683],[138.771856,-27.322317],[138.77169,-27.322956],[138.771492,-27.323504],[138.771299,-27.324004],[138.770923,-27.324643],[138.770446,-27.325429],[138.769555,-27.326835],[138.767455,-27.330045],[138.767296,-27.330289],[138.765621,-27.332864],[138.764167,-27.335098],[138.760567,-27.340812],[138.756391,-27.347399],[138.750727,-27.356501],[138.750204,-27.357334],[138.744343,-27.366668],[138.737287,-27.377858],[138.734383,-27.382418],[138.732631,-27.385103],[138.731962,-27.385957],[138.731119,-27.386723],[138.728383,-27.388726],[138.722263,-27.393031],[138.717631,-27.396419],[138.713071,-27.400744],[138.710023,-27.403706],[138.709351,-27.404835],[138.707767,-27.408351],[138.703015,-27.419323],[138.701719,-27.422135],[138.700839,-27.424134],[138.70032,-27.425513],[138.699985,-27.426488],[138.699738,-27.427207],[138.698888,-27.429802],[138.697616,-27.433758],[138.696699,-27.436476],[138.69556,-27.440007],[138.695119,-27.441733],[138.695033,-27.443296],[138.695009,-27.444827],[138.695095,-27.450428],[138.695254,-27.459872],[138.695303,-27.465158],[138.695413,-27.473363],[138.695474,-27.477802],[138.695608,-27.483326],[138.695498,-27.485952],[138.695333,-27.4895],[138.694826,-27.497161],[138.694748,-27.499849],[138.694736,-27.50002]]}}]}
