{"type":"FeatureCollection","features":[{"type":"Feature","properties":{"tier":"arterial"},"geometry":{"type":"LineString","coordinates":[[139.00002,-30.016526],[138.999972,-30.016564],[138.999663,-30.016763],[138.999339,-30.016928],[138.998789,-30.017121],[138.998186,-30.017252],[138.994827,-30.017797],[138.99411,-30.017933],[138.993194,-30.018075],[138.991721,-30.018337],[138.990771,-30.018483],[138.985301,-30.019422],[138.984147,-30.019602],[138.982136,-30.019944],[138.981014,-30.020107],[138.978969,-30.020476],[138.978281,-30.020572],[138.973008,-30.021466],[138.972556,-30.021523],[138.971419,-30.021713],[138.966414,-30.022575],[138.965522,-30.022709],[138.958385,-30.023917],[138.957693,-30.024064],[138.957254,-30.024198],[138.956818,-30.024355],[138.956207,-30.024651],[138.955445,-30.025077],[138.95471,-30.02555],[138.954031,-30.026081],[138.953403,-30.026659],[138.952991,-30.027124],[138.952324,-30.027939],[138.948448,-30.032504],[138.947215,-30.033894],[138.942766,-30.03908],[138.942346,-30.039546],[138.941749,-30.040154],[138.939681,-30.042001],[138.938461,-30.043046],[138.937652,-30.043784],[138.936986,-30.044353],[138.934955,-30.046149],[138.934049,-30.046924],[138.933928,-30.047033],[138.932749,-30.048095],[138.931876,-30.04883],[138.931676,-30.048998],[138.930585,-30.049987],[138.925297,-30.054634],[138.920906,-30.058522],[138.918101,-30.060973],[138.917201,-30.061709],[138.916631,-30.062109],[138.916238,-30.062355],[138.915592,-30.062683],[138.914898,-30.062965],[138.908427,-30.065219],[138.903678,-30.066834],[138.902971,-30.067089],[138.901354,-30.067637],[138.899922,-30.068089],[138.899441,-30.068216],[138.898968,-30.068312],[138.898246,-30.068411],[138.897523,-30.068478],[138.896558,-30.068546],[138.895024,-30.068627],[138.893538,-30.068642],[138.892425,-30.068687],[138.891957,-30.068728],[138.888783,-30.069149],[138.887447,-30.069362],[138.885402,-30.069613],[138.88435,-30.069714],[138.882902,-30.069813],[138.881827,-30.069907],[138.877709,-30.070411],[138.87596,-30.070596],[138.874384,-30.070808],[138.873641,-30.070892],[138.869905,-30.071292],[138.865045,-30.071744],[138.863085,-30.071951],[138.861702,-30.072064],[138.860624,-30.072204],[138.859451,-30.07224],[138.857241,-30.072234],[138.856514,-30.072256],[138.849304,-30.072687],[138.848203,-30.072777],[138.847102,-30.072907],[138.846558,-30.072993],[138.840733,-30.074025],[138.838613,-30.074376],[138.837248,-30.074565],[138.836146,-30.07469],[138.833135,-30.074959],[138.831183,-30.075178],[138.827547,-30.075499],[138.825072,-30.075744],[138.822544,-30.075968],[138.820332,-30.076198],[138.811184,-30.077321],[138.80949,-30.077461],[138.808373,-30.077525],[138.807811,-30.077527],[138.806395,-30.077577],[138.802638,-30.077653],[138.80038,-30.077717],[138.796943,-30.077776],[138.792743,-30.077898],[138.791027,-30.077917],[138.78846,-30.077991],[138.787892,-30.078024],[138.787037,-30.078119],[138.786478,-30.078232],[138.785941,-30.078394],[138.785421,-30.078595],[138.785169,-30.07871],[138.784687,-30.078968],[138.784458,-30.07911],[138.78402,-30.07942],[138.783617,-30.079753],[138.783256,-30.080116],[138.782935,-30.080497],[138.782639,-30.080893],[138.78176,-30.082255],[138.780685,-30.083802],[138.780368,-30.084187],[138.78001,-30.084539],[138.779814,-30.084694],[138.779384,-30.084972],[138.777214,-30.086132],[138.776337,-30.086684],[138.775742,-30.08714],[138.77537,-30.087482],[138.77519,-30.087661],[138.774859,-30.08804],[138.774565,-30.088436],[138.771147,-30.093656],[138.770491,-30.094683],[138.767577,-30.099103],[138.765983,-30.101485],[138.763789,-30.104857],[138.761102,-30.108914],[138.760245,-30.110256],[138.759079,-30.111999],[138.758567,-30.112804],[138.755339,-30.117662],[138.753861,-30.119942],[138.753372,-30.120728],[138.750171,-30.125583],[138.74911,-30.127227],[138.74724,-30.13006],[138.746653,-30.130984],[138.745548,-30.132645],[138.744345,-30.134516],[138.742996,-30.136519],[138.74049,-30.140372],[138.739645,-30.141626],[138.73942,-30.141993],[138.73684,-30.145872],[138.735758,-30.147437],[138.735202,-30.148342],[138.734593,-30.149275],[138.734224,-30.14983],[138.733573,-30.150742],[138.733296,-30.151088],[138.732996,-30.151415],[138.732169,-30.152211],[138.729785,-30.154296],[138.728357,-30.15557],[138.72694,-30.156794],[138.726416,-30.157268],[138.723607,-30.159712],[138.72276,-30.160474],[138.720645,-30.162312],[138.719984,-30.162934],[138.719704,-30.163278],[138.719367,-30.163853],[138.719277,-30.164052],[138.719145,-30.164459],[138.719066,-30.164886],[138.719022,-30.165311],[138.718954,-30.166586],[138.718773,-30.168934],[138.718425,-30.172559],[138.718261,-30.173361],[138.718045,-30.173955],[138.71786,-30.174344],[138.717646,-30.174717],[138.717378,-30.175078],[138.717084,-30.175416],[138.716603,-30.175878],[138.715928,-30.176403],[138.715578,-30.176616],[138.71501,-30.176886],[138.714588,-30.17706],[138.714057,-30.177223],[138.713448,-30.17741],[138.712258,-30.17774],[138.707251,-30.179231],[138.706147,-30.179546],[138.705481,-30.179783],[138.704834,-30.180072],[138.704424,-30.180286],[138.70404,-30.180523],[138.703516,-30.180933],[138.703034,-30.181378],[138.702735,-30.181655],[138.702032,-30.182452],[138.701438,-30.183059],[138.700948,-30.183491],[138.700416,-30.183895],[138.700045,-30.184138],[138.69965,-30.184365],[138.699035,-30.184669],[138.698611,-30.184854],[138.698166,-30.185014],[138.697721,-30.185149],[138.695456,-30.185765],[138.693373,-30.186228],[138.691997,-30.186472],[138.688535,-30.187025],[138.68735,-30.187234],[138.683202,-30.188059],[138.682235,-30.188282],[138.67926,-30.188869],[138.678016,-30.189136],[138.674769,-30.189771],[138.673029,-30.190026],[138.672535,-30.190073],[138.671788,-30.190124],[138.66929,-30.190223],[138.668073,-30.19029],[138.667604,-30.190329],[138.667125,-30.190391],[138.666388,-30.190526],[138.660618,-30.192038],[138.655519,-30.193406],[138.648316,-30.195282],[138.647545,-30.195498],[138.6452,-30.196085],[138.643841,-30.196489],[138.638846,-30.197829],[138.638372,-30.197942],[138.636708,-30.19839],[138.631874,-30.199587],[138.627172,-30.200851],[138.625396,-30.201311],[138.624516,-30.201514],[138.623375,-30.201849],[138.616761,-30.203612],[138.615261,-30.203992],[138.607535,-30.20604],[138.606064,-30.206411],[138.604383,-30.206887],[138.603915,-30.207052],[138.603455,-30.207254],[138.603001,-30.20748],[138.602351,-30.207855],[138.601938,-30.208129],[138.601541,-30.208426],[138.599858,-30.209799],[138.598907,-30.210536],[138.598317,-30.210958],[138.597902,-30.211212],[138.597472,-30.211444],[138.596782,-30.211762],[138.596309,-30.211955],[138.59559,-30.212224],[138.593142,-30.213051],[138.592402,-30.213268],[138.591904,-30.213385],[138.591406,-30.213479],[138.590903,-30.213553],[138.589643,-30.213708],[138.585964,-30.214096],[138.585216,-30.214188],[138.584468,-30.214332],[138.583969,-30.214456],[138.58348,-30.214626],[138.582743,-30.214921],[138.579071,-30.216523],[138.576479,-30.217612],[138.572615,-30.219285],[138.571706,-30.21961],[138.570993,-30.21979],[138.570243,-30.219897],[138.569727,-30.219935],[138.569218,-30.219952],[138.566398,-30.219976],[138.561019,-30.220076],[138.559184,-30.220095],[138.556052,-30.220171],[138.5541,-30.220201],[138.552947,-30.220238],[138.549796,-30.220262],[138.549073,-30.22029],[138.548592,-30.220333],[138.547393,-30.220471],[138.545179,-30.22079],[138.543587,-30.220994],[138.54203,-30.22122],[138.540256,-30.221445],[138.538758,-30.221663],[138.538044,-30.221752],[138.533064,-30.2225],[138.530163,-30.222884],[138.526757,-30.223293],[138.525509,-30.223398],[138.522639,-30.223562],[138.516027,-30.224006],[138.514172,-30.22415],[138.511559,-30.224308],[138.510502,-30.224383],[138.509172,-30.224526],[138.507351,-30.224775],[138.506058,-30.224931],[138.504346,-30.225174],[138.502663,-30.225434],[138.500891,-30.22563],[138.49998,-30.225748]]}}]}
