{"type":"FeatureCollection","features":[{"type":"Feature","properties":{"tier":"regional"},"geometry":{"type":"LineString","coordinates":[[138.528319,-32.421055],[138.52826,-32.420484],[138.528079,-32.419486],[138.527935,-32.418849],[138.52786,-32.418384],[138.527666,-32.417463],[138.527346,-32.416417],[138.527063,-32.415663],[138.526916,-32.415218],[138.526892,-32.414704],[138.5269,-32.413249],[138.526897,-32.412142],[138.526879,-32.411628],[138.526801,-32.41124],[138.526505,-32.410607],[138.525536,-32.408791],[138.525193,-32.406762],[138.521502,-32.398936],[138.521156,-32.398281],[138.521122,-32.39745],[138.521617,-32.396655],[138.522361,-32.39582],[138.527558,-32.390761],[138.534133,-32.384462],[138.535206,-32.383303],[138.535536,-32.381918],[138.536279,-32.380077],[138.536651,-32.379344],[138.537309,-32.378048],[138.541502,-32.375578],[138.548338,-32.371379],[138.556479,-32.366335],[138.566006,-32.36271],[138.57386,-32.361115],[138.579739,-32.360245],[138.580439,-32.359525],[138.584589,-32.353901],[138.584932,-32.353647],[138.588249,-32.352746],[138.588979,-32.352057],[138.589794,-32.35039],[138.592289,-32.347398],[138.592437,-32.347156],[138.592575,-32.346809],[138.593076,-32.344409],[138.593522,-32.342442],[138.59386,-32.341627],[138.594031,-32.341115],[138.594074,-32.340856],[138.594128,-32.340281],[138.59423,-32.339941],[138.594444,-32.339406],[138.594755,-32.338413],[138.595317,-32.33599],[138.594429,-32.327692],[138.594601,-32.326531],[138.595416,-32.325008],[138.597834,-32.321032],[138.599364,-32.318516],[138.600081,-32.317931],[138.602055,-32.31706],[138.603214,-32.316444],[138.60669,-32.313216],[138.633396,-32.281117],[138.638233,-32.275161],[138.639821,-32.273637],[138.648116,-32.263627],[138.649129,-32.262646],[138.649133,-32.262642],[138.667415,-32.249722],[138.676127,-32.243624],[138.678371,-32.241524],[138.683809,-32.235929],[138.685882,-32.233539],[138.687427,-32.231941],[138.690112,-32.229267],[138.690203,-32.229177],[138.694152,-32.225183],[138.69737,-32.22286],[138.702477,-32.219665],[138.703447,-32.219469],[138.703848,-32.219368],[138.704152,-32.219247],[138.704333,-32.219109],[138.704549,-32.218905],[138.704696,-32.218737],[138.704899,-32.218519]]}},{"type":"Feature","properties":{"tier":"arterial"},"geometry":{"type":"LineString","coordinates":[[138.548054,-32.50002],[138.548045,-32.49977],[138.547951,-32.498982],[138.547612,-32.497152],[138.546358,-32.490593],[138.546215,-32.489792],[138.546051,-32.489119],[138.545796,-32.488392],[138.545087,-32.486619],[138.544048,-32.484034],[138.54363,-32.482885],[138.543047,-32.481105],[138.542907,-32.480704],[138.542841,-32.480516],[138.542596,-32.479823],[138.542023,-32.478097],[138.541439,-32.476413],[138.541205,-32.475733],[138.540705,-32.474148],[138.540429,-32.473168],[138.540129,-32.472027],[138.539744,-32.470379],[138.538027,-32.463644],[138.537856,-32.461836],[138.537856,-32.459842],[138.537727,-32.458215],[138.537048,-32.454132],[138.536912,-32.453214],[138.536774,-32.45231],[138.536413,-32.448656],[138.536139,-32.445705],[138.535609,-32.440011],[138.53555,-32.439396],[138.535473,-32.438774],[138.535338,-32.438217],[138.535135,-32.437667],[138.534944,-32.437254],[138.534684,-32.436728],[138.534324,-32.435982],[138.532907,-32.433166],[138.532544,-32.432412]]}},{"type":"Feature","properties":{"tier":"arterial"},"geometry":{"type":"LineString","coordinates":[[138.52318,-32.416785],[138.5228,-32.415849],[138.522596,-32.415378],[138.52242,-32.415043],[138.52216,-32.414602],[138.521631,-32.413902],[138.521362,-32.413507],[138.521022,-32.412955],[138.520126,-32.411141],[138.519241,-32.409443],[138.518297,-32.407489],[138.516429,-32.403622],[138.516189,-32.403114],[138.515977,-32.402683],[138.515775,-32.402338],[138.515557,-32.402013],[138.515295,-32.401651],[138.513251,-32.398992],[138.51047,-32.395247],[138.509751,-32.394313],[138.509186,-32.393598],[138.504677,-32.388185],[138.50436,-32.38778],[138.504036,-32.387397],[138.503843,-32.38713],[138.503625,-32.386775],[138.503392,-32.386341],[138.503236,-32.386024],[138.502577,-32.384619],[138.502153,-32.383657],[138.500747,-32.380461],[138.500589,-32.380034],[138.50042,-32.379566],[138.500294,-32.37917],[138.500177,-32.378775],[138.49998,-32.377858]]}},{"type":"Feature","properties":{"tier":"arterial"},"geometry":{"type":"LineString","coordinates":[[138.49998,-32.267522],[138.503435,-32.263149],[138.504481,-32.261533],[138.504839,-32.260998],[138.505009,-32.260742],[138.505186,-32.260518],[138.505368,-32.260312],[138.505923,-32.259777],[138.507093,-32.258665],[138.507837,-32.257998],[138.508227,-32.257622],[138.508572,-32.257283],[138.509089,-32.256736],[138.509781,-32.255973],[138.51099,-32.254681],[138.511467,-32.254152],[138.511856,-32.253657],[138.51218,-32.253212],[138.51291,-32.252114],[138.513324,-32.251504],[138.513727,-32.250837],[138.513922,-32.250465],[138.514053,-32.2501],[138.514148,-32.249669],[138.514171,-32.249276],[138.514142,-32.24888],[138.514054,-32.248508],[138.51384,-32.248011],[138.513612,-32.24751],[138.513384,-32.247036],[138.51324,-32.246642],[138.513154,-32.246213],[138.513134,-32.246064],[138.513069,-32.245591],[138.512853,-32.243394],[138.51272,-32.241822],[138.512702,-32.241335],[138.512728,-32.240928],[138.512786,-32.240503],[138.513177,-32.238106],[138.514131,-32.232849],[138.514235,-32.232372],[138.514343,-32.231887],[138.514408,-32.231653],[138.514522,-32.23134],[138.515096,-32.229813],[138.516061,-32.227247],[138.517941,-32.222202],[138.518498,-32.220676],[138.518769,-32.219756],[138.518895,-32.218953],[138.51902,-32.21813],[138.519164,-32.216557],[138.519053,-32.214896],[138.519097,-32.214393],[138.519173,-32.213866],[138.519349,-32.213304],[138.519601,-32.21285],[138.520064,-32.212323],[138.520738,-32.211635],[138.523562,-32.208699],[138.527344,-32.2056],[138.528165,-32.204754],[138.528832,-32.203985],[138.529612,-32.202865],[138.530386,-32.201364],[138.532762,-32.195593],[138.533568,-32.193951],[138.534085,-32.192752],[138.534347,-32.192067],[138.534802,-32.190862],[138.535469,-32.188753],[138.535795,-32.187726],[138.536006,-32.187181],[138.536269,-32.186557],[138.537392,-32.184033],[138.537694,-32.183335],[138.538004,-32.182445],[138.538282,-32.181498],[138.538723,-32.179979],[138.53878,-32.179591],[138.538795,-32.17933],[138.53877,-32.178981],[138.538693,-32.178536],[138.5386,-32.178208],[138.538463,-32.177834],[138.535553,-32.169839],[138.535199,-32.168898],[138.533575,-32.164489],[138.533358,-32.163964],[138.533154,-32.1635],[138.532932,-32.163102],[138.532705,-32.162728],[138.53248,-32.162383],[138.532248,-32.16207],[138.532037,-32.161758],[138.531665,-32.161078],[138.53137,-32.160538],[138.531217,-32.160294],[138.530987,-32.159977],[138.530734,-32.159675],[138.528719,-32.157533],[138.528357,-32.157104],[138.52794,-32.156596],[138.52747,-32.156018],[138.527242,-32.155721],[138.5257,-32.153889],[138.524373,-32.152306],[138.52339,-32.15113],[138.523097,-32.150745],[138.522863,-32.150387],[138.522706,-32.150087],[138.522516,-32.149581],[138.522127,-32.148435],[138.521735,-32.147307],[138.52147,-32.14659],[138.521341,-32.146287],[138.521196,-32.145988],[138.521011,-32.14566],[138.520699,-32.145183],[138.520231,-32.144569],[138.518665,-32.142459],[138.518446,-32.142209],[138.518194,-32.141908],[138.517566,-32.141251],[138.517154,-32.140786],[138.516916,-32.140506],[138.516623,-32.140171],[138.516274,-32.139736],[138.515958,-32.139256],[138.514965,-32.137882],[138.514699,-32.137493],[138.514477,-32.137128],[138.514298,-32.136795],[138.514138,-32.136472],[138.513952,-32.136059],[138.513811,-32.135606],[138.513713,-32.135133],[138.51304,-32.131616],[138.512953,-32.131228],[138.512844,-32.130899],[138.512714,-32.130549],[138.512538,-32.130178],[138.512369,-32.129874],[138.512212,-32.129598],[138.511964,-32.129257],[138.51169,-32.128918],[138.511439,-32.128617],[138.511177,-32.128321],[138.510832,-32.12783],[138.51056,-32.127428],[138.51026,-32.126968],[138.509445,-32.125686],[138.507409,-32.122586],[138.507153,-32.122169],[138.506933,-32.121726],[138.506778,-32.121389],[138.506573,-32.12098],[138.506511,-32.120826],[138.50635,-32.12038],[138.506191,-32.119926],[138.506049,-32.119485],[138.505904,-32.118868],[138.505566,-32.117155],[138.505178,-32.115365],[138.504607,-32.113186],[138.503253,-32.109418],[138.5026,-32.107622],[138.502383,-32.10699],[138.502214,-32.10638],[138.502116,-32.105895],[138.502026,-32.105197],[138.502007,-32.104602],[138.502037,-32.103653],[138.502148,-32.101847],[138.502379,-32.097662],[138.50242,-32.096573],[138.502438,-32.096105],[138.502539,-32.094417],[138.50275,-32.090382],[138.502937,-32.086614],[138.503125,-32.083108],[138.503222,-32.081952],[138.503227,-32.081296],[138.503211,-32.080993],[138.503181,-32.0807],[138.503107,-32.080209],[138.50302,-32.079753],[138.5029,-32.07933],[138.502674,-32.078744],[138.502489,-32.078307],[138.5022,-32.077786],[138.501959,-32.077408],[138.50164,-32.076966],[138.501224,-32.076481],[138.500869,-32.0761],[138.500422,-32.075726],[138.50009,-32.075449],[138.49998,-32.075366]]}},{"type":"Feature","properties":{"tier":"regional"},"geometry":{"type":"LineString","coordinates":[[138.529212,-32.424525],[138.530501,-32.424364]]}},{"type":"Feature","properties":{"tier":"arterial"},"geometry":{"type":"LineString","coordinates":[[138.530689,-32.425388],[138.530501,-32.424364],[138.530171,-32.422578],[138.530108,-32.422311],[138.530024,-32.422084]]}},{"type":"Feature","properties":{"tier":"arterial"},"geometry":{"type":"LineString","coordinates":[[138.530024,-32.422084],[138.52991,-32.421884],[138.52972,-32.421663],[138.529506,-32.421477],[138.529343,-32.421366],[138.529146,-32.421268],[138.528938,-32.421189],[138.528566,-32.421106],[138.528319,-32.421055]]}},{"type":"Feature","properties":{"tier":"regional"},"geometry":{"type":"LineString","coordinates":[[138.520637,-32.429811],[138.521981,-32.429175],[138.522715,-32.428833],[138.523253,-32.42855],[138.523892,-32.428219],[138.52485,-32.42766],[138.5252,-32.427451],[138.525804,-32.42709],[138.527215,-32.426247],[138.527489,-32.426084],[138.527727,-32.425942],[138.527922,-32.42575],[138.52832,-32.425303],[138.529212,-32.424525]]}},{"type":"Feature","properties":{"tier":"regional"},"geometry":{"type":"LineString","coordinates":[[138.49998,-32.432597],[138.501203,-32.432784],[138.502008,-32.432908],[138.502737,-32.433025],[138.503381,-32.43317],[138.50439,-32.433388],[138.505988,-32.433678],[138.507459,-32.433994],[138.508293,-32.434173],[138.508383,-32.434188],[138.508797,-32.434258],[138.509282,-32.434293],[138.509418,-32.434291],[138.509853,-32.434282],[138.510518,-32.434182],[138.511149,-32.434013],[138.511868,-32.433668],[138.512546,-32.433322],[138.514317,-32.432371],[138.515164,-32.431955],[138.515998,-32.431595],[138.516556,-32.431387],[138.517093,-32.431242],[138.517726,-32.431061],[138.518262,-32.430843],[138.519568,-32.430302],[138.520637,-32.429811]]}},{"type":"Feature","properties":{"tier":"regional"},"geometry":{"type":"LineString","coordinates":[[138.826468,-32.202006],[138.830112,-32.201565],[138.831028,-32.201454],[138.831487,-32.201397],[138.831952,-32.201305],[138.832235,-32.201233],[138.832479,-32.201161],[138.836062,-32.199941],[138.837268,-32.199551],[138.837735,-32.199372],[138.838296,-32.199097],[138.840055,-32.198151],[138.842255,-32.196956],[138.843621,-32.196215],[138.844937,-32.195528],[138.845428,-32.1953],[138.846068,-32.195059],[138.846537,-32.194909],[138.847053,-32.194796],[138.847815,-32.194618],[138.848625,-32.194406],[138.849162,-32.194247],[138.849843,-32.19398],[138.850172,-32.193833],[138.850762,-32.193554],[138.85199,-32.192929],[138.853208,-32.192324],[138.854284,-32.191769],[138.854801,-32.191477],[138.85525,-32.191211],[138.855788,-32.190874],[138.856631,-32.190342],[138.856927,-32.190207],[138.857302,-32.190038],[138.857668,-32.189901],[138.858069,-32.189792],[138.858367,-32.189723],[138.858585,-32.189674],[138.858874,-32.189641],[138.859143,-32.189624],[138.859569,-32.189645],[138.860217,-32.189635],[138.860608,-32.189628],[138.860924,-32.189592],[138.861237,-32.189537],[138.861449,-32.18949],[138.861714,-32.18942],[138.861972,-32.189317],[138.862238,-32.189183],[138.863476,-32.188544],[138.865473,-32.187484],[138.866805,-32.186809],[138.868531,-32.185894],[138.869445,-32.185423],[138.869758,-32.185232],[138.870002,-32.185073],[138.870347,-32.184824],[138.871979,-32.183537],[138.873886,-32.182065],[138.874473,-32.181583],[138.874743,-32.181378],[138.874989,-32.181192],[138.875291,-32.180993],[138.876352,-32.180385],[138.877738,-32.179616],[138.878117,-32.179373],[138.878423,-32.179147],[138.879528,-32.178215],[138.879717,-32.178044],[138.879839,-32.177925],[138.879926,-32.177793],[138.880032,-32.177597],[138.881044,-32.175741],[138.881361,-32.175125],[138.881862,-32.174242],[138.882037,-32.17401],[138.882178,-32.173834],[138.882337,-32.173668],[138.883169,-32.173003],[138.883369,-32.172836],[138.88356,-32.172656],[138.883694,-32.172466],[138.883823,-32.172267],[138.883943,-32.171955],[138.884183,-32.171332],[138.884515,-32.170369],[138.88462,-32.170138],[138.884761,-32.169878],[138.884994,-32.169527],[138.885127,-32.169348],[138.885271,-32.169227],[138.886006,-32.168657],[138.886864,-32.167821],[138.887224,-32.16753],[138.887794,-32.167152],[138.8886,-32.166674],[138.890377,-32.165626],[138.891818,-32.164681],[138.893594,-32.163524],[138.894512,-32.162891],[138.89521,-32.162391],[138.895832,-32.161872],[138.896343,-32.161428],[138.897294,-32.160505],[138.897761,-32.160008],[138.897853,-32.159897],[138.898133,-32.159538],[138.898239,-32.159366],[138.898375,-32.159022],[138.898496,-32.15861],[138.898579,-32.158409],[138.898675,-32.158215],[138.898978,-32.157736],[138.899704,-32.156673],[138.901177,-32.154473],[138.902352,-32.152734],[138.90299,-32.151933],[138.905345,-32.149214],[138.905507,-32.148946],[138.905656,-32.148636],[138.905762,-32.148254],[138.905927,-32.147945],[138.906463,-32.147258],[138.906804,-32.146899],[138.907137,-32.146625],[138.907702,-32.146174],[138.909157,-32.145071],[138.909495,-32.144709],[138.909727,-32.144445],[138.909995,-32.144061],[138.910537,-32.143004],[138.911407,-32.141345],[138.911702,-32.140705],[138.912168,-32.139914],[138.912475,-32.13947],[138.91285,-32.139085],[138.913386,-32.138684],[138.91455,-32.137781],[138.915399,-32.137093],[138.91591,-32.136698],[138.919127,-32.134273],[138.921028,-32.133008],[138.921345,-32.132741],[138.923148,-32.130851],[138.923804,-32.130312],[138.928263,-32.125267],[138.930174,-32.122885],[138.930463,-32.122524],[138.931615,-32.121189],[138.932009,-32.120793],[138.932583,-32.120357],[138.93359,-32.119773],[138.936063,-32.11848],[138.938481,-32.117219],[138.940068,-32.116566],[138.940608,-32.116373],[138.941467,-32.115935],[138.944906,-32.113805],[138.947388,-32.111738],[138.947659,-32.111463],[138.94818,-32.110612],[138.948566,-32.109668],[138.94882,-32.10886],[138.949172,-32.107844],[138.949297,-32.107539],[138.949399,-32.107312],[138.949529,-32.107146],[138.949711,-32.106963],[138.951628,-32.105052],[138.952853,-32.103803],[138.958685,-32.097902],[138.961783,-32.094761],[138.964531,-32.092022],[138.964969,-32.091558],[138.965281,-32.091218],[138.965591,-32.090866],[138.967663,-32.088417],[138.968379,-32.0876],[138.96864,-32.08732],[138.969219,-32.08675],[138.969413,-32.086559],[138.969639,-32.086375],[138.970028,-32.08612],[138.971769,-32.085077],[138.972036,-32.084926],[138.97218,-32.084817],[138.972303,-32.084682],[138.97243,-32.084504],[138.973335,-32.083136],[138.973552,-32.082837],[138.973716,-32.082598],[138.973955,-32.082282],[138.975734,-32.0797],[138.976342,-32.0788],[138.97691,-32.077956],[138.976977,-32.077824],[138.977052,-32.077654],[138.978673,-32.074174],[138.979124,-32.073331],[138.97941,-32.072976],[138.979696,-32.072709],[138.980759,-32.071901],[138.981949,-32.071003],[138.982255,-32.070836],[138.982518,-32.070715],[138.989975,-32.067754],[138.992598,-32.066763],[138.993791,-32.066213],[138.99702,-32.064471],[138.997473,-32.064192],[138.997772,-32.063962],[138.998356,-32.063402],[138.998687,-32.063038],[138.998916,-32.062688],[139.00002,-32.060892]]}},{"type":"Feature","properties":{"tier":"arterial"},"geometry":{"type":"LineString","coordinates":[[138.526188,-32.420688],[138.526057,-32.420659],[138.525632,-32.420545],[138.525247,-32.420396],[138.524926,-32.420216],[138.52481,-32.420124],[138.524696,-32.420034],[138.52448,-32.419806],[138.524333,-32.419623],[138.524183,-32.419384],[138.524179,-32.419377],[138.524013,-32.418996],[138.52318,-32.416785]]}},{"type":"Feature","properties":{"tier":"arterial"},"geometry":{"type":"LineString","coordinates":[[138.528319,-32.421055],[138.526306,-32.420706],[138.526188,-32.420688]]}},{"type":"Feature","properties":{"tier":"arterial"},"geometry":{"type":"LineString","coordinates":[[138.530914,-32.426589],[138.530689,-32.425388]]}},{"type":"Feature","properties":{"tier":"arterial"},"geometry":{"type":"LineString","coordinates":[[138.531191,-32.428084],[138.531031,-32.427232],[138.530914,-32.426589]]}},{"type":"Feature","properties":{"tier":"arterial"},"geometry":{"type":"LineString","coordinates":[[138.532544,-32.432412],[138.532048,-32.431435],[138.531754,-32.43069],[138.531488,-32.429774],[138.531191,-32.428084]]}},{"type":"Feature","properties":{"tier":"regional"},"geometry":{"type":"LineString","coordinates":[[138.704899,-32.218519],[138.705421,-32.217601],[138.705602,-32.2173],[138.705688,-32.217118],[138.705786,-32.216888],[138.705871,-32.216679],[138.705949,-32.216445],[138.70652,-32.214413],[138.707233,-32.211695],[138.707768,-32.209653],[138.708194,-32.208146],[138.708571,-32.206739],[138.708621,-32.206406],[138.708631,-32.206114],[138.708629,-32.205863],[138.708611,-32.205641],[138.708585,-32.205422],[138.708548,-32.205237],[138.708481,-32.205004],[138.708319,-32.204415],[138.708159,-32.203694],[138.708042,-32.202936],[138.708021,-32.202752],[138.708021,-32.202607],[138.708053,-32.202467],[138.708104,-32.202338],[138.708201,-32.202156],[138.708374,-32.201931],[138.709577,-32.200943],[138.709824,-32.200764],[138.710095,-32.200609],[138.710449,-32.200426],[138.710716,-32.200297],[138.710982,-32.200171],[138.711293,-32.200044],[138.711573,-32.199976],[138.711848,-32.199925],[138.713392,-32.199742],[138.713782,-32.199703],[138.714144,-32.199685],[138.714523,-32.199695],[138.714957,-32.199742],[138.716418,-32.199966],[138.717065,-32.200069],[138.717486,-32.200082],[138.717752,-32.200048],[138.718195,-32.199921],[138.719173,-32.199647],[138.719749,-32.199466],[138.720168,-32.199301],[138.720509,-32.199272],[138.721039,-32.199271],[138.721216,-32.199257],[138.721517,-32.199213],[138.722215,-32.199064],[138.722881,-32.198917],[138.723176,-32.198866],[138.723403,-32.198845],[138.723655,-32.198858],[138.725258,-32.19901],[138.726747,-32.199168],[138.727082,-32.199213],[138.727332,-32.199234],[138.727558,-32.199217],[138.727821,-32.199194],[138.728802,-32.199023],[138.729212,-32.198966],[138.729442,-32.198941],[138.729657,-32.198947],[138.729918,-32.198989],[138.730422,-32.199085],[138.733111,-32.199534],[138.733492,-32.199614],[138.733776,-32.19968],[138.734045,-32.1997],[138.734343,-32.199704],[138.734872,-32.199694],[138.735697,-32.199676],[138.741345,-32.199636],[138.747015,-32.199594],[138.751203,-32.199558],[138.752975,-32.199536],[138.75466,-32.199537],[138.756959,-32.199519],[138.759014,-32.199529],[138.76321,-32.199538],[138.765601,-32.199512],[138.7691,-32.19951],[138.771155,-32.199548],[138.772536,-32.199564],[138.773413,-32.199572],[138.773833,-32.199559],[138.774228,-32.199524],[138.774563,-32.199492],[138.774811,-32.199464],[138.775095,-32.199424],[138.775914,-32.199282],[138.777122,-32.199073],[138.78096,-32.198399],[138.786867,-32.19735],[138.787148,-32.197305],[138.787418,-32.197284],[138.787735,-32.197273],[138.792789,-32.197278],[138.794517,-32.19728],[138.795648,-32.197278],[138.796207,-32.197285],[138.796568,-32.197317],[138.79693,-32.197391],[138.797237,-32.197496],[138.797555,-32.19762],[138.79849,-32.198021],[138.799023,-32.198259],[138.800774,-32.199025],[138.801387,-32.199283],[138.802133,-32.199668],[138.803672,-32.200578],[138.804139,-32.200822],[138.804491,-32.201007],[138.804959,-32.201244],[138.805376,-32.201405],[138.805699,-32.201517],[138.805991,-32.201581],[138.806355,-32.201656],[138.806772,-32.201728],[138.807176,-32.201783],[138.807424,-32.201798],[138.80921,-32.201752],[138.809918,-32.201711],[138.810251,-32.201688],[138.810399,-32.201688],[138.810537,-32.201707],[138.810768,-32.201754],[138.813336,-32.202342],[138.8158,-32.202849],[138.816429,-32.202967],[138.817667,-32.203178],[138.817953,-32.203225],[138.818139,-32.203238],[138.818352,-32.203226],[138.818941,-32.203129],[138.819327,-32.203052],[138.820911,-32.202726],[138.821253,-32.202672],[138.821575,-32.20263],[138.822337,-32.202542],[138.823811,-32.202365],[138.825469,-32.202162]]}},{"type":"Feature","properties":{"tier":"regional"},"geometry":{"type":"LineString","coordinates":[[138.825469,-32.202162],[138.826345,-32.202025]]}},{"type":"Feature","properties":{"tier":"regional"},"geometry":{"type":"LineString","coordinates":[[138.826345,-32.202025],[138.826468,-32.202006]]}}]}
