{"type":"FeatureCollection","features":[{"type":"Feature","properties":{"tier":"arterial"},"geometry":{"type":"LineString","coordinates":[[138.589018,-34.900461],[138.588927,-34.90032],[138.588763,-34.900023],[138.588705,-34.899944],[138.588639,-34.899863],[138.588578,-34.899796],[138.588507,-34.899719],[138.588431,-34.899645],[138.5883,-34.899529]]}},{"type":"Feature","properties":{"tier":"arterial"},"geometry":{"type":"LineString","coordinates":[[138.591162,-34.906236],[138.591188,-34.906256],[138.591207,-34.90627]]}},{"type":"Feature","properties":{"tier":"arterial"},"geometry":{"type":"LineString","coordinates":[[138.591152,-34.90627],[138.591162,-34.906236]]}},{"type":"Feature","properties":{"tier":"high"},"geometry":{"type":"LineString","coordinates":[[138.588042,-34.899514],[138.587931,-34.899565],[138.587818,-34.89962],[138.587722,-34.899672],[138.587641,-34.899721],[138.587569,-34.899772],[138.587488,-34.89983],[138.587414,-34.899891],[138.587347,-34.899947],[138.587083,-34.900168],[138.586293,-34.900825]]}},{"type":"Feature","properties":{"tier":"high"},"geometry":{"type":"LineString","coordinates":[[138.588074,-34.899352],[138.588187,-34.899307]]}},{"type":"Feature","properties":{"tier":"high"},"geometry":{"type":"LineString","coordinates":[[138.589199,-34.899249],[138.588861,-34.899365],[138.588786,-34.899411],[138.588721,-34.899508],[138.588696,-34.899606],[138.588703,-34.899676],[138.588728,-34.899789]]}},{"type":"Feature","properties":{"tier":"high"},"geometry":{"type":"LineString","coordinates":[[138.581496,-34.904987],[138.581276,-34.90509],[138.580839,-34.905469],[138.580747,-34.905514],[138.580661,-34.905518],[138.580573,-34.905483]]}},{"type":"Feature","properties":{"tier":"arterial"},"geometry":{"type":"LineString","coordinates":[[138.563814,-34.875394],[138.564655,-34.875352],[138.565246,-34.875323],[138.566164,-34.875279],[138.56623,-34.875276]]}},{"type":"Feature","properties":{"tier":"arterial"},"geometry":{"type":"LineString","coordinates":[[138.573517,-34.875033],[138.572402,-34.875049],[138.572024,-34.875059]]}},{"type":"Feature","properties":{"tier":"arterial"},"geometry":{"type":"LineString","coordinates":[[138.571631,-34.875083],[138.57108,-34.875124]]}},{"type":"Feature","properties":{"tier":"arterial"},"geometry":{"type":"LineString","coordinates":[[138.566681,-34.90155],[138.566604,-34.901772]]}},{"type":"Feature","properties":{"tier":"arterial"},"geometry":{"type":"LineString","coordinates":[[138.566197,-34.901547],[138.566278,-34.901331]]}},{"type":"Feature","properties":{"tier":"arterial"},"geometry":{"type":"LineString","coordinates":[[138.565135,-34.904371],[138.565028,-34.904362],[138.564804,-34.904347]]}},{"type":"Feature","properties":{"tier":"arterial"},"geometry":{"type":"LineString","coordinates":[[138.570413,-34.888616],[138.570309,-34.888555],[138.570254,-34.888523],[138.570236,-34.888513],[138.570178,-34.888479]]}},{"type":"Feature","properties":{"tier":"arterial"},"geometry":{"type":"LineString","coordinates":[[138.57115,-34.889029],[138.570966,-34.888925],[138.570847,-34.888859],[138.570707,-34.888781]]}},{"type":"Feature","properties":{"tier":"high"},"geometry":{"type":"LineString","coordinates":[[138.563949,-34.900159],[138.563216,-34.899685],[138.563132,-34.899617],[138.562709,-34.899348],[138.562659,-34.899314],[138.562609,-34.89928],[138.56248,-34.899193]]}},{"type":"Feature","properties":{"tier":"arterial"},"geometry":{"type":"LineString","coordinates":[[138.571602,-34.87498],[138.571631,-34.875083]]}},{"type":"Feature","properties":{"tier":"regional"},"geometry":{"type":"LineString","coordinates":[[138.571145,-34.882428],[138.570502,-34.882457],[138.569135,-34.88252],[138.567966,-34.882573],[138.566948,-34.882619],[138.566783,-34.882627]]}},{"type":"Feature","properties":{"tier":"arterial"},"geometry":{"type":"LineString","coordinates":[[138.565743,-34.902767],[138.565793,-34.902311],[138.565831,-34.902122],[138.565915,-34.901828],[138.565966,-34.901676],[138.565974,-34.901653],[138.566002,-34.901575],[138.566009,-34.901556],[138.566017,-34.901528],[138.566019,-34.901519],[138.56602,-34.901509],[138.566019,-34.901497],[138.566015,-34.901486],[138.566008,-34.901471],[138.565998,-34.901457],[138.565989,-34.901447],[138.565974,-34.901432],[138.565947,-34.90141]]}},{"type":"Feature","properties":{"tier":"high"},"geometry":{"type":"LineString","coordinates":[[138.582479,-34.904133],[138.582091,-34.904447],[138.581617,-34.904888]]}},{"type":"Feature","properties":{"tier":"high"},"geometry":{"type":"LineString","coordinates":[[138.581663,-34.904712],[138.582524,-34.903961]]}},{"type":"Feature","properties":{"tier":"arterial"},"geometry":{"type":"LineString","coordinates":[[138.588187,-34.899307],[138.588325,-34.899404]]}},{"type":"Feature","properties":{"tier":"arterial"},"geometry":{"type":"LineString","coordinates":[[138.587698,-34.898907],[138.587879,-34.898973],[138.587989,-34.899033],[138.588087,-34.899079],[138.588201,-34.899116],[138.588354,-34.899144],[138.588432,-34.899141],[138.588575,-34.899136],[138.588825,-34.899174]]}},{"type":"Feature","properties":{"tier":"arterial"},"geometry":{"type":"LineString","coordinates":[[138.584873,-34.897075],[138.584657,-34.896905],[138.584461,-34.896764],[138.584291,-34.896651],[138.584179,-34.896579],[138.583948,-34.89644],[138.583442,-34.896172],[138.583221,-34.896067],[138.582147,-34.895634]]}},{"type":"Feature","properties":{"tier":"high"},"geometry":{"type":"LineString","coordinates":[[138.588316,-34.899265],[138.588454,-34.899233],[138.588684,-34.899191],[138.588825,-34.899174]]}},{"type":"Feature","properties":{"tier":"high"},"geometry":{"type":"LineString","coordinates":[[138.588325,-34.899404],[138.588207,-34.89945]]}},{"type":"Feature","properties":{"tier":"arterial"},"geometry":{"type":"LineString","coordinates":[[138.56443,-34.885011],[138.563828,-34.884641]]}},{"type":"Feature","properties":{"tier":"arterial"},"geometry":{"type":"LineString","coordinates":[[138.584267,-34.875972],[138.584278,-34.876132],[138.584293,-34.87634],[138.584352,-34.877234],[138.584385,-34.877727],[138.584413,-34.878155],[138.584416,-34.878221],[138.58444,-34.878693],[138.584472,-34.879114],[138.584475,-34.879157],[138.584477,-34.879178],[138.584514,-34.879682],[138.584537,-34.880008],[138.584561,-34.88035],[138.584569,-34.880463],[138.584584,-34.880654],[138.584592,-34.880767],[138.584614,-34.88106],[138.584633,-34.88131],[138.584645,-34.881571],[138.584658,-34.881749]]}},{"type":"Feature","properties":{"tier":"arterial"},"geometry":{"type":"LineString","coordinates":[[138.585027,-34.888075],[138.585018,-34.887934],[138.585004,-34.887701],[138.584997,-34.887573],[138.584973,-34.887161],[138.584949,-34.886801],[138.584943,-34.88671],[138.584933,-34.886561],[138.584888,-34.885903],[138.584878,-34.885744],[138.584848,-34.885329],[138.584837,-34.885174],[138.584813,-34.884864],[138.584808,-34.884798],[138.584792,-34.884586],[138.584766,-34.884225],[138.584731,-34.883702],[138.584702,-34.883309],[138.584697,-34.883238],[138.584677,-34.883024],[138.584643,-34.882501],[138.584633,-34.88234],[138.584588,-34.881841]]}},{"type":"Feature","properties":{"tier":"arterial"},"geometry":{"type":"LineString","coordinates":[[138.582191,-34.895526],[138.583264,-34.895998],[138.583499,-34.896117],[138.583742,-34.896233],[138.584003,-34.896376],[138.5842,-34.896492],[138.584917,-34.896948]]}},{"type":"Feature","properties":{"tier":"arterial"},"geometry":{"type":"LineString","coordinates":[[138.57108,-34.875124],[138.57106,-34.87498]]}},{"type":"Feature","properties":{"tier":"arterial"},"geometry":{"type":"LineString","coordinates":[[138.570563,-34.875021],[138.570624,-34.87498]]}},{"type":"Feature","properties":{"tier":"arterial"},"geometry":{"type":"LineString","coordinates":[[138.571114,-34.875315],[138.571084,-34.875248],[138.571041,-34.875213],[138.571,-34.875185],[138.570907,-34.875139]]}},{"type":"Feature","properties":{"tier":"arterial"},"geometry":{"type":"LineString","coordinates":[[138.566235,-34.875367],[138.56623,-34.875276]]}},{"type":"Feature","properties":{"tier":"arterial"},"geometry":{"type":"LineString","coordinates":[[138.56632,-34.875272],[138.566333,-34.875362]]}},{"type":"Feature","properties":{"tier":"arterial"},"geometry":{"type":"LineString","coordinates":[[138.56623,-34.875276],[138.56632,-34.875272]]}},{"type":"Feature","properties":{"tier":"regional"},"geometry":{"type":"LineString","coordinates":[[138.56248,-34.885526],[138.563291,-34.884707]]}},{"type":"Feature","properties":{"tier":"regional"},"geometry":{"type":"LineString","coordinates":[[138.563616,-34.884514],[138.563556,-34.884547],[138.563419,-34.884627]]}},{"type":"Feature","properties":{"tier":"regional"},"geometry":{"type":"LineString","coordinates":[[138.563379,-34.884559],[138.563399,-34.884471],[138.563382,-34.884411],[138.563338,-34.884334]]}},{"type":"Feature","properties":{"tier":"regional"},"geometry":{"type":"LineString","coordinates":[[138.563291,-34.884707],[138.563301,-34.884651],[138.563379,-34.884559]]}},{"type":"Feature","properties":{"tier":"regional"},"geometry":{"type":"LineString","coordinates":[[138.563828,-34.884641],[138.563676,-34.8846],[138.563586,-34.884589],[138.563486,-34.884614],[138.563419,-34.884627]]}},{"type":"Feature","properties":{"tier":"high"},"geometry":{"type":"LineString","coordinates":[[138.566526,-34.901731],[138.566245,-34.901574]]}},{"type":"Feature","properties":{"tier":"arterial"},"geometry":{"type":"LineString","coordinates":[[138.566956,-34.885148],[138.566915,-34.884493],[138.566895,-34.884179],[138.566822,-34.883142],[138.5668,-34.882855],[138.566783,-34.882627],[138.566773,-34.882464],[138.566766,-34.882353],[138.566704,-34.881341],[138.566606,-34.880151],[138.566599,-34.879989],[138.56644,-34.877725],[138.566371,-34.876711],[138.566338,-34.876231]]}},{"type":"Feature","properties":{"tier":"arterial"},"geometry":{"type":"LineString","coordinates":[[138.566333,-34.875362],[138.566328,-34.875423],[138.566334,-34.875546],[138.56634,-34.875668],[138.566307,-34.875752]]}},{"type":"Feature","properties":{"tier":"regional"},"geometry":{"type":"LineString","coordinates":[[138.56623,-34.875276],[138.566226,-34.8752],[138.566216,-34.875026],[138.566214,-34.87498]]}},{"type":"Feature","properties":{"tier":"regional"},"geometry":{"type":"LineString","coordinates":[[138.566296,-34.87498],[138.566298,-34.875016],[138.566314,-34.875197],[138.56632,-34.875272]]}},{"type":"Feature","properties":{"tier":"arterial"},"geometry":{"type":"LineString","coordinates":[[138.566141,-34.904501],[138.566193,-34.904524]]}},{"type":"Feature","properties":{"tier":"arterial"},"geometry":{"type":"LineString","coordinates":[[138.566763,-34.904986],[138.566513,-34.904812],[138.566422,-34.904753],[138.566345,-34.904706],[138.566265,-34.904666],[138.56619,-34.90463]]}},{"type":"Feature","properties":{"tier":"high"},"geometry":{"type":"LineString","coordinates":[[138.56248,-34.898658],[138.562607,-34.898741]]}},{"type":"Feature","properties":{"tier":"high"},"geometry":{"type":"LineString","coordinates":[[138.566332,-34.901362],[138.5666,-34.901511]]}},{"type":"Feature","properties":{"tier":"high"},"geometry":{"type":"LineString","coordinates":[[138.568975,-34.902982],[138.57011,-34.903736],[138.571232,-34.904481]]}},{"type":"Feature","properties":{"tier":"regional"},"geometry":{"type":"LineString","coordinates":[[138.578841,-34.898731],[138.578746,-34.898668],[138.578725,-34.898654],[138.577737,-34.897996],[138.577677,-34.897956],[138.577311,-34.897708],[138.57701,-34.897504],[138.576561,-34.897206],[138.576235,-34.896994],[138.575716,-34.896644],[138.575477,-34.896487],[138.575406,-34.89644],[138.575332,-34.896391],[138.574744,-34.896002],[138.574665,-34.89595],[138.574472,-34.895822],[138.574216,-34.895642],[138.573755,-34.89531],[138.573474,-34.895143],[138.573358,-34.895075],[138.572995,-34.894859],[138.57291,-34.894808],[138.572638,-34.894647],[138.572299,-34.894439],[138.571908,-34.894195],[138.571854,-34.894161],[138.571768,-34.894109],[138.57047,-34.893322],[138.570228,-34.893175],[138.569994,-34.893031],[138.569691,-34.892846]]}},{"type":"Feature","properties":{"tier":"regional"},"geometry":{"type":"LineString","coordinates":[[138.579958,-34.899522],[138.579772,-34.899359],[138.578947,-34.898803],[138.578921,-34.898785],[138.578841,-34.898731]]}},{"type":"Feature","properties":{"tier":"regional"},"geometry":{"type":"LineString","coordinates":[[138.583162,-34.902071],[138.583005,-34.901969],[138.58299,-34.901959],[138.582893,-34.901897],[138.582853,-34.901871],[138.582797,-34.901834],[138.582748,-34.901802],[138.58269,-34.901765],[138.582418,-34.901588],[138.582196,-34.901444],[138.581825,-34.901204],[138.581771,-34.901168],[138.580517,-34.900344],[138.580308,-34.900191],[138.580233,-34.900118],[138.580187,-34.90003],[138.580082,-34.899708],[138.579958,-34.899522]]}},{"type":"Feature","properties":{"tier":"regional"},"geometry":{"type":"LineString","coordinates":[[138.584269,-34.902904],[138.584359,-34.903055],[138.584418,-34.903166],[138.584508,-34.90331],[138.584543,-34.903395],[138.584544,-34.903484]]}},{"type":"Feature","properties":{"tier":"regional"},"geometry":{"type":"LineString","coordinates":[[138.583988,-34.902613],[138.584124,-34.902721]]}},{"type":"Feature","properties":{"tier":"regional"},"geometry":{"type":"LineString","coordinates":[[138.583162,-34.902071],[138.583435,-34.902216]]}},{"type":"Feature","properties":{"tier":"high"},"geometry":{"type":"LineString","coordinates":[[138.583813,-34.90276],[138.583834,-34.902726],[138.583847,-34.902702],[138.583856,-34.902669],[138.583855,-34.902632],[138.583848,-34.9026],[138.583838,-34.902566],[138.583811,-34.902523]]}},{"type":"Feature","properties":{"tier":"regional"},"geometry":{"type":"LineString","coordinates":[[138.57613,-34.888486],[138.576127,-34.88843],[138.576068,-34.887487],[138.576039,-34.88707],[138.575993,-34.886421],[138.575974,-34.886144],[138.575962,-34.885981],[138.57592,-34.885517],[138.575936,-34.885362],[138.575961,-34.885238],[138.576004,-34.885043],[138.576008,-34.884722],[138.575928,-34.883576],[138.575834,-34.882282],[138.575833,-34.882266],[138.575831,-34.88222]]}},{"type":"Feature","properties":{"tier":"regional"},"geometry":{"type":"LineString","coordinates":[[138.576203,-34.892088],[138.576259,-34.892026],[138.576265,-34.892014],[138.576328,-34.891889],[138.576333,-34.89169],[138.57629,-34.891086],[138.576289,-34.891075],[138.576268,-34.890698],[138.576247,-34.890283],[138.57622,-34.889765],[138.576214,-34.889633],[138.576141,-34.888656],[138.576138,-34.888614]]}},{"type":"Feature","properties":{"tier":"arterial"},"geometry":{"type":"LineString","coordinates":[[138.563512,-34.884449],[138.56363,-34.884378]]}},{"type":"Feature","properties":{"tier":"regional"},"geometry":{"type":"LineString","coordinates":[[138.583811,-34.902523],[138.583754,-34.902479],[138.5836,-34.902372],[138.583403,-34.902246],[138.583378,-34.90223]]}},{"type":"Feature","properties":{"tier":"regional"},"geometry":{"type":"LineString","coordinates":[[138.57613,-34.888486],[138.576159,-34.888487],[138.576185,-34.888497],[138.576206,-34.888514],[138.576217,-34.888535],[138.576217,-34.888564],[138.576201,-34.888591],[138.576173,-34.888608],[138.576138,-34.888614],[138.576109,-34.888608],[138.576084,-34.888594],[138.576068,-34.888573],[138.576063,-34.888549],[138.576068,-34.888527],[138.576082,-34.888507],[138.576104,-34.888493],[138.57613,-34.888486]]}},{"type":"Feature","properties":{"tier":"arterial"},"geometry":{"type":"LineString","coordinates":[[138.572024,-34.875059],[138.571832,-34.875142],[138.571775,-34.875183],[138.571741,-34.875206],[138.571684,-34.875305]]}},{"type":"Feature","properties":{"tier":"regional"},"geometry":{"type":"LineString","coordinates":[[138.580634,-34.896897],[138.580666,-34.896865],[138.581531,-34.896005],[138.581666,-34.895868],[138.58189,-34.895638],[138.581904,-34.895624],[138.582018,-34.895508]]}},{"type":"Feature","properties":{"tier":"regional"},"geometry":{"type":"LineString","coordinates":[[138.572083,-34.905583],[138.57217,-34.905495],[138.572257,-34.905406],[138.572329,-34.905332],[138.572402,-34.905258]]}},{"type":"Feature","properties":{"tier":"arterial"},"geometry":{"type":"LineString","coordinates":[[138.56632,-34.875272],[138.566385,-34.875269],[138.567562,-34.875208],[138.568719,-34.875154]]}},{"type":"Feature","properties":{"tier":"arterial"},"geometry":{"type":"LineString","coordinates":[[138.570563,-34.875021],[138.570922,-34.874984],[138.570948,-34.87498]]}},{"type":"Feature","properties":{"tier":"high"},"geometry":{"type":"LineString","coordinates":[[138.58882,-34.89929],[138.588466,-34.899356],[138.588429,-34.899369],[138.588325,-34.899404]]}},{"type":"Feature","properties":{"tier":"arterial"},"geometry":{"type":"LineString","coordinates":[[138.582018,-34.895508],[138.581844,-34.895424],[138.58182,-34.895412],[138.581527,-34.89527],[138.581314,-34.895166],[138.580735,-34.894831],[138.580453,-34.894652],[138.58013,-34.894447],[138.579871,-34.894298],[138.579676,-34.894185],[138.579537,-34.894104],[138.579164,-34.893887],[138.578363,-34.893417],[138.57786,-34.893101],[138.57759,-34.892927],[138.576907,-34.892519],[138.57685,-34.892485],[138.576203,-34.892088],[138.5758,-34.891854],[138.575318,-34.891562],[138.574717,-34.891199],[138.574682,-34.891174],[138.573988,-34.89075],[138.573725,-34.890584],[138.573394,-34.890374],[138.572971,-34.890118],[138.572695,-34.889952],[138.572458,-34.889809],[138.572382,-34.889763],[138.571814,-34.889425],[138.57115,-34.889029]]}},{"type":"Feature","properties":{"tier":"arterial"},"geometry":{"type":"LineString","coordinates":[[138.566333,-34.875362],[138.566235,-34.875367]]}},{"type":"Feature","properties":{"tier":"arterial"},"geometry":{"type":"LineString","coordinates":[[138.566235,-34.875367],[138.566167,-34.87537],[138.565275,-34.87541],[138.564682,-34.875437],[138.563833,-34.875476]]}},{"type":"Feature","properties":{"tier":"arterial"},"geometry":{"type":"LineString","coordinates":[[138.568725,-34.875246],[138.567873,-34.875287],[138.56757,-34.875302],[138.566634,-34.875349],[138.566585,-34.875351],[138.566383,-34.87536],[138.566333,-34.875362]]}},{"type":"Feature","properties":{"tier":"high"},"geometry":{"type":"LineString","coordinates":[[138.59377,-34.898945],[138.593462,-34.898959],[138.592725,-34.899013],[138.591707,-34.899074],[138.591592,-34.899081],[138.591235,-34.899101]]}},{"type":"Feature","properties":{"tier":"high"},"geometry":{"type":"LineString","coordinates":[[138.590187,-34.899178],[138.589678,-34.899212]]}},{"type":"Feature","properties":{"tier":"arterial"},"geometry":{"type":"LineString","coordinates":[[138.564804,-34.904347],[138.564176,-34.904306],[138.56406,-34.904298],[138.563757,-34.904278]]}},{"type":"Feature","properties":{"tier":"high"},"geometry":{"type":"LineString","coordinates":[[138.581617,-34.904888],[138.581496,-34.904987],[138.581335,-34.90512],[138.58092,-34.905497],[138.58063,-34.905738],[138.580541,-34.905811],[138.58038,-34.905954],[138.580243,-34.90607],[138.580012,-34.90627]]}},{"type":"Feature","properties":{"tier":"high"},"geometry":{"type":"LineString","coordinates":[[138.572083,-34.905583],[138.572004,-34.905532],[138.57187,-34.905443],[138.571124,-34.90495],[138.571045,-34.904899],[138.571002,-34.90487],[138.570904,-34.904805],[138.569799,-34.904078],[138.569711,-34.904017],[138.569253,-34.903701],[138.568755,-34.903357],[138.568615,-34.903271],[138.568587,-34.903253],[138.568404,-34.903129],[138.568373,-34.903107],[138.568323,-34.903073]]}},{"type":"Feature","properties":{"tier":"arterial"},"geometry":{"type":"LineString","coordinates":[[138.568881,-34.892639],[138.568753,-34.893089],[138.568585,-34.893663],[138.568411,-34.894252],[138.568329,-34.894548],[138.568215,-34.894873],[138.56817,-34.895026],[138.568131,-34.89516],[138.567978,-34.895679],[138.567951,-34.895773],[138.567891,-34.895977],[138.567856,-34.896096],[138.567592,-34.896997],[138.567503,-34.897299],[138.567466,-34.897425],[138.567295,-34.897959]]}},{"type":"Feature","properties":{"tier":"arterial"},"geometry":{"type":"LineString","coordinates":[[138.571382,-34.881758],[138.571345,-34.881117],[138.571364,-34.879904],[138.571367,-34.879636],[138.571392,-34.8793],[138.571409,-34.878937],[138.571429,-34.878702],[138.571417,-34.878295],[138.571398,-34.877978],[138.571365,-34.877538],[138.571358,-34.877412],[138.571299,-34.87662],[138.571251,-34.876024],[138.571193,-34.875575],[138.571114,-34.875315]]}},{"type":"Feature","properties":{"tier":"arterial"},"geometry":{"type":"LineString","coordinates":[[138.571898,-34.883588],[138.571908,-34.884213],[138.571966,-34.885162],[138.571979,-34.885381],[138.571991,-34.885621],[138.571986,-34.885875],[138.571946,-34.886082],[138.571921,-34.886156],[138.571862,-34.886308],[138.571721,-34.886595],[138.571499,-34.886842],[138.571284,-34.887061],[138.570857,-34.887496]]}},{"type":"Feature","properties":{"tier":"regional"},"geometry":{"type":"LineString","coordinates":[[138.569237,-34.892572],[138.56916,-34.892581],[138.569116,-34.892574],[138.569078,-34.892568],[138.568997,-34.892578],[138.568985,-34.892582],[138.568954,-34.892599],[138.568918,-34.89262],[138.568881,-34.892639]]}},{"type":"Feature","properties":{"tier":"arterial"},"geometry":{"type":"LineString","coordinates":[[138.570413,-34.888616],[138.570288,-34.8886],[138.570246,-34.888598],[138.570217,-34.888599],[138.57016,-34.88861],[138.570135,-34.888622],[138.570108,-34.888639],[138.570076,-34.888664]]}},{"type":"Feature","properties":{"tier":"arterial"},"geometry":{"type":"LineString","coordinates":[[138.570373,-34.888163],[138.570351,-34.888357],[138.570353,-34.888368],[138.570358,-34.888392],[138.570391,-34.888452],[138.5705,-34.888553]]}},{"type":"Feature","properties":{"tier":"arterial"},"geometry":{"type":"LineString","coordinates":[[138.584588,-34.881841],[138.584669,-34.881895]]}},{"type":"Feature","properties":{"tier":"regional"},"geometry":{"type":"LineString","coordinates":[[138.583122,-34.881922],[138.583071,-34.881924],[138.582963,-34.881932],[138.582853,-34.881944]]}},{"type":"Feature","properties":{"tier":"arterial"},"geometry":{"type":"LineString","coordinates":[[138.584645,-34.881571],[138.584619,-34.881738],[138.584619,-34.881805],[138.584588,-34.881841]]}},{"type":"Feature","properties":{"tier":"high"},"geometry":{"type":"LineString","coordinates":[[138.586173,-34.900727],[138.58696,-34.900045],[138.58729,-34.89977],[138.587565,-34.899577]]}},{"type":"Feature","properties":{"tier":"arterial"},"geometry":{"type":"LineString","coordinates":[[138.589018,-34.900461],[138.589144,-34.900788],[138.589568,-34.901885],[138.589762,-34.902377],[138.589837,-34.902568]]}},{"type":"Feature","properties":{"tier":"arterial"},"geometry":{"type":"LineString","coordinates":[[138.589995,-34.90297],[138.590022,-34.903049],[138.590034,-34.903079],[138.590067,-34.903226]]}},{"type":"Feature","properties":{"tier":"regional"},"geometry":{"type":"LineString","coordinates":[[138.583832,-34.90249],[138.58387,-34.902509],[138.583909,-34.902522],[138.583941,-34.902529],[138.583975,-34.902532],[138.584024,-34.90253],[138.584068,-34.902524],[138.584126,-34.902497]]}},{"type":"Feature","properties":{"tier":"high"},"geometry":{"type":"LineString","coordinates":[[138.584317,-34.902573],[138.584275,-34.902635],[138.58426,-34.902667],[138.584244,-34.902717],[138.584239,-34.902757],[138.584239,-34.9028],[138.584243,-34.902834],[138.584269,-34.902904]]}},{"type":"Feature","properties":{"tier":"regional"},"geometry":{"type":"LineString","coordinates":[[138.584294,-34.903093],[138.584217,-34.903022],[138.584186,-34.902991],[138.584154,-34.902964],[138.584122,-34.902943],[138.584086,-34.902929],[138.584049,-34.902924],[138.584016,-34.902924],[138.584007,-34.902924],[138.583962,-34.902929],[138.583926,-34.902937],[138.583833,-34.902948]]}},{"type":"Feature","properties":{"tier":"high"},"geometry":{"type":"LineString","coordinates":[[138.587565,-34.899577],[138.587651,-34.89946],[138.587751,-34.899385],[138.587803,-34.899333],[138.587825,-34.899279],[138.587829,-34.899247],[138.587742,-34.899104]]}},{"type":"Feature","properties":{"tier":"regional"},"geometry":{"type":"LineString","coordinates":[[138.57707,-34.882234],[138.577021,-34.882228],[138.576976,-34.882222],[138.576927,-34.882204],[138.576871,-34.882195],[138.576754,-34.882191],[138.576512,-34.882192],[138.575831,-34.88222],[138.575113,-34.882252],[138.574007,-34.882308],[138.573935,-34.882311],[138.572891,-34.882354],[138.572779,-34.882359]]}},{"type":"Feature","properties":{"tier":"regional"},"geometry":{"type":"LineString","coordinates":[[138.577131,-34.882293],[138.577116,-34.882287],[138.577103,-34.882279],[138.577092,-34.88227],[138.577082,-34.882259],[138.577075,-34.882247],[138.57707,-34.882234],[138.577068,-34.882221],[138.577068,-34.882207],[138.577071,-34.882193],[138.577076,-34.88218],[138.577084,-34.882168],[138.577094,-34.882157],[138.577106,-34.882148],[138.57712,-34.88214],[138.577135,-34.882134],[138.577151,-34.882131],[138.577168,-34.882129],[138.577184,-34.882129],[138.577199,-34.882132],[138.577213,-34.882136],[138.577227,-34.882142],[138.577239,-34.882149],[138.57725,-34.882157],[138.577259,-34.882167],[138.577267,-34.882178],[138.577272,-34.882189],[138.577275,-34.882202],[138.577277,-34.882214],[138.577275,-34.882228],[138.577271,-34.882242],[138.577264,-34.882256],[138.577254,-34.882268],[138.577242,-34.882279],[138.577227,-34.882287],[138.577212,-34.882294],[138.577195,-34.882298],[138.577179,-34.8823],[138.577162,-34.8823],[138.577146,-34.882298],[138.577131,-34.882293]]}},{"type":"Feature","properties":{"tier":"arterial"},"geometry":{"type":"LineString","coordinates":[[138.585122,-34.889455],[138.585118,-34.889403],[138.585097,-34.889111],[138.585064,-34.888625],[138.585027,-34.888075]]}},{"type":"Feature","properties":{"tier":"arterial"},"geometry":{"type":"LineString","coordinates":[[138.56363,-34.884378],[138.563731,-34.884444]]}},{"type":"Feature","properties":{"tier":"arterial"},"geometry":{"type":"LineString","coordinates":[[138.563616,-34.884514],[138.563512,-34.884449]]}},{"type":"Feature","properties":{"tier":"arterial"},"geometry":{"type":"LineString","coordinates":[[138.563731,-34.884444],[138.563756,-34.88446],[138.563786,-34.884478],[138.563938,-34.884572],[138.564515,-34.88493]]}},{"type":"Feature","properties":{"tier":"regional"},"geometry":{"type":"LineString","coordinates":[[138.584294,-34.903093],[138.58427,-34.903029],[138.58414,-34.902854],[138.584125,-34.902839],[138.584103,-34.90281],[138.584062,-34.902768]]}},{"type":"Feature","properties":{"tier":"regional"},"geometry":{"type":"LineString","coordinates":[[138.580519,-34.896984],[138.580507,-34.89696],[138.580507,-34.896934],[138.580523,-34.896907],[138.580547,-34.89689],[138.580578,-34.896883],[138.580607,-34.896885],[138.580634,-34.896897],[138.580653,-34.896917],[138.580661,-34.896935],[138.580661,-34.896963],[138.580649,-34.896984],[138.580622,-34.897004],[138.580593,-34.897011],[138.580562,-34.897009],[138.580533,-34.896996],[138.580519,-34.896984]]}},{"type":"Feature","properties":{"tier":"arterial"},"geometry":{"type":"LineString","coordinates":[[138.59377,-34.883743],[138.593712,-34.882836],[138.59369,-34.882572],[138.593669,-34.882098],[138.593646,-34.881777],[138.593611,-34.881333],[138.593604,-34.881079]]}},{"type":"Feature","properties":{"tier":"arterial"},"geometry":{"type":"LineString","coordinates":[[138.563731,-34.884444],[138.563616,-34.884514]]}},{"type":"Feature","properties":{"tier":"arterial"},"geometry":{"type":"LineString","coordinates":[[138.588728,-34.899789],[138.588831,-34.899942],[138.588911,-34.900115],[138.588988,-34.900306],[138.589018,-34.900461]]}},{"type":"Feature","properties":{"tier":"arterial"},"geometry":{"type":"LineString","coordinates":[[138.588207,-34.89945],[138.588074,-34.899352]]}},{"type":"Feature","properties":{"tier":"high"},"geometry":{"type":"LineString","coordinates":[[138.567154,-34.898082],[138.566998,-34.899726]]}},{"type":"Feature","properties":{"tier":"high"},"geometry":{"type":"LineString","coordinates":[[138.571759,-34.883598],[138.571748,-34.884663],[138.571669,-34.885151],[138.571612,-34.885404],[138.57157,-34.885605],[138.571514,-34.88579],[138.571448,-34.885992],[138.571208,-34.886508],[138.570787,-34.887166],[138.570194,-34.888066],[138.569855,-34.888798],[138.569573,-34.889598],[138.569175,-34.891115],[138.568785,-34.892444],[138.568454,-34.893619],[138.568117,-34.894716],[138.567818,-34.895606]]}},{"type":"Feature","properties":{"tier":"high"},"geometry":{"type":"LineString","coordinates":[[138.566998,-34.899726],[138.566929,-34.900081],[138.566816,-34.900615],[138.566452,-34.901691],[138.566127,-34.902604],[138.565961,-34.903185],[138.56572,-34.904418],[138.565365,-34.90627]]}},{"type":"Feature","properties":{"tier":"regional"},"geometry":{"type":"LineString","coordinates":[[138.575364,-34.902241],[138.575441,-34.902164],[138.575635,-34.901969],[138.576909,-34.900687],[138.577319,-34.900267],[138.577379,-34.900206],[138.57784,-34.899741],[138.577964,-34.899616],[138.578764,-34.898809],[138.57879,-34.898783],[138.578841,-34.898731]]}},{"type":"Feature","properties":{"tier":"regional"},"geometry":{"type":"LineString","coordinates":[[138.573621,-34.904016],[138.57469,-34.902928],[138.575331,-34.902276],[138.575364,-34.902241]]}},{"type":"Feature","properties":{"tier":"regional"},"geometry":{"type":"LineString","coordinates":[[138.589995,-34.90297],[138.590114,-34.902941],[138.590145,-34.902934],[138.590511,-34.902849],[138.591424,-34.902656],[138.591917,-34.902553],[138.592478,-34.902419],[138.592964,-34.902303],[138.593453,-34.902186],[138.59377,-34.90211]]}},{"type":"Feature","properties":{"tier":"arterial"},"geometry":{"type":"LineString","coordinates":[[138.590463,-34.904331],[138.590645,-34.904843],[138.590948,-34.905678]]}},{"type":"Feature","properties":{"tier":"regional"},"geometry":{"type":"LineString","coordinates":[[138.578841,-34.898731],[138.578901,-34.89867],[138.578916,-34.898654],[138.579881,-34.897668],[138.580046,-34.8975],[138.580089,-34.897455],[138.580216,-34.897323],[138.580493,-34.897038],[138.580533,-34.896996]]}},{"type":"Feature","properties":{"tier":"arterial"},"geometry":{"type":"LineString","coordinates":[[138.568483,-34.892366],[138.568937,-34.892459]]}},{"type":"Feature","properties":{"tier":"high"},"geometry":{"type":"LineString","coordinates":[[138.567818,-34.895606],[138.567742,-34.896188],[138.567584,-34.896639],[138.567448,-34.89705],[138.567304,-34.897697],[138.567295,-34.897959]]}},{"type":"Feature","properties":{"tier":"regional"},"geometry":{"type":"LineString","coordinates":[[138.584008,-34.904626],[138.58412,-34.904558],[138.584223,-34.904493],[138.584356,-34.904377],[138.584395,-34.904328],[138.584459,-34.904249],[138.584508,-34.904181],[138.584553,-34.904092]]}},{"type":"Feature","properties":{"tier":"regional"},"geometry":{"type":"LineString","coordinates":[[138.582055,-34.90627],[138.582097,-34.906189],[138.582145,-34.906123],[138.582167,-34.906093],[138.582212,-34.906039],[138.582281,-34.905958],[138.582302,-34.905934],[138.582412,-34.90581],[138.582577,-34.905657],[138.582745,-34.905521],[138.58295,-34.905363],[138.58314,-34.905217],[138.583322,-34.905085],[138.583599,-34.904884],[138.583815,-34.904745],[138.584008,-34.904626]]}},{"type":"Feature","properties":{"tier":"arterial"},"geometry":{"type":"LineString","coordinates":[[138.565409,-34.904305],[138.565422,-34.904248],[138.565443,-34.90414]]}},{"type":"Feature","properties":{"tier":"regional"},"geometry":{"type":"LineString","coordinates":[[138.583832,-34.90249],[138.58394,-34.902575],[138.583988,-34.902613]]}},{"type":"Feature","properties":{"tier":"regional"},"geometry":{"type":"LineString","coordinates":[[138.583946,-34.902648],[138.583903,-34.902608],[138.583861,-34.90257],[138.583811,-34.902523]]}},{"type":"Feature","properties":{"tier":"high"},"geometry":{"type":"LineString","coordinates":[[138.563063,-34.899458],[138.563068,-34.899393],[138.563064,-34.899372],[138.563064,-34.899358],[138.563065,-34.899344],[138.563069,-34.899333],[138.563074,-34.899319],[138.563082,-34.899308],[138.563092,-34.899297],[138.563105,-34.899286],[138.563115,-34.899279],[138.563128,-34.899269],[138.56314,-34.899262],[138.56315,-34.899257],[138.563162,-34.899252],[138.563182,-34.899247],[138.563356,-34.899243]]}},{"type":"Feature","properties":{"tier":"high"},"geometry":{"type":"LineString","coordinates":[[138.56799,-34.902347],[138.568081,-34.902444],[138.568149,-34.902525],[138.568181,-34.902558],[138.56821,-34.902583],[138.568276,-34.902631],[138.568322,-34.902663],[138.568529,-34.902791],[138.568559,-34.902809],[138.568577,-34.902821],[138.568597,-34.902837],[138.568613,-34.902853],[138.56863,-34.902875],[138.568641,-34.902893],[138.568651,-34.902916],[138.568655,-34.902934],[138.568657,-34.902957],[138.568657,-34.902976],[138.568654,-34.902997],[138.568648,-34.903013],[138.568637,-34.90303],[138.568629,-34.903042],[138.568611,-34.90306],[138.568594,-34.903076],[138.568585,-34.903084],[138.568576,-34.903091],[138.568567,-34.903096],[138.56856,-34.903099],[138.568541,-34.903104],[138.56852,-34.903107],[138.56849,-34.903112],[138.568457,-34.903114],[138.568422,-34.903113],[138.5684,-34.903112],[138.568373,-34.903107]]}},{"type":"Feature","properties":{"tier":"arterial"},"geometry":{"type":"LineString","coordinates":[[138.566307,-34.875752],[138.566269,-34.875685],[138.566236,-34.875429],[138.566235,-34.875367]]}},{"type":"Feature","properties":{"tier":"arterial"},"geometry":{"type":"LineString","coordinates":[[138.56248,-34.904112],[138.562735,-34.904128]]}},{"type":"Feature","properties":{"tier":"arterial"},"geometry":{"type":"LineString","coordinates":[[138.565802,-34.904489],[138.565674,-34.904457],[138.565585,-34.904436],[138.565512,-34.90442]]}},{"type":"Feature","properties":{"tier":"arterial"},"geometry":{"type":"LineString","coordinates":[[138.567744,-34.886898],[138.568734,-34.887502],[138.569184,-34.887777],[138.569254,-34.887819]]}},{"type":"Feature","properties":{"tier":"arterial"},"geometry":{"type":"LineString","coordinates":[[138.569772,-34.888248],[138.569722,-34.888216],[138.56964,-34.888166],[138.569187,-34.887889],[138.569118,-34.887847]]}},{"type":"Feature","properties":{"tier":"arterial"},"geometry":{"type":"LineString","coordinates":[[138.570226,-34.888391],[138.570178,-34.888479]]}},{"type":"Feature","properties":{"tier":"arterial"},"geometry":{"type":"LineString","coordinates":[[138.570226,-34.888391],[138.570278,-34.888422],[138.57034,-34.888457],[138.5705,-34.888553]]}},{"type":"Feature","properties":{"tier":"arterial"},"geometry":{"type":"LineString","coordinates":[[138.570178,-34.888479],[138.570144,-34.888543],[138.570076,-34.888664]]}},{"type":"Feature","properties":{"tier":"arterial"},"geometry":{"type":"LineString","coordinates":[[138.567115,-34.900104],[138.566922,-34.900813],[138.566844,-34.901081],[138.566798,-34.901227],[138.566735,-34.901412],[138.566732,-34.901424],[138.566721,-34.901451],[138.566681,-34.90155]]}},{"type":"Feature","properties":{"tier":"arterial"},"geometry":{"type":"LineString","coordinates":[[138.565527,-34.904321],[138.565587,-34.904332],[138.565652,-34.904346],[138.565743,-34.90437],[138.565818,-34.904389]]}},{"type":"Feature","properties":{"tier":"arterial"},"geometry":{"type":"LineString","coordinates":[[138.570178,-34.888479],[138.569772,-34.888248]]}},{"type":"Feature","properties":{"tier":"arterial"},"geometry":{"type":"LineString","coordinates":[[138.569826,-34.888156],[138.570226,-34.888391]]}},{"type":"Feature","properties":{"tier":"high"},"geometry":{"type":"LineString","coordinates":[[138.573366,-34.905903],[138.573423,-34.906016],[138.573559,-34.906117],[138.573633,-34.906163],[138.573655,-34.906211],[138.573639,-34.90627]]}},{"type":"Feature","properties":{"tier":"regional"},"geometry":{"type":"LineString","coordinates":[[138.573271,-34.904372],[138.573394,-34.904249]]}},{"type":"Feature","properties":{"tier":"regional"},"geometry":{"type":"LineString","coordinates":[[138.573394,-34.904249],[138.573552,-34.904091],[138.573621,-34.904016]]}},{"type":"Feature","properties":{"tier":"arterial"},"geometry":{"type":"LineString","coordinates":[[138.585412,-34.896755],[138.585386,-34.896932],[138.585363,-34.89701],[138.585372,-34.897101],[138.585386,-34.89717],[138.585414,-34.897241],[138.585448,-34.897327]]}},{"type":"Feature","properties":{"tier":"regional"},"geometry":{"type":"LineString","coordinates":[[138.571413,-34.882428],[138.571322,-34.882423]]}},{"type":"Feature","properties":{"tier":"arterial"},"geometry":{"type":"LineString","coordinates":[[138.571631,-34.875083],[138.571649,-34.875159],[138.571654,-34.87518],[138.571684,-34.875305]]}},{"type":"Feature","properties":{"tier":"arterial"},"geometry":{"type":"LineString","coordinates":[[138.569772,-34.888248],[138.569826,-34.888156]]}},{"type":"Feature","properties":{"tier":"arterial"},"geometry":{"type":"LineString","coordinates":[[138.569847,-34.889314],[138.569769,-34.889569],[138.569655,-34.889913],[138.569614,-34.89004],[138.569594,-34.890113],[138.569315,-34.891091]]}},{"type":"Feature","properties":{"tier":"high"},"geometry":{"type":"LineString","coordinates":[[138.564136,-34.899764],[138.564414,-34.899947],[138.564522,-34.900025],[138.564706,-34.900159],[138.564953,-34.90036],[138.565517,-34.900825]]}},{"type":"Feature","properties":{"tier":"high"},"geometry":{"type":"LineString","coordinates":[[138.593322,-34.898863],[138.59377,-34.898841]]}},{"type":"Feature","properties":{"tier":"arterial"},"geometry":{"type":"LineString","coordinates":[[138.568719,-34.875154],[138.569099,-34.875135],[138.569637,-34.875105],[138.570563,-34.875021]]}},{"type":"Feature","properties":{"tier":"arterial"},"geometry":{"type":"LineString","coordinates":[[138.570907,-34.875139],[138.570104,-34.875178],[138.5691,-34.875227],[138.568725,-34.875246]]}},{"type":"Feature","properties":{"tier":"arterial"},"geometry":{"type":"LineString","coordinates":[[138.562716,-34.875447],[138.563123,-34.875424],[138.563814,-34.875394]]}},{"type":"Feature","properties":{"tier":"arterial"},"geometry":{"type":"LineString","coordinates":[[138.563833,-34.875476],[138.563679,-34.875485],[138.563185,-34.875507],[138.562722,-34.875527]]}},{"type":"Feature","properties":{"tier":"arterial"},"geometry":{"type":"LineString","coordinates":[[138.56248,-34.875457],[138.562716,-34.875447]]}},{"type":"Feature","properties":{"tier":"arterial"},"geometry":{"type":"LineString","coordinates":[[138.562722,-34.875527],[138.56248,-34.875539]]}},{"type":"Feature","properties":{"tier":"arterial"},"geometry":{"type":"LineString","coordinates":[[138.57108,-34.875124],[138.571049,-34.875127],[138.570907,-34.875139]]}},{"type":"Feature","properties":{"tier":"high"},"geometry":{"type":"LineString","coordinates":[[138.590196,-34.899058],[138.590874,-34.899012],[138.591183,-34.898991]]}},{"type":"Feature","properties":{"tier":"high"},"geometry":{"type":"LineString","coordinates":[[138.588825,-34.899174],[138.590196,-34.899058]]}},{"type":"Feature","properties":{"tier":"high"},"geometry":{"type":"LineString","coordinates":[[138.591235,-34.899101],[138.5909,-34.899124],[138.590842,-34.899126],[138.590187,-34.899178]]}},{"type":"Feature","properties":{"tier":"high"},"geometry":{"type":"LineString","coordinates":[[138.591183,-34.898991],[138.591923,-34.898946],[138.592361,-34.898921],[138.593322,-34.898863]]}},{"type":"Feature","properties":{"tier":"high"},"geometry":{"type":"LineString","coordinates":[[138.584062,-34.902768],[138.584001,-34.902815],[138.583833,-34.902948]]}},{"type":"Feature","properties":{"tier":"high"},"geometry":{"type":"LineString","coordinates":[[138.584124,-34.902721],[138.584062,-34.902768]]}},{"type":"Feature","properties":{"tier":"high"},"geometry":{"type":"LineString","coordinates":[[138.583946,-34.902648],[138.583988,-34.902613]]}},{"type":"Feature","properties":{"tier":"high"},"geometry":{"type":"LineString","coordinates":[[138.582524,-34.903961],[138.583521,-34.903021],[138.583813,-34.90276]]}},{"type":"Feature","properties":{"tier":"regional"},"geometry":{"type":"LineString","coordinates":[[138.584062,-34.902768],[138.583946,-34.902648]]}},{"type":"Feature","properties":{"tier":"arterial"},"geometry":{"type":"LineString","coordinates":[[138.584367,-34.878675],[138.584339,-34.878224],[138.584307,-34.877731],[138.584261,-34.877236],[138.584189,-34.876381],[138.584186,-34.876345],[138.584167,-34.876139],[138.584149,-34.875943],[138.584084,-34.875239],[138.584055,-34.87498]]}},{"type":"Feature","properties":{"tier":"arterial"},"geometry":{"type":"LineString","coordinates":[[138.593588,-34.880829],[138.593539,-34.880261],[138.593528,-34.880066],[138.593493,-34.879565],[138.593492,-34.87955],[138.593474,-34.879274],[138.593465,-34.879174],[138.59343,-34.878691],[138.593406,-34.878348],[138.593401,-34.878257],[138.593402,-34.878214],[138.593341,-34.87729],[138.593322,-34.87702],[138.593265,-34.876141]]}},{"type":"Feature","properties":{"tier":"arterial"},"geometry":{"type":"LineString","coordinates":[[138.593604,-34.881079],[138.593591,-34.880869],[138.593588,-34.880829]]}},{"type":"Feature","properties":{"tier":"arterial"},"geometry":{"type":"LineString","coordinates":[[138.562639,-34.883783],[138.563427,-34.884256]]}},{"type":"Feature","properties":{"tier":"arterial"},"geometry":{"type":"LineString","coordinates":[[138.56248,-34.883688],[138.562639,-34.883783]]}},{"type":"Feature","properties":{"tier":"arterial"},"geometry":{"type":"LineString","coordinates":[[138.562566,-34.883871],[138.56248,-34.88382]]}},{"type":"Feature","properties":{"tier":"arterial"},"geometry":{"type":"LineString","coordinates":[[138.563338,-34.884334],[138.56263,-34.883909]]}},{"type":"Feature","properties":{"tier":"arterial"},"geometry":{"type":"LineString","coordinates":[[138.563512,-34.884449],[138.563488,-34.884434],[138.563338,-34.884334]]}},{"type":"Feature","properties":{"tier":"arterial"},"geometry":{"type":"LineString","coordinates":[[138.563427,-34.884256],[138.563572,-34.884343],[138.563599,-34.88436],[138.56363,-34.884378]]}},{"type":"Feature","properties":{"tier":"regional"},"geometry":{"type":"LineString","coordinates":[[138.563419,-34.884627],[138.563351,-34.884685],[138.563291,-34.884707]]}},{"type":"Feature","properties":{"tier":"regional"},"geometry":{"type":"LineString","coordinates":[[138.563379,-34.884559],[138.563446,-34.884504],[138.563465,-34.884488],[138.563512,-34.884449]]}},{"type":"Feature","properties":{"tier":"arterial"},"geometry":{"type":"LineString","coordinates":[[138.56697,-34.886532],[138.567038,-34.886463]]}},{"type":"Feature","properties":{"tier":"arterial"},"geometry":{"type":"LineString","coordinates":[[138.56697,-34.886532],[138.566906,-34.886492]]}},{"type":"Feature","properties":{"tier":"arterial"},"geometry":{"type":"LineString","coordinates":[[138.569118,-34.887847],[138.567681,-34.886969]]}},{"type":"Feature","properties":{"tier":"arterial"},"geometry":{"type":"LineString","coordinates":[[138.565609,-34.885588],[138.566861,-34.886355],[138.567038,-34.886463]]}},{"type":"Feature","properties":{"tier":"arterial"},"geometry":{"type":"LineString","coordinates":[[138.584196,-34.87498],[138.584209,-34.875138]]}},{"type":"Feature","properties":{"tier":"arterial"},"geometry":{"type":"LineString","coordinates":[[138.574627,-34.87498],[138.573859,-34.875019],[138.573622,-34.875028],[138.573517,-34.875033]]}},{"type":"Feature","properties":{"tier":"arterial"},"geometry":{"type":"LineString","coordinates":[[138.569826,-34.888156],[138.56986,-34.888092],[138.569932,-34.887954],[138.570177,-34.887518],[138.570381,-34.887202],[138.57058,-34.88691],[138.570789,-34.886584],[138.570938,-34.886288],[138.571057,-34.886021],[138.571132,-34.885829],[138.571224,-34.885552],[138.571315,-34.885225],[138.571399,-34.884753],[138.571442,-34.884298],[138.571459,-34.883987],[138.571458,-34.883609],[138.571457,-34.883401],[138.571413,-34.882428]]}},{"type":"Feature","properties":{"tier":"high"},"geometry":{"type":"LineString","coordinates":[[138.56686,-34.899652],[138.566922,-34.899016],[138.566955,-34.898516],[138.566979,-34.898098],[138.567007,-34.897828],[138.567054,-34.897563],[138.567124,-34.897282],[138.567184,-34.897017],[138.567356,-34.896494],[138.567485,-34.896066],[138.56765,-34.89559],[138.567764,-34.895209],[138.568077,-34.894353],[138.568334,-34.893556],[138.56848,-34.893087],[138.56872,-34.892262],[138.569026,-34.891116],[138.569558,-34.889324],[138.569729,-34.888817],[138.569822,-34.888576],[138.569994,-34.888146],[138.570177,-34.887815],[138.570752,-34.886948],[138.570978,-34.886548],[138.571112,-34.886265],[138.571237,-34.885962],[138.571336,-34.885664],[138.571379,-34.885499],[138.571434,-34.885255],[138.571511,-34.884895],[138.571564,-34.88457],[138.571593,-34.884173],[138.571604,-34.883699],[138.571592,-34.88317],[138.571592,-34.882624],[138.571583,-34.881875],[138.571587,-34.881121],[138.571603,-34.880248],[138.571595,-34.879431],[138.571597,-34.878669],[138.571587,-34.877975],[138.57155,-34.876809],[138.571524,-34.876604],[138.571511,-34.876412]]}},{"type":"Feature","properties":{"tier":"high"},"geometry":{"type":"LineString","coordinates":[[138.56658,-34.900267],[138.566639,-34.900128],[138.566671,-34.899898],[138.566681,-34.89969],[138.566709,-34.899077],[138.566769,-34.898429],[138.56686,-34.897864]]}},{"type":"Feature","properties":{"tier":"arterial"},"geometry":{"type":"LineString","coordinates":[[138.56658,-34.900267],[138.566574,-34.899954],[138.566578,-34.899748],[138.566573,-34.899443],[138.566597,-34.898926],[138.566632,-34.898689],[138.566678,-34.898396],[138.566701,-34.89821],[138.566719,-34.898055],[138.566757,-34.897791],[138.566779,-34.897689],[138.566793,-34.897627],[138.566849,-34.897379],[138.567006,-34.896819],[138.56706,-34.896628]]}},{"type":"Feature","properties":{"tier":"arterial"},"geometry":{"type":"LineString","coordinates":[[138.56706,-34.896628],[138.567065,-34.896612],[138.56722,-34.896186],[138.567464,-34.895556],[138.567759,-34.894738],[138.567789,-34.894655],[138.567835,-34.894539],[138.567887,-34.894393],[138.568148,-34.893496],[138.568161,-34.893453],[138.568459,-34.892447],[138.56846,-34.892441],[138.568465,-34.892425],[138.568483,-34.892366]]}},{"type":"Feature","properties":{"tier":"arterial"},"geometry":{"type":"LineString","coordinates":[[138.569309,-34.889572],[138.56939,-34.889289],[138.569437,-34.889125],[138.56959,-34.888686]]}},{"type":"Feature","properties":{"tier":"arterial"},"geometry":{"type":"LineString","coordinates":[[138.56959,-34.888686],[138.569597,-34.88853],[138.569641,-34.888262],[138.56964,-34.888166]]}},{"type":"Feature","properties":{"tier":"arterial"},"geometry":{"type":"LineString","coordinates":[[138.569472,-34.887947],[138.569593,-34.887972],[138.569657,-34.887978],[138.569749,-34.887978],[138.569804,-34.887975],[138.569828,-34.887974],[138.569877,-34.887964],[138.569932,-34.887954]]}},{"type":"Feature","properties":{"tier":"arterial"},"geometry":{"type":"LineString","coordinates":[[138.566494,-34.902074],[138.566386,-34.902343],[138.566346,-34.902458],[138.566273,-34.902671],[138.566242,-34.902776],[138.5662,-34.902956],[138.566163,-34.903154]]}},{"type":"Feature","properties":{"tier":"high"},"geometry":{"type":"LineString","coordinates":[[138.567168,-34.902152],[138.566912,-34.902065],[138.566835,-34.902042],[138.566783,-34.902028],[138.566751,-34.902019],[138.566726,-34.902013],[138.566704,-34.902008],[138.566683,-34.902005],[138.566664,-34.902004],[138.566635,-34.902005],[138.566622,-34.902006],[138.56661,-34.902008],[138.566594,-34.902011],[138.566574,-34.902017],[138.566556,-34.902025],[138.56654,-34.902033],[138.566528,-34.90204],[138.566516,-34.90205],[138.566494,-34.902074]]}},{"type":"Feature","properties":{"tier":"arterial"},"geometry":{"type":"LineString","coordinates":[[138.565585,-34.906255],[138.565582,-34.90627]]}},{"type":"Feature","properties":{"tier":"arterial"},"geometry":{"type":"LineString","coordinates":[[138.565303,-34.90482],[138.565286,-34.904664],[138.565254,-34.904513],[138.565248,-34.904488],[138.565242,-34.904468],[138.565232,-34.904448],[138.565223,-34.904434],[138.565212,-34.904421],[138.565197,-34.904407],[138.565181,-34.904395],[138.56516,-34.904384],[138.565135,-34.904371]]}},{"type":"Feature","properties":{"tier":"arterial"},"geometry":{"type":"LineString","coordinates":[[138.56619,-34.90463],[138.566121,-34.904632],[138.566069,-34.904634],[138.566036,-34.904638],[138.566017,-34.90464],[138.565996,-34.904645],[138.56598,-34.90465],[138.565959,-34.904657],[138.565939,-34.904667],[138.565921,-34.904678],[138.565898,-34.904696],[138.565866,-34.904724]]}},{"type":"Feature","properties":{"tier":"arterial"},"geometry":{"type":"LineString","coordinates":[[138.565067,-34.90428],[138.565216,-34.904236],[138.565335,-34.904201],[138.565351,-34.904196],[138.565366,-34.90419],[138.565378,-34.904183],[138.565401,-34.904169],[138.565443,-34.90414]]}},{"type":"Feature","properties":{"tier":"arterial"},"geometry":{"type":"LineString","coordinates":[[138.565999,-34.904027],[138.566044,-34.904302],[138.56605,-34.904351],[138.566054,-34.904373],[138.566061,-34.904394],[138.566069,-34.90441],[138.566083,-34.904433],[138.566099,-34.904455],[138.566119,-34.904477],[138.566141,-34.904501]]}},{"type":"Feature","properties":{"tier":"high"},"geometry":{"type":"LineString","coordinates":[[138.565229,-34.90627],[138.565354,-34.905625],[138.565556,-34.904625],[138.565708,-34.903909],[138.56583,-34.90319],[138.565952,-34.902692],[138.56607,-34.902318],[138.566279,-34.901719],[138.566541,-34.901041],[138.566703,-34.900522],[138.566777,-34.900228],[138.566803,-34.900088],[138.566823,-34.899963],[138.56686,-34.899652]]}},{"type":"Feature","properties":{"tier":"arterial"},"geometry":{"type":"LineString","coordinates":[[138.567115,-34.900104],[138.567123,-34.900183],[138.567126,-34.9003],[138.567122,-34.900359],[138.567115,-34.900428],[138.567085,-34.900599],[138.567074,-34.900662],[138.566993,-34.900992],[138.566895,-34.901354],[138.566879,-34.901414]]}},{"type":"Feature","properties":{"tier":"high"},"geometry":{"type":"LineString","coordinates":[[138.565517,-34.900825],[138.566,-34.901032],[138.566059,-34.901054],[138.566106,-34.901069],[138.566164,-34.901085],[138.566201,-34.901094],[138.566225,-34.901099],[138.566238,-34.901101],[138.566252,-34.901103],[138.566262,-34.901104],[138.566271,-34.901105],[138.566278,-34.901104],[138.56629,-34.901103],[138.566302,-34.901101],[138.566312,-34.901098],[138.566323,-34.901094],[138.566333,-34.90109],[138.566342,-34.901085],[138.566351,-34.901079],[138.566359,-34.901074],[138.566366,-34.901067],[138.566374,-34.901058]]}},{"type":"Feature","properties":{"tier":"high"},"geometry":{"type":"LineString","coordinates":[[138.56302,-34.899013],[138.563356,-34.899243]]}},{"type":"Feature","properties":{"tier":"high"},"geometry":{"type":"LineString","coordinates":[[138.562607,-34.898741],[138.562884,-34.898929],[138.562912,-34.898948],[138.56302,-34.899013]]}},{"type":"Feature","properties":{"tier":"high"},"geometry":{"type":"LineString","coordinates":[[138.56302,-34.899013],[138.563002,-34.899029],[138.562986,-34.89904],[138.562972,-34.899049],[138.56296,-34.899055],[138.562945,-34.899061],[138.562913,-34.899071],[138.562877,-34.899082],[138.562849,-34.899089],[138.562812,-34.899098],[138.562781,-34.899104],[138.562741,-34.899109],[138.562709,-34.899112],[138.56267,-34.899113],[138.562637,-34.899113],[138.562604,-34.899111],[138.562571,-34.899108],[138.562545,-34.899104],[138.562519,-34.899099],[138.562497,-34.899093],[138.56248,-34.899087]]}},{"type":"Feature","properties":{"tier":"high"},"geometry":{"type":"LineString","coordinates":[[138.563063,-34.899458],[138.562998,-34.899417],[138.562973,-34.899378],[138.562945,-34.899309],[138.562938,-34.899281],[138.562933,-34.89926],[138.56293,-34.899232],[138.56293,-34.899206],[138.562931,-34.899179],[138.562933,-34.899158],[138.562936,-34.899143],[138.562941,-34.899127],[138.562947,-34.89911],[138.562952,-34.899097],[138.562964,-34.899074],[138.562972,-34.899064],[138.562982,-34.899051],[138.562993,-34.899039],[138.56302,-34.899013]]}},{"type":"Feature","properties":{"tier":"arterial"},"geometry":{"type":"LineString","coordinates":[[138.566374,-34.901058],[138.566434,-34.900883],[138.566519,-34.900586],[138.56658,-34.900267]]}},{"type":"Feature","properties":{"tier":"arterial"},"geometry":{"type":"LineString","coordinates":[[138.585448,-34.897327],[138.586795,-34.898221],[138.587698,-34.898907],[138.588033,-34.899189],[138.588102,-34.899243],[138.588187,-34.899307]]}},{"type":"Feature","properties":{"tier":"high"},"geometry":{"type":"LineString","coordinates":[[138.589199,-34.899249],[138.58882,-34.89929]]}},{"type":"Feature","properties":{"tier":"high"},"geometry":{"type":"LineString","coordinates":[[138.587565,-34.899577],[138.587689,-34.89952],[138.587763,-34.899491],[138.58793,-34.899408],[138.587952,-34.899399],[138.588074,-34.899352]]}},{"type":"Feature","properties":{"tier":"arterial"},"geometry":{"type":"LineString","coordinates":[[138.5883,-34.899529],[138.588207,-34.89945]]}},{"type":"Feature","properties":{"tier":"high"},"geometry":{"type":"LineString","coordinates":[[138.573229,-34.905811],[138.573366,-34.905903],[138.573555,-34.906029],[138.573922,-34.90627]]}},{"type":"Feature","properties":{"tier":"high"},"geometry":{"type":"LineString","coordinates":[[138.566681,-34.90155],[138.566771,-34.901601],[138.566971,-34.90171]]}},{"type":"Feature","properties":{"tier":"arterial"},"geometry":{"type":"LineString","coordinates":[[138.565743,-34.902767],[138.566065,-34.901899],[138.566142,-34.901694],[138.566149,-34.901674],[138.566159,-34.901649],[138.566197,-34.901547]]}},{"type":"Feature","properties":{"tier":"high"},"geometry":{"type":"LineString","coordinates":[[138.567168,-34.902152],[138.567075,-34.902073],[138.566997,-34.902013],[138.566883,-34.901937],[138.566736,-34.901848],[138.566706,-34.901831],[138.566604,-34.901772]]}},{"type":"Feature","properties":{"tier":"high"},"geometry":{"type":"LineString","coordinates":[[138.565517,-34.900825],[138.565838,-34.901057],[138.566162,-34.901259],[138.56619,-34.901276],[138.566278,-34.901331]]}},{"type":"Feature","properties":{"tier":"arterial"},"geometry":{"type":"LineString","coordinates":[[138.567244,-34.899002],[138.567223,-34.899491],[138.567179,-34.899792],[138.567115,-34.900104]]}},{"type":"Feature","properties":{"tier":"arterial"},"geometry":{"type":"LineString","coordinates":[[138.565999,-34.904027],[138.565942,-34.904327],[138.565936,-34.904358],[138.565924,-34.904422]]}},{"type":"Feature","properties":{"tier":"arterial"},"geometry":{"type":"LineString","coordinates":[[138.56619,-34.90463],[138.566034,-34.904563],[138.566004,-34.904552],[138.565975,-34.904541],[138.565905,-34.904519]]}},{"type":"Feature","properties":{"tier":"arterial"},"geometry":{"type":"LineString","coordinates":[[138.565303,-34.90482],[138.565363,-34.904507],[138.565369,-34.904475],[138.565388,-34.904397]]}},{"type":"Feature","properties":{"tier":"arterial"},"geometry":{"type":"LineString","coordinates":[[138.565067,-34.90428],[138.565305,-34.904297],[138.565336,-34.9043],[138.565409,-34.904305]]}},{"type":"Feature","properties":{"tier":"high"},"geometry":{"type":"LineString","coordinates":[[138.563132,-34.899617],[138.563143,-34.899551],[138.563063,-34.899458]]}},{"type":"Feature","properties":{"tier":"arterial"},"geometry":{"type":"LineString","coordinates":[[138.569472,-34.887947],[138.569755,-34.888113],[138.569767,-34.888121],[138.569826,-34.888156]]}},{"type":"Feature","properties":{"tier":"arterial"},"geometry":{"type":"LineString","coordinates":[[138.569254,-34.887819],[138.56944,-34.887928],[138.569472,-34.887947]]}},{"type":"Feature","properties":{"tier":"arterial"},"geometry":{"type":"LineString","coordinates":[[138.570707,-34.888781],[138.570413,-34.888616]]}},{"type":"Feature","properties":{"tier":"arterial"},"geometry":{"type":"LineString","coordinates":[[138.56959,-34.888686],[138.56967,-34.888455],[138.569724,-34.888336],[138.569743,-34.8883],[138.569772,-34.888248]]}},{"type":"Feature","properties":{"tier":"arterial"},"geometry":{"type":"LineString","coordinates":[[138.570373,-34.888163],[138.570353,-34.888192],[138.570278,-34.888307],[138.570261,-34.888337],[138.570226,-34.888391]]}},{"type":"Feature","properties":{"tier":"arterial"},"geometry":{"type":"LineString","coordinates":[[138.570857,-34.887496],[138.570715,-34.887632],[138.570554,-34.887851],[138.570482,-34.887983],[138.570373,-34.888163]]}},{"type":"Feature","properties":{"tier":"high"},"geometry":{"type":"LineString","coordinates":[[138.568755,-34.903357],[138.568766,-34.903308],[138.568745,-34.903261],[138.568751,-34.903218],[138.568753,-34.903184],[138.568771,-34.90316],[138.568784,-34.903143],[138.568795,-34.90313],[138.568816,-34.903106],[138.568856,-34.903063],[138.568873,-34.903048],[138.568885,-34.903039],[138.568901,-34.903028],[138.568922,-34.903015],[138.568975,-34.902982]]}},{"type":"Feature","properties":{"tier":"arterial"},"geometry":{"type":"LineString","coordinates":[[138.572024,-34.875059],[138.571737,-34.875076],[138.571719,-34.875077],[138.571631,-34.875083]]}},{"type":"Feature","properties":{"tier":"high"},"geometry":{"type":"LineString","coordinates":[[138.571232,-34.904481],[138.571291,-34.904521],[138.571335,-34.904551],[138.572285,-34.905181],[138.572306,-34.905194],[138.572402,-34.905258]]}},{"type":"Feature","properties":{"tier":"high"},"geometry":{"type":"LineString","coordinates":[[138.572402,-34.905258],[138.572459,-34.905297],[138.573229,-34.905811]]}},{"type":"Feature","properties":{"tier":"regional"},"geometry":{"type":"LineString","coordinates":[[138.572402,-34.905258],[138.572471,-34.905188],[138.572486,-34.905172],[138.57288,-34.90477],[138.573187,-34.904456],[138.573271,-34.904372]]}},{"type":"Feature","properties":{"tier":"high"},"geometry":{"type":"LineString","coordinates":[[138.573099,-34.90627],[138.57238,-34.905784],[138.572342,-34.905758],[138.572157,-34.905634],[138.572138,-34.905621],[138.572083,-34.905583]]}},{"type":"Feature","properties":{"tier":"arterial"},"geometry":{"type":"LineString","coordinates":[[138.571114,-34.875315],[138.571104,-34.875261],[138.571094,-34.875209],[138.571092,-34.875197],[138.57109,-34.875186],[138.57108,-34.875124]]}},{"type":"Feature","properties":{"tier":"high"},"geometry":{"type":"LineString","coordinates":[[138.583988,-34.902613],[138.584126,-34.902497]]}},{"type":"Feature","properties":{"tier":"high"},"geometry":{"type":"LineString","coordinates":[[138.583813,-34.90276],[138.58389,-34.902696],[138.583908,-34.902681],[138.583946,-34.902648]]}},{"type":"Feature","properties":{"tier":"arterial"},"geometry":{"type":"LineString","coordinates":[[138.563828,-34.884641],[138.56368,-34.884552],[138.563653,-34.884536],[138.563644,-34.884531],[138.563616,-34.884514]]}},{"type":"Feature","properties":{"tier":"arterial"},"geometry":{"type":"LineString","coordinates":[[138.569315,-34.891091],[138.569219,-34.891429],[138.568963,-34.892366],[138.568958,-34.892386],[138.568937,-34.892459]]}},{"type":"Feature","properties":{"tier":"arterial"},"geometry":{"type":"LineString","coordinates":[[138.567038,-34.886463],[138.567027,-34.886292],[138.56701,-34.886011],[138.566956,-34.885148]]}},{"type":"Feature","properties":{"tier":"arterial"},"geometry":{"type":"LineString","coordinates":[[138.588325,-34.899404],[138.588428,-34.899488],[138.588596,-34.899641],[138.588728,-34.899789]]}},{"type":"Feature","properties":{"tier":"high"},"geometry":{"type":"LineString","coordinates":[[138.588207,-34.89945],[138.588042,-34.899514]]}},{"type":"Feature","properties":{"tier":"high"},"geometry":{"type":"LineString","coordinates":[[138.584317,-34.902573],[138.584177,-34.90268],[138.584124,-34.902721]]}},{"type":"Feature","properties":{"tier":"regional"},"geometry":{"type":"LineString","coordinates":[[138.584124,-34.902721],[138.584179,-34.90277],[138.584269,-34.902904]]}},{"type":"Feature","properties":{"tier":"high"},"geometry":{"type":"LineString","coordinates":[[138.584126,-34.902497],[138.586173,-34.900727]]}},{"type":"Feature","properties":{"tier":"high"},"geometry":{"type":"LineString","coordinates":[[138.583833,-34.902948],[138.582479,-34.904133]]}},{"type":"Feature","properties":{"tier":"regional"},"geometry":{"type":"LineString","coordinates":[[138.584544,-34.903484],[138.584485,-34.90341],[138.584294,-34.903093]]}},{"type":"Feature","properties":{"tier":"arterial"},"geometry":{"type":"LineString","coordinates":[[138.571413,-34.882428],[138.571382,-34.881758]]}},{"type":"Feature","properties":{"tier":"arterial"},"geometry":{"type":"LineString","coordinates":[[138.571906,-34.882394],[138.571898,-34.883588]]}},{"type":"Feature","properties":{"tier":"regional"},"geometry":{"type":"LineString","coordinates":[[138.571322,-34.882423],[138.571145,-34.882428]]}},{"type":"Feature","properties":{"tier":"regional"},"geometry":{"type":"LineString","coordinates":[[138.572779,-34.882359],[138.57199,-34.882392],[138.571906,-34.882394]]}},{"type":"Feature","properties":{"tier":"arterial"},"geometry":{"type":"LineString","coordinates":[[138.593214,-34.875307],[138.593195,-34.875028],[138.593191,-34.87498]]}},{"type":"Feature","properties":{"tier":"arterial"},"geometry":{"type":"LineString","coordinates":[[138.565443,-34.90414],[138.565743,-34.902767]]}},{"type":"Feature","properties":{"tier":"arterial"},"geometry":{"type":"LineString","coordinates":[[138.563767,-34.904197],[138.563956,-34.904209],[138.56482,-34.904265]]}},{"type":"Feature","properties":{"tier":"arterial"},"geometry":{"type":"LineString","coordinates":[[138.566338,-34.876231],[138.566327,-34.876075],[138.566307,-34.875752]]}},{"type":"Feature","properties":{"tier":"arterial"},"geometry":{"type":"LineString","coordinates":[[138.568483,-34.892366],[138.568501,-34.892298],[138.568867,-34.891068],[138.568886,-34.891002],[138.569212,-34.889921],[138.569231,-34.889854],[138.569309,-34.889572]]}},{"type":"Feature","properties":{"tier":"arterial"},"geometry":{"type":"LineString","coordinates":[[138.568937,-34.892459],[138.568918,-34.892518],[138.568914,-34.892538],[138.568881,-34.892639]]}},{"type":"Feature","properties":{"tier":"regional"},"geometry":{"type":"LineString","coordinates":[[138.569691,-34.892846],[138.569464,-34.892704],[138.569237,-34.892572]]}},{"type":"Feature","properties":{"tier":"arterial"},"geometry":{"type":"LineString","coordinates":[[138.566163,-34.903154],[138.566061,-34.903695],[138.565999,-34.904027]]}},{"type":"Feature","properties":{"tier":"arterial"},"geometry":{"type":"LineString","coordinates":[[138.566604,-34.901772],[138.566554,-34.901902],[138.566494,-34.902074]]}},{"type":"Feature","properties":{"tier":"high"},"geometry":{"type":"LineString","coordinates":[[138.563356,-34.899243],[138.563474,-34.899322],[138.564136,-34.899764]]}},{"type":"Feature","properties":{"tier":"arterial"},"geometry":{"type":"LineString","coordinates":[[138.566278,-34.901331],[138.566324,-34.901201],[138.566374,-34.901058]]}},{"type":"Feature","properties":{"tier":"high"},"geometry":{"type":"LineString","coordinates":[[138.568323,-34.903073],[138.568223,-34.903007],[138.568062,-34.9029],[138.56797,-34.90284],[138.567764,-34.902687],[138.567699,-34.902635],[138.567629,-34.902583],[138.567582,-34.902543],[138.56752,-34.902481],[138.567424,-34.902393],[138.567323,-34.902301],[138.567168,-34.902152]]}},{"type":"Feature","properties":{"tier":"high"},"geometry":{"type":"LineString","coordinates":[[138.565947,-34.90141],[138.565485,-34.901155]]}},{"type":"Feature","properties":{"tier":"high"},"geometry":{"type":"LineString","coordinates":[[138.566197,-34.901547],[138.56611,-34.901498],[138.565947,-34.90141]]}},{"type":"Feature","properties":{"tier":"high"},"geometry":{"type":"LineString","coordinates":[[138.566971,-34.90171],[138.567533,-34.902044]]}},{"type":"Feature","properties":{"tier":"high"},"geometry":{"type":"LineString","coordinates":[[138.567533,-34.902044],[138.567623,-34.902105],[138.567811,-34.902232],[138.56799,-34.902347]]}},{"type":"Feature","properties":{"tier":"arterial"},"geometry":{"type":"LineString","coordinates":[[138.565924,-34.904422],[138.565993,-34.904443],[138.566065,-34.904469]]}},{"type":"Feature","properties":{"tier":"arterial"},"geometry":{"type":"LineString","coordinates":[[138.567148,-34.90513],[138.567574,-34.905411]]}},{"type":"Feature","properties":{"tier":"arterial"},"geometry":{"type":"LineString","coordinates":[[138.565866,-34.904724],[138.565826,-34.904959],[138.565621,-34.906053]]}},{"type":"Feature","properties":{"tier":"arterial"},"geometry":{"type":"LineString","coordinates":[[138.565905,-34.904519],[138.56589,-34.904597],[138.565866,-34.904724]]}},{"type":"Feature","properties":{"tier":"arterial"},"geometry":{"type":"LineString","coordinates":[[138.56482,-34.904265],[138.565067,-34.90428]]}},{"type":"Feature","properties":{"tier":"arterial"},"geometry":{"type":"LineString","coordinates":[[138.565028,-34.90627],[138.565247,-34.905116],[138.565303,-34.90482]]}},{"type":"Feature","properties":{"tier":"arterial"},"geometry":{"type":"LineString","coordinates":[[138.565388,-34.904397],[138.565371,-34.904394],[138.565317,-34.904388],[138.565135,-34.904371]]}},{"type":"Feature","properties":{"tier":"arterial"},"geometry":{"type":"LineString","coordinates":[[138.565621,-34.906053],[138.565585,-34.906255]]}},{"type":"Feature","properties":{"tier":"arterial"},"geometry":{"type":"LineString","coordinates":[[138.567507,-34.905475],[138.567081,-34.905189]]}},{"type":"Feature","properties":{"tier":"arterial"},"geometry":{"type":"LineString","coordinates":[[138.566906,-34.886492],[138.566799,-34.886428],[138.566524,-34.886264]]}},{"type":"Feature","properties":{"tier":"arterial"},"geometry":{"type":"LineString","coordinates":[[138.566524,-34.886264],[138.565331,-34.885554],[138.56443,-34.885011]]}},{"type":"Feature","properties":{"tier":"arterial"},"geometry":{"type":"LineString","coordinates":[[138.564515,-34.88493],[138.565412,-34.885468],[138.565477,-34.885508],[138.565609,-34.885588]]}},{"type":"Feature","properties":{"tier":"arterial"},"geometry":{"type":"LineString","coordinates":[[138.593265,-34.876141],[138.59326,-34.876],[138.593258,-34.875931]]}},{"type":"Feature","properties":{"tier":"arterial"},"geometry":{"type":"LineString","coordinates":[[138.566065,-34.904469],[138.566141,-34.904501]]}},{"type":"Feature","properties":{"tier":"high"},"geometry":{"type":"LineString","coordinates":[[138.56425,-34.900368],[138.563949,-34.900159]]}},{"type":"Feature","properties":{"tier":"high"},"geometry":{"type":"LineString","coordinates":[[138.565485,-34.901155],[138.565162,-34.900961],[138.564814,-34.900727]]}},{"type":"Feature","properties":{"tier":"high"},"geometry":{"type":"LineString","coordinates":[[138.571644,-34.876391],[138.571668,-34.876561],[138.571706,-34.877897],[138.571735,-34.879697],[138.571761,-34.881049],[138.571774,-34.881926],[138.571759,-34.883598]]}},{"type":"Feature","properties":{"tier":"high"},"geometry":{"type":"LineString","coordinates":[[138.571398,-34.87498],[138.571482,-34.875407],[138.571644,-34.876391]]}},{"type":"Feature","properties":{"tier":"high"},"geometry":{"type":"LineString","coordinates":[[138.571511,-34.876412],[138.571274,-34.87498]]}},{"type":"Feature","properties":{"tier":"high"},"geometry":{"type":"LineString","coordinates":[[138.571583,-34.881875],[138.571502,-34.881608],[138.571367,-34.879636]]}},{"type":"Feature","properties":{"tier":"high"},"geometry":{"type":"LineString","coordinates":[[138.571835,-34.876339],[138.571823,-34.876643],[138.571871,-34.878947]]}},{"type":"Feature","properties":{"tier":"regional"},"geometry":{"type":"LineString","coordinates":[[138.584588,-34.881841],[138.584521,-34.881844],[138.583408,-34.881905],[138.583179,-34.881919],[138.583122,-34.881922]]}},{"type":"Feature","properties":{"tier":"arterial"},"geometry":{"type":"LineString","coordinates":[[138.571684,-34.875305],[138.571723,-34.875501],[138.571772,-34.875973],[138.571835,-34.876339],[138.571908,-34.876546],[138.571922,-34.876939],[138.571966,-34.87754],[138.571967,-34.878034],[138.571978,-34.878379],[138.571982,-34.878935],[138.57196,-34.879561],[138.571955,-34.879865],[138.571927,-34.880845],[138.571929,-34.880994],[138.571909,-34.881743],[138.571909,-34.882218],[138.571906,-34.882394]]}},{"type":"Feature","properties":{"tier":"arterial"},"geometry":{"type":"LineString","coordinates":[[138.570076,-34.888664],[138.570066,-34.888681],[138.570022,-34.888771],[138.569949,-34.888988],[138.56993,-34.889052],[138.569847,-34.889314]]}},{"type":"Feature","properties":{"tier":"arterial"},"geometry":{"type":"LineString","coordinates":[[138.5705,-34.888553],[138.570581,-34.888601],[138.570672,-34.888656],[138.571025,-34.8889],[138.57115,-34.889029]]}},{"type":"Feature","properties":{"tier":"regional"},"geometry":{"type":"LineString","coordinates":[[138.569237,-34.892572],[138.569111,-34.892513],[138.569045,-34.892485],[138.569016,-34.892475],[138.568937,-34.892459]]}},{"type":"Feature","properties":{"tier":"arterial"},"geometry":{"type":"LineString","coordinates":[[138.566193,-34.904524],[138.566284,-34.904567],[138.566387,-34.904621],[138.566456,-34.904664],[138.5668,-34.904893],[138.567148,-34.90513]]}},{"type":"Feature","properties":{"tier":"high"},"geometry":{"type":"LineString","coordinates":[[138.579842,-34.90612],[138.580148,-34.905979],[138.580431,-34.905731],[138.580516,-34.905698],[138.580576,-34.905704],[138.58063,-34.905738]]}},{"type":"Feature","properties":{"tier":"high"},"geometry":{"type":"LineString","coordinates":[[138.591923,-34.898946],[138.592153,-34.898981],[138.592687,-34.898948],[138.592719,-34.898976],[138.592725,-34.899013]]}},{"type":"Feature","properties":{"tier":"high"},"geometry":{"type":"LineString","coordinates":[[138.593462,-34.898959],[138.593322,-34.898863]]}},{"type":"Feature","properties":{"tier":"high"},"geometry":{"type":"LineString","coordinates":[[138.591707,-34.899074],[138.591512,-34.899028],[138.591257,-34.899041],[138.591206,-34.89902],[138.591183,-34.898991]]}},{"type":"Feature","properties":{"tier":"high"},"geometry":{"type":"LineString","coordinates":[[138.590842,-34.899126],[138.590586,-34.899091],[138.590266,-34.899111],[138.59022,-34.899093],[138.590196,-34.899058]]}},{"type":"Feature","properties":{"tier":"arterial"},"geometry":{"type":"LineString","coordinates":[[138.589837,-34.902568],[138.589953,-34.902856],[138.589965,-34.902889],[138.589995,-34.90297]]}},{"type":"Feature","properties":{"tier":"arterial"},"geometry":{"type":"LineString","coordinates":[[138.590067,-34.903226],[138.590463,-34.904331]]}},{"type":"Feature","properties":{"tier":"arterial"},"geometry":{"type":"LineString","coordinates":[[138.590948,-34.905678],[138.590964,-34.905723],[138.591162,-34.906236]]}},{"type":"Feature","properties":{"tier":"high"},"geometry":{"type":"LineString","coordinates":[[138.586293,-34.900825],[138.585775,-34.901286],[138.584317,-34.902573]]}},{"type":"Feature","properties":{"tier":"arterial"},"geometry":{"type":"LineString","coordinates":[[138.567295,-34.897959],[138.567247,-34.898418],[138.567244,-34.899002]]}},{"type":"Feature","properties":{"tier":"high"},"geometry":{"type":"LineString","coordinates":[[138.571232,-34.904481],[138.570972,-34.904738],[138.570904,-34.904805]]}},{"type":"Feature","properties":{"tier":"high"},"geometry":{"type":"LineString","coordinates":[[138.57011,-34.903736],[138.56988,-34.903992],[138.569849,-34.904024],[138.569799,-34.904078]]}},{"type":"Feature","properties":{"tier":"high"},"geometry":{"type":"LineString","coordinates":[[138.579671,-34.90627],[138.579698,-34.906246],[138.579842,-34.90612],[138.579989,-34.905992],[138.580087,-34.905906]]}},{"type":"Feature","properties":{"tier":"regional"},"geometry":{"type":"LineString","coordinates":[[138.583378,-34.90223],[138.583162,-34.902071]]}},{"type":"Feature","properties":{"tier":"regional"},"geometry":{"type":"LineString","coordinates":[[138.583435,-34.902216],[138.583509,-34.90225],[138.58359,-34.902291],[138.583667,-34.902353],[138.583791,-34.902457],[138.583832,-34.90249]]}},{"type":"Feature","properties":{"tier":"arterial"},"geometry":{"type":"LineString","coordinates":[[138.584917,-34.896948],[138.584972,-34.896942],[138.585059,-34.896941],[138.585132,-34.896926],[138.585199,-34.896886]]}},{"type":"Feature","properties":{"tier":"arterial"},"geometry":{"type":"LineString","coordinates":[[138.585466,-34.896414],[138.585412,-34.896755],[138.585285,-34.897004],[138.585214,-34.897096],[138.585159,-34.897122]]}},{"type":"Feature","properties":{"tier":"arterial"},"geometry":{"type":"LineString","coordinates":[[138.585159,-34.897122],[138.585156,-34.89706],[138.585199,-34.896886]]}},{"type":"Feature","properties":{"tier":"arterial"},"geometry":{"type":"LineString","coordinates":[[138.584917,-34.896948],[138.585159,-34.897122]]}},{"type":"Feature","properties":{"tier":"arterial"},"geometry":{"type":"LineString","coordinates":[[138.585159,-34.897122],[138.585049,-34.897115],[138.584965,-34.8971],[138.584873,-34.897075]]}},{"type":"Feature","properties":{"tier":"arterial"},"geometry":{"type":"LineString","coordinates":[[138.585159,-34.897122],[138.585218,-34.897165],[138.585448,-34.897327]]}},{"type":"Feature","properties":{"tier":"arterial"},"geometry":{"type":"LineString","coordinates":[[138.588074,-34.899352],[138.587987,-34.899284],[138.587742,-34.899104],[138.587624,-34.899016],[138.586969,-34.89853],[138.585994,-34.897927],[138.585523,-34.897603],[138.585483,-34.897574]]}},{"type":"Feature","properties":{"tier":"arterial"},"geometry":{"type":"LineString","coordinates":[[138.585199,-34.896886],[138.585223,-34.896795],[138.585313,-34.896411]]}},{"type":"Feature","properties":{"tier":"arterial"},"geometry":{"type":"LineString","coordinates":[[138.585346,-34.896271],[138.585364,-34.896183],[138.585468,-34.895652],[138.585482,-34.895581],[138.585505,-34.895439],[138.585503,-34.895242],[138.585495,-34.895071],[138.585461,-34.894534],[138.585449,-34.894358],[138.58541,-34.8938],[138.585389,-34.89349],[138.585371,-34.89323],[138.58536,-34.893076],[138.585345,-34.892835],[138.585341,-34.892757],[138.585321,-34.892438],[138.585316,-34.89236],[138.5853,-34.892047],[138.585241,-34.891249],[138.585199,-34.890607],[138.585187,-34.890415],[138.585149,-34.889851],[138.585122,-34.889455]]}},{"type":"Feature","properties":{"tier":"arterial"},"geometry":{"type":"LineString","coordinates":[[138.585313,-34.896411],[138.585346,-34.896271]]}},{"type":"Feature","properties":{"tier":"arterial"},"geometry":{"type":"LineString","coordinates":[[138.585299,-34.897424],[138.585148,-34.8973],[138.585095,-34.897256],[138.584873,-34.897075]]}},{"type":"Feature","properties":{"tier":"arterial"},"geometry":{"type":"LineString","coordinates":[[138.585483,-34.897574],[138.585299,-34.897424]]}},{"type":"Feature","properties":{"tier":"arterial"},"geometry":{"type":"LineString","coordinates":[[138.562726,-34.904211],[138.56248,-34.904195]]}},{"type":"Feature","properties":{"tier":"arterial"},"geometry":{"type":"LineString","coordinates":[[138.562735,-34.904128],[138.56327,-34.904162],[138.563505,-34.904183]]}},{"type":"Feature","properties":{"tier":"arterial"},"geometry":{"type":"LineString","coordinates":[[138.563495,-34.904262],[138.563262,-34.904246],[138.562726,-34.904211]]}},{"type":"Feature","properties":{"tier":"arterial"},"geometry":{"type":"LineString","coordinates":[[138.563757,-34.904278],[138.563495,-34.904262]]}},{"type":"Feature","properties":{"tier":"arterial"},"geometry":{"type":"LineString","coordinates":[[138.563505,-34.904183],[138.563767,-34.904197]]}},{"type":"Feature","properties":{"tier":"arterial"},"geometry":{"type":"LineString","coordinates":[[138.567574,-34.905411],[138.568347,-34.905916]]}},{"type":"Feature","properties":{"tier":"arterial"},"geometry":{"type":"LineString","coordinates":[[138.568287,-34.905991],[138.567507,-34.905475]]}},{"type":"Feature","properties":{"tier":"arterial"},"geometry":{"type":"LineString","coordinates":[[138.568347,-34.905916],[138.568877,-34.90627]]}},{"type":"Feature","properties":{"tier":"arterial"},"geometry":{"type":"LineString","coordinates":[[138.568701,-34.90627],[138.568287,-34.905991]]}},{"type":"Feature","properties":{"tier":"arterial"},"geometry":{"type":"LineString","coordinates":[[138.567081,-34.905189],[138.566763,-34.904986]]}},{"type":"Feature","properties":{"tier":"high"},"geometry":{"type":"LineString","coordinates":[[138.564814,-34.900727],[138.564521,-34.900538],[138.56425,-34.900368]]}},{"type":"Feature","properties":{"tier":"regional"},"geometry":{"type":"LineString","coordinates":[[138.584553,-34.904092],[138.584604,-34.90392],[138.584613,-34.903833],[138.584608,-34.903748]]}},{"type":"Feature","properties":{"tier":"regional"},"geometry":{"type":"LineString","coordinates":[[138.584608,-34.903748],[138.584598,-34.903638],[138.584575,-34.903562],[138.584544,-34.903484]]}},{"type":"Feature","properties":{"tier":"high"},"geometry":{"type":"LineString","coordinates":[[138.588187,-34.899307],[138.588316,-34.899265]]}},{"type":"Feature","properties":{"tier":"high"},"geometry":{"type":"LineString","coordinates":[[138.589678,-34.899212],[138.589199,-34.899249]]}},{"type":"Feature","properties":{"tier":"arterial"},"geometry":{"type":"LineString","coordinates":[[138.584588,-34.881841],[138.584567,-34.881473],[138.584503,-34.880657],[138.584479,-34.880353],[138.584459,-34.88001],[138.58444,-34.879685],[138.584422,-34.87945],[138.584403,-34.879182],[138.584367,-34.878675]]}},{"type":"Feature","properties":{"tier":"arterial"},"geometry":{"type":"LineString","coordinates":[[138.584669,-34.881895],[138.584704,-34.88237],[138.584714,-34.882497],[138.584748,-34.88295],[138.584768,-34.883235],[138.584773,-34.883305],[138.584801,-34.883692],[138.584839,-34.884222],[138.584865,-34.884582],[138.584881,-34.884794],[138.584886,-34.88486],[138.584908,-34.885152],[138.584947,-34.885722],[138.584959,-34.8859],[138.585004,-34.886558],[138.585009,-34.886633],[138.585014,-34.886707],[138.58502,-34.886798],[138.585039,-34.887097],[138.585044,-34.887178],[138.585067,-34.88757],[138.585074,-34.887698],[138.585087,-34.887924],[138.585097,-34.888072],[138.585134,-34.888622],[138.585161,-34.889032],[138.585168,-34.889108],[138.585191,-34.889401],[138.585195,-34.889452],[138.58522,-34.889847],[138.585234,-34.890066],[138.585263,-34.890472],[138.585271,-34.890603],[138.585309,-34.891216],[138.58536,-34.892043],[138.585387,-34.892436],[138.585403,-34.892663],[138.58541,-34.892753],[138.585446,-34.893218],[138.585451,-34.893297],[138.585479,-34.893786],[138.585522,-34.894359],[138.585534,-34.89453],[138.585571,-34.895063],[138.585567,-34.895237],[138.585567,-34.895484],[138.585559,-34.895656],[138.585558,-34.895688],[138.585545,-34.89579]]}},{"type":"Feature","properties":{"tier":"arterial"},"geometry":{"type":"LineString","coordinates":[[138.584658,-34.881749],[138.584669,-34.881895]]}},{"type":"Feature","properties":{"tier":"arterial"},"geometry":{"type":"LineString","coordinates":[[138.585523,-34.897603],[138.585287,-34.897348],[138.585243,-34.897294],[138.585205,-34.897235],[138.585181,-34.897192],[138.585159,-34.897122]]}},{"type":"Feature","properties":{"tier":"high"},"geometry":{"type":"LineString","coordinates":[[138.580428,-34.90561],[138.580472,-34.90542]]}},{"type":"Feature","properties":{"tier":"high"},"geometry":{"type":"LineString","coordinates":[[138.580087,-34.905906],[138.580428,-34.90561],[138.580573,-34.905483],[138.58071,-34.905369],[138.580936,-34.90519],[138.581356,-34.904967],[138.581663,-34.904712]]}},{"type":"Feature","properties":{"tier":"arterial"},"geometry":{"type":"LineString","coordinates":[[138.573859,-34.875019],[138.573808,-34.87498]]}},{"type":"Feature","properties":{"tier":"arterial"},"geometry":{"type":"LineString","coordinates":[[138.565409,-34.904305],[138.565467,-34.904313],[138.565527,-34.904321]]}},{"type":"Feature","properties":{"tier":"arterial"},"geometry":{"type":"LineString","coordinates":[[138.565818,-34.904389],[138.565924,-34.904422]]}},{"type":"Feature","properties":{"tier":"high"},"geometry":{"type":"LineString","coordinates":[[138.566278,-34.901331],[138.566332,-34.901362]]}},{"type":"Feature","properties":{"tier":"high"},"geometry":{"type":"LineString","coordinates":[[138.566245,-34.901574],[138.566197,-34.901547]]}},{"type":"Feature","properties":{"tier":"high"},"geometry":{"type":"LineString","coordinates":[[138.5666,-34.901511],[138.566681,-34.90155]]}},{"type":"Feature","properties":{"tier":"high"},"geometry":{"type":"LineString","coordinates":[[138.566604,-34.901772],[138.566526,-34.901731]]}},{"type":"Feature","properties":{"tier":"arterial"},"geometry":{"type":"LineString","coordinates":[[138.566879,-34.901414],[138.566875,-34.901428],[138.566867,-34.901458],[138.566856,-34.901504],[138.566847,-34.901535],[138.566841,-34.90156],[138.56684,-34.901576],[138.566841,-34.901591],[138.566846,-34.901604],[138.566854,-34.901616],[138.566865,-34.901632],[138.566881,-34.901647],[138.566923,-34.901678],[138.566971,-34.90171]]}},{"type":"Feature","properties":{"tier":"arterial"},"geometry":{"type":"LineString","coordinates":[[138.565388,-34.904397],[138.565409,-34.904305]]}},{"type":"Feature","properties":{"tier":"arterial"},"geometry":{"type":"LineString","coordinates":[[138.565512,-34.90442],[138.56544,-34.904406],[138.565388,-34.904397]]}},{"type":"Feature","properties":{"tier":"arterial"},"geometry":{"type":"LineString","coordinates":[[138.565924,-34.904422],[138.565905,-34.904519]]}},{"type":"Feature","properties":{"tier":"arterial"},"geometry":{"type":"LineString","coordinates":[[138.565905,-34.904519],[138.565802,-34.904489]]}},{"type":"Feature","properties":{"tier":"arterial"},"geometry":{"type":"LineString","coordinates":[[138.584367,-34.878675],[138.58444,-34.878693]]}},{"type":"Feature","properties":{"tier":"arterial"},"geometry":{"type":"LineString","coordinates":[[138.593258,-34.875931],[138.593214,-34.875307]]}},{"type":"Feature","properties":{"tier":"high"},"geometry":{"type":"LineString","coordinates":[[138.567818,-34.895606],[138.567479,-34.896536],[138.567343,-34.897003],[138.567264,-34.897305],[138.567217,-34.897598],[138.567154,-34.898082]]}},{"type":"Feature","properties":{"tier":"arterial"},"geometry":{"type":"LineString","coordinates":[[138.566585,-34.875351],[138.566443,-34.875406],[138.566408,-34.875438],[138.566354,-34.875489],[138.566334,-34.875546]]}},{"type":"Feature","properties":{"tier":"arterial"},"geometry":{"type":"LineString","coordinates":[[138.563957,-34.884373],[138.563907,-34.884435],[138.563907,-34.884462],[138.563907,-34.884488],[138.563938,-34.884572]]}},{"type":"Feature","properties":{"tier":"regional"},"geometry":{"type":"LineString","coordinates":[[138.582587,-34.881956],[138.582686,-34.881914],[138.582779,-34.881852],[138.5828,-34.881816],[138.582839,-34.881744]]}},{"type":"Feature","properties":{"tier":"regional"},"geometry":{"type":"LineString","coordinates":[[138.582853,-34.881944],[138.582756,-34.881949],[138.582587,-34.881956],[138.5812,-34.882018],[138.581053,-34.882025],[138.580028,-34.882076],[138.578374,-34.882158],[138.577402,-34.882197],[138.577277,-34.882214]]}},{"type":"Feature","properties":{"tier":"arterial"},"geometry":{"type":"LineString","coordinates":[[138.567681,-34.886969],[138.567232,-34.886688],[138.56697,-34.886532]]}},{"type":"Feature","properties":{"tier":"arterial"},"geometry":{"type":"LineString","coordinates":[[138.567038,-34.886463],[138.567744,-34.886898]]}},{"type":"Feature","properties":{"tier":"arterial"},"geometry":{"type":"LineString","coordinates":[[138.56263,-34.883909],[138.562566,-34.883871]]}},{"type":"Feature","properties":{"tier":"high"},"geometry":{"type":"LineString","coordinates":[[138.571871,-34.878947],[138.571843,-34.879586],[138.571735,-34.879697]]}},{"type":"Feature","properties":{"tier":"high"},"geometry":{"type":"LineString","coordinates":[[138.56686,-34.897864],[138.566893,-34.897606],[138.566947,-34.897333],[138.567045,-34.896984],[138.567146,-34.896741],[138.567485,-34.896066]]}},{"type":"Feature","properties":{"tier":"arterial"},"geometry":{"type":"LineString","coordinates":[[138.584209,-34.875138],[138.584267,-34.875972]]}},{"type":"Feature","properties":{"tier":"arterial"},"geometry":{"type":"LineString","coordinates":[[138.585545,-34.89579],[138.585494,-34.896193],[138.585466,-34.896414]]}},{"type":"Feature","properties":{"tier":"arterial"},"geometry":{"type":"LineString","coordinates":[[138.582147,-34.895634],[138.582018,-34.895508]]}},{"type":"Feature","properties":{"tier":"arterial"},"geometry":{"type":"LineString","coordinates":[[138.582018,-34.895508],[138.582191,-34.895526]]}},{"type":"Feature","properties":{"tier":"high"},"geometry":{"type":"LineString","coordinates":[[138.56799,-34.902347],[138.568869,-34.902913],[138.568975,-34.902982]]}}]}
