{"type":"FeatureCollection","features":[{"type":"Feature","properties":{"tier":"arterial"},"geometry":{"type":"LineString","coordinates":[[138.603075,-33.205342],[138.603044,-33.205394],[138.602904,-33.205572]]}},{"type":"Feature","properties":{"tier":"arterial"},"geometry":{"type":"LineString","coordinates":[[138.609845,-33.191784],[138.610009,-33.191107],[138.61028,-33.188991]]}},{"type":"Feature","properties":{"tier":"regional"},"geometry":{"type":"LineString","coordinates":[[138.624693,-33.208069],[138.624708,-33.207962],[138.624703,-33.207882],[138.624682,-33.207783],[138.624648,-33.207695],[138.624642,-33.207679],[138.624583,-33.207552],[138.624513,-33.207449],[138.624429,-33.207349],[138.620643,-33.202957],[138.619765,-33.201911],[138.619689,-33.201791],[138.619626,-33.201657],[138.619587,-33.201507],[138.61954,-33.201257],[138.619314,-33.200021],[138.619276,-33.199889],[138.619214,-33.199771],[138.619133,-33.199679],[138.619027,-33.199586],[138.618848,-33.199469],[138.618477,-33.199239],[138.617877,-33.198884],[138.617636,-33.198745],[138.617515,-33.198682],[138.617387,-33.198631],[138.616541,-33.198368],[138.616404,-33.198305],[138.61631,-33.198245],[138.616233,-33.19817],[138.616186,-33.198102],[138.616142,-33.198029],[138.616104,-33.197923],[138.616075,-33.197799],[138.615996,-33.196897],[138.615964,-33.196806],[138.615903,-33.196721],[138.61575,-33.196598],[138.615605,-33.196526],[138.614421,-33.196252],[138.614352,-33.196236],[138.614012,-33.196156],[138.613775,-33.196087],[138.613628,-33.196029],[138.613493,-33.195963],[138.613318,-33.195861],[138.613154,-33.195726],[138.613004,-33.195594],[138.612945,-33.19552],[138.612869,-33.195381],[138.612814,-33.195228],[138.612781,-33.195071],[138.612757,-33.194869],[138.612738,-33.193583],[138.61271,-33.193446],[138.612632,-33.193282],[138.612551,-33.193155],[138.612423,-33.193015],[138.612247,-33.192884],[138.612059,-33.19278],[138.611851,-33.192704],[138.611644,-33.192657],[138.611285,-33.192581],[138.611059,-33.192522],[138.610989,-33.192496],[138.610908,-33.192466],[138.610731,-33.192378],[138.61054,-33.19227],[138.610393,-33.192156],[138.610131,-33.191949],[138.609965,-33.191842],[138.609845,-33.191784]]}},{"type":"Feature","properties":{"tier":"arterial"},"geometry":{"type":"LineString","coordinates":[[138.602605,-33.205302],[138.601783,-33.205257],[138.600257,-33.205175],[138.598526,-33.205051],[138.597781,-33.205003],[138.596983,-33.204951],[138.596867,-33.204943]]}},{"type":"Feature","properties":{"tier":"arterial"},"geometry":{"type":"LineString","coordinates":[[138.930793,-33.130308],[138.930683,-33.130016],[138.930581,-33.129685],[138.93048,-33.12929],[138.93034,-33.128616],[138.930089,-33.127415],[138.926956,-33.112391],[138.926723,-33.111104],[138.925908,-33.106611],[138.925526,-33.104211],[138.925371,-33.103439],[138.925024,-33.102554],[138.924681,-33.101988],[138.9242,-33.1013],[138.923531,-33.100636],[138.922775,-33.100021],[138.922329,-33.099752],[138.917855,-33.097296],[138.91724,-33.096919],[138.916691,-33.096506],[138.915952,-33.09584],[138.914512,-33.093804],[138.913709,-33.092841],[138.9134,-33.092556],[138.913119,-33.092295],[138.912116,-33.091652],[138.911386,-33.09131],[138.910771,-33.091092],[138.909783,-33.090806],[138.9081,-33.090422],[138.907283,-33.090159],[138.906299,-33.089761],[138.906123,-33.089668],[138.905515,-33.089347],[138.904831,-33.088881],[138.904159,-33.088297],[138.896932,-33.080235],[138.893671,-33.076538],[138.892838,-33.075014],[138.892459,-33.073493],[138.891948,-33.072168],[138.891911,-33.072072],[138.891207,-33.07113],[138.885362,-33.065706],[138.88271,-33.0628],[138.880959,-33.061045],[138.876736,-33.057657],[138.875547,-33.056689],[138.871207,-33.053156],[138.869552,-33.051808],[138.866316,-33.048772],[138.865139,-33.047728],[138.864269,-33.047141],[138.862949,-33.046533],[138.86198,-33.046077],[138.861597,-33.045851],[138.861199,-33.045567],[138.860786,-33.045157],[138.860329,-33.044557],[138.860186,-33.044255],[138.860013,-33.043799],[138.859926,-33.043395],[138.85987,-33.042971],[138.859827,-33.042205],[138.859613,-33.039486],[138.859423,-33.037816],[138.859149,-33.036145],[138.857544,-33.029223],[138.854849,-33.017788],[138.853418,-33.011618],[138.850694,-32.99998]]}},{"type":"Feature","properties":{"tier":"regional"},"geometry":{"type":"LineString","coordinates":[[138.922782,-33.153347],[138.922607,-33.153267],[138.922422,-33.153182],[138.920984,-33.152532],[138.920781,-33.152432],[138.920375,-33.152229],[138.920068,-33.152119],[138.92,-33.152093],[138.91967,-33.151963],[138.919127,-33.151738],[138.918596,-33.151537]]}},{"type":"Feature","properties":{"tier":"regional"},"geometry":{"type":"LineString","coordinates":[[138.922782,-33.153347],[138.923634,-33.153721],[138.924029,-33.153875],[138.924413,-33.153925],[138.924843,-33.153921],[138.925581,-33.153821],[138.927202,-33.153415],[138.935077,-33.151443],[138.945787,-33.149203],[138.947162,-33.148915],[138.956359,-33.146989],[138.973191,-33.143465],[138.986045,-33.140773],[138.986477,-33.140702],[138.986941,-33.140658],[138.989671,-33.140655],[139.00002,-33.14074]]}},{"type":"Feature","properties":{"tier":"arterial"},"geometry":{"type":"LineString","coordinates":[[138.603242,-33.205127],[138.603351,-33.205138],[138.603534,-33.205156]]}},{"type":"Feature","properties":{"tier":"arterial"},"geometry":{"type":"LineString","coordinates":[[138.607601,-33.205607],[138.607409,-33.205635],[138.607158,-33.20569],[138.607076,-33.205728]]}},{"type":"Feature","properties":{"tier":"arterial"},"geometry":{"type":"LineString","coordinates":[[138.603257,-33.205518],[138.603124,-33.205515],[138.603034,-33.205526],[138.602904,-33.205572]]}},{"type":"Feature","properties":{"tier":"arterial"},"geometry":{"type":"LineString","coordinates":[[138.607601,-33.205607],[138.608217,-33.205638],[138.608294,-33.205646],[138.608966,-33.205693],[138.609408,-33.205722],[138.609793,-33.205741],[138.609871,-33.205745],[138.609969,-33.20575],[138.610407,-33.205767]]}},{"type":"Feature","properties":{"tier":"high"},"geometry":{"type":"LineString","coordinates":[[138.883953,-33.228768],[138.884975,-33.227973],[138.885735,-33.227386],[138.886542,-33.226763],[138.886937,-33.226457],[138.887211,-33.226245],[138.887885,-33.22566]]}},{"type":"Feature","properties":{"tier":"high"},"geometry":{"type":"LineString","coordinates":[[138.934227,-33.135146],[138.934227,-33.134926],[138.934264,-33.134747],[138.934269,-33.134646],[138.934254,-33.134527],[138.934223,-33.134413],[138.934165,-33.134202]]}},{"type":"Feature","properties":{"tier":"arterial"},"geometry":{"type":"LineString","coordinates":[[138.596389,-33.196038],[138.597643,-33.19876],[138.597744,-33.199015],[138.597827,-33.199283],[138.597957,-33.199841],[138.598089,-33.200517],[138.598173,-33.200934],[138.598349,-33.201924],[138.598415,-33.20229]]}},{"type":"Feature","properties":{"tier":"regional"},"geometry":{"type":"LineString","coordinates":[[138.612945,-33.19552],[138.612873,-33.195549],[138.610535,-33.196495],[138.610022,-33.19672],[138.608783,-33.197218],[138.607421,-33.197835]]}},{"type":"Feature","properties":{"tier":"high"},"geometry":{"type":"LineString","coordinates":[[138.899052,-33.50002],[138.89901,-33.499591],[138.89885,-33.498593],[138.898559,-33.497641],[138.897149,-33.494245],[138.896828,-33.493132],[138.896264,-33.490295],[138.896248,-33.490215],[138.895565,-33.486785],[138.895276,-33.485818],[138.89495,-33.484911],[138.894507,-33.483939],[138.893988,-33.48287],[138.893815,-33.482218],[138.893777,-33.481648],[138.89384,-33.481017],[138.894204,-33.47962],[138.89424,-33.479317],[138.894261,-33.47907],[138.894264,-33.479014],[138.894267,-33.478972],[138.89426,-33.478874],[138.894243,-33.478626],[138.894228,-33.478487],[138.894202,-33.478318],[138.894154,-33.478079],[138.894102,-33.47788],[138.893984,-33.477508],[138.893612,-33.476527],[138.89322,-33.475444],[138.892477,-33.473344],[138.892049,-33.47214],[138.891352,-33.471034],[138.89116,-33.470705],[138.890997,-33.470407],[138.890896,-33.470162],[138.890803,-33.469876],[138.890606,-33.469266],[138.890424,-33.468688],[138.890021,-33.467337],[138.889601,-33.465992],[138.889291,-33.464828],[138.889252,-33.464437],[138.889259,-33.46413],[138.88929,-33.463806],[138.889368,-33.463538],[138.889554,-33.463024],[138.8897,-33.462677],[138.88984,-33.462421],[138.890092,-33.462058],[138.890455,-33.461527],[138.890767,-33.460979],[138.890952,-33.460521],[138.891581,-33.458804],[138.892623,-33.455854],[138.893324,-33.453869],[138.893564,-33.453327],[138.894324,-33.451772],[138.894551,-33.451344],[138.894803,-33.450975],[138.895219,-33.450466],[138.896401,-33.449047],[138.897588,-33.447623],[138.898048,-33.447012],[138.89827,-33.446542],[138.898696,-33.445402],[138.898834,-33.444979],[138.898894,-33.44458],[138.898895,-33.444247],[138.898852,-33.443672],[138.898389,-33.439705],[138.897258,-33.435727],[138.89705,-33.435187],[138.896802,-33.434734],[138.896353,-33.434148],[138.893044,-33.431084],[138.892503,-33.430445],[138.892203,-33.429967],[138.891886,-33.429084],[138.891842,-33.428688],[138.891831,-33.428376],[138.891786,-33.427118],[138.891823,-33.426788],[138.892117,-33.42519]]}},{"type":"Feature","properties":{"tier":"high"},"geometry":{"type":"LineString","coordinates":[[138.955944,-32.99998],[138.955528,-33.001028],[138.951733,-33.010692],[138.949396,-33.01664],[138.949375,-33.016687],[138.949104,-33.017372],[138.948921,-33.017871],[138.948767,-33.0184],[138.948689,-33.018817],[138.948649,-33.019153],[138.947542,-33.035164],[138.946096,-33.056081],[138.945102,-33.070401],[138.944957,-33.07249],[138.944841,-33.074169],[138.944049,-33.085645],[138.943806,-33.090148],[138.943563,-33.094418],[138.943508,-33.095386],[138.943451,-33.09638],[138.943257,-33.099793],[138.943088,-33.103308],[138.943006,-33.104636],[138.942781,-33.108544],[138.942719,-33.109866],[138.942623,-33.111542],[138.942554,-33.112115],[138.942403,-33.112811],[138.938612,-33.123206],[138.938269,-33.124166],[138.935386,-33.132038]]}},{"type":"Feature","properties":{"tier":"high"},"geometry":{"type":"LineString","coordinates":[[138.892108,-33.336457],[138.891693,-33.335667],[138.889885,-33.332226],[138.889482,-33.330957],[138.888898,-33.329135],[138.88828,-33.32788],[138.887156,-33.326496],[138.885903,-33.325413],[138.88477,-33.324044],[138.884246,-33.323047],[138.88386,-33.321971],[138.883594,-33.320744],[138.882942,-33.316757],[138.882607,-33.314856],[138.882576,-33.314674],[138.882092,-33.311822],[138.881646,-33.310416],[138.880959,-33.309397],[138.879792,-33.308314],[138.878204,-33.307037],[138.877878,-33.306636],[138.877148,-33.30538],[138.8752,-33.301127],[138.874393,-33.299254],[138.873861,-33.29759],[138.872942,-33.2949],[138.872766,-33.294372],[138.872144,-33.292518],[138.868917,-33.282681],[138.868814,-33.281067],[138.868437,-33.274262],[138.868239,-33.270683],[138.868256,-33.268911],[138.868479,-33.267145],[138.868917,-33.265452],[138.871638,-33.254887],[138.873011,-33.249547],[138.874739,-33.24323],[138.874865,-33.24277],[138.878319,-33.234155],[138.878586,-33.233658],[138.878867,-33.233241],[138.879245,-33.232796],[138.879878,-33.232218],[138.880232,-33.231914],[138.880836,-33.231396]]}},{"type":"Feature","properties":{"tier":"arterial"},"geometry":{"type":"LineString","coordinates":[[138.618748,-33.0444],[138.618807,-33.043922],[138.619215,-33.040162]]}},{"type":"Feature","properties":{"tier":"arterial"},"geometry":{"type":"LineString","coordinates":[[138.603972,-33.200519],[138.603942,-33.20062],[138.603868,-33.201015],[138.603791,-33.201429]]}},{"type":"Feature","properties":{"tier":"arterial"},"geometry":{"type":"LineString","coordinates":[[138.591337,-33.465384],[138.587502,-33.465878],[138.584138,-33.466331],[138.581316,-33.466658],[138.580894,-33.466668],[138.580442,-33.466613],[138.576969,-33.465984],[138.572464,-33.465164],[138.572133,-33.465068],[138.571053,-33.464636],[138.568093,-33.463444],[138.567474,-33.463283],[138.563034,-33.463142],[138.560369,-33.462639],[138.55973,-33.462654],[138.559085,-33.4628],[138.558555,-33.463121],[138.55827,-33.463444],[138.558029,-33.463851],[138.557511,-33.464721],[138.557071,-33.465265],[138.555117,-33.466653],[138.553527,-33.467824],[138.552814,-33.468353],[138.552428,-33.468524],[138.551011,-33.468871],[138.549793,-33.469118],[138.549244,-33.469163],[138.548527,-33.469012],[138.548141,-33.468786],[138.547278,-33.468217],[138.546543,-33.467714],[138.545982,-33.467503],[138.545175,-33.4675],[138.544571,-33.467679],[138.543798,-33.468134],[138.543254,-33.468468],[138.542774,-33.468856],[138.542292,-33.46945],[138.541964,-33.469834]]}},{"type":"Feature","properties":{"tier":"arterial"},"geometry":{"type":"LineString","coordinates":[[138.528338,-33.464056],[138.528013,-33.463939]]}},{"type":"Feature","properties":{"tier":"arterial"},"geometry":{"type":"LineString","coordinates":[[138.49998,-33.107934],[138.50084,-33.109353],[138.502102,-33.111433],[138.50417,-33.114764],[138.510717,-33.125495],[138.513302,-33.129703],[138.513828,-33.130536],[138.514121,-33.130938],[138.514444,-33.131333],[138.514798,-33.131706],[138.515179,-33.132069],[138.518341,-33.134817],[138.519723,-33.135989],[138.520892,-33.137017],[138.52226,-33.138183],[138.523263,-33.139039],[138.525813,-33.141259],[138.533946,-33.148264],[138.535504,-33.149629],[138.53972,-33.153249],[138.5401,-33.153604],[138.540396,-33.153925],[138.540819,-33.154434],[138.541562,-33.155354],[138.54189,-33.155746],[138.542239,-33.156127],[138.542792,-33.156662],[138.545133,-33.158771],[138.545547,-33.159103],[138.545985,-33.159423],[138.546452,-33.159712],[138.546942,-33.159971],[138.547195,-33.160087],[138.54797,-33.160394],[138.548501,-33.160571],[138.551705,-33.161546],[138.554844,-33.162531],[138.555079,-33.162605],[138.557363,-33.163322],[138.565138,-33.165734],[138.566184,-33.166073],[138.566945,-33.166372],[138.567429,-33.166629],[138.56812,-33.167063],[138.574557,-33.171295],[138.579499,-33.174504],[138.580223,-33.174928],[138.580717,-33.175194],[138.586871,-33.178434],[138.587568,-33.178849],[138.588,-33.179157],[138.5882,-33.179324],[138.588581,-33.179685],[138.588919,-33.180069],[138.589215,-33.18049],[138.589347,-33.180707],[138.58958,-33.181154],[138.590914,-33.18416],[138.591449,-33.185297],[138.593021,-33.188738],[138.594403,-33.191764],[138.594474,-33.19192],[138.59531,-33.193697],[138.595895,-33.194966]]}},{"type":"Feature","properties":{"tier":"arterial"},"geometry":{"type":"LineString","coordinates":[[138.598483,-33.202639],[138.598532,-33.203046],[138.59856,-33.203286],[138.598548,-33.203913],[138.598541,-33.204048],[138.59854,-33.204777],[138.598539,-33.204897],[138.598533,-33.20497],[138.598526,-33.205051]]}},{"type":"Feature","properties":{"tier":"arterial"},"geometry":{"type":"LineString","coordinates":[[138.632772,-33.207707],[138.633074,-33.207951],[138.633285,-33.208181],[138.633533,-33.208435],[138.63373,-33.208742],[138.634187,-33.209654],[138.634358,-33.209955],[138.634524,-33.210187],[138.634848,-33.210616],[138.635117,-33.210918],[138.635357,-33.21119],[138.635678,-33.211493],[138.635936,-33.211722],[138.636268,-33.21198],[138.636592,-33.212204],[138.63705,-33.212484],[138.648692,-33.21866],[138.649626,-33.219095],[138.651972,-33.220113],[138.653126,-33.220636],[138.65336,-33.220738],[138.657873,-33.222715],[138.658524,-33.223009],[138.65941,-33.223458],[138.663549,-33.225675],[138.667675,-33.227844],[138.668637,-33.22837],[138.669546,-33.228928],[138.672446,-33.230488],[138.674962,-33.23182],[138.676885,-33.232861],[138.678333,-33.233646],[138.679599,-33.234333],[138.682491,-33.23589],[138.688207,-33.23897],[138.6899,-33.239783],[138.701926,-33.245413],[138.703097,-33.246002],[138.703559,-33.246328],[138.704121,-33.246837],[138.706269,-33.249329],[138.706789,-33.249856],[138.707623,-33.250426],[138.716162,-33.254667],[138.716823,-33.254932],[138.723211,-33.256796],[138.725869,-33.257608],[138.727097,-33.258042],[138.728429,-33.258874],[138.736785,-33.266222],[138.737041,-33.266447],[138.737419,-33.267066],[138.737867,-33.267847],[138.738071,-33.268415],[138.739549,-33.273823],[138.739989,-33.276446],[138.740226,-33.278007],[138.740644,-33.279515],[138.742429,-33.285321],[138.742703,-33.28629],[138.742779,-33.286556],[138.742844,-33.286964],[138.742872,-33.287691],[138.742791,-33.288957],[138.742732,-33.29081],[138.742801,-33.291554],[138.742923,-33.292097],[138.743074,-33.292643],[138.744688,-33.29792],[138.744912,-33.298393],[138.745139,-33.298829],[138.745435,-33.299225],[138.74578,-33.299645],[138.747848,-33.301796],[138.748993,-33.302988],[138.751511,-33.305605],[138.751999,-33.305988],[138.75255,-33.306356],[138.753239,-33.306666],[138.753749,-33.306809],[138.753961,-33.306869],[138.754782,-33.30695],[138.75552,-33.306965],[138.756294,-33.306875],[138.757079,-33.306809],[138.757825,-33.306797],[138.758462,-33.306867],[138.758921,-33.306955],[138.759394,-33.307103],[138.759951,-33.307329],[138.76122,-33.308015],[138.763957,-33.309554],[138.768641,-33.312187],[138.76988,-33.312877],[138.771769,-33.313969],[138.772373,-33.314294],[138.791226,-33.324886],[138.791819,-33.325316],[138.792235,-33.325696],[138.796208,-33.329873],[138.797927,-33.331827],[138.798223,-33.332312],[138.798626,-33.333158],[138.799165,-33.334238],[138.799609,-33.334967],[138.79992,-33.335372],[138.800278,-33.335741],[138.801452,-33.336832],[138.80407,-33.339066],[138.807483,-33.34202],[138.809249,-33.343494],[138.810588,-33.344556],[138.812195,-33.345867],[138.812636,-33.346167],[138.813367,-33.346606],[138.814805,-33.347334],[138.815429,-33.347674],[138.816098,-33.348154],[138.816789,-33.348691],[138.817254,-33.349108],[138.817913,-33.349852],[138.818397,-33.350533],[138.818726,-33.351095],[138.819043,-33.351708],[138.819321,-33.352365],[138.819545,-33.353122],[138.819933,-33.354839],[138.820659,-33.358106],[138.821824,-33.360645],[138.824818,-33.367055],[138.825047,-33.367468],[138.82528,-33.367833],[138.825623,-33.368248],[138.825864,-33.368533],[138.826467,-33.369078],[138.82682,-33.369353],[138.82718,-33.369594],[138.827609,-33.369816],[138.82802,-33.370021],[138.829001,-33.370467]]}},{"type":"Feature","properties":{"tier":"regional"},"geometry":{"type":"LineString","coordinates":[[138.750548,-33.50002],[138.750635,-33.499421],[138.751141,-33.496047],[138.751267,-33.495186],[138.751381,-33.494515],[138.75148,-33.493982],[138.752334,-33.490221],[138.753485,-33.48504],[138.754089,-33.482292],[138.754661,-33.479524],[138.755012,-33.477773],[138.755327,-33.476199],[138.755762,-33.473562],[138.756048,-33.471157],[138.756366,-33.469288],[138.756976,-33.465018],[138.757052,-33.464464],[138.757085,-33.464114],[138.757107,-33.463755],[138.75721,-33.463215],[138.757239,-33.46264],[138.757335,-33.461856],[138.757493,-33.460604],[138.757717,-33.458829],[138.75796,-33.456472]]}},{"type":"Feature","properties":{"tier":"regional"},"geometry":{"type":"LineString","coordinates":[[138.75796,-33.456472],[138.758195,-33.454747],[138.758287,-33.454223],[138.758718,-33.452199],[138.758969,-33.450927],[138.759223,-33.449109],[138.759423,-33.447766],[138.759481,-33.447415],[138.759515,-33.447142],[138.759878,-33.445932]]}},{"type":"Feature","properties":{"tier":"arterial"},"geometry":{"type":"LineString","coordinates":[[138.603791,-33.201429],[138.603756,-33.201644],[138.60373,-33.201801],[138.603678,-33.202115],[138.603619,-33.202558]]}},{"type":"Feature","properties":{"tier":"arterial"},"geometry":{"type":"LineString","coordinates":[[138.603619,-33.202558],[138.603608,-33.203456],[138.603613,-33.203619]]}},{"type":"Feature","properties":{"tier":"arterial"},"geometry":{"type":"LineString","coordinates":[[138.611054,-33.205802],[138.611911,-33.205848],[138.613542,-33.205929],[138.614771,-33.20599],[138.615182,-33.206004],[138.616426,-33.206077],[138.617917,-33.206148],[138.618255,-33.206218],[138.618301,-33.206234],[138.61907,-33.206475],[138.619567,-33.20661],[138.621785,-33.207279],[138.623802,-33.207866]]}},{"type":"Feature","properties":{"tier":"arterial"},"geometry":{"type":"LineString","coordinates":[[138.598997,-33.208196],[138.598861,-33.208529],[138.598772,-33.209111]]}},{"type":"Feature","properties":{"tier":"arterial"},"geometry":{"type":"LineString","coordinates":[[138.59851,-33.211114],[138.598399,-33.21192],[138.598072,-33.213486]]}},{"type":"Feature","properties":{"tier":"arterial"},"geometry":{"type":"LineString","coordinates":[[138.60334,-33.20552],[138.603257,-33.205518]]}},{"type":"Feature","properties":{"tier":"arterial"},"geometry":{"type":"LineString","coordinates":[[138.829001,-33.370467],[138.839673,-33.375066],[138.84393,-33.376711],[138.845301,-33.377437],[138.849246,-33.380193],[138.85168,-33.38193],[138.852614,-33.382666],[138.853241,-33.383032],[138.853828,-33.383288],[138.854604,-33.383495],[138.855378,-33.383666],[138.85694,-33.38387],[138.857628,-33.384028],[138.858319,-33.384254],[138.858952,-33.384521],[138.859371,-33.384753],[138.862526,-33.38686],[138.863067,-33.387259],[138.865738,-33.389944],[138.869667,-33.393892],[138.870002,-33.394279],[138.870288,-33.394643],[138.870604,-33.395084],[138.871378,-33.396392],[138.872046,-33.397411],[138.8724,-33.397905],[138.872705,-33.398252],[138.873129,-33.398671],[138.873604,-33.399079],[138.877321,-33.401658]]}},{"type":"Feature","properties":{"tier":"regional"},"geometry":{"type":"LineString","coordinates":[[138.764706,-33.326482],[138.763315,-33.328412],[138.763021,-33.328939],[138.762868,-33.329281],[138.76277,-33.329449],[138.762645,-33.329749],[138.762357,-33.330464],[138.76222,-33.330773],[138.762123,-33.33092],[138.761714,-33.331542],[138.761458,-33.331961],[138.761224,-33.332365],[138.761055,-33.332807],[138.760946,-33.333284],[138.760892,-33.333903],[138.760698,-33.337544],[138.760544,-33.340513],[138.76044,-33.342609],[138.760413,-33.343151],[138.760259,-33.345923],[138.760062,-33.348902],[138.759928,-33.350614],[138.759835,-33.351787],[138.759801,-33.352205],[138.759797,-33.352527],[138.759843,-33.353588],[138.759908,-33.354872],[138.760028,-33.357139],[138.760047,-33.357978],[138.760012,-33.359985],[138.759993,-33.360355],[138.759954,-33.360641],[138.759885,-33.360937],[138.759331,-33.363085],[138.759065,-33.364095],[138.758953,-33.364484],[138.758865,-33.364857],[138.758803,-33.365189],[138.758749,-33.365735],[138.758518,-33.368475],[138.75831,-33.3707],[138.758287,-33.37106],[138.758281,-33.37151],[138.75828,-33.371585],[138.758372,-33.37471],[138.758441,-33.377514],[138.758453,-33.377733],[138.758495,-33.378106],[138.758788,-33.37982],[138.75887,-33.380224],[138.759305,-33.382371],[138.759425,-33.382953],[138.759534,-33.383417],[138.760155,-33.385613],[138.760171,-33.385749],[138.760171,-33.385967],[138.760067,-33.386854],[138.759926,-33.387831],[138.759894,-33.387994],[138.759866,-33.388132],[138.759817,-33.3883],[138.75973,-33.388573],[138.758951,-33.390769],[138.758254,-33.392687],[138.758194,-33.392865],[138.758156,-33.393069],[138.758102,-33.393606],[138.758009,-33.394565],[138.75784,-33.396115],[138.757824,-33.396333],[138.757819,-33.39652],[138.757824,-33.396715],[138.757868,-33.396943],[138.758341,-33.398438],[138.759376,-33.401761],[138.759714,-33.402893],[138.759991,-33.404054],[138.760231,-33.405057],[138.761021,-33.408516],[138.761211,-33.409282],[138.761984,-33.412194],[138.76206,-33.412535],[138.762088,-33.412726],[138.762071,-33.413294],[138.761984,-33.415503],[138.76199,-33.415985],[138.761995,-33.416489],[138.762148,-33.418835],[138.762272,-33.42058],[138.762376,-33.422052],[138.762371,-33.422289],[138.762344,-33.422552],[138.762262,-33.42287],[138.762169,-33.423252],[138.760901,-33.427706],[138.759681,-33.432119],[138.759093,-33.434259],[138.759065,-33.434404],[138.759065,-33.434532],[138.759093,-33.434659],[138.759147,-33.434782],[138.759213,-33.434904],[138.759311,-33.435027],[138.759425,-33.435122],[138.759545,-33.435168],[138.759872,-33.435286],[138.762657,-33.436193]]}},{"type":"Feature","properties":{"tier":"regional"},"geometry":{"type":"LineString","coordinates":[[138.634071,-33.206146],[138.63444,-33.20599],[138.634663,-33.205906],[138.634927,-33.205824],[138.635203,-33.205757],[138.635547,-33.205685],[138.635864,-33.205664],[138.636122,-33.20565],[138.636351,-33.205671],[138.6367,-33.205711],[138.638729,-33.206091],[138.64258,-33.20682],[138.646422,-33.207554],[138.650167,-33.208262],[138.654121,-33.209018],[138.655074,-33.209202],[138.657938,-33.209745],[138.660244,-33.210183],[138.661681,-33.210424],[138.66424,-33.210842],[138.666013,-33.211126],[138.667965,-33.211443],[138.671509,-33.212021],[138.674796,-33.212565],[138.678428,-33.21315],[138.685335,-33.214282],[138.687531,-33.214611],[138.692815,-33.215488],[138.699266,-33.216538],[138.700411,-33.216724],[138.70649,-33.217712],[138.708362,-33.218015],[138.708731,-33.218065],[138.709191,-33.218107],[138.709654,-33.218128],[138.711038,-33.21816],[138.713357,-33.218208],[138.713913,-33.218216],[138.714293,-33.218234],[138.714595,-33.218273],[138.714844,-33.218303],[138.715096,-33.218371],[138.715345,-33.218448],[138.717227,-33.21906],[138.717678,-33.219212],[138.718183,-33.219375],[138.718662,-33.21953],[138.719035,-33.219643],[138.719337,-33.21972],[138.719603,-33.219788],[138.719873,-33.219845],[138.720211,-33.219889],[138.720555,-33.219916],[138.720811,-33.219961],[138.721099,-33.219975],[138.721355,-33.219981],[138.721674,-33.219964],[138.721983,-33.219949],[138.722228,-33.219928],[138.722512,-33.219895],[138.725599,-33.219408],[138.729375,-33.21877],[138.729538,-33.218742],[138.730018,-33.218635],[138.730348,-33.218552],[138.730618,-33.218469],[138.733612,-33.217464],[138.735577,-33.216805],[138.735999,-33.216698],[138.736514,-33.21657],[138.736656,-33.216535],[138.736799,-33.216499],[138.737243,-33.216386],[138.737701,-33.216252],[138.738844,-33.215907],[138.740734,-33.215316],[138.742148,-33.214906],[138.742755,-33.214748],[138.743455,-33.2146],[138.744478,-33.214407],[138.745188,-33.214264],[138.745998,-33.214124],[138.746556,-33.214008],[138.747579,-33.213809],[138.747977,-33.213729],[138.748747,-33.213685],[138.749802,-33.213631],[138.750435,-33.213592],[138.751486,-33.213518],[138.752239,-33.213468],[138.752928,-33.213437]]}},{"type":"Feature","properties":{"tier":"regional"},"geometry":{"type":"LineString","coordinates":[[138.918596,-33.151537],[138.919167,-33.150557],[138.919416,-33.150175],[138.919929,-33.149498],[138.920052,-33.149338],[138.920435,-33.148838],[138.921672,-33.147095],[138.921895,-33.14678],[138.923272,-33.144954],[138.923698,-33.144389],[138.923989,-33.143981],[138.924252,-33.14358],[138.924505,-33.143112],[138.925484,-33.14105],[138.925507,-33.140997],[138.9256,-33.140783],[138.925716,-33.140387],[138.925777,-33.140233],[138.925848,-33.140144],[138.92597,-33.139981],[138.926001,-33.139939],[138.926056,-33.139889],[138.926216,-33.139743],[138.926368,-33.139616],[138.926488,-33.139515],[138.926638,-33.139309],[138.92674,-33.139153],[138.926785,-33.139044],[138.926855,-33.138887],[138.927047,-33.138359]]}},{"type":"Feature","properties":{"tier":"arterial"},"geometry":{"type":"LineString","coordinates":[[138.591337,-33.465384],[138.592508,-33.468395],[138.593538,-33.471134],[138.594642,-33.473081],[138.594859,-33.473609],[138.594852,-33.473897],[138.594829,-33.474912],[138.594905,-33.475308],[138.595125,-33.475849],[138.595824,-33.476833],[138.596184,-33.477444],[138.598372,-33.483121],[138.599868,-33.487079],[138.601998,-33.492592]]}},{"type":"Feature","properties":{"tier":"arterial"},"geometry":{"type":"LineString","coordinates":[[138.581419,-33.391314],[138.581372,-33.391586]]}},{"type":"Feature","properties":{"tier":"arterial"},"geometry":{"type":"LineString","coordinates":[[138.581372,-33.391586],[138.58137,-33.392142],[138.581366,-33.392954],[138.583174,-33.409615],[138.583611,-33.413555],[138.584695,-33.423321],[138.584906,-33.425405],[138.585449,-33.430755],[138.585814,-33.434197],[138.586045,-33.436384],[138.587263,-33.447868],[138.587738,-33.452376],[138.58798,-33.454325],[138.588557,-33.456231],[138.591337,-33.465384]]}},{"type":"Feature","properties":{"tier":"arterial"},"geometry":{"type":"LineString","coordinates":[[138.530268,-33.465742],[138.530158,-33.46549],[138.530031,-33.465267],[138.529782,-33.464971],[138.529532,-33.464732],[138.529183,-33.464458],[138.528858,-33.464272],[138.528338,-33.464056]]}},{"type":"Feature","properties":{"tier":"arterial"},"geometry":{"type":"LineString","coordinates":[[138.541964,-33.469834],[138.541472,-33.47042],[138.541201,-33.470663],[138.540935,-33.470834],[138.540827,-33.470887],[138.54068,-33.470932],[138.540427,-33.470989],[138.540143,-33.471034],[138.539829,-33.471015],[138.53956,-33.470956],[138.539243,-33.470855],[138.538789,-33.470657],[138.537361,-33.470058],[138.537124,-33.469988],[138.536862,-33.469942],[138.536545,-33.469931],[138.536202,-33.46996],[138.534864,-33.470158],[138.534548,-33.470239],[138.533227,-33.470757],[138.532934,-33.470821],[138.532656,-33.470834],[138.532406,-33.470816],[138.532367,-33.470808],[138.53217,-33.47077],[138.531888,-33.470684],[138.53166,-33.470585],[138.531478,-33.470469],[138.531354,-33.47038],[138.531222,-33.470258],[138.531116,-33.470128],[138.530975,-33.469904],[138.530612,-33.469087],[138.530408,-33.468566],[138.530346,-33.46833],[138.530315,-33.468122],[138.530303,-33.468043],[138.530295,-33.467776],[138.530327,-33.467512],[138.530415,-33.466895],[138.530429,-33.46648],[138.530365,-33.466064],[138.530268,-33.465742]]}},{"type":"Feature","properties":{"tier":"regional"},"geometry":{"type":"LineString","coordinates":[[138.759878,-33.445932],[138.76082,-33.443108],[138.761084,-33.44214]]}},{"type":"Feature","properties":{"tier":"arterial"},"geometry":{"type":"LineString","coordinates":[[138.890403,-33.410621],[138.890893,-33.410966],[138.891353,-33.411193],[138.891691,-33.411234],[138.892153,-33.411267],[138.892887,-33.411328]]}},{"type":"Feature","properties":{"tier":"high"},"geometry":{"type":"LineString","coordinates":[[138.892851,-33.41959],[138.892908,-33.417992],[138.892929,-33.417448]]}},{"type":"Feature","properties":{"tier":"high"},"geometry":{"type":"LineString","coordinates":[[138.892615,-33.415269],[138.892606,-33.415158],[138.892588,-33.415042],[138.892544,-33.414774],[138.892531,-33.41451]]}},{"type":"Feature","properties":{"tier":"arterial"},"geometry":{"type":"LineString","coordinates":[[138.749731,-33.029449],[138.74839,-33.029458]]}},{"type":"Feature","properties":{"tier":"arterial"},"geometry":{"type":"LineString","coordinates":[[138.695007,-33.016831],[138.693999,-33.017203],[138.672961,-33.025095],[138.672349,-33.025321],[138.672069,-33.025427],[138.671809,-33.025534],[138.671656,-33.025608],[138.671491,-33.025682],[138.671306,-33.025781],[138.670938,-33.025984],[138.670297,-33.026326],[138.669903,-33.02654],[138.669649,-33.026677],[138.669522,-33.026746],[138.669274,-33.026881],[138.66901,-33.027023],[138.663077,-33.030223],[138.662511,-33.030524],[138.658308,-33.032528],[138.654208,-33.034506],[138.654061,-33.034578],[138.653804,-33.034696],[138.653481,-33.034849],[138.653269,-33.034946],[138.653057,-33.035037],[138.652913,-33.035094],[138.652737,-33.035156],[138.652569,-33.035217],[138.652423,-33.035259],[138.652188,-33.035332],[138.651948,-33.035396],[138.651518,-33.035516],[138.642866,-33.037842],[138.637526,-33.039287],[138.634696,-33.040067],[138.632894,-33.040517],[138.632218,-33.040614],[138.631602,-33.040647],[138.629764,-33.040705],[138.629238,-33.04073],[138.628766,-33.04079],[138.628281,-33.040897],[138.627903,-33.041006],[138.626227,-33.041722],[138.624898,-33.04233],[138.62306,-33.043146],[138.620517,-33.043804],[138.620084,-33.043937],[138.619669,-33.044129],[138.619193,-33.044339],[138.618748,-33.0444]]}},{"type":"Feature","properties":{"tier":"arterial"},"geometry":{"type":"LineString","coordinates":[[138.750087,-33.025124],[138.749986,-33.025682]]}},{"type":"Feature","properties":{"tier":"arterial"},"geometry":{"type":"LineString","coordinates":[[138.749731,-33.029449],[138.749965,-33.02945]]}},{"type":"Feature","properties":{"tier":"arterial"},"geometry":{"type":"LineString","coordinates":[[138.749731,-33.029449],[138.749731,-33.028135],[138.749733,-33.026831]]}},{"type":"Feature","properties":{"tier":"arterial"},"geometry":{"type":"LineString","coordinates":[[138.749974,-33.028127],[138.749965,-33.02945]]}},{"type":"Feature","properties":{"tier":"arterial"},"geometry":{"type":"LineString","coordinates":[[138.629612,-33.208056],[138.630165,-33.20783],[138.631659,-33.207184]]}},{"type":"Feature","properties":{"tier":"arterial"},"geometry":{"type":"LineString","coordinates":[[138.596867,-33.204943],[138.596398,-33.204925],[138.593734,-33.204823],[138.593615,-33.204819],[138.593178,-33.204799],[138.590699,-33.204687]]}},{"type":"Feature","properties":{"tier":"arterial"},"geometry":{"type":"LineString","coordinates":[[138.590699,-33.204687],[138.587492,-33.204529],[138.584427,-33.20434],[138.581645,-33.204168],[138.580668,-33.204107],[138.578662,-33.203983],[138.576502,-33.203849],[138.574871,-33.203749],[138.572903,-33.203634],[138.569008,-33.203409],[138.566584,-33.203415],[138.56456,-33.203585],[138.562783,-33.203799],[138.561935,-33.204033],[138.561451,-33.204166],[138.560109,-33.204536],[138.55891,-33.204867],[138.557348,-33.205297],[138.556835,-33.205439],[138.556348,-33.205573],[138.555391,-33.205739],[138.554268,-33.205912],[138.553733,-33.205953],[138.553348,-33.205951],[138.55289,-33.205916],[138.552497,-33.205858],[138.552136,-33.205769],[138.551726,-33.205649],[138.551129,-33.205491],[138.550578,-33.205387],[138.54597,-33.205128],[138.544743,-33.205068],[138.544034,-33.205022],[138.542219,-33.204783],[138.539517,-33.204329],[138.538969,-33.204213],[138.538293,-33.204051],[138.537773,-33.203868],[138.537106,-33.203622],[138.536479,-33.203368],[138.533002,-33.20196],[138.527539,-33.199783],[138.52461,-33.198509],[138.522708,-33.197706],[138.522493,-33.197572],[138.518009,-33.194913],[138.5104,-33.190432],[138.509291,-33.189771],[138.506772,-33.188557],[138.504618,-33.187533],[138.503211,-33.186934],[138.502117,-33.18672],[138.500442,-33.186457],[138.49998,-33.186384]]}},{"type":"Feature","properties":{"tier":"arterial"},"geometry":{"type":"LineString","coordinates":[[138.877321,-33.401658],[138.877464,-33.401754],[138.881569,-33.404501],[138.885019,-33.406869]]}},{"type":"Feature","properties":{"tier":"high"},"geometry":{"type":"LineString","coordinates":[[138.892531,-33.41451],[138.892539,-33.414203],[138.892734,-33.412757],[138.892887,-33.411328]]}},{"type":"Feature","properties":{"tier":"high"},"geometry":{"type":"LineString","coordinates":[[138.891392,-33.402641],[138.891103,-33.402019],[138.890087,-33.400061],[138.889574,-33.399075],[138.887439,-33.393011],[138.885476,-33.387305],[138.884879,-33.385604],[138.883298,-33.38132],[138.883048,-33.380803],[138.883008,-33.38072],[138.882697,-33.380263],[138.880696,-33.377927],[138.879811,-33.37684],[138.879636,-33.376579],[138.879511,-33.376392],[138.879259,-33.375903],[138.879157,-33.37567],[138.879073,-33.375369],[138.879017,-33.375041],[138.878991,-33.37481],[138.878961,-33.374431],[138.87898,-33.374007],[138.879051,-33.373586],[138.879114,-33.373332],[138.879172,-33.373098],[138.879862,-33.371673],[138.880176,-33.371026],[138.882364,-33.366501],[138.884805,-33.361377],[138.885851,-33.35918],[138.887679,-33.355427],[138.890572,-33.349502],[138.89113,-33.348032],[138.892718,-33.340109],[138.892889,-33.33889],[138.892804,-33.338065],[138.892648,-33.337466],[138.892589,-33.337241],[138.892108,-33.336457]]}},{"type":"Feature","properties":{"tier":"high"},"geometry":{"type":"LineString","coordinates":[[138.892117,-33.42519],[138.892733,-33.422117],[138.89279,-33.421564],[138.892809,-33.420496],[138.892836,-33.419983]]}},{"type":"Feature","properties":{"tier":"regional"},"geometry":{"type":"LineString","coordinates":[[138.890972,-33.414078],[138.891155,-33.414093],[138.892364,-33.414189],[138.892539,-33.414203]]}},{"type":"Feature","properties":{"tier":"arterial"},"geometry":{"type":"LineString","coordinates":[[138.602886,-33.205323],[138.602605,-33.205302]]}},{"type":"Feature","properties":{"tier":"arterial"},"geometry":{"type":"LineString","coordinates":[[138.603075,-33.205342],[138.602886,-33.205323]]}},{"type":"Feature","properties":{"tier":"arterial"},"geometry":{"type":"LineString","coordinates":[[138.632246,-33.207302],[138.631879,-33.207175],[138.631659,-33.207184]]}},{"type":"Feature","properties":{"tier":"arterial"},"geometry":{"type":"LineString","coordinates":[[138.607648,-33.499018],[138.60743,-33.499434],[138.607328,-33.499628],[138.607123,-33.50002]]}},{"type":"Feature","properties":{"tier":"arterial"},"geometry":{"type":"LineString","coordinates":[[138.604711,-33.496244],[138.605641,-33.497135],[138.606232,-33.497658],[138.606756,-33.498146],[138.60696,-33.498337],[138.607277,-33.498639],[138.60736,-33.498715],[138.607506,-33.498848],[138.607592,-33.498927],[138.607648,-33.499018]]}},{"type":"Feature","properties":{"tier":"arterial"},"geometry":{"type":"LineString","coordinates":[[138.601998,-33.492592],[138.602459,-33.493767],[138.602655,-33.494222],[138.602999,-33.494686],[138.603363,-33.495044],[138.604711,-33.496244]]}},{"type":"Feature","properties":{"tier":"arterial"},"geometry":{"type":"LineString","coordinates":[[138.588787,-33.247253],[138.588409,-33.24759],[138.587996,-33.248071],[138.587657,-33.248535],[138.585148,-33.251968],[138.577783,-33.262128],[138.577357,-33.26296],[138.577303,-33.263064],[138.577038,-33.264318],[138.576194,-33.278408],[138.576189,-33.2785],[138.575921,-33.282806],[138.57588,-33.283496],[138.575905,-33.283893],[138.575974,-33.284388],[138.576091,-33.284836],[138.577174,-33.288995],[138.577499,-33.290461],[138.577654,-33.291332],[138.577722,-33.291717],[138.577825,-33.292317],[138.578029,-33.293516],[138.578206,-33.294339],[138.579289,-33.298147],[138.580575,-33.302816],[138.581133,-33.304933],[138.582721,-33.308878],[138.583086,-33.310467],[138.584652,-33.317629],[138.585494,-33.326419],[138.58697,-33.331103],[138.587092,-33.331645],[138.587134,-33.331874],[138.58718,-33.332327],[138.587311,-33.33355],[138.587894,-33.339313],[138.588904,-33.348403],[138.589011,-33.349399],[138.589388,-33.352909],[138.589414,-33.353136],[138.589973,-33.358809],[138.590069,-33.359526],[138.590095,-33.359784],[138.590062,-33.360042],[138.589911,-33.360894],[138.589339,-33.362954],[138.588032,-33.367652],[138.586503,-33.373151],[138.58647,-33.373268],[138.586176,-33.374336],[138.585663,-33.376198],[138.58433,-33.38089],[138.583854,-33.38257],[138.583436,-33.384042],[138.582893,-33.385954],[138.581926,-33.38947],[138.581419,-33.391314]]}},{"type":"Feature","properties":{"tier":"arterial"},"geometry":{"type":"LineString","coordinates":[[138.598772,-33.209111],[138.598527,-33.210909],[138.598506,-33.211058],[138.59851,-33.211114]]}},{"type":"Feature","properties":{"tier":"arterial"},"geometry":{"type":"LineString","coordinates":[[138.60027,-33.207269],[138.599271,-33.207857],[138.598997,-33.208196]]}},{"type":"Feature","properties":{"tier":"arterial"},"geometry":{"type":"LineString","coordinates":[[138.61028,-33.188991],[138.610618,-33.186103]]}},{"type":"Feature","properties":{"tier":"arterial"},"geometry":{"type":"LineString","coordinates":[[138.610618,-33.186103],[138.610737,-33.185366],[138.610944,-33.183799],[138.613211,-33.16593],[138.613228,-33.165844],[138.613448,-33.164107],[138.61611,-33.143043],[138.616128,-33.142943],[138.61898,-33.120397],[138.619815,-33.1138],[138.619851,-33.113228],[138.619842,-33.112832],[138.619817,-33.112441],[138.619574,-33.107604],[138.619262,-33.102726],[138.619246,-33.10221],[138.619255,-33.10179],[138.619889,-33.089971]]}},{"type":"Feature","properties":{"tier":"arterial"},"geometry":{"type":"LineString","coordinates":[[138.751231,-33.021514],[138.750885,-33.021847],[138.750593,-33.022225],[138.750423,-33.022648],[138.750327,-33.02308],[138.750087,-33.025124]]}},{"type":"Feature","properties":{"tier":"arterial"},"geometry":{"type":"LineString","coordinates":[[138.7786,-32.99998],[138.777469,-33.000868],[138.776882,-33.001331],[138.759974,-33.014587],[138.75845,-33.015781],[138.758366,-33.015848],[138.752803,-33.020207],[138.751231,-33.021514]]}},{"type":"Feature","properties":{"tier":"arterial"},"geometry":{"type":"LineString","coordinates":[[138.603613,-33.203619],[138.603623,-33.203965]]}},{"type":"Feature","properties":{"tier":"arterial"},"geometry":{"type":"LineString","coordinates":[[138.603629,-33.20419],[138.603535,-33.204546],[138.603242,-33.205127]]}},{"type":"Feature","properties":{"tier":"arterial"},"geometry":{"type":"LineString","coordinates":[[138.607094,-33.205406],[138.607147,-33.20543],[138.607217,-33.205463],[138.607356,-33.205524],[138.607465,-33.205569],[138.607601,-33.205607]]}},{"type":"Feature","properties":{"tier":"arterial"},"geometry":{"type":"LineString","coordinates":[[138.608143,-33.196108],[138.608392,-33.195472],[138.608951,-33.194044],[138.609037,-33.193828],[138.60927,-33.193245],[138.609388,-33.19295],[138.609845,-33.191784]]}},{"type":"Feature","properties":{"tier":"arterial"},"geometry":{"type":"LineString","coordinates":[[138.603972,-33.200519],[138.604098,-33.200393],[138.604208,-33.20035],[138.604341,-33.20034],[138.604587,-33.200365],[138.605459,-33.20047],[138.605686,-33.200494],[138.60586,-33.200511],[138.606,-33.200488],[138.606133,-33.200452],[138.606391,-33.200308],[138.606702,-33.199829]]}},{"type":"Feature","properties":{"tier":"arterial"},"geometry":{"type":"LineString","coordinates":[[138.602529,-33.205982],[138.601958,-33.206365],[138.601026,-33.206854],[138.600565,-33.207095],[138.60027,-33.207269]]}},{"type":"Feature","properties":{"tier":"arterial"},"geometry":{"type":"LineString","coordinates":[[138.749733,-33.026831],[138.749986,-33.025682]]}},{"type":"Feature","properties":{"tier":"arterial"},"geometry":{"type":"LineString","coordinates":[[138.749986,-33.025682],[138.749957,-33.02686]]}},{"type":"Feature","properties":{"tier":"regional"},"geometry":{"type":"LineString","coordinates":[[138.752928,-33.213437],[138.753038,-33.213432],[138.754445,-33.213384],[138.755334,-33.213347],[138.756064,-33.213327],[138.759697,-33.213218],[138.765186,-33.213063],[138.765981,-33.213032],[138.766163,-33.213026],[138.766288,-33.213022],[138.766416,-33.213023],[138.76657,-33.213026],[138.76668,-33.213033],[138.766807,-33.213043],[138.766932,-33.213054],[138.767038,-33.213068],[138.767207,-33.213089],[138.767305,-33.213106],[138.767486,-33.213136],[138.767683,-33.213175],[138.767863,-33.21321],[138.768002,-33.213251],[138.768158,-33.213291],[138.768308,-33.21334],[138.768541,-33.213425],[138.768687,-33.213482],[138.768903,-33.213578],[138.769049,-33.213654],[138.769269,-33.213761],[138.769445,-33.213864],[138.769729,-33.21403],[138.77005,-33.214214],[138.77069,-33.214619],[138.771635,-33.215192],[138.772661,-33.215827],[138.773983,-33.216642],[138.775119,-33.217324],[138.776003,-33.217872],[138.7782,-33.219217],[138.780059,-33.220323],[138.780351,-33.220491],[138.780987,-33.220855],[138.782574,-33.221696],[138.78361,-33.222244],[138.784613,-33.222794],[138.788474,-33.224851],[138.79014,-33.225785],[138.790321,-33.225888],[138.790475,-33.225981],[138.790605,-33.226072],[138.790782,-33.226189],[138.790911,-33.226272],[138.791046,-33.226375],[138.791772,-33.226907],[138.792338,-33.227342],[138.792619,-33.227553],[138.793092,-33.227925],[138.793309,-33.228096],[138.793577,-33.22832],[138.793853,-33.228578],[138.794411,-33.229155],[138.79487,-33.229711],[138.795186,-33.230117],[138.795712,-33.230845],[138.796369,-33.23176],[138.796671,-33.232137],[138.79687,-33.232348],[138.797157,-33.232627],[138.797303,-33.232756],[138.797451,-33.232869],[138.797584,-33.232966],[138.797683,-33.233031],[138.797832,-33.23312],[138.797993,-33.233216],[138.798139,-33.233298],[138.798259,-33.233364],[138.798405,-33.233435],[138.798573,-33.233504],[138.798701,-33.233552],[138.798866,-33.233625],[138.798976,-33.233673],[138.799096,-33.233707],[138.799338,-33.233783],[138.799541,-33.233834],[138.79973,-33.233869],[138.800089,-33.233925],[138.801119,-33.234055],[138.804258,-33.234456],[138.805773,-33.234645],[138.808458,-33.234986],[138.809268,-33.235085],[138.810545,-33.235248],[138.814168,-33.235684],[138.816209,-33.235944],[138.817178,-33.236069],[138.817432,-33.236101],[138.817642,-33.236123],[138.817972,-33.236137],[138.818406,-33.236141],[138.818725,-33.236137],[138.819125,-33.236125],[138.819369,-33.236114],[138.819597,-33.236092],[138.820268,-33.236003],[138.821968,-33.235758],[138.826806,-33.235034],[138.831942,-33.234258],[138.836148,-33.233617],[138.840265,-33.233009],[138.843153,-33.232576],[138.846529,-33.232072],[138.849315,-33.231658],[138.850932,-33.231397],[138.851784,-33.231272],[138.85205,-33.231218],[138.852312,-33.231147],[138.852636,-33.231073],[138.853471,-33.230853],[138.854635,-33.230568],[138.859254,-33.229367],[138.863006,-33.228383],[138.864333,-33.228057],[138.865722,-33.227692],[138.867292,-33.227291],[138.870116,-33.226566],[138.873792,-33.225597],[138.876227,-33.224964],[138.877046,-33.224759],[138.877222,-33.224715],[138.877416,-33.224669],[138.877602,-33.224631],[138.877768,-33.224605],[138.877887,-33.22459],[138.878002,-33.224582],[138.878151,-33.224576],[138.878509,-33.22457],[138.881472,-33.224566],[138.881691,-33.224568],[138.881844,-33.224569],[138.881995,-33.224578],[138.882101,-33.22459],[138.882209,-33.224616],[138.882351,-33.224655],[138.882658,-33.224754],[138.882956,-33.224848],[138.883446,-33.224995],[138.88589,-33.225769],[138.886125,-33.225847],[138.886275,-33.2259],[138.886384,-33.22596],[138.886428,-33.225987],[138.886482,-33.226026],[138.886548,-33.226081],[138.886852,-33.226375],[138.886937,-33.226457]]}},{"type":"Feature","properties":{"tier":"arterial"},"geometry":{"type":"LineString","coordinates":[[138.603257,-33.205518],[138.603108,-33.20546],[138.603076,-33.205436],[138.603044,-33.205394]]}},{"type":"Feature","properties":{"tier":"arterial"},"geometry":{"type":"LineString","coordinates":[[138.632246,-33.207302],[138.632772,-33.207707]]}},{"type":"Feature","properties":{"tier":"arterial"},"geometry":{"type":"LineString","coordinates":[[138.631945,-33.20705],[138.632246,-33.207302]]}},{"type":"Feature","properties":{"tier":"high"},"geometry":{"type":"LineString","coordinates":[[138.922782,-33.153347],[138.922529,-33.153748],[138.922231,-33.154163],[138.922177,-33.154221],[138.921739,-33.154702],[138.920767,-33.155652],[138.920063,-33.156637],[138.918029,-33.160042],[138.917044,-33.162015],[138.914201,-33.167709],[138.913394,-33.169304],[138.913174,-33.169652],[138.912877,-33.170043],[138.912753,-33.170198],[138.912643,-33.170295],[138.911924,-33.170963],[138.911184,-33.171582],[138.911111,-33.171646],[138.910353,-33.172382],[138.90997,-33.172896],[138.909747,-33.173262],[138.909556,-33.173643],[138.909034,-33.174915],[138.908627,-33.175919],[138.907352,-33.179096],[138.905129,-33.18462],[138.903996,-33.187356],[138.903531,-33.188515],[138.903129,-33.189518],[138.902679,-33.19064],[138.902305,-33.191745],[138.902261,-33.191902],[138.900563,-33.197936],[138.8993,-33.202433],[138.899208,-33.202761],[138.896738,-33.211557],[138.89663,-33.211939],[138.896404,-33.212685],[138.896236,-33.213118],[138.896048,-33.213484],[138.895087,-33.214993],[138.890286,-33.222432],[138.88939,-33.223825],[138.888996,-33.224389]]}},{"type":"Feature","properties":{"tier":"high"},"geometry":{"type":"LineString","coordinates":[[138.933745,-33.136581],[138.933554,-33.137048],[138.933365,-33.137428],[138.932874,-33.138222],[138.932463,-33.13878],[138.928217,-33.144609],[138.927732,-33.145274],[138.92751,-33.145586],[138.927049,-33.146269],[138.926594,-33.147016],[138.923135,-33.152779],[138.922782,-33.153347]]}},{"type":"Feature","properties":{"tier":"arterial"},"geometry":{"type":"LineString","coordinates":[[138.603242,-33.205127],[138.603075,-33.205342]]}},{"type":"Feature","properties":{"tier":"regional"},"geometry":{"type":"LineString","coordinates":[[138.631945,-33.20705],[138.633614,-33.206339],[138.634071,-33.206146]]}},{"type":"Feature","properties":{"tier":"high"},"geometry":{"type":"LineString","coordinates":[[138.934465,-33.134468],[138.934227,-33.135146]]}},{"type":"Feature","properties":{"tier":"arterial"},"geometry":{"type":"LineString","coordinates":[[138.934465,-33.134468],[138.934165,-33.134202]]}},{"type":"Feature","properties":{"tier":"high"},"geometry":{"type":"LineString","coordinates":[[138.892887,-33.411328],[138.892952,-33.410717],[138.892962,-33.410626],[138.893057,-33.409842],[138.893132,-33.409074],[138.893112,-33.408517]]}},{"type":"Feature","properties":{"tier":"arterial"},"geometry":{"type":"LineString","coordinates":[[138.625632,-33.208297],[138.625994,-33.208363],[138.626249,-33.208407],[138.626379,-33.208422],[138.626742,-33.208449],[138.626978,-33.208463],[138.627347,-33.208465],[138.627714,-33.208437],[138.627973,-33.208411],[138.62838,-33.208344],[138.628904,-33.208235],[138.629383,-33.208121],[138.629612,-33.208056]]}},{"type":"Feature","properties":{"tier":"arterial"},"geometry":{"type":"LineString","coordinates":[[138.631659,-33.207184],[138.631945,-33.20705]]}},{"type":"Feature","properties":{"tier":"arterial"},"geometry":{"type":"LineString","coordinates":[[138.602904,-33.205572],[138.602529,-33.205982]]}},{"type":"Feature","properties":{"tier":"arterial"},"geometry":{"type":"LineString","coordinates":[[138.607076,-33.205728],[138.606765,-33.205719],[138.605861,-33.205676],[138.605619,-33.205665],[138.605409,-33.205655],[138.605158,-33.205649],[138.604939,-33.205623],[138.603519,-33.205525],[138.60334,-33.20552]]}},{"type":"Feature","properties":{"tier":"arterial"},"geometry":{"type":"LineString","coordinates":[[138.603534,-33.205156],[138.603786,-33.205174],[138.604912,-33.205264],[138.605172,-33.205276],[138.605404,-33.205295],[138.605661,-33.205308],[138.606735,-33.205387],[138.607094,-33.205406]]}},{"type":"Feature","properties":{"tier":"arterial"},"geometry":{"type":"LineString","coordinates":[[138.603623,-33.203965],[138.603629,-33.20419]]}},{"type":"Feature","properties":{"tier":"arterial"},"geometry":{"type":"LineString","coordinates":[[138.528013,-33.463939],[138.527494,-33.46373],[138.527276,-33.463609],[138.527062,-33.463473],[138.526631,-33.46312],[138.526126,-33.462707],[138.525214,-33.461957],[138.524384,-33.461366],[138.523732,-33.461009],[138.523016,-33.46069],[138.522565,-33.460535],[138.518231,-33.45919],[138.515632,-33.45838],[138.51459,-33.458073],[138.51277,-33.457766],[138.511923,-33.457695],[138.511158,-33.457729],[138.509243,-33.458103],[138.506972,-33.458777],[138.504151,-33.460529],[138.502869,-33.461048],[138.501397,-33.461419],[138.49998,-33.461696]]}},{"type":"Feature","properties":{"tier":"high"},"geometry":{"type":"LineString","coordinates":[[138.934688,-33.133862],[138.934465,-33.134468]]}},{"type":"Feature","properties":{"tier":"arterial"},"geometry":{"type":"LineString","coordinates":[[138.934165,-33.134202],[138.932325,-33.132534],[138.931987,-33.132194],[138.93174,-33.131918],[138.93156,-33.131687],[138.931338,-33.131374],[138.931123,-33.13102],[138.93093,-33.130624],[138.930793,-33.130308]]}},{"type":"Feature","properties":{"tier":"high"},"geometry":{"type":"LineString","coordinates":[[138.934227,-33.135146],[138.933745,-33.136581]]}},{"type":"Feature","properties":{"tier":"high"},"geometry":{"type":"LineString","coordinates":[[138.934165,-33.134202],[138.934286,-33.134226],[138.934369,-33.134235],[138.934418,-33.134229],[138.934459,-33.134203],[138.934506,-33.134144],[138.934528,-33.134082],[138.934688,-33.133862]]}},{"type":"Feature","properties":{"tier":"high"},"geometry":{"type":"LineString","coordinates":[[138.935386,-33.132038],[138.934688,-33.133862]]}},{"type":"Feature","properties":{"tier":"arterial"},"geometry":{"type":"LineString","coordinates":[[138.619215,-33.040162],[138.619297,-33.039276],[138.619336,-33.038866],[138.619377,-33.038508],[138.619778,-33.03509],[138.619876,-33.03451],[138.62009,-33.033826],[138.620358,-33.033284],[138.625051,-33.024877],[138.625132,-33.02472],[138.629946,-33.016108],[138.636786,-33.003381],[138.638663,-32.99998]]}},{"type":"Feature","properties":{"tier":"arterial"},"geometry":{"type":"LineString","coordinates":[[138.747039,-33.02946],[138.745653,-33.029493],[138.745269,-33.029536],[138.744557,-33.029613],[138.743568,-33.029724],[138.740446,-33.030059]]}},{"type":"Feature","properties":{"tier":"arterial"},"geometry":{"type":"LineString","coordinates":[[138.74839,-33.029458],[138.747039,-33.02946]]}},{"type":"Feature","properties":{"tier":"high"},"geometry":{"type":"LineString","coordinates":[[138.893112,-33.408517],[138.89299,-33.407906],[138.892776,-33.407133]]}},{"type":"Feature","properties":{"tier":"high"},"geometry":{"type":"LineString","coordinates":[[138.892776,-33.407133],[138.892243,-33.405246],[138.891771,-33.403703],[138.891586,-33.403149],[138.891392,-33.402641]]}},{"type":"Feature","properties":{"tier":"arterial"},"geometry":{"type":"LineString","coordinates":[[138.623802,-33.207866],[138.624693,-33.208069],[138.62547,-33.208258],[138.625632,-33.208297]]}},{"type":"Feature","properties":{"tier":"arterial"},"geometry":{"type":"LineString","coordinates":[[138.619577,-33.088341],[138.615966,-33.078786]]}},{"type":"Feature","properties":{"tier":"arterial"},"geometry":{"type":"LineString","coordinates":[[138.619889,-33.089971],[138.619874,-33.089396],[138.619835,-33.08912],[138.619744,-33.088814],[138.619577,-33.088341]]}},{"type":"Feature","properties":{"tier":"arterial"},"geometry":{"type":"LineString","coordinates":[[138.615443,-33.075804],[138.615995,-33.070882],[138.616386,-33.066763],[138.616485,-33.066301],[138.617114,-33.060219],[138.617335,-33.058078],[138.617408,-33.057374],[138.617622,-33.055305],[138.618748,-33.0444]]}},{"type":"Feature","properties":{"tier":"arterial"},"geometry":{"type":"LineString","coordinates":[[138.615966,-33.078786],[138.615711,-33.078095],[138.615473,-33.07727],[138.615404,-33.076883],[138.61539,-33.076541],[138.615411,-33.076271],[138.615443,-33.075804]]}},{"type":"Feature","properties":{"tier":"arterial"},"geometry":{"type":"LineString","coordinates":[[138.749957,-33.02686],[138.749974,-33.028127]]}},{"type":"Feature","properties":{"tier":"regional"},"geometry":{"type":"LineString","coordinates":[[138.761084,-33.44214],[138.761207,-33.441775],[138.761679,-33.439517],[138.762657,-33.436193]]}},{"type":"Feature","properties":{"tier":"high"},"geometry":{"type":"LineString","coordinates":[[138.887885,-33.22566],[138.888397,-33.225127],[138.888996,-33.224389]]}},{"type":"Feature","properties":{"tier":"high"},"geometry":{"type":"LineString","coordinates":[[138.880836,-33.231396],[138.881663,-33.230665],[138.882297,-33.230105],[138.883068,-33.229452],[138.883889,-33.228818],[138.883953,-33.228768]]}},{"type":"Feature","properties":{"tier":"regional"},"geometry":{"type":"LineString","coordinates":[[138.771769,-33.313969],[138.768886,-33.316463],[138.76869,-33.316627],[138.768515,-33.316832],[138.768347,-33.317055],[138.768238,-33.317273],[138.768042,-33.317796],[138.767584,-33.319161],[138.767437,-33.319662],[138.767361,-33.320017],[138.767246,-33.321114],[138.767208,-33.32165],[138.767159,-33.322096],[138.76711,-33.322433],[138.767061,-33.322665],[138.766942,-33.322961],[138.766757,-33.323298],[138.764706,-33.326482]]}},{"type":"Feature","properties":{"tier":"arterial"},"geometry":{"type":"LineString","coordinates":[[138.598072,-33.213486],[138.596649,-33.219303],[138.596578,-33.219696],[138.596555,-33.219918],[138.596542,-33.220188],[138.596543,-33.22048],[138.597336,-33.229355],[138.597656,-33.232679],[138.597656,-33.233566],[138.597532,-33.234213],[138.597494,-33.234361],[138.597367,-33.234746],[138.597279,-33.23496],[138.597097,-33.23535],[138.59696,-33.235591],[138.596864,-33.235744],[138.594417,-33.239083],[138.591628,-33.242816],[138.58994,-33.246133],[138.5896,-33.24653],[138.589243,-33.246847]]}},{"type":"Feature","properties":{"tier":"arterial"},"geometry":{"type":"LineString","coordinates":[[138.589243,-33.246847],[138.588787,-33.247253]]}},{"type":"Feature","properties":{"tier":"arterial"},"geometry":{"type":"LineString","coordinates":[[138.740446,-33.030059],[138.736889,-33.030445],[138.735816,-33.030528],[138.735356,-33.030504],[138.734843,-33.030439],[138.73441,-33.030338],[138.733927,-33.030201],[138.727227,-33.027971],[138.726944,-33.027873],[138.726506,-33.027729],[138.725741,-33.027411],[138.724878,-33.026871],[138.722915,-33.02506],[138.721011,-33.023231],[138.720392,-33.022701],[138.719657,-33.022164],[138.718563,-33.021532],[138.717671,-33.021095],[138.717043,-33.020828],[138.716444,-33.02061],[138.71431,-33.019986],[138.708353,-33.018239],[138.707892,-33.018124],[138.702509,-33.0171],[138.698068,-33.016251],[138.697521,-33.016194],[138.696982,-33.016221],[138.696425,-33.016325],[138.695215,-33.016756]]}},{"type":"Feature","properties":{"tier":"arterial"},"geometry":{"type":"LineString","coordinates":[[138.695215,-33.016756],[138.695055,-33.016814],[138.695007,-33.016831]]}},{"type":"Feature","properties":{"tier":"arterial"},"geometry":{"type":"LineString","coordinates":[[138.606702,-33.199829],[138.607046,-33.198866],[138.607357,-33.19798]]}},{"type":"Feature","properties":{"tier":"arterial"},"geometry":{"type":"LineString","coordinates":[[138.595895,-33.194966],[138.596389,-33.196038]]}},{"type":"Feature","properties":{"tier":"arterial"},"geometry":{"type":"LineString","coordinates":[[138.598415,-33.20229],[138.598483,-33.202639]]}},{"type":"Feature","properties":{"tier":"arterial"},"geometry":{"type":"LineString","coordinates":[[138.607421,-33.197835],[138.607731,-33.19704],[138.608143,-33.196108]]}},{"type":"Feature","properties":{"tier":"arterial"},"geometry":{"type":"LineString","coordinates":[[138.607357,-33.19798],[138.607421,-33.197835]]}},{"type":"Feature","properties":{"tier":"regional"},"geometry":{"type":"LineString","coordinates":[[138.927518,-33.137277],[138.928127,-33.135878],[138.929482,-33.132329],[138.929683,-33.131813],[138.929788,-33.13159],[138.929895,-33.131406],[138.930029,-33.131188],[138.930171,-33.130995],[138.930305,-33.130838],[138.930482,-33.130642],[138.930793,-33.130308]]}},{"type":"Feature","properties":{"tier":"regional"},"geometry":{"type":"LineString","coordinates":[[138.927047,-33.138359],[138.927518,-33.137277]]}},{"type":"Feature","properties":{"tier":"high"},"geometry":{"type":"LineString","coordinates":[[138.892836,-33.419983],[138.892851,-33.41959]]}},{"type":"Feature","properties":{"tier":"high"},"geometry":{"type":"LineString","coordinates":[[138.892929,-33.417448],[138.892897,-33.416998],[138.892807,-33.41644],[138.892615,-33.415269]]}},{"type":"Feature","properties":{"tier":"arterial"},"geometry":{"type":"LineString","coordinates":[[138.885019,-33.406869],[138.889053,-33.409681]]}},{"type":"Feature","properties":{"tier":"arterial"},"geometry":{"type":"LineString","coordinates":[[138.889053,-33.409681],[138.890123,-33.410416],[138.890403,-33.410621]]}},{"type":"Feature","properties":{"tier":"arterial"},"geometry":{"type":"LineString","coordinates":[[138.610407,-33.205767],[138.611054,-33.205802]]}}]}
