{"type":"FeatureCollection","features":[{"type":"Feature","properties":{"tier":"arterial"},"geometry":{"type":"LineString","coordinates":[[138.678805,-31.095466],[138.67865,-31.095562],[138.678272,-31.095724],[138.677997,-31.095848],[138.677655,-31.095956],[138.677265,-31.096031]]}},{"type":"Feature","properties":{"tier":"arterial"},"geometry":{"type":"LineString","coordinates":[[138.688465,-31.116738],[138.68815,-31.116119]]}},{"type":"Feature","properties":{"tier":"arterial"},"geometry":{"type":"LineString","coordinates":[[138.688465,-31.116738],[138.689015,-31.117782],[138.689418,-31.118693],[138.689573,-31.119106],[138.689683,-31.119492],[138.689741,-31.119984],[138.689733,-31.120378],[138.689636,-31.121186],[138.689546,-31.121649],[138.689392,-31.122177],[138.689281,-31.122741],[138.689253,-31.123041],[138.689262,-31.123279],[138.689658,-31.124402],[138.689693,-31.124588],[138.689684,-31.124769],[138.689607,-31.12529],[138.689358,-31.125784],[138.68896,-31.1267],[138.688688,-31.127605],[138.688548,-31.128292],[138.688349,-31.129342],[138.68819,-31.130596],[138.688156,-31.131279],[138.688184,-31.131418],[138.688328,-31.132146],[138.688419,-31.132681],[138.688542,-31.13341],[138.68874,-31.135011],[138.688808,-31.136198],[138.688793,-31.137052],[138.688731,-31.13781],[138.68856,-31.138655],[138.688393,-31.139494],[138.688156,-31.140683],[138.687881,-31.141589],[138.68783,-31.141755],[138.687688,-31.142056],[138.687458,-31.142387],[138.686947,-31.143118],[138.686724,-31.143541],[138.686577,-31.144077],[138.686551,-31.144275],[138.686611,-31.144921],[138.68668,-31.145303],[138.687186,-31.146479],[138.687272,-31.146794],[138.687229,-31.147169],[138.687092,-31.147551],[138.686019,-31.149468],[138.685095,-31.15107],[138.684216,-31.152495],[138.683659,-31.153288],[138.682166,-31.155077],[138.681796,-31.155521],[138.679693,-31.158055],[138.678749,-31.159362],[138.678569,-31.159803],[138.678406,-31.160464],[138.678328,-31.161676],[138.678041,-31.16486],[138.677885,-31.165851],[138.677642,-31.166501],[138.677262,-31.167188],[138.6765,-31.168359],[138.675874,-31.169718],[138.675765,-31.170052],[138.675745,-31.170115],[138.675608,-31.171187],[138.675385,-31.172369],[138.675076,-31.173309],[138.674784,-31.174036],[138.674432,-31.17469],[138.673539,-31.175909],[138.673243,-31.17632],[138.672183,-31.177818],[138.67099,-31.179698],[138.670526,-31.180572],[138.670389,-31.180946],[138.670364,-31.1816],[138.670449,-31.182474],[138.67049,-31.182709],[138.670637,-31.183522],[138.670733,-31.184104],[138.670878,-31.184544],[138.671127,-31.184985],[138.67184,-31.186321],[138.67197,-31.186539],[138.672138,-31.186819],[138.672338,-31.187321],[138.67236,-31.187502],[138.672403,-31.187837],[138.672371,-31.18823],[138.672284,-31.188828],[138.672123,-31.189449],[138.67201,-31.18988],[138.67196,-31.190183],[138.671909,-31.190659],[138.671902,-31.190724],[138.671883,-31.190903],[138.671908,-31.191153],[138.671959,-31.191356],[138.672243,-31.192092],[138.672586,-31.192974],[138.672896,-31.193862],[138.67305,-31.194515],[138.673127,-31.195103],[138.673161,-31.195675],[138.673093,-31.196123],[138.672758,-31.19696],[138.672312,-31.197694],[138.670861,-31.199757],[138.669874,-31.201108],[138.669397,-31.201533],[138.669237,-31.201657],[138.669165,-31.201712],[138.668827,-31.20193]]}},{"type":"Feature","properties":{"tier":"arterial"},"geometry":{"type":"LineString","coordinates":[[138.97073,-31.123666],[138.970093,-31.123534],[138.969411,-31.123317],[138.968157,-31.122889],[138.96741,-31.122652],[138.965417,-31.121995],[138.963927,-31.121489],[138.963273,-31.121308],[138.962915,-31.121238],[138.962543,-31.121189],[138.962155,-31.121159],[138.961369,-31.121163],[138.960562,-31.121193],[138.959945,-31.121237],[138.959551,-31.121282],[138.959356,-31.121311],[138.958965,-31.121397],[138.958573,-31.121504],[138.958189,-31.121628],[138.957607,-31.121839],[138.956844,-31.122141],[138.956458,-31.12227],[138.956051,-31.122371],[138.955846,-31.122411],[138.95547,-31.122456],[138.955423,-31.122461],[138.954798,-31.122485],[138.954383,-31.122483],[138.954179,-31.122473],[138.953774,-31.122429],[138.953572,-31.122394],[138.953164,-31.122307],[138.952963,-31.122256],[138.952356,-31.122078],[138.95134,-31.121738],[138.95072,-31.121547],[138.948756,-31.120996],[138.948084,-31.12082],[138.947222,-31.120582],[138.946147,-31.120307],[138.945507,-31.120118],[138.945084,-31.119982],[138.944886,-31.119909],[138.944696,-31.119833],[138.944516,-31.119748],[138.944345,-31.11965],[138.944181,-31.119539],[138.944037,-31.119415],[138.943916,-31.119279],[138.94382,-31.119131],[138.943734,-31.118975],[138.943505,-31.118475],[138.943412,-31.11831],[138.943306,-31.118147],[138.943067,-31.117834],[138.942936,-31.117686],[138.942652,-31.117398],[138.941748,-31.116571],[138.941316,-31.116206],[138.94096,-31.115949],[138.940773,-31.115838],[138.940348,-31.115662],[138.939434,-31.115329],[138.939142,-31.115203],[138.938834,-31.11505],[138.938689,-31.11496],[138.93855,-31.114861],[138.938415,-31.114751],[138.938292,-31.114632],[138.938175,-31.114502],[138.938074,-31.114364],[138.9378,-31.113931],[138.937544,-31.113487],[138.93723,-31.113065],[138.937114,-31.112924],[138.936985,-31.112787],[138.936844,-31.112652],[138.93669,-31.112526],[138.93653,-31.112404],[138.936358,-31.11229],[138.93599,-31.112069],[138.934842,-31.111438],[138.934276,-31.11111],[138.933909,-31.11088],[138.933556,-31.110636],[138.93339,-31.110503],[138.93309,-31.110214],[138.932677,-31.109746],[138.932383,-31.109442],[138.932225,-31.109298],[138.932059,-31.10916],[138.931707,-31.10891],[138.931517,-31.108792],[138.931322,-31.108684],[138.931123,-31.10858],[138.930713,-31.108388],[138.930286,-31.108221],[138.929855,-31.108093],[138.929213,-31.107953],[138.928787,-31.107882],[138.92857,-31.107857],[138.928349,-31.107841],[138.928123,-31.107835],[138.927896,-31.107842],[138.927465,-31.107889],[138.927245,-31.107924],[138.925453,-31.108269],[138.923882,-31.108546],[138.923437,-31.108611],[138.922983,-31.108665],[138.922537,-31.1087],[138.922318,-31.108706],[138.922101,-31.108695],[138.921879,-31.108674],[138.921654,-31.108638],[138.921444,-31.108588],[138.921026,-31.108465],[138.91977,-31.108036],[138.919178,-31.10785],[138.918781,-31.107739],[138.918579,-31.107697],[138.918378,-31.107668],[138.918176,-31.10765],[138.917972,-31.107647],[138.917555,-31.107672],[138.917348,-31.107702],[138.916941,-31.107782],[138.916546,-31.107899],[138.915977,-31.108134],[138.915138,-31.108577],[138.914818,-31.108716],[138.914484,-31.108836],[138.914139,-31.108939],[138.913961,-31.108982],[138.913588,-31.109047],[138.913218,-31.109089],[138.913015,-31.109096],[138.912825,-31.109095],[138.912438,-31.109075],[138.912234,-31.109063],[138.912034,-31.109042],[138.911433,-31.108956],[138.910841,-31.108837],[138.91065,-31.108788],[138.910275,-31.108654],[138.909918,-31.108477],[138.909739,-31.108378],[138.909578,-31.108275],[138.909424,-31.108163],[138.909271,-31.108041],[138.908984,-31.107788],[138.908577,-31.107396],[138.908134,-31.107015],[138.907823,-31.106793],[138.907156,-31.106388],[138.906996,-31.106274],[138.906691,-31.106033],[138.906418,-31.105775],[138.906058,-31.105341],[138.905853,-31.105028],[138.905677,-31.104702],[138.905598,-31.104535],[138.905439,-31.104189],[138.905144,-31.103489],[138.904958,-31.103152],[138.904845,-31.102985],[138.904728,-31.102822],[138.904598,-31.102664],[138.904317,-31.102358],[138.903734,-31.10179],[138.903479,-31.101527],[138.90298,-31.101066],[138.902872,-31.100957],[138.902762,-31.100839],[138.902573,-31.100597],[138.902265,-31.100095],[138.902026,-31.099725],[138.901694,-31.09913],[138.901467,-31.098784],[138.901007,-31.098012],[138.900651,-31.09746],[138.90029,-31.096852],[138.900095,-31.096553],[138.899872,-31.096277],[138.899749,-31.096146],[138.899607,-31.096018],[138.899456,-31.095911],[138.899283,-31.095811],[138.899098,-31.095732],[138.898895,-31.095667],[138.898696,-31.095621],[138.898492,-31.095591],[138.898278,-31.095568],[138.898061,-31.095554],[138.897403,-31.095538],[138.896962,-31.09554],[138.896123,-31.095597],[138.895922,-31.095606],[138.895724,-31.095603],[138.895532,-31.09559],[138.895314,-31.095555],[138.894997,-31.095504],[138.894839,-31.095487],[138.894678,-31.095484],[138.894521,-31.095507],[138.894372,-31.095552],[138.894233,-31.095617],[138.893952,-31.095773],[138.893803,-31.09584],[138.893649,-31.095889],[138.89348,-31.095925],[138.893314,-31.095943],[138.89296,-31.095944],[138.892389,-31.095926],[138.890494,-31.095815],[138.889651,-31.095779],[138.889242,-31.09577],[138.888176,-31.095771],[138.886748,-31.095827],[138.886345,-31.095823],[138.886144,-31.095805],[138.885955,-31.095779],[138.885767,-31.095734],[138.885596,-31.095687],[138.884992,-31.095499],[138.88473,-31.095408],[138.884435,-31.095323],[138.883946,-31.095224],[138.883577,-31.09519],[138.883397,-31.095181],[138.883215,-31.095179],[138.882681,-31.095193],[138.881782,-31.095163],[138.881421,-31.095194],[138.881242,-31.09523],[138.881068,-31.095275],[138.880753,-31.095374],[138.880203,-31.09558],[138.879875,-31.095689],[138.879599,-31.09578],[138.879382,-31.09582],[138.879258,-31.095829],[138.878866,-31.095821],[138.878584,-31.095784],[138.877606,-31.095584],[138.877269,-31.095531],[138.876549,-31.095451],[138.876145,-31.095391],[138.875511,-31.095257],[138.875288,-31.095204],[138.874634,-31.095021],[138.872587,-31.094474],[138.870855,-31.09403],[138.869844,-31.093729],[138.869471,-31.093657],[138.86929,-31.093647],[138.869115,-31.093654],[138.868942,-31.093683],[138.868601,-31.093771],[138.867963,-31.093951],[138.867687,-31.093992],[138.867543,-31.093996],[138.867406,-31.093987],[138.867285,-31.093964],[138.867165,-31.09393],[138.866813,-31.09378],[138.866278,-31.09353],[138.86588,-31.093317],[138.865456,-31.093123],[138.865208,-31.092967],[138.865097,-31.092882],[138.864647,-31.09248],[138.864512,-31.092383],[138.864218,-31.0922],[138.863899,-31.092039],[138.863724,-31.09197],[138.863544,-31.091914],[138.86335,-31.091865],[138.863154,-31.091831],[138.862765,-31.091785],[138.862566,-31.091778],[138.862372,-31.09176],[138.862004,-31.091711],[138.86184,-31.091669],[138.861679,-31.09161],[138.861522,-31.091531],[138.861369,-31.091432],[138.861236,-31.091318],[138.861119,-31.091197],[138.861019,-31.091068],[138.860735,-31.090649],[138.86051,-31.090371],[138.860281,-31.090116],[138.859786,-31.089641],[138.859646,-31.089534],[138.859493,-31.08944],[138.859335,-31.089363],[138.859156,-31.089308],[138.858977,-31.089271],[138.858796,-31.089254],[138.858617,-31.089247],[138.858439,-31.089256],[138.858266,-31.089284],[138.858099,-31.089328],[138.857937,-31.089391],[138.857779,-31.089465],[138.857183,-31.089817],[138.857032,-31.089883],[138.856876,-31.089915],[138.856723,-31.089923],[138.856558,-31.089907],[138.856396,-31.089879],[138.856245,-31.089839],[138.856104,-31.089789],[138.855971,-31.089736],[138.855724,-31.089611],[138.855492,-31.089467],[138.855129,-31.089225],[138.855017,-31.089139],[138.854914,-31.089042],[138.854818,-31.088934],[138.854606,-31.088732],[138.854489,-31.088634],[138.854364,-31.088553],[138.854227,-31.088495],[138.854083,-31.088463],[138.853939,-31.088459],[138.853643,-31.088521],[138.853333,-31.0886],[138.853174,-31.088627],[138.852842,-31.08864],[138.85251,-31.088622],[138.852353,-31.088603],[138.85189,-31.088509],[138.851593,-31.088439],[138.851,-31.088274],[138.850703,-31.088176],[138.850577,-31.08812],[138.850328,-31.087983],[138.850091,-31.087815],[138.849465,-31.087311],[138.849062,-31.086976],[138.848933,-31.086859],[138.848203,-31.086138],[138.847679,-31.085684],[138.847435,-31.08549],[138.847319,-31.08541],[138.847202,-31.085347],[138.847072,-31.085296],[138.846939,-31.085266],[138.846794,-31.08526],[138.846648,-31.085284],[138.84635,-31.085363],[138.845886,-31.0855],[138.845428,-31.085609],[138.845158,-31.085682],[138.844741,-31.085746],[138.844595,-31.085779],[138.844303,-31.085864],[138.843888,-31.086028],[138.843747,-31.08607],[138.843596,-31.086105],[138.843446,-31.086125],[138.843301,-31.086127],[138.843148,-31.086116],[138.842827,-31.086107],[138.842495,-31.086119],[138.84178,-31.086185],[138.841251,-31.086261],[138.840414,-31.08645],[138.840228,-31.086468],[138.839533,-31.086472],[138.839264,-31.086461],[138.839033,-31.08644],[138.838932,-31.086424],[138.838458,-31.086389],[138.838039,-31.086392],[138.837891,-31.086402],[138.837753,-31.086422],[138.83727,-31.08652],[138.83708,-31.086541],[138.836988,-31.086541],[138.836751,-31.086524],[138.836605,-31.086489],[138.836425,-31.086426],[138.836096,-31.086257],[138.835675,-31.086071],[138.835485,-31.086015],[138.835264,-31.085977],[138.835158,-31.085969],[138.834735,-31.08598],[138.834249,-31.086019],[138.833029,-31.086101],[138.832781,-31.086113],[138.832648,-31.086107],[138.832516,-31.086092],[138.832268,-31.08604],[138.831878,-31.085935],[138.831353,-31.085814],[138.830951,-31.085691],[138.83068,-31.08563],[138.830544,-31.085607],[138.830411,-31.085597],[138.830278,-31.085599],[138.830143,-31.085612],[138.830015,-31.085649],[138.829897,-31.085704],[138.82974,-31.085872],[138.829567,-31.086074],[138.829497,-31.086185],[138.829365,-31.086427],[138.829206,-31.08677],[138.829086,-31.086952],[138.828997,-31.087017],[138.828891,-31.087057],[138.828767,-31.087079],[138.828639,-31.087074],[138.828383,-31.087033],[138.828143,-31.086969],[138.827897,-31.086876],[138.827643,-31.086757],[138.827377,-31.086649],[138.826824,-31.086401],[138.826552,-31.086297],[138.8264,-31.086263],[138.82625,-31.086243],[138.826096,-31.086239],[138.825946,-31.086249],[138.825653,-31.086289],[138.825235,-31.086396],[138.824953,-31.086485],[138.824804,-31.086536],[138.824522,-31.086672],[138.823947,-31.087],[138.823384,-31.08736],[138.823233,-31.087444],[138.82264,-31.087803],[138.821738,-31.088325],[138.821438,-31.08849],[138.821285,-31.088562],[138.821126,-31.088621],[138.820963,-31.088656],[138.820792,-31.088674],[138.820618,-31.088676],[138.820443,-31.08866],[138.820277,-31.088618],[138.820112,-31.088563],[138.819785,-31.088413],[138.819071,-31.088054],[138.818892,-31.087953],[138.818722,-31.087839],[138.818411,-31.087606],[138.81827,-31.087486],[138.817819,-31.087152],[138.817518,-31.086955],[138.81736,-31.086862],[138.81686,-31.086598],[138.816513,-31.086435],[138.816152,-31.086297],[138.815776,-31.086186],[138.814967,-31.085998],[138.814574,-31.085934],[138.81438,-31.08592],[138.814188,-31.085918],[138.814001,-31.085929],[138.813816,-31.08595],[138.813222,-31.086052],[138.812476,-31.086207],[138.811936,-31.086342],[138.811589,-31.086455],[138.811261,-31.086592],[138.811119,-31.086678],[138.810995,-31.08677],[138.810887,-31.086871],[138.810798,-31.086985],[138.810732,-31.087114],[138.81068,-31.087251],[138.810589,-31.087548],[138.810526,-31.087699],[138.810373,-31.087997],[138.809941,-31.088719],[138.809862,-31.088868],[138.809735,-31.089182],[138.809692,-31.089331],[138.809667,-31.089482],[138.809675,-31.089635],[138.809702,-31.089788],[138.809859,-31.090398],[138.809883,-31.090549],[138.809897,-31.09069],[138.809914,-31.091084],[138.809928,-31.091211],[138.809921,-31.091349],[138.809893,-31.09163],[138.809635,-31.092885],[138.809539,-31.09329],[138.809452,-31.093571],[138.809393,-31.093711],[138.809324,-31.093845],[138.809238,-31.093971],[138.809133,-31.094071],[138.809015,-31.094142],[138.808881,-31.094202],[138.808739,-31.094249],[138.808585,-31.09428],[138.808425,-31.0943],[138.808257,-31.094305],[138.808079,-31.094297],[138.807901,-31.094282],[138.807546,-31.094232],[138.8072,-31.094176],[138.804762,-31.093735],[138.803961,-31.093631],[138.803553,-31.093588],[138.801001,-31.093397],[138.798422,-31.093229],[138.797827,-31.093172],[138.797204,-31.093142],[138.796767,-31.093112],[138.796099,-31.09306],[138.795665,-31.093015],[138.795444,-31.092985],[138.795223,-31.092945],[138.795009,-31.092896],[138.794797,-31.092834],[138.794384,-31.092691],[138.79338,-31.092288],[138.791838,-31.091634],[138.791465,-31.091481],[138.791106,-31.091344],[138.790732,-31.091231],[138.790534,-31.091192],[138.790323,-31.09117],[138.790109,-31.091158],[138.789893,-31.091155],[138.788779,-31.091192],[138.787871,-31.091205],[138.786959,-31.091242],[138.785159,-31.091285],[138.784936,-31.091295],[138.784489,-31.091332],[138.784042,-31.091398],[138.783596,-31.091491],[138.781378,-31.092072],[138.780731,-31.092225],[138.780303,-31.092289],[138.779873,-31.092336],[138.779653,-31.092352],[138.779208,-31.092366],[138.778771,-31.092346],[138.778564,-31.092309],[138.778372,-31.092253],[138.778184,-31.092183],[138.777999,-31.092103],[138.777817,-31.092012],[138.777459,-31.091819],[138.777103,-31.091605],[138.776572,-31.091243],[138.776039,-31.090844],[138.775162,-31.09021],[138.77479,-31.09001],[138.774598,-31.089927],[138.774401,-31.089865],[138.774004,-31.089792],[138.773428,-31.089712],[138.772943,-31.089668],[138.772486,-31.089612],[138.771846,-31.089512],[138.770688,-31.089306],[138.77053,-31.089286],[138.770368,-31.089278],[138.770203,-31.089291],[138.770045,-31.089322],[138.769893,-31.089375],[138.76976,-31.089446],[138.769365,-31.089712],[138.769222,-31.089797],[138.76908,-31.089874],[138.768936,-31.089936],[138.768785,-31.089982],[138.768635,-31.090012],[138.76848,-31.090022],[138.768316,-31.090023],[138.768157,-31.090012],[138.76783,-31.08997],[138.767667,-31.089936],[138.767507,-31.089897],[138.767352,-31.089849],[138.767195,-31.089787],[138.767044,-31.089708],[138.766906,-31.089622],[138.766376,-31.089214],[138.766232,-31.08912],[138.765935,-31.088944],[138.765614,-31.088788],[138.765442,-31.088725],[138.765266,-31.088674],[138.765085,-31.088634],[138.764896,-31.088607],[138.764703,-31.088592],[138.764305,-31.088591],[138.764112,-31.088603],[138.763725,-31.088663],[138.763182,-31.088781],[138.763002,-31.088812],[138.762818,-31.088833],[138.762282,-31.088874],[138.762113,-31.088897],[138.761963,-31.088935],[138.761823,-31.088991],[138.761707,-31.089066],[138.761614,-31.089162],[138.761382,-31.089525],[138.761294,-31.089647],[138.761192,-31.089762],[138.761078,-31.089868],[138.760952,-31.089969],[138.760675,-31.090163],[138.760535,-31.090255],[138.760243,-31.090424],[138.75996,-31.09057],[138.759817,-31.090631],[138.759667,-31.090683],[138.759354,-31.090757],[138.758763,-31.090856],[138.758489,-31.090933],[138.758352,-31.09098],[138.758226,-31.091039],[138.758109,-31.09111],[138.758,-31.09119],[138.757906,-31.091281],[138.757838,-31.091388],[138.757796,-31.091504],[138.757768,-31.091626],[138.757689,-31.091871],[138.757587,-31.092246],[138.757452,-31.092627],[138.757287,-31.093012],[138.757218,-31.093139],[138.757063,-31.093389],[138.75697,-31.093503],[138.756866,-31.093606],[138.756753,-31.093699],[138.756632,-31.093779],[138.756375,-31.093906],[138.756231,-31.093946],[138.756091,-31.093968],[138.755823,-31.094026],[138.755606,-31.094085],[138.755517,-31.094126],[138.755431,-31.094181],[138.755353,-31.094255],[138.75528,-31.094339],[138.755184,-31.094555],[138.755112,-31.094809],[138.754946,-31.09516],[138.754754,-31.095533],[138.754595,-31.095772],[138.75451,-31.095885],[138.754415,-31.095996],[138.75419,-31.096205],[138.753933,-31.096373],[138.753654,-31.096514],[138.753514,-31.096568],[138.753367,-31.096607],[138.753217,-31.096643],[138.752775,-31.096726],[138.752636,-31.09676],[138.75252,-31.096806],[138.75244,-31.096865],[138.752374,-31.096935],[138.752336,-31.09702],[138.75234,-31.097121],[138.752368,-31.097222],[138.752425,-31.097319],[138.752589,-31.097501],[138.752659,-31.097599],[138.752697,-31.097703],[138.752717,-31.097811],[138.752718,-31.097922],[138.752699,-31.098036],[138.752609,-31.098268],[138.752488,-31.098522],[138.75234,-31.098762],[138.752254,-31.098875],[138.752161,-31.098975],[138.752058,-31.099063],[138.751941,-31.099149],[138.751819,-31.099227],[138.751696,-31.099291],[138.751562,-31.099346],[138.751149,-31.099472],[138.751007,-31.099502],[138.750712,-31.099543],[138.750549,-31.099541],[138.750389,-31.099533],[138.75023,-31.099512],[138.750075,-31.099481],[138.749928,-31.099437],[138.749659,-31.099336],[138.749387,-31.099249],[138.74925,-31.099231],[138.749104,-31.099235],[138.748946,-31.099257],[138.74879,-31.09929],[138.74848,-31.099377],[138.74801,-31.099525],[138.747858,-31.099578],[138.746984,-31.099921],[138.746845,-31.099965],[138.74671,-31.099994],[138.746561,-31.100013],[138.746417,-31.100018],[138.746276,-31.099996],[138.74615,-31.099953],[138.746026,-31.099885],[138.745918,-31.0998],[138.745829,-31.099692],[138.74558,-31.099321],[138.745246,-31.098777],[138.744793,-31.098217],[138.744692,-31.098072],[138.744596,-31.097925],[138.744513,-31.09777],[138.74444,-31.097609],[138.744176,-31.096944],[138.744017,-31.096613],[138.743825,-31.096283],[138.743607,-31.095962],[138.743261,-31.095519],[138.743132,-31.095387],[138.742996,-31.095268],[138.742847,-31.095157],[138.74269,-31.095059],[138.742522,-31.094976],[138.74235,-31.094913],[138.742178,-31.094862],[138.741995,-31.094825],[138.741813,-31.094806],[138.741619,-31.094799],[138.741418,-31.094795],[138.74122,-31.0948],[138.741023,-31.09482],[138.74083,-31.094855],[138.740648,-31.094901],[138.740437,-31.094969],[138.740303,-31.095013],[138.74013,-31.095078],[138.739952,-31.095157],[138.739444,-31.095426],[138.737783,-31.096392],[138.73728,-31.096672],[138.736594,-31.097087],[138.736257,-31.097307],[138.736093,-31.097428],[138.73577,-31.097679],[138.735452,-31.097943],[138.734526,-31.098762],[138.734209,-31.099028],[138.733062,-31.100084],[138.732053,-31.101039],[138.731429,-31.10159],[138.730962,-31.102022],[138.729895,-31.103042],[138.72904,-31.103813],[138.728631,-31.104161],[138.728338,-31.104389],[138.728022,-31.104605],[138.727684,-31.104802],[138.727152,-31.105079],[138.726768,-31.105249],[138.725509,-31.105762],[138.724382,-31.106246],[138.723118,-31.106796],[138.721833,-31.107341],[138.721014,-31.107702],[138.720597,-31.107877],[138.720179,-31.108044],[138.71956,-31.108306],[138.718084,-31.108899],[138.716833,-31.109385],[138.716389,-31.109546],[138.715942,-31.109722],[138.714337,-31.110384],[138.712177,-31.111254],[138.711494,-31.111582],[138.711422,-31.111618],[138.7106,-31.112029],[138.709695,-31.112461],[138.708579,-31.113015],[138.706834,-31.113867],[138.70487,-31.114857],[138.704311,-31.115128],[138.703782,-31.115368],[138.703409,-31.115496],[138.703213,-31.115546],[138.703013,-31.115589],[138.702808,-31.11562],[138.702596,-31.115638],[138.702379,-31.115637],[138.70216,-31.115618],[138.701732,-31.11555],[138.701523,-31.115498],[138.701323,-31.11544],[138.700937,-31.115298],[138.700764,-31.115217],[138.700594,-31.115125],[138.700434,-31.115022],[138.700289,-31.114906],[138.700169,-31.114782],[138.699876,-31.11444],[138.699761,-31.114348],[138.699632,-31.114268],[138.699486,-31.114209],[138.699322,-31.114168],[138.699152,-31.114147],[138.698974,-31.11414],[138.698806,-31.114162],[138.69863,-31.114205],[138.698459,-31.114252],[138.698301,-31.114309],[138.697841,-31.114501],[138.697239,-31.114738],[138.696814,-31.114905],[138.695863,-31.115258],[138.695122,-31.115552],[138.694653,-31.115706],[138.694473,-31.115766],[138.694272,-31.115799],[138.694071,-31.115786],[138.693829,-31.115734],[138.693554,-31.115656],[138.693213,-31.115545],[138.693014,-31.115491],[138.692758,-31.115484],[138.692536,-31.115488],[138.692341,-31.115516],[138.692035,-31.11555],[138.691791,-31.11558],[138.691549,-31.115608],[138.691297,-31.11565],[138.690652,-31.115752],[138.68971,-31.115809],[138.689391,-31.115843],[138.689243,-31.115864],[138.688809,-31.115945],[138.688465,-31.116022],[138.688232,-31.116093],[138.68815,-31.116119]]}},{"type":"Feature","properties":{"tier":"arterial"},"geometry":{"type":"LineString","coordinates":[[138.97073,-31.123666],[138.970816,-31.123661],[138.971,-31.123633],[138.971724,-31.123471],[138.972082,-31.123373],[138.972418,-31.123247],[138.973377,-31.12282],[138.973748,-31.122672],[138.974724,-31.122229],[138.975619,-31.121862],[138.976351,-31.121543],[138.978537,-31.120557],[138.979296,-31.120198],[138.981391,-31.119279],[138.982258,-31.118924],[138.984256,-31.118022],[138.984612,-31.117832],[138.984958,-31.117626],[138.985286,-31.117399],[138.985596,-31.11716],[138.986039,-31.11677],[138.986587,-31.116215],[138.989173,-31.113293],[138.989703,-31.112752],[138.990467,-31.111928],[138.991318,-31.110976],[138.993238,-31.108884],[138.994584,-31.10735],[138.996268,-31.105488],[139.00002,-31.101386]]}},{"type":"Feature","properties":{"tier":"arterial"},"geometry":{"type":"LineString","coordinates":[[138.49998,-31.128078],[138.500172,-31.128028],[138.500483,-31.12801],[138.500569,-31.128005],[138.501616,-31.127873],[138.502465,-31.127594],[138.503684,-31.127197],[138.50549,-31.126773],[138.506371,-31.126566],[138.50662,-31.126455],[138.507075,-31.126147],[138.507449,-31.125888],[138.507741,-31.125687],[138.508963,-31.124844],[138.509109,-31.124743],[138.509795,-31.124376],[138.510328,-31.12417],[138.510774,-31.124148],[138.51116,-31.1242],[138.511521,-31.124317],[138.511838,-31.124486],[138.512242,-31.124854],[138.512324,-31.124985],[138.512422,-31.12514],[138.512885,-31.125985],[138.513177,-31.126587],[138.513761,-31.127278],[138.514055,-31.127667],[138.514456,-31.128197],[138.514945,-31.12863],[138.515435,-31.12888],[138.515976,-31.129091],[138.516773,-31.129402],[138.517177,-31.129475],[138.517477,-31.129468],[138.517812,-31.129431],[138.518928,-31.128968],[138.519589,-31.128748],[138.520095,-31.128601],[138.5214,-31.128417],[138.522876,-31.128307],[138.523889,-31.12841],[138.525374,-31.128786],[138.526043,-31.128909],[138.526635,-31.129196],[138.527271,-31.129842],[138.528232,-31.131018],[138.528807,-31.131936],[138.529176,-31.132693],[138.529245,-31.132911],[138.529365,-31.133295],[138.529485,-31.13389],[138.529556,-31.134297],[138.529605,-31.134574],[138.529811,-31.134787],[138.530003,-31.13488],[138.530129,-31.134941],[138.530463,-31.13489],[138.530755,-31.134566],[138.530927,-31.134199],[138.531064,-31.133905],[138.531313,-31.133641],[138.531605,-31.133516],[138.531731,-31.133523],[138.531871,-31.13353],[138.53218,-31.133678],[138.532652,-31.133883],[138.532867,-31.133935],[138.533279,-31.133898],[138.533646,-31.133857],[138.533824,-31.133838],[138.534077,-31.13381],[138.534446,-31.13381],[138.534961,-31.13389],[138.535399,-31.134067],[138.535708,-31.13417],[138.53606,-31.134184],[138.53636,-31.134214],[138.5366,-31.134339],[138.536918,-31.134611],[138.537201,-31.134757],[138.537553,-31.134838],[138.537819,-31.134735],[138.538145,-31.134493],[138.538652,-31.133898],[138.539041,-31.133468],[138.539922,-31.132495],[138.54024,-31.132296],[138.540583,-31.132223],[138.540892,-31.13223],[138.541287,-31.132318],[138.542076,-31.132531],[138.542605,-31.132602],[138.543201,-31.132664],[138.543948,-31.132656],[138.544771,-31.132443],[138.545274,-31.132278],[138.546248,-31.131686],[138.546407,-31.13165],[138.546574,-31.131628],[138.546952,-31.131686],[138.547604,-31.131811],[138.547896,-31.131804],[138.548135,-31.131773],[138.5523,-31.130962],[138.554428,-31.130543],[138.55459,-31.130511],[138.555054,-31.130342],[138.555354,-31.130158],[138.555603,-31.129872],[138.555764,-31.129454],[138.555784,-31.129402],[138.556007,-31.128681],[138.556427,-31.127859],[138.556805,-31.127028],[138.556977,-31.126786],[138.557663,-31.126257],[138.558024,-31.126007],[138.558616,-31.125684],[138.558968,-31.125529],[138.5592,-31.125508],[138.559644,-31.125564]]}},{"type":"Feature","properties":{"tier":"regional"},"geometry":{"type":"LineString","coordinates":[[138.674748,-31.08814],[138.674593,-31.088713],[138.674705,-31.08914],[138.674709,-31.089495],[138.674714,-31.089963],[138.675246,-31.09072],[138.675566,-31.09098],[138.675574,-31.09099],[138.675864,-31.091352],[138.676851,-31.092109],[138.677137,-31.092496],[138.677177,-31.09255]]}},{"type":"Feature","properties":{"tier":"arterial"},"geometry":{"type":"LineString","coordinates":[[138.562985,-31.126037],[138.5638,-31.125978],[138.564164,-31.125862],[138.564495,-31.125757],[138.56483,-31.125684],[138.565105,-31.125647],[138.565405,-31.125603],[138.565697,-31.125456],[138.566238,-31.124978],[138.566667,-31.124567],[138.567268,-31.123715],[138.567929,-31.123164],[138.568916,-31.122554],[138.569826,-31.122003],[138.570289,-31.121599],[138.571628,-31.121224],[138.571927,-31.121061],[138.572246,-31.12071],[138.572984,-31.120254],[138.574452,-31.119519],[138.575181,-31.1191],[138.575387,-31.118836],[138.575404,-31.118505],[138.575362,-31.118152],[138.575447,-31.117836],[138.575911,-31.117344],[138.576237,-31.117006],[138.576374,-31.116786],[138.5764,-31.116146],[138.57652,-31.115595],[138.577164,-31.115154],[138.578469,-31.114802],[138.579241,-31.114243],[138.579816,-31.113913],[138.580271,-31.113663],[138.580657,-31.113259],[138.580889,-31.112906],[138.58137,-31.11256],[138.581739,-31.112369],[138.582168,-31.111921],[138.582692,-31.111554],[138.584339,-31.110562],[138.585,-31.110253],[138.585472,-31.110077],[138.585807,-31.110018],[138.58621,-31.110128],[138.586597,-31.110422],[138.586897,-31.110723],[138.587919,-31.111135],[138.588071,-31.111219],[138.588146,-31.111326],[138.588217,-31.111495],[138.588133,-31.111664],[138.587979,-31.112399],[138.588022,-31.112513],[138.588065,-31.112627],[138.588477,-31.113053],[138.588811,-31.113067],[138.58973,-31.112884],[138.590073,-31.112928],[138.590399,-31.113148],[138.590593,-31.113146],[138.590751,-31.112972],[138.590983,-31.112582],[138.591343,-31.112575],[138.591721,-31.112781],[138.591944,-31.112906],[138.592189,-31.112981],[138.592485,-31.112939],[138.592957,-31.112619],[138.593124,-31.112524],[138.593309,-31.112502],[138.593562,-31.112774],[138.593798,-31.112957],[138.594055,-31.113053],[138.594356,-31.113045],[138.594673,-31.112913],[138.595553,-31.112391],[138.596433,-31.111539],[138.596793,-31.111238],[138.597403,-31.11087],[138.597961,-31.110584],[138.598424,-31.110437],[138.599094,-31.110297],[138.600038,-31.110172],[138.600604,-31.11004],[138.601094,-31.109775],[138.601892,-31.109158],[138.602432,-31.108607],[138.602759,-31.108379],[138.603754,-31.10799],[138.604784,-31.107644],[138.605523,-31.107424],[138.606372,-31.107247],[138.607153,-31.107115],[138.607788,-31.107012],[138.608114,-31.106997],[138.608389,-31.107078],[138.60929,-31.107475],[138.609883,-31.107747],[138.610844,-31.108085],[138.612234,-31.108445],[138.613299,-31.108702],[138.6139,-31.108879],[138.614051,-31.108931],[138.615427,-31.109408],[138.615435,-31.10941],[138.616397,-31.109636],[138.617195,-31.109893],[138.617959,-31.110268],[138.618612,-31.110451],[138.61929,-31.110598],[138.619926,-31.110793],[138.620036,-31.110826],[138.620723,-31.111098],[138.621599,-31.111679],[138.622208,-31.112149],[138.622671,-31.112575],[138.623444,-31.112898],[138.624568,-31.113178],[138.625461,-31.113325],[138.626766,-31.113398],[138.628456,-31.113457],[138.630207,-31.113464],[138.631572,-31.113516],[138.633632,-31.113677],[138.635332,-31.113832],[138.636207,-31.113898],[138.63752,-31.113905],[138.638576,-31.113905],[138.639494,-31.113942],[138.640155,-31.113986],[138.640968,-31.114096],[138.641237,-31.114133],[138.641589,-31.114148],[138.642413,-31.114067],[138.643065,-31.113986],[138.643588,-31.113964],[138.644146,-31.114059],[138.64449,-31.114192],[138.645262,-31.114875],[138.645615,-31.115226],[138.64641,-31.115713],[138.646944,-31.116308],[138.647149,-31.116438],[138.647399,-31.116506],[138.648,-31.116587],[138.648712,-31.116617],[138.649485,-31.116587],[138.650197,-31.116499],[138.65091,-31.116396],[138.651519,-31.116227],[138.651819,-31.11586],[138.652171,-31.115287],[138.652566,-31.1145],[138.652751,-31.114286],[138.652977,-31.114155],[138.653219,-31.11417],[138.653558,-31.114184],[138.653969,-31.114159],[138.654729,-31.113744],[138.655189,-31.113539],[138.655534,-31.113276],[138.655663,-31.112938],[138.656085,-31.112127],[138.656326,-31.111818],[138.65739,-31.11112],[138.657819,-31.110826],[138.658368,-31.110201],[138.65872,-31.109952],[138.659407,-31.109849],[138.6603,-31.109761],[138.660574,-31.109694],[138.660783,-31.109572],[138.660884,-31.109353],[138.660949,-31.108821],[138.661089,-31.108392],[138.661287,-31.108034],[138.661913,-31.10699],[138.662179,-31.106388],[138.662171,-31.106108],[138.662059,-31.105719],[138.662085,-31.105462],[138.66242,-31.105021],[138.662943,-31.104653],[138.66369,-31.104249],[138.664909,-31.103514],[138.6652,-31.103389],[138.666016,-31.103272],[138.666873,-31.103146],[138.66718,-31.103081],[138.667541,-31.102956],[138.668436,-31.102559],[138.669878,-31.101919],[138.671037,-31.101353],[138.672316,-31.100633],[138.672977,-31.100089],[138.673021,-31.100047],[138.673826,-31.099259],[138.674728,-31.098259],[138.67532,-31.097466],[138.676075,-31.096672]]}},{"type":"Feature","properties":{"tier":"arterial"},"geometry":{"type":"LineString","coordinates":[[138.67633,-31.096368],[138.676075,-31.096672]]}},{"type":"Feature","properties":{"tier":"arterial"},"geometry":{"type":"LineString","coordinates":[[138.559644,-31.125564],[138.560195,-31.125772],[138.560753,-31.125948],[138.561155,-31.126],[138.561551,-31.126051],[138.562985,-31.126037]]}},{"type":"Feature","properties":{"tier":"regional"},"geometry":{"type":"LineString","coordinates":[[138.677316,-31.092691],[138.677522,-31.09294],[138.677591,-31.093052],[138.677719,-31.093218],[138.677822,-31.093432],[138.677869,-31.093526]]}},{"type":"Feature","properties":{"tier":"arterial"},"geometry":{"type":"LineString","coordinates":[[138.685953,-31.315717],[138.686761,-31.315797],[138.687729,-31.315731],[138.688465,-31.315725],[138.688999,-31.315836],[138.689491,-31.316057],[138.690125,-31.316472],[138.690955,-31.317086],[138.691245,-31.3173],[138.691897,-31.317725],[138.693026,-31.318322],[138.693839,-31.318755],[138.694472,-31.319131],[138.694971,-31.319586],[138.69543,-31.320135],[138.698463,-31.324268],[138.699576,-31.325692],[138.701728,-31.328617],[138.702089,-31.329185],[138.70232,-31.329729],[138.702458,-31.330195],[138.702529,-31.330623],[138.702509,-31.33103],[138.702454,-31.331401],[138.702326,-31.331769],[138.701139,-31.334222],[138.700967,-31.334672],[138.700824,-31.335199],[138.700791,-31.335686],[138.700872,-31.336225],[138.701165,-31.337363],[138.701451,-31.338472],[138.702055,-31.34064],[138.70229,-31.341278],[138.702618,-31.341921],[138.703134,-31.342805],[138.703937,-31.343928],[138.704249,-31.344465],[138.704511,-31.345148],[138.704594,-31.345824],[138.704489,-31.34923],[138.704434,-31.35053],[138.704469,-31.351278],[138.704848,-31.352773],[138.705217,-31.353426],[138.705239,-31.353465],[138.705374,-31.353669],[138.705528,-31.353902],[138.706132,-31.354664],[138.706536,-31.354972],[138.706961,-31.355204],[138.707061,-31.355241],[138.708404,-31.355749],[138.710252,-31.356505],[138.710727,-31.356793],[138.711038,-31.357065],[138.711963,-31.358042],[138.712653,-31.35884],[138.712823,-31.359125],[138.712918,-31.359379],[138.712953,-31.359648],[138.712875,-31.360073],[138.712669,-31.360486],[138.712447,-31.360898],[138.711906,-31.361819],[138.71177,-31.362116],[138.711677,-31.362496],[138.711677,-31.362741],[138.711723,-31.363005],[138.711811,-31.363232],[138.712002,-31.363626],[138.712296,-31.364098],[138.713131,-31.365438],[138.713397,-31.365889],[138.713734,-31.366288],[138.714309,-31.366816],[138.715363,-31.367687],[138.715861,-31.368129],[138.716317,-31.368607],[138.717804,-31.370363],[138.718369,-31.37103],[138.718797,-31.371555],[138.719174,-31.372125],[138.719297,-31.372472],[138.719389,-31.372731],[138.719392,-31.373293],[138.719202,-31.374025],[138.718889,-31.374614],[138.718466,-31.37516],[138.718025,-31.375632],[138.716815,-31.376995],[138.714935,-31.379083],[138.71399,-31.380088],[138.713543,-31.380664],[138.713195,-31.381322],[138.712892,-31.382001],[138.712595,-31.382575],[138.712173,-31.383054],[138.711147,-31.38378],[138.710558,-31.384134],[138.710037,-31.384536],[138.709274,-31.385347],[138.708297,-31.386531],[138.707996,-31.386937],[138.707648,-31.387503],[138.707424,-31.387973],[138.706884,-31.389305],[138.706686,-31.389962],[138.70659,-31.390525],[138.706594,-31.39097],[138.706628,-31.391687],[138.70671,-31.39224],[138.706874,-31.3927],[138.707386,-31.393922],[138.707576,-31.394376],[138.70781,-31.394956],[138.707988,-31.39547],[138.708103,-31.395943],[138.708165,-31.396502],[138.708219,-31.397188],[138.70816,-31.397786],[138.70798,-31.39836],[138.707442,-31.399397],[138.707159,-31.400022],[138.707026,-31.400661],[138.70703,-31.401055],[138.707221,-31.401453],[138.707557,-31.401716],[138.707849,-31.402128],[138.708017,-31.402617],[138.708056,-31.403098],[138.708205,-31.403605],[138.708635,-31.404118],[138.709887,-31.405085],[138.710314,-31.405525],[138.710722,-31.406015],[138.711029,-31.40653],[138.71131,-31.407472],[138.711418,-31.408623],[138.711417,-31.409778],[138.711323,-31.410342],[138.711124,-31.411217],[138.710884,-31.412104],[138.710615,-31.412779],[138.710268,-31.41332]]}},{"type":"Feature","properties":{"tier":"arterial"},"geometry":{"type":"LineString","coordinates":[[138.68815,-31.116119],[138.6881,-31.116014],[138.68762,-31.114879],[138.68742,-31.114399],[138.68731,-31.114137],[138.687019,-31.113508],[138.686804,-31.112913],[138.686761,-31.112296],[138.686658,-31.111127],[138.686586,-31.110889],[138.68653,-31.110664],[138.686281,-31.110121],[138.685886,-31.109533],[138.685156,-31.108732],[138.684495,-31.108166],[138.683133,-31.107212],[138.682933,-31.107072],[138.682796,-31.106976],[138.682135,-31.106454],[138.681689,-31.105895],[138.681362,-31.105204],[138.681019,-31.103977],[138.680933,-31.103529],[138.68095,-31.102948],[138.681007,-31.102564],[138.681165,-31.101493],[138.681199,-31.100993],[138.681148,-31.100714],[138.680968,-31.100214],[138.680513,-31.099376],[138.680161,-31.098408],[138.680092,-31.098201],[138.679964,-31.097837],[138.679771,-31.097285],[138.679374,-31.096448]]}},{"type":"Feature","properties":{"tier":"arterial"},"geometry":{"type":"LineString","coordinates":[[138.660916,-31.242473],[138.660982,-31.24263],[138.66136,-31.243489],[138.662047,-31.244729],[138.662183,-31.244933],[138.662656,-31.245639],[138.663875,-31.246835],[138.664776,-31.247892],[138.665132,-31.248399],[138.665474,-31.249106],[138.66567,-31.249498],[138.666016,-31.249986],[138.666437,-31.25057],[138.666767,-31.251089],[138.667027,-31.251616],[138.667124,-31.251879],[138.667256,-31.252389],[138.667291,-31.252632],[138.667694,-31.255178],[138.668029,-31.256814],[138.668205,-31.257438],[138.668477,-31.258133],[138.668844,-31.259441],[138.669213,-31.260101],[138.669591,-31.260586],[138.670321,-31.261356],[138.670878,-31.262053],[138.671677,-31.263322],[138.672724,-31.265098],[138.673136,-31.265897],[138.674054,-31.267754],[138.674646,-31.26925],[138.675058,-31.270424],[138.675247,-31.271781],[138.675522,-31.273366],[138.675865,-31.274569],[138.676621,-31.276579],[138.677505,-31.278816],[138.678723,-31.28145],[138.680397,-31.284926],[138.681547,-31.28767],[138.681861,-31.288275],[138.682019,-31.288909],[138.68226,-31.28998],[138.682612,-31.292019],[138.682738,-31.292996],[138.682772,-31.293266],[138.682794,-31.293427],[138.682801,-31.293592],[138.682797,-31.293789],[138.682778,-31.293985],[138.682449,-31.296431],[138.682435,-31.296789],[138.682447,-31.29716],[138.682512,-31.297558],[138.682629,-31.297894],[138.682981,-31.298547],[138.683547,-31.299441],[138.68464,-31.301013],[138.684843,-31.301304],[138.685135,-31.301972],[138.685289,-31.302918],[138.68547,-31.304758],[138.685478,-31.30577],[138.685504,-31.306452],[138.685358,-31.307333],[138.685075,-31.308132],[138.684397,-31.309723],[138.684088,-31.310398],[138.683899,-31.311153],[138.683882,-31.311498],[138.683908,-31.311989],[138.683962,-31.312202],[138.68456,-31.314563],[138.684714,-31.314869],[138.684809,-31.315008],[138.684925,-31.315142],[138.685039,-31.315234],[138.685249,-31.315404],[138.685346,-31.315474],[138.685535,-31.315578],[138.685782,-31.31568],[138.685953,-31.315717]]}},{"type":"Feature","properties":{"tier":"arterial"},"geometry":{"type":"LineString","coordinates":[[138.659712,-31.204522],[138.659432,-31.204814],[138.659223,-31.205073],[138.659006,-31.205452],[138.658862,-31.205924],[138.658658,-31.206671],[138.658596,-31.2071],[138.658605,-31.207547],[138.658648,-31.207906],[138.658828,-31.209338],[138.658888,-31.210277],[138.658922,-31.212061],[138.658815,-31.213204],[138.658776,-31.213618],[138.658656,-31.215467],[138.658525,-31.216313],[138.658402,-31.216817],[138.657791,-31.219121],[138.657686,-31.219747],[138.657668,-31.220096],[138.657653,-31.220388],[138.657656,-31.220509],[138.65766,-31.220716],[138.657798,-31.222294],[138.658107,-31.225472],[138.658879,-31.230932],[138.659166,-31.232844]]}},{"type":"Feature","properties":{"tier":"arterial"},"geometry":{"type":"LineString","coordinates":[[138.668827,-31.20193],[138.668123,-31.202356],[138.667509,-31.202588]]}},{"type":"Feature","properties":{"tier":"arterial"},"geometry":{"type":"LineString","coordinates":[[138.661086,-31.203808],[138.660567,-31.204025],[138.660183,-31.20421],[138.659712,-31.204522]]}},{"type":"Feature","properties":{"tier":"arterial"},"geometry":{"type":"LineString","coordinates":[[138.667509,-31.202588],[138.66687,-31.202753],[138.665379,-31.202927],[138.664364,-31.202988],[138.663207,-31.203101],[138.662647,-31.203201],[138.6616,-31.203568],[138.661086,-31.203808]]}},{"type":"Feature","properties":{"tier":"arterial"},"geometry":{"type":"LineString","coordinates":[[138.710268,-31.41332],[138.710104,-31.413577],[138.709768,-31.414142],[138.709659,-31.414506],[138.709683,-31.414956],[138.709787,-31.415642],[138.709858,-31.416438],[138.709723,-31.418131],[138.709764,-31.418668],[138.709969,-31.419205],[138.71035,-31.419615],[138.71094,-31.419903],[138.711701,-31.420094]]}},{"type":"Feature","properties":{"tier":"arterial"},"geometry":{"type":"LineString","coordinates":[[138.711701,-31.420094],[138.714247,-31.420547],[138.720629,-31.421681],[138.721273,-31.421831],[138.721759,-31.422055],[138.722159,-31.422381],[138.722531,-31.422814],[138.722962,-31.423728],[138.723629,-31.42549],[138.723965,-31.426482],[138.724325,-31.427273],[138.724806,-31.428181],[138.725613,-31.429419],[138.727676,-31.43238],[138.727964,-31.432911],[138.728153,-31.433269],[138.728634,-31.435212],[138.729762,-31.439767],[138.730016,-31.440926],[138.729971,-31.441699],[138.729948,-31.442114],[138.729757,-31.443028],[138.729236,-31.444749],[138.727575,-31.44907],[138.727164,-31.449737],[138.72693,-31.449988]]}},{"type":"Feature","properties":{"tier":"arterial"},"geometry":{"type":"LineString","coordinates":[[138.72693,-31.449988],[138.726899,-31.450021],[138.726668,-31.450267]]}},{"type":"Feature","properties":{"tier":"arterial"},"geometry":{"type":"LineString","coordinates":[[138.726668,-31.450267],[138.724437,-31.452566],[138.72127,-31.455751],[138.719491,-31.457541],[138.71899,-31.458113],[138.718557,-31.458641],[138.718507,-31.458702],[138.717953,-31.45948],[138.717664,-31.459905],[138.71435,-31.464776],[138.714063,-31.465173],[138.713662,-31.465529],[138.713172,-31.465794],[138.712525,-31.466048],[138.709125,-31.467114],[138.705563,-31.468249],[138.704608,-31.468523],[138.702818,-31.46898],[138.702238,-31.469176],[138.701651,-31.469479],[138.701378,-31.469696],[138.70104,-31.470014],[138.70043,-31.47065],[138.699971,-31.471162],[138.699786,-31.471401],[138.699614,-31.47166],[138.699483,-31.471982],[138.699441,-31.472194],[138.699497,-31.473024],[138.699473,-31.473214],[138.699396,-31.47345],[138.699264,-31.473658],[138.699097,-31.473785],[138.698917,-31.473839],[138.698622,-31.473863],[138.69655,-31.47372],[138.695993,-31.473644],[138.695499,-31.473458],[138.694637,-31.472836],[138.693746,-31.472177],[138.693535,-31.47206],[138.693351,-31.472005],[138.693154,-31.47201],[138.692953,-31.472046],[138.692204,-31.472326],[138.691505,-31.472622],[138.690803,-31.473011],[138.690093,-31.473532],[138.688806,-31.474608],[138.688326,-31.474836],[138.687972,-31.474905],[138.687593,-31.474916],[138.687159,-31.474943],[138.686912,-31.474981],[138.686526,-31.475089],[138.685398,-31.475593],[138.684754,-31.475806],[138.683739,-31.476081],[138.683473,-31.476229],[138.683342,-31.476415],[138.683216,-31.476738],[138.683059,-31.476996],[138.682808,-31.477197],[138.682365,-31.477264],[138.681753,-31.477247],[138.679525,-31.477037],[138.678881,-31.476996],[138.678488,-31.477058],[138.678081,-31.47724],[138.677738,-31.47752],[138.676967,-31.478651],[138.67644,-31.479254],[138.675976,-31.479599],[138.675291,-31.479935],[138.67471,-31.480109],[138.673608,-31.480243],[138.671687,-31.480598],[138.67144,-31.480604],[138.67097,-31.480622],[138.670511,-31.480564],[138.669833,-31.480411],[138.669141,-31.48036],[138.668531,-31.480424],[138.667306,-31.480778],[138.666629,-31.480857],[138.665977,-31.480813],[138.665163,-31.480726],[138.664697,-31.480726],[138.664272,-31.480786],[138.663824,-31.480929],[138.663068,-31.481169],[138.662615,-31.481331],[138.662265,-31.481389],[138.661956,-31.481392],[138.661044,-31.481322],[138.660321,-31.481352],[138.660041,-31.481411],[138.659838,-31.481482],[138.659673,-31.48161],[138.659499,-31.481828],[138.659404,-31.481993],[138.659235,-31.4823],[138.659054,-31.482487],[138.658836,-31.482607],[138.65782,-31.483027],[138.656442,-31.484029],[138.655971,-31.484286],[138.655731,-31.484359],[138.655415,-31.484434],[138.655007,-31.484496],[138.654469,-31.484588],[138.653822,-31.484792],[138.653186,-31.485138],[138.651487,-31.486206],[138.650827,-31.486551],[138.650019,-31.486894],[138.649652,-31.48706],[138.648403,-31.487798],[138.648091,-31.488041],[138.647703,-31.488388],[138.64737,-31.48874],[138.647113,-31.489051],[138.646476,-31.489799],[138.645372,-31.491464],[138.645022,-31.492103],[138.644825,-31.492526],[138.644704,-31.492882],[138.644645,-31.493253],[138.644612,-31.493613],[138.644608,-31.493953],[138.644636,-31.494271],[138.644708,-31.495725],[138.644715,-31.495949],[138.644799,-31.496769],[138.644814,-31.496866],[138.644868,-31.497195],[138.644964,-31.497654],[138.645408,-31.499335],[138.645528,-31.50002]]}},{"type":"Feature","properties":{"tier":"arterial"},"geometry":{"type":"LineString","coordinates":[[138.678805,-31.095466],[138.678913,-31.095651],[138.67893,-31.095682],[138.679139,-31.09604],[138.679374,-31.096448]]}},{"type":"Feature","properties":{"tier":"regional"},"geometry":{"type":"LineString","coordinates":[[138.677177,-31.09255],[138.677316,-31.092691]]}},{"type":"Feature","properties":{"tier":"regional"},"geometry":{"type":"LineString","coordinates":[[138.677869,-31.093526],[138.677994,-31.093832],[138.678096,-31.094082],[138.678284,-31.094554],[138.678805,-31.095466]]}},{"type":"Feature","properties":{"tier":"arterial"},"geometry":{"type":"LineString","coordinates":[[138.659177,-31.232913],[138.659446,-31.234705],[138.659909,-31.237765],[138.659938,-31.237907],[138.660494,-31.240707],[138.66081,-31.242031],[138.660916,-31.242473]]}},{"type":"Feature","properties":{"tier":"arterial"},"geometry":{"type":"LineString","coordinates":[[138.659166,-31.232844],[138.659177,-31.232913]]}},{"type":"Feature","properties":{"tier":"arterial"},"geometry":{"type":"LineString","coordinates":[[138.677265,-31.096031],[138.676974,-31.096082],[138.676681,-31.096137],[138.676593,-31.096182],[138.676505,-31.096241],[138.67633,-31.096368]]}}]}
