{"type":"FeatureCollection","features":[{"type":"Feature","properties":{"tier":"arterial"},"geometry":{"type":"LineString","coordinates":[[138.698354,-28.49998],[138.698515,-28.500331],[138.698662,-28.50094],[138.698786,-28.501873],[138.699582,-28.50949],[138.700237,-28.515719],[138.700496,-28.517612],[138.700988,-28.518998],[138.70114,-28.519407],[138.702136,-28.522006],[138.705709,-28.529338],[138.705987,-28.529949],[138.707018,-28.532332],[138.707842,-28.534586],[138.707935,-28.535088],[138.707979,-28.535393],[138.708026,-28.535928],[138.708379,-28.540175],[138.708405,-28.540571],[138.708416,-28.540746],[138.708592,-28.543393],[138.70874,-28.544275],[138.708836,-28.544682],[138.708959,-28.545071],[138.709433,-28.546329],[138.709616,-28.546765],[138.712378,-28.55101],[138.712921,-28.551872],[138.713275,-28.552632],[138.713591,-28.553394],[138.714516,-28.555839],[138.715633,-28.558889],[138.715755,-28.559646],[138.71586,-28.560866],[138.715898,-28.562237],[138.715921,-28.563028],[138.71654,-28.566783],[138.721959,-28.579014],[138.722149,-28.579572],[138.722189,-28.579929],[138.722127,-28.58304],[138.721969,-28.58359],[138.721588,-28.584058],[138.720356,-28.585541],[138.717294,-28.589142],[138.716653,-28.589896],[138.716368,-28.590353],[138.716148,-28.590782],[138.713947,-28.598973],[138.713819,-28.59977],[138.713777,-28.600645],[138.71368,-28.601157],[138.713408,-28.601739],[138.712913,-28.602473],[138.712668,-28.60295],[138.712544,-28.603512],[138.71254,-28.604036],[138.712835,-28.606161],[138.71372,-28.609163],[138.713833,-28.609694],[138.71382,-28.610059],[138.713772,-28.610345],[138.713649,-28.610651],[138.713576,-28.611131],[138.713951,-28.613515],[138.714099,-28.613966],[138.715094,-28.615604],[138.715308,-28.61598],[138.715325,-28.616454],[138.715007,-28.617586],[138.714852,-28.618138],[138.714653,-28.618708],[138.713645,-28.62105],[138.713242,-28.62183],[138.712666,-28.62262],[138.711484,-28.623919],[138.711359,-28.624009],[138.710382,-28.624873],[138.710064,-28.625154],[138.709848,-28.625409],[138.709499,-28.626019],[138.709195,-28.62927],[138.709001,-28.629942],[138.708808,-28.630436],[138.708541,-28.630877],[138.708381,-28.631208],[138.705103,-28.635868],[138.702631,-28.639382],[138.69632,-28.648118],[138.693127,-28.652542],[138.69202,-28.653871],[138.681898,-28.664407],[138.67791,-28.668466],[138.677319,-28.669158],[138.676835,-28.669878],[138.673375,-28.675667],[138.667978,-28.684682],[138.665727,-28.688553],[138.664533,-28.690499],[138.663779,-28.691612],[138.66283,-28.692625],[138.658096,-28.696696],[138.653322,-28.700801],[138.649121,-28.704438],[138.639589,-28.711112],[138.639245,-28.711353],[138.633575,-28.715359],[138.632957,-28.715852],[138.630357,-28.718454],[138.61615,-28.732375],[138.607539,-28.7409],[138.604673,-28.743737],[138.598527,-28.750767],[138.598108,-28.751245],[138.591889,-28.75818],[138.582767,-28.768609],[138.569678,-28.780694],[138.558717,-28.790824],[138.558159,-28.791339],[138.556976,-28.792491],[138.556644,-28.792846],[138.556437,-28.793066],[138.555996,-28.793644],[138.553102,-28.797906],[138.548458,-28.804748],[138.538395,-28.819363],[138.526548,-28.834045],[138.512455,-28.851687],[138.504187,-28.860269],[138.49998,-28.864627]]}}]}
