{"type":"FeatureCollection","features":[{"type":"Feature","properties":{"tier":"arterial"},"geometry":{"type":"LineString","coordinates":[[139.00002,-30.583033],[138.998891,-30.583081],[138.998221,-30.583085],[138.997541,-30.583076],[138.99668,-30.583084],[138.996508,-30.58308],[138.996274,-30.583075],[138.99594,-30.583068],[138.995296,-30.583054],[138.99509,-30.58305],[138.994296,-30.583045],[138.99332,-30.583028],[138.992565,-30.583],[138.991195,-30.582989],[138.990359,-30.582972],[138.989323,-30.582939],[138.987493,-30.582854],[138.986484,-30.582816],[138.985669,-30.582766],[138.984651,-30.58272],[138.984248,-30.582693],[138.983849,-30.582643],[138.983662,-30.582608],[138.983512,-30.582572],[138.983299,-30.582521],[138.98297,-30.582433],[138.982457,-30.582269]]}},{"type":"Feature","properties":{"tier":"arterial"},"geometry":{"type":"LineString","coordinates":[[138.928171,-30.595423],[138.927648,-30.595443],[138.926495,-30.595447],[138.925835,-30.595467],[138.924772,-30.595451],[138.924036,-30.595463],[138.92328,-30.595447],[138.92289,-30.595395],[138.922516,-30.595314],[138.922142,-30.595209],[138.920157,-30.594519],[138.919778,-30.594401],[138.918999,-30.594199],[138.918395,-30.594105],[138.91718,-30.593982],[138.916376,-30.593882],[138.913935,-30.593521],[138.912996,-30.593314],[138.911652,-30.592976],[138.910951,-30.592818],[138.910591,-30.592772],[138.910403,-30.592771],[138.910011,-30.592803],[138.903533,-30.594297],[138.900745,-30.594933],[138.899521,-30.595197],[138.898896,-30.595314],[138.898269,-30.59539],[138.897871,-30.595381],[138.897465,-30.595313],[138.897264,-30.59524],[138.897085,-30.595175],[138.896827,-30.595032],[138.896734,-30.594981],[138.896397,-30.594731],[138.891336,-30.590382],[138.889247,-30.588645],[138.887691,-30.587402],[138.887353,-30.587096],[138.887025,-30.586771],[138.886396,-30.586087],[138.885838,-30.585413],[138.885379,-30.584899],[138.884746,-30.584129],[138.884491,-30.583785],[138.88426,-30.583414],[138.884058,-30.583048],[138.883982,-30.582859],[138.883824,-30.58226],[138.883781,-30.581842],[138.883761,-30.580968],[138.883779,-30.57971],[138.883868,-30.57867],[138.884033,-30.577439],[138.884097,-30.576834],[138.884113,-30.576627],[138.884115,-30.576001],[138.884073,-30.57537],[138.883744,-30.572554],[138.883658,-30.571713],[138.883595,-30.571351],[138.883455,-30.570878],[138.883331,-30.570608],[138.883198,-30.570383],[138.883127,-30.570291],[138.882948,-30.570118],[138.881873,-30.569241],[138.881595,-30.569041],[138.88128,-30.568853],[138.880593,-30.56849],[138.879863,-30.568148],[138.879088,-30.567818],[138.87848,-30.567597],[138.878063,-30.567474],[138.877622,-30.567374],[138.877397,-30.567333],[138.876955,-30.567288],[138.876739,-30.567276],[138.876318,-30.567299],[138.875917,-30.567378],[138.874584,-30.567861],[138.874023,-30.568048],[138.87364,-30.568155],[138.873069,-30.568278],[138.87145,-30.568516],[138.869999,-30.568688],[138.868957,-30.568802],[138.867496,-30.568927],[138.866851,-30.568952],[138.864905,-30.568951],[138.861687,-30.568925],[138.859787,-30.568931],[138.857671,-30.568905],[138.856174,-30.568908],[138.853931,-30.568885],[138.852986,-30.568828],[138.852798,-30.568807],[138.852262,-30.568706],[138.851908,-30.568606],[138.851561,-30.568472],[138.851219,-30.568319],[138.849332,-30.567406],[138.844825,-30.565142],[138.844442,-30.564979],[138.843586,-30.56463],[138.84245,-30.564155],[138.842172,-30.564022],[138.841767,-30.563801],[138.841343,-30.563554],[138.840738,-30.563164],[138.840336,-30.562904],[138.839363,-30.562302],[138.838129,-30.561601],[138.836874,-30.56096],[138.834891,-30.559994],[138.832504,-30.55886],[138.831186,-30.558203],[138.83008,-30.557541],[138.828184,-30.556257],[138.827113,-30.555576],[138.826401,-30.555133],[138.824599,-30.554071],[138.824215,-30.553869],[138.823827,-30.553682],[138.822862,-30.553271],[138.820674,-30.552396],[138.819688,-30.55196],[138.817188,-30.550692],[138.81655,-30.550402],[138.81556,-30.549998],[138.815225,-30.549882],[138.814551,-30.549666],[138.813605,-30.549396],[138.813022,-30.549209],[138.811652,-30.548711],[138.8107,-30.548401],[138.810098,-30.548238],[138.808653,-30.547903],[138.80783,-30.547657],[138.807425,-30.547517],[138.807035,-30.547362],[138.806457,-30.547099],[138.805419,-30.546555],[138.804904,-30.546302],[138.803969,-30.545877],[138.802823,-30.545333],[138.801113,-30.544455],[138.799791,-30.543726],[138.799212,-30.543423],[138.797887,-30.542764],[138.797478,-30.542596],[138.796237,-30.54218],[138.795642,-30.541928],[138.794139,-30.5412],[138.792275,-30.540219],[138.79062,-30.53945],[138.789688,-30.538978],[138.786649,-30.537255],[138.786149,-30.536996],[138.785911,-30.536886],[138.785661,-30.536771],[138.784658,-30.536267],[138.782039,-30.534917],[138.781232,-30.534555],[138.78091,-30.534433],[138.780745,-30.534389],[138.78058,-30.534365],[138.780241,-30.534367],[138.779551,-30.534466],[138.779184,-30.534477],[138.778813,-30.534436],[138.778439,-30.53433],[138.778265,-30.534262],[138.777905,-30.534109],[138.776468,-30.533413],[138.774975,-30.532764],[138.771662,-30.531141],[138.770535,-30.530645],[138.768228,-30.529699],[138.767497,-30.52932],[138.766215,-30.528592],[138.764887,-30.52791],[138.764501,-30.527734],[138.763692,-30.527421],[138.762679,-30.526987],[138.761679,-30.526484],[138.761105,-30.526174],[138.760519,-30.525907],[138.759351,-30.525447],[138.758559,-30.525185],[138.758167,-30.525087],[138.757572,-30.524967],[138.756789,-30.524835],[138.756374,-30.524744],[138.755969,-30.524636],[138.755588,-30.524509],[138.755518,-30.52448],[138.754652,-30.524125],[138.753525,-30.523705],[138.752548,-30.523374],[138.751934,-30.523242],[138.750906,-30.523117],[138.750506,-30.523052],[138.750106,-30.522964],[138.74889,-30.522618],[138.748074,-30.522364],[138.747087,-30.522018],[138.746352,-30.521779],[138.745012,-30.521371],[138.744421,-30.521206],[138.743429,-30.520958],[138.743032,-30.520836],[138.742623,-30.520695],[138.74102,-30.520094],[138.739807,-30.519666],[138.738558,-30.519298],[138.736429,-30.518874],[138.735812,-30.518798],[138.735405,-30.518786],[138.734993,-30.518798],[138.733339,-30.518981],[138.732923,-30.519005],[138.732507,-30.518991],[138.732109,-30.518926],[138.731726,-30.518833],[138.731479,-30.51871],[138.730651,-30.51848],[138.729855,-30.518292],[138.729288,-30.51814],[138.728504,-30.517977],[138.728112,-30.517943],[138.727737,-30.51799],[138.727566,-30.51804],[138.727408,-30.518105],[138.727279,-30.518187],[138.727168,-30.518287],[138.727018,-30.518532],[138.726757,-30.519079],[138.726505,-30.519477],[138.726028,-30.520092],[138.725726,-30.52059],[138.72549,-30.520934],[138.725297,-30.521125],[138.725183,-30.521198],[138.724916,-30.521315],[138.724616,-30.521395],[138.723015,-30.521723],[138.722524,-30.52186],[138.721812,-30.521993],[138.721435,-30.522029],[138.721045,-30.522047],[138.719712,-30.522083],[138.719367,-30.522063],[138.719173,-30.522035],[138.718827,-30.521953],[138.716333,-30.521043],[138.715019,-30.520588],[138.714435,-30.520417],[138.71384,-30.520312],[138.713225,-30.520224],[138.712825,-30.520148],[138.711436,-30.519757],[138.709912,-30.519447],[138.708402,-30.519177],[138.705175,-30.51855],[138.701386,-30.517853],[138.699262,-30.517443],[138.698383,-30.517193],[138.697051,-30.516729],[138.696676,-30.516628],[138.695679,-30.5164],[138.694698,-30.516121],[138.693773,-30.515837],[138.693209,-30.515706],[138.693017,-30.515686],[138.692616,-30.515701],[138.692418,-30.515727],[138.691829,-30.515844],[138.690994,-30.515959],[138.690348,-30.516015],[138.689693,-30.516051],[138.68927,-30.516096],[138.688848,-30.516165],[138.688198,-30.516308],[138.687559,-30.516471],[138.686242,-30.516732],[138.685812,-30.516795],[138.685171,-30.516851],[138.684736,-30.516861],[138.684296,-30.516847],[138.683428,-30.516783],[138.681715,-30.516576],[138.680615,-30.516464],[138.678025,-30.516296],[138.677377,-30.516269],[138.676689,-30.516203],[138.676322,-30.516204],[138.675212,-30.516111],[138.672862,-30.515966],[138.671753,-30.515897],[138.671034,-30.515895],[138.670448,-30.515931],[138.669844,-30.516011],[138.66943,-30.516088],[138.669007,-30.516192],[138.668607,-30.516318],[138.668035,-30.516555],[138.667467,-30.516814],[138.666666,-30.517115],[138.661725,-30.51865],[138.661094,-30.518821],[138.660274,-30.518987],[138.658449,-30.519237],[138.655909,-30.519662],[138.655283,-30.519794],[138.654444,-30.520014],[138.653831,-30.520199],[138.651698,-30.520997],[138.651143,-30.521245],[138.650241,-30.521689],[138.649467,-30.522007],[138.649258,-30.522077],[138.648365,-30.522308],[138.646368,-30.522662],[138.645707,-30.522812],[138.645087,-30.522987],[138.644119,-30.523298],[138.641386,-30.524115],[138.640535,-30.524411],[138.640115,-30.524585],[138.639713,-30.524775],[138.639105,-30.525095],[138.638713,-30.525333],[138.637741,-30.52596],[138.635367,-30.527614],[138.634783,-30.528051],[138.634051,-30.528665],[138.632871,-30.529802],[138.631745,-30.530918],[138.629842,-30.532725],[138.629097,-30.533465],[138.628275,-30.534191],[138.627472,-30.534745],[138.626722,-30.535373],[138.62637,-30.535618],[138.625994,-30.535851],[138.624391,-30.536669],[138.623617,-30.537027],[138.623251,-30.537218],[138.622497,-30.537564],[138.621748,-30.537878],[138.621392,-30.538073],[138.621223,-30.538186],[138.620901,-30.538441],[138.62075,-30.538578],[138.620482,-30.538885],[138.62025,-30.539213],[138.619924,-30.539751],[138.619403,-30.540465],[138.618982,-30.540973],[138.617668,-30.542414],[138.617256,-30.542921],[138.616742,-30.543616],[138.616305,-30.544322],[138.616055,-30.544631],[138.615591,-30.545028],[138.615261,-30.545255],[138.614738,-30.545571],[138.614377,-30.545749],[138.613975,-30.545858],[138.613768,-30.545894],[138.613556,-30.545921],[138.613126,-30.54593],[138.612234,-30.545868],[138.609058,-30.545509],[138.608601,-30.545472],[138.607937,-30.545466],[138.607713,-30.545479],[138.607261,-30.545545],[138.605456,-30.545856],[138.603801,-30.546112],[138.602426,-30.546359],[138.601991,-30.546468],[138.601785,-30.546534],[138.60157,-30.546613],[138.601157,-30.546797],[138.59999,-30.547455],[138.598415,-30.548386],[138.598017,-30.548581],[138.597599,-30.54872],[138.597154,-30.548797],[138.596683,-30.548801],[138.595967,-30.548745],[138.593708,-30.548504],[138.593075,-30.54847],[138.592632,-30.548481],[138.592424,-30.548514],[138.592215,-30.548568],[138.59184,-30.548721],[138.590814,-30.549199],[138.590419,-30.549399],[138.589845,-30.549649],[138.589579,-30.549737],[138.589273,-30.54984],[138.589086,-30.549877],[138.588694,-30.549911],[138.588499,-30.549902],[138.588302,-30.54987],[138.588102,-30.549818],[138.587712,-30.549683],[138.587533,-30.549602],[138.587221,-30.549394],[138.586943,-30.549137],[138.586677,-30.548851],[138.586447,-30.548532],[138.586344,-30.548362],[138.586173,-30.548007],[138.585795,-30.547102],[138.585625,-30.546759],[138.585429,-30.546431],[138.585202,-30.546128],[138.585069,-30.545988],[138.584922,-30.545858],[138.584759,-30.545746],[138.58458,-30.545651],[138.584387,-30.545579],[138.583965,-30.54549],[138.583094,-30.545337],[138.580532,-30.54478],[138.580154,-30.544647],[138.579803,-30.544461],[138.579638,-30.544355],[138.578638,-30.543541],[138.578202,-30.543222],[138.577061,-30.542466],[138.57499,-30.541055],[138.573433,-30.540044],[138.572694,-30.539513],[138.572347,-30.539224],[138.571837,-30.538767],[138.57116,-30.538119],[138.569915,-30.536866],[138.569432,-30.536426],[138.569086,-30.536155],[138.567845,-30.535319],[138.567517,-30.535062],[138.567053,-30.534659],[138.566737,-30.534406],[138.566564,-30.534287],[138.566378,-30.534183],[138.566178,-30.534085],[138.565751,-30.533927],[138.563459,-30.533305],[138.560927,-30.532589],[138.560234,-30.53244],[138.559903,-30.532369],[138.557831,-30.531858],[138.557424,-30.53177],[138.557016,-30.531714],[138.556733,-30.531694],[138.556612,-30.531718],[138.556213,-30.531807],[138.555394,-30.532099],[138.555095,-30.532166],[138.554949,-30.532172],[138.554741,-30.532151],[138.554642,-30.532132],[138.554488,-30.532085],[138.554334,-30.532013],[138.554188,-30.531924],[138.554055,-30.531823],[138.553813,-30.531597],[138.553603,-30.531333],[138.55332,-30.530885],[138.553104,-30.53058],[138.552983,-30.530437],[138.552683,-30.530177],[138.552339,-30.52996],[138.551971,-30.529765],[138.551018,-30.5294],[138.550835,-30.529305],[138.550664,-30.529195],[138.550499,-30.529081],[138.550344,-30.52895],[138.549599,-30.528224],[138.549289,-30.52795],[138.548962,-30.527695],[138.548603,-30.527459],[138.547838,-30.527033],[138.547092,-30.526646],[138.546373,-30.526233],[138.546006,-30.52605],[138.545407,-30.525811],[138.544962,-30.525675],[138.5445,-30.525563],[138.543784,-30.525436],[138.542788,-30.525329],[138.541024,-30.525214],[138.5378,-30.524897],[138.537091,-30.524854],[138.53665,-30.524847],[138.536213,-30.52481],[138.535793,-30.524753],[138.534609,-30.52453],[138.534417,-30.524512],[138.534039,-30.524529],[138.533859,-30.524562],[138.533683,-30.52461],[138.533514,-30.52468],[138.533195,-30.524859],[138.532921,-30.525086],[138.532708,-30.525354],[138.532546,-30.525661],[138.532511,-30.525747],[138.532478,-30.52583],[138.532252,-30.52654],[138.532066,-30.527213],[138.532006,-30.52754],[138.531938,-30.528182],[138.531843,-30.528639],[138.531729,-30.528942],[138.531431,-30.52953],[138.531327,-30.529837],[138.531173,-30.530454],[138.531063,-30.530755],[138.530836,-30.531192],[138.530462,-30.531782],[138.530217,-30.532244],[138.530004,-30.532716],[138.529667,-30.533661],[138.529464,-30.534119],[138.529268,-30.534406],[138.529158,-30.534533],[138.5289,-30.534768],[138.528753,-30.534875],[138.528431,-30.535067],[138.525438,-30.536692],[138.52512,-30.536837],[138.524801,-30.53692],[138.524637,-30.536941],[138.524471,-30.536929],[138.524311,-30.536898],[138.523987,-30.536759],[138.523665,-30.536568],[138.522915,-30.536002],[138.522759,-30.535902],[138.522593,-30.535811],[138.522237,-30.535653],[138.521869,-30.535541],[138.521678,-30.535501],[138.521485,-30.535481],[138.521101,-30.535477],[138.520708,-30.535543],[138.52012,-30.535731],[138.519925,-30.535818],[138.518983,-30.536302],[138.518471,-30.536594],[138.517385,-30.537166],[138.516622,-30.537544],[138.515459,-30.538083],[138.514822,-30.538463],[138.514468,-30.538636],[138.513912,-30.53887],[138.513531,-30.538998],[138.513329,-30.539049],[138.512923,-30.53912],[138.512078,-30.539187],[138.510991,-30.539233],[138.509704,-30.539235],[138.509097,-30.539261],[138.508713,-30.539326],[138.508528,-30.539388],[138.508358,-30.539474],[138.508209,-30.539585],[138.508064,-30.539714],[138.507938,-30.539855],[138.507611,-30.54032],[138.50741,-30.540662],[138.506802,-30.54181],[138.506424,-30.542439],[138.505845,-30.543278],[138.503468,-30.546605],[138.502801,-30.547576],[138.502584,-30.547865],[138.502357,-30.548113],[138.502093,-30.548306],[138.501938,-30.548377],[138.501771,-30.548425],[138.501598,-30.548451],[138.501426,-30.548451],[138.50124,-30.548426],[138.501066,-30.548379],[138.500893,-30.548312],[138.49998,-30.547878]]}},{"type":"Feature","properties":{"tier":"arterial"},"geometry":{"type":"LineString","coordinates":[[138.976214,-30.584732],[138.975589,-30.585576],[138.975306,-30.585929],[138.97507,-30.586206],[138.974984,-30.586295],[138.974802,-30.586453],[138.974698,-30.586526],[138.974391,-30.586718],[138.974033,-30.586893],[138.973642,-30.587065],[138.973252,-30.587247],[138.97299,-30.587385],[138.972859,-30.587458],[138.972612,-30.587612],[138.972273,-30.587875],[138.972176,-30.587974],[138.972086,-30.58808],[138.972002,-30.588195],[138.971926,-30.58832],[138.971733,-30.588741],[138.971411,-30.589391],[138.971246,-30.589642],[138.971148,-30.589761],[138.971039,-30.589873],[138.970927,-30.589971],[138.970704,-30.590151],[138.970589,-30.590236],[138.970468,-30.590312],[138.970341,-30.590385],[138.970202,-30.590453],[138.96991,-30.590578],[138.969754,-30.590633],[138.969583,-30.590683],[138.969232,-30.59077],[138.968672,-30.590879],[138.966274,-30.591239],[138.965672,-30.59134],[138.963732,-30.59164],[138.96314,-30.591716],[138.962763,-30.591745],[138.961888,-30.591839],[138.961486,-30.591858],[138.960854,-30.59185],[138.96017,-30.59182],[138.959291,-30.591764],[138.95895,-30.591752],[138.958408,-30.591766],[138.958044,-30.59181],[138.957674,-30.591865],[138.956934,-30.592021],[138.956594,-30.592145],[138.956115,-30.592364],[138.955769,-30.592493],[138.955585,-30.592549],[138.955396,-30.592593],[138.955204,-30.592627],[138.9548,-30.592674],[138.954379,-30.592697],[138.952661,-30.592765],[138.952001,-30.592783],[138.951601,-30.592786],[138.951328,-30.592788],[138.950459,-30.592824],[138.949819,-30.592839],[138.949389,-30.59286],[138.948755,-30.592866],[138.947471,-30.592919],[138.946844,-30.592955],[138.945426,-30.592985],[138.944382,-30.593031],[138.943753,-30.593088],[138.94334,-30.593164],[138.942934,-30.593274],[138.942534,-30.593397],[138.941728,-30.593661],[138.941341,-30.593795],[138.941158,-30.593869],[138.940983,-30.593945],[138.940813,-30.59403],[138.94065,-30.594116],[138.940494,-30.594209],[138.939632,-30.594827],[138.939349,-30.595007],[138.939199,-30.595083],[138.939039,-30.595149],[138.938885,-30.5952],[138.938727,-30.595242],[138.938563,-30.595276],[138.938249,-30.595322],[138.937929,-30.59534]]}},{"type":"Feature","properties":{"tier":"arterial"},"geometry":{"type":"LineString","coordinates":[[138.937929,-30.59534],[138.937655,-30.595343],[138.936761,-30.595356],[138.936162,-30.595364],[138.935137,-30.595378],[138.934864,-30.595374],[138.934584,-30.595386],[138.933046,-30.595393],[138.93265,-30.595405],[138.932374,-30.595402],[138.931672,-30.595416],[138.930954,-30.59541],[138.930727,-30.595409],[138.930538,-30.595417],[138.929683,-30.59543],[138.928171,-30.595423]]}},{"type":"Feature","properties":{"tier":"arterial"},"geometry":{"type":"LineString","coordinates":[[138.982457,-30.582269],[138.98187,-30.582073],[138.981752,-30.582047],[138.981563,-30.582009],[138.981362,-30.581974],[138.981066,-30.58194],[138.980523,-30.581941],[138.980418,-30.581946],[138.980295,-30.58196],[138.980088,-30.581976],[138.979885,-30.582009],[138.979655,-30.582054],[138.979503,-30.582082],[138.979238,-30.582159],[138.978966,-30.582252],[138.978768,-30.582333],[138.978457,-30.582473],[138.978083,-30.582688],[138.977883,-30.582819],[138.977623,-30.58303],[138.977428,-30.5832],[138.977195,-30.583458],[138.976982,-30.583717],[138.976769,-30.584004],[138.9765,-30.584343],[138.976458,-30.5844],[138.976214,-30.584732]]}}]}
