{"type":"FeatureCollection","features":[{"type":"Feature","properties":{"tier":"arterial"},"geometry":{"type":"LineString","coordinates":[[138.512781,-34.592852],[138.512547,-34.592722]]}},{"type":"Feature","properties":{"tier":"arterial"},"geometry":{"type":"LineString","coordinates":[[138.513869,-34.581206],[138.513607,-34.577151],[138.513327,-34.572129],[138.512856,-34.563706],[138.512727,-34.561445],[138.512111,-34.550688],[138.511869,-34.546456],[138.511182,-34.536081],[138.510515,-34.524068],[138.510106,-34.517165],[138.509838,-34.512645],[138.509852,-34.512499],[138.509917,-34.512388],[138.509973,-34.512304],[138.51003,-34.512256],[138.510149,-34.512121],[138.510203,-34.512002],[138.51021,-34.511852],[138.51018,-34.511525],[138.510088,-34.510526],[138.509857,-34.508749],[138.509845,-34.508189],[138.509819,-34.503418]]}},{"type":"Feature","properties":{"tier":"arterial"},"geometry":{"type":"LineString","coordinates":[[138.511484,-34.591275],[138.512568,-34.589976],[138.513424,-34.588931],[138.513588,-34.588705],[138.513735,-34.588465],[138.513854,-34.588195],[138.513898,-34.588064],[138.513935,-34.587908]]}},{"type":"Feature","properties":{"tier":"arterial"},"geometry":{"type":"LineString","coordinates":[[138.509044,-34.594138],[138.509213,-34.593947]]}},{"type":"Feature","properties":{"tier":"arterial"},"geometry":{"type":"LineString","coordinates":[[138.518729,-34.597226],[138.518416,-34.596939]]}},{"type":"Feature","properties":{"tier":"arterial"},"geometry":{"type":"LineString","coordinates":[[138.513429,-34.593228],[138.512781,-34.592852]]}},{"type":"Feature","properties":{"tier":"arterial"},"geometry":{"type":"LineString","coordinates":[[138.51953,-34.598073],[138.519248,-34.597754],[138.518729,-34.597226]]}},{"type":"Feature","properties":{"tier":"high"},"geometry":{"type":"LineString","coordinates":[[138.509263,-34.594347],[138.51124,-34.596075]]}},{"type":"Feature","properties":{"tier":"high"},"geometry":{"type":"LineString","coordinates":[[138.515877,-34.603559],[138.515993,-34.60396],[138.516011,-34.604082],[138.516113,-34.604544],[138.516208,-34.605058],[138.516276,-34.605614],[138.516363,-34.60666],[138.516662,-34.608897],[138.516805,-34.609546],[138.517318,-34.611883],[138.518502,-34.614894]]}},{"type":"Feature","properties":{"tier":"regional"},"geometry":{"type":"LineString","coordinates":[[138.589321,-34.623156],[138.589113,-34.623162],[138.588811,-34.623191],[138.588544,-34.623238],[138.58802,-34.623346],[138.582851,-34.624392],[138.582411,-34.624449],[138.582179,-34.624468],[138.581976,-34.624479],[138.581628,-34.624478],[138.580782,-34.624475],[138.576665,-34.624499],[138.572214,-34.624533],[138.57196,-34.624535],[138.568979,-34.624555],[138.568729,-34.624556],[138.564837,-34.624649],[138.560405,-34.624765],[138.559934,-34.624779],[138.557385,-34.624855],[138.556572,-34.624882],[138.554748,-34.624943],[138.552465,-34.62502]]}},{"type":"Feature","properties":{"tier":"regional"},"geometry":{"type":"LineString","coordinates":[[138.549947,-34.62502],[138.549714,-34.624989],[138.549553,-34.624981],[138.549386,-34.624978],[138.549195,-34.624978],[138.548467,-34.62502]]}},{"type":"Feature","properties":{"tier":"arterial"},"geometry":{"type":"LineString","coordinates":[[138.62502,-34.508876],[138.623855,-34.508036],[138.623432,-34.507748],[138.623022,-34.507519],[138.622302,-34.507132],[138.617949,-34.50482],[138.61762,-34.504642],[138.610245,-34.500716],[138.608934,-34.49998]]}},{"type":"Feature","properties":{"tier":"arterial"},"geometry":{"type":"LineString","coordinates":[[138.62502,-34.590286],[138.622512,-34.590353],[138.622219,-34.590361],[138.618667,-34.590462],[138.614418,-34.59058],[138.609203,-34.590719],[138.605784,-34.59081],[138.604063,-34.590855],[138.599034,-34.590992],[138.595079,-34.591096],[138.593094,-34.59115],[138.590943,-34.591209],[138.585686,-34.591346],[138.580499,-34.591489],[138.5804,-34.591491],[138.57623,-34.591602],[138.573978,-34.591662],[138.572043,-34.591713],[138.568548,-34.5918],[138.567746,-34.591822],[138.5667,-34.591851],[138.563753,-34.591931],[138.560141,-34.59203],[138.557075,-34.592115],[138.555326,-34.592162],[138.554834,-34.592175],[138.554251,-34.592191],[138.551489,-34.592261],[138.548285,-34.592349],[138.545696,-34.592415],[138.542556,-34.592498],[138.540037,-34.59256],[138.539651,-34.592564],[138.539317,-34.592567],[138.53757,-34.592583],[138.534869,-34.592599],[138.533622,-34.592606],[138.53138,-34.592622],[138.528606,-34.592637],[138.52671,-34.592632]]}},{"type":"Feature","properties":{"tier":"regional"},"geometry":{"type":"LineString","coordinates":[[138.521144,-34.599922],[138.520058,-34.600811],[138.51928,-34.601442],[138.518883,-34.601749],[138.518565,-34.601996],[138.517902,-34.602441],[138.517532,-34.602673],[138.516574,-34.603198],[138.516317,-34.603332]]}},{"type":"Feature","properties":{"tier":"high"},"geometry":{"type":"LineString","coordinates":[[138.515733,-34.604094],[138.515439,-34.60302],[138.515213,-34.602391],[138.514915,-34.601658],[138.51466,-34.601094],[138.514326,-34.600436],[138.513955,-34.599783],[138.513548,-34.599147],[138.513191,-34.598646],[138.512806,-34.598132],[138.512379,-34.597628],[138.511962,-34.597158],[138.511502,-34.596699],[138.511032,-34.596272],[138.509387,-34.594778]]}},{"type":"Feature","properties":{"tier":"high"},"geometry":{"type":"LineString","coordinates":[[138.509044,-34.594138],[138.50898,-34.594152],[138.508927,-34.594161],[138.508873,-34.594152],[138.508813,-34.594136],[138.508748,-34.59411],[138.508691,-34.594079],[138.508576,-34.594023],[138.508404,-34.593934],[138.508345,-34.593907]]}},{"type":"Feature","properties":{"tier":"high"},"geometry":{"type":"LineString","coordinates":[[138.523214,-34.624394],[138.523486,-34.624286]]}},{"type":"Feature","properties":{"tier":"high"},"geometry":{"type":"LineString","coordinates":[[138.518177,-34.614945],[138.518502,-34.614894]]}},{"type":"Feature","properties":{"tier":"arterial"},"geometry":{"type":"LineString","coordinates":[[138.509213,-34.593947],[138.509174,-34.59407],[138.509165,-34.594122],[138.509171,-34.594175],[138.509263,-34.594347]]}},{"type":"Feature","properties":{"tier":"arterial"},"geometry":{"type":"LineString","coordinates":[[138.508755,-34.59389],[138.508884,-34.593944],[138.508951,-34.593967],[138.509028,-34.593975],[138.509213,-34.593947]]}},{"type":"Feature","properties":{"tier":"high"},"geometry":{"type":"LineString","coordinates":[[138.515877,-34.603559],[138.51572,-34.603468],[138.515669,-34.603415],[138.515625,-34.603357],[138.515583,-34.603291],[138.515536,-34.603197],[138.515439,-34.60302]]}},{"type":"Feature","properties":{"tier":"high"},"geometry":{"type":"LineString","coordinates":[[138.515733,-34.604094],[138.515729,-34.603973],[138.515722,-34.603737],[138.515736,-34.603692],[138.515777,-34.603633],[138.515821,-34.603597],[138.515877,-34.603559]]}},{"type":"Feature","properties":{"tier":"regional"},"geometry":{"type":"LineString","coordinates":[[138.516317,-34.603332],[138.516183,-34.603433],[138.516085,-34.603513],[138.516025,-34.603589],[138.516018,-34.603629],[138.516008,-34.603697],[138.516004,-34.603786],[138.515993,-34.60396]]}},{"type":"Feature","properties":{"tier":"high"},"geometry":{"type":"LineString","coordinates":[[138.509387,-34.594778],[138.509191,-34.594578],[138.509055,-34.594437],[138.509012,-34.594381],[138.508995,-34.594346],[138.50899,-34.594305],[138.508991,-34.594259],[138.509044,-34.594138]]}},{"type":"Feature","properties":{"tier":"regional"},"geometry":{"type":"LineString","coordinates":[[138.515755,-34.603128],[138.515827,-34.603226],[138.515888,-34.603292],[138.515937,-34.603334],[138.516,-34.603364],[138.516059,-34.603373],[138.516134,-34.603368],[138.516317,-34.603332]]}},{"type":"Feature","properties":{"tier":"regional"},"geometry":{"type":"LineString","coordinates":[[138.62502,-34.600811],[138.624888,-34.600814],[138.622697,-34.600874],[138.619583,-34.600954],[138.619016,-34.60097],[138.616493,-34.601043],[138.61353,-34.60111],[138.612646,-34.601134],[138.610729,-34.601186],[138.610368,-34.601196],[138.606856,-34.601285],[138.606697,-34.601289],[138.606144,-34.601303],[138.603367,-34.60137],[138.600339,-34.601447],[138.597018,-34.60153],[138.595189,-34.601572],[138.594142,-34.601596],[138.59385,-34.601603],[138.593464,-34.601613],[138.590298,-34.601694],[138.587242,-34.601768],[138.586752,-34.60178],[138.583215,-34.601872],[138.5808,-34.601932],[138.580472,-34.60194],[138.57965,-34.60196],[138.576366,-34.602043],[138.574355,-34.602094],[138.572823,-34.602134],[138.569446,-34.602217],[138.568162,-34.602249],[138.566288,-34.602301],[138.56319,-34.602379],[138.556003,-34.602571],[138.555733,-34.602578],[138.550463,-34.602717],[138.545266,-34.602852],[138.540038,-34.602998],[138.539386,-34.602982],[138.533186,-34.602882],[138.530082,-34.60283],[138.527312,-34.602794],[138.52405,-34.602727],[138.523945,-34.602733],[138.523843,-34.602753],[138.523641,-34.60284]]}},{"type":"Feature","properties":{"tier":"arterial"},"geometry":{"type":"LineString","coordinates":[[138.521805,-34.600721],[138.522071,-34.601031]]}},{"type":"Feature","properties":{"tier":"arterial"},"geometry":{"type":"LineString","coordinates":[[138.522071,-34.601031],[138.522501,-34.601505],[138.523477,-34.602649],[138.523546,-34.602729],[138.523641,-34.60284],[138.523967,-34.60322],[138.524448,-34.603776],[138.525045,-34.604475],[138.526422,-34.606078],[138.527531,-34.607379],[138.528723,-34.608732],[138.52897,-34.609019],[138.52985,-34.610044],[138.531139,-34.611573],[138.532204,-34.612808],[138.533477,-34.61438],[138.533553,-34.614465],[138.533872,-34.614825],[138.534585,-34.615593],[138.535325,-34.616444],[138.536587,-34.617942],[138.536754,-34.618138],[138.53776,-34.619322],[138.538669,-34.620388],[138.539386,-34.621213],[138.540527,-34.622549],[138.541984,-34.62426],[138.542438,-34.624783],[138.542579,-34.624958],[138.542629,-34.62502]]}},{"type":"Feature","properties":{"tier":"arterial"},"geometry":{"type":"LineString","coordinates":[[138.51953,-34.598073],[138.519977,-34.598572],[138.520303,-34.598936],[138.520642,-34.599333],[138.520829,-34.599553],[138.521144,-34.599922],[138.521337,-34.600148],[138.521805,-34.600721]]}},{"type":"Feature","properties":{"tier":"arterial"},"geometry":{"type":"LineString","coordinates":[[138.515974,-34.592702],[138.515174,-34.592712],[138.514044,-34.592726]]}},{"type":"Feature","properties":{"tier":"arterial"},"geometry":{"type":"LineString","coordinates":[[138.514044,-34.592726],[138.513056,-34.59273],[138.512968,-34.592737],[138.512885,-34.592756],[138.512781,-34.592852]]}},{"type":"Feature","properties":{"tier":"regional"},"geometry":{"type":"LineString","coordinates":[[138.62502,-34.611311],[138.621245,-34.611401],[138.619528,-34.611477],[138.616262,-34.611535],[138.613051,-34.611611],[138.610724,-34.611666],[138.606538,-34.611775],[138.60477,-34.611821],[138.599889,-34.61193],[138.598769,-34.61196],[138.596023,-34.612028],[138.593904,-34.61208],[138.593049,-34.612102],[138.588384,-34.612225],[138.581824,-34.612386],[138.581177,-34.6124],[138.576712,-34.612501],[138.575559,-34.612527],[138.572615,-34.612603],[138.568543,-34.612709],[138.568265,-34.612716],[138.567453,-34.612737],[138.561211,-34.612908],[138.559146,-34.612964],[138.556036,-34.613047],[138.552812,-34.613132],[138.552182,-34.61315],[138.549925,-34.613213],[138.548282,-34.613259],[138.54721,-34.613288],[138.545211,-34.613342],[138.544417,-34.613364],[138.540461,-34.613482],[138.535166,-34.614178],[138.534117,-34.614316],[138.533877,-34.614348],[138.533748,-34.614365],[138.533667,-34.614401],[138.53361,-34.614433],[138.533553,-34.614465]]}},{"type":"Feature","properties":{"tier":"arterial"},"geometry":{"type":"LineString","coordinates":[[138.606697,-34.601289],[138.606665,-34.600983],[138.606634,-34.600876],[138.606575,-34.600777],[138.606495,-34.600669],[138.606262,-34.600427],[138.606194,-34.60033],[138.606132,-34.600204],[138.606104,-34.600072],[138.606066,-34.598764],[138.605962,-34.596036],[138.605902,-34.594489],[138.605785,-34.590854],[138.605784,-34.59081]]}},{"type":"Feature","properties":{"tier":"arterial"},"geometry":{"type":"LineString","coordinates":[[138.515513,-34.594464],[138.515239,-34.594277],[138.514937,-34.594095],[138.514616,-34.593904],[138.514141,-34.593622],[138.513429,-34.593228]]}},{"type":"Feature","properties":{"tier":"arterial"},"geometry":{"type":"LineString","coordinates":[[138.518416,-34.596939],[138.51652,-34.595233],[138.516481,-34.5952],[138.515991,-34.594833],[138.515513,-34.594464]]}},{"type":"Feature","properties":{"tier":"arterial"},"geometry":{"type":"LineString","coordinates":[[138.525816,-34.592638],[138.524912,-34.592632],[138.524687,-34.592638],[138.524164,-34.592649],[138.523005,-34.592656],[138.522917,-34.592657],[138.521588,-34.592666],[138.520748,-34.592671],[138.520601,-34.592672],[138.520226,-34.592675],[138.520153,-34.592675],[138.520024,-34.592676],[138.519916,-34.592677],[138.519552,-34.592679],[138.518527,-34.592686],[138.51753,-34.592692],[138.5173,-34.592694],[138.517041,-34.592695],[138.515974,-34.592702]]}},{"type":"Feature","properties":{"tier":"arterial"},"geometry":{"type":"LineString","coordinates":[[138.509826,-34.502932],[138.509834,-34.49998]]}},{"type":"Feature","properties":{"tier":"arterial"},"geometry":{"type":"LineString","coordinates":[[138.509819,-34.503418],[138.509826,-34.502932]]}},{"type":"Feature","properties":{"tier":"arterial"},"geometry":{"type":"LineString","coordinates":[[138.509213,-34.593947],[138.509293,-34.593851],[138.510164,-34.592815]]}},{"type":"Feature","properties":{"tier":"high"},"geometry":{"type":"LineString","coordinates":[[138.509044,-34.594138],[138.509263,-34.594347]]}},{"type":"Feature","properties":{"tier":"high"},"geometry":{"type":"LineString","coordinates":[[138.49998,-34.586255],[138.502476,-34.588422],[138.507535,-34.592816],[138.508249,-34.593434]]}},{"type":"Feature","properties":{"tier":"regional"},"geometry":{"type":"LineString","coordinates":[[138.516317,-34.603332],[138.516067,-34.603461],[138.515877,-34.603559]]}},{"type":"Feature","properties":{"tier":"high"},"geometry":{"type":"LineString","coordinates":[[138.515755,-34.603128],[138.515877,-34.603559]]}},{"type":"Feature","properties":{"tier":"high"},"geometry":{"type":"LineString","coordinates":[[138.51124,-34.596075],[138.511741,-34.596542],[138.512195,-34.597018],[138.513042,-34.598002],[138.513436,-34.598527],[138.5138,-34.599037],[138.514214,-34.599688],[138.514592,-34.600337],[138.514932,-34.601008],[138.515241,-34.601681],[138.515489,-34.602344],[138.5157,-34.602956],[138.515755,-34.603128]]}},{"type":"Feature","properties":{"tier":"arterial"},"geometry":{"type":"LineString","coordinates":[[138.524683,-34.592422],[138.524834,-34.592576],[138.524912,-34.592632]]}},{"type":"Feature","properties":{"tier":"high"},"geometry":{"type":"LineString","coordinates":[[138.523486,-34.624286],[138.523874,-34.62502]]}},{"type":"Feature","properties":{"tier":"high"},"geometry":{"type":"LineString","coordinates":[[138.509387,-34.594778],[138.508433,-34.59398],[138.508345,-34.593907]]}},{"type":"Feature","properties":{"tier":"high"},"geometry":{"type":"LineString","coordinates":[[138.522905,-34.623224],[138.523486,-34.624286]]}},{"type":"Feature","properties":{"tier":"high"},"geometry":{"type":"LineString","coordinates":[[138.515756,-34.604222],[138.515733,-34.604094]]}},{"type":"Feature","properties":{"tier":"high"},"geometry":{"type":"LineString","coordinates":[[138.523214,-34.624394],[138.519893,-34.618236],[138.518177,-34.614945],[138.517032,-34.611877],[138.516308,-34.608852],[138.515986,-34.605611],[138.515907,-34.605067],[138.515849,-34.604752],[138.515756,-34.604222]]}},{"type":"Feature","properties":{"tier":"high"},"geometry":{"type":"LineString","coordinates":[[138.508249,-34.593434],[138.508755,-34.59389]]}},{"type":"Feature","properties":{"tier":"high"},"geometry":{"type":"LineString","coordinates":[[138.508755,-34.59389],[138.509044,-34.594138]]}},{"type":"Feature","properties":{"tier":"arterial"},"geometry":{"type":"LineString","coordinates":[[138.510164,-34.592815],[138.510924,-34.591934]]}},{"type":"Feature","properties":{"tier":"arterial"},"geometry":{"type":"LineString","coordinates":[[138.512547,-34.592722],[138.511225,-34.591904]]}},{"type":"Feature","properties":{"tier":"high"},"geometry":{"type":"LineString","coordinates":[[138.523536,-34.62502],[138.523214,-34.624394]]}},{"type":"Feature","properties":{"tier":"high"},"geometry":{"type":"LineString","coordinates":[[138.518502,-34.614894],[138.520249,-34.618372],[138.522905,-34.623224]]}},{"type":"Feature","properties":{"tier":"high"},"geometry":{"type":"LineString","coordinates":[[138.507795,-34.593436],[138.507102,-34.592841],[138.502217,-34.588634],[138.49998,-34.586707]]}},{"type":"Feature","properties":{"tier":"high"},"geometry":{"type":"LineString","coordinates":[[138.508345,-34.593907],[138.508285,-34.593857],[138.507795,-34.593436]]}},{"type":"Feature","properties":{"tier":"high"},"geometry":{"type":"LineString","coordinates":[[138.502217,-34.588634],[138.502476,-34.588422]]}},{"type":"Feature","properties":{"tier":"arterial"},"geometry":{"type":"LineString","coordinates":[[138.513935,-34.587908],[138.513948,-34.58785],[138.513963,-34.587782],[138.513978,-34.587638],[138.513998,-34.587458],[138.513998,-34.58726],[138.513995,-34.587062],[138.513992,-34.58687],[138.513986,-34.586159],[138.513927,-34.583019],[138.513916,-34.5825],[138.513869,-34.581206]]}},{"type":"Feature","properties":{"tier":"arterial"},"geometry":{"type":"LineString","coordinates":[[138.52671,-34.592632],[138.525816,-34.592638]]}},{"type":"Feature","properties":{"tier":"arterial"},"geometry":{"type":"LineString","coordinates":[[138.511225,-34.591904],[138.511258,-34.591853],[138.511269,-34.591796],[138.511257,-34.59174],[138.511223,-34.591689],[138.511171,-34.59165],[138.511106,-34.591627],[138.511036,-34.591623],[138.510968,-34.591638],[138.51091,-34.59167],[138.510867,-34.591716],[138.510864,-34.591725],[138.510845,-34.591771],[138.510846,-34.591828],[138.510869,-34.591883],[138.510913,-34.591928],[138.510924,-34.591934],[138.510972,-34.591959],[138.51104,-34.591973],[138.51111,-34.591968],[138.511174,-34.591944],[138.511225,-34.591904]]}},{"type":"Feature","properties":{"tier":"arterial"},"geometry":{"type":"LineString","coordinates":[[138.511036,-34.591623],[138.511484,-34.591275]]}},{"type":"Feature","properties":{"tier":"arterial"},"geometry":{"type":"LineString","coordinates":[[138.511484,-34.591275],[138.511328,-34.591554],[138.511257,-34.59174]]}}]}
