{"type":"FeatureCollection","features":[{"type":"Feature","properties":{"tier":"arterial"},"geometry":{"type":"LineString","coordinates":[[138.656225,-27.99998],[138.656458,-28.001863],[138.657321,-28.007148],[138.658112,-28.013084],[138.658579,-28.017527],[138.658903,-28.021622],[138.658938,-28.021981],[138.659193,-28.023498],[138.660395,-28.028017],[138.661545,-28.032507],[138.661924,-28.03409],[138.662027,-28.034835],[138.66197,-28.035546],[138.661779,-28.036998],[138.660591,-28.04565],[138.659066,-28.055813],[138.657617,-28.066402],[138.656491,-28.073875],[138.656396,-28.075173],[138.656219,-28.078807],[138.655939,-28.085424],[138.655278,-28.097378],[138.655182,-28.099241],[138.655184,-28.099896],[138.655278,-28.100495],[138.656834,-28.106588],[138.657947,-28.1109],[138.659239,-28.115902],[138.659745,-28.118021],[138.66009,-28.120068],[138.660867,-28.124486],[138.661121,-28.125603],[138.662839,-28.13138],[138.663715,-28.134394],[138.663901,-28.135011],[138.664115,-28.135603],[138.664649,-28.136703],[138.66731,-28.14224],[138.669262,-28.14616],[138.670269,-28.14818],[138.67126,-28.150104],[138.673104,-28.153825],[138.674917,-28.15746],[138.677253,-28.162006],[138.678407,-28.164213],[138.679514,-28.166374],[138.681204,-28.169806],[138.68138,-28.170271],[138.681531,-28.170843],[138.681552,-28.171118],[138.681546,-28.17139],[138.681437,-28.172945],[138.681069,-28.178345],[138.680883,-28.182036],[138.680345,-28.192214],[138.680019,-28.197621],[138.67943,-28.20465],[138.679165,-28.208167],[138.679015,-28.210003],[138.678888,-28.211611],[138.678782,-28.213078],[138.678686,-28.214204],[138.678507,-28.21653],[138.678323,-28.218838],[138.67784,-28.224867],[138.677599,-28.22789],[138.677381,-28.230911],[138.676857,-28.237572],[138.676619,-28.241245],[138.676544,-28.242314],[138.676449,-28.24278],[138.676315,-28.243136],[138.675143,-28.245886],[138.670961,-28.255393],[138.667195,-28.264139],[138.662747,-28.27427],[138.661648,-28.276641],[138.661336,-28.277366],[138.661103,-28.278178],[138.66101,-28.27874],[138.66097,-28.279918],[138.661336,-28.282678],[138.66152,-28.283839],[138.662931,-28.291988],[138.664133,-28.299894],[138.665381,-28.306631],[138.666064,-28.311437],[138.666662,-28.315172],[138.666894,-28.316151],[138.666971,-28.316361],[138.667765,-28.318518],[138.669761,-28.323696],[138.670204,-28.324923],[138.670398,-28.325671],[138.670512,-28.326685],[138.67112,-28.330932],[138.672637,-28.340143],[138.674377,-28.35033],[138.675203,-28.354899],[138.675239,-28.355873],[138.675203,-28.356861],[138.674925,-28.359223],[138.674674,-28.361331],[138.674659,-28.361457],[138.674653,-28.361504],[138.674269,-28.364679],[138.673843,-28.368447],[138.673548,-28.372362],[138.673195,-28.375986],[138.672578,-28.383525],[138.671943,-28.391184],[138.671698,-28.39439],[138.671644,-28.395359],[138.671673,-28.396268],[138.671788,-28.397083],[138.672167,-28.39883],[138.672565,-28.400503],[138.673803,-28.40522],[138.674885,-28.408973],[138.67596,-28.412496],[138.677107,-28.415495],[138.678546,-28.418464],[138.680308,-28.42227],[138.683203,-28.428823],[138.684293,-28.4311],[138.684774,-28.432299],[138.685159,-28.433776],[138.685315,-28.434839],[138.686449,-28.439995],[138.686761,-28.44278],[138.686683,-28.445059],[138.686476,-28.44793],[138.686476,-28.450482],[138.686657,-28.453011],[138.68759,-28.456178],[138.689482,-28.462558],[138.690311,-28.465542],[138.690551,-28.46773],[138.690816,-28.471791],[138.691011,-28.47488],[138.69108,-28.475329],[138.691322,-28.47675],[138.691462,-28.477509],[138.691789,-28.47855],[138.692256,-28.479516],[138.692423,-28.480047],[138.692996,-28.482787],[138.693499,-28.486249],[138.69382,-28.488683],[138.694002,-28.490037],[138.694084,-28.490424],[138.694248,-28.490861],[138.69442,-28.49123],[138.694589,-28.491611],[138.69622,-28.495291],[138.697697,-28.498548],[138.698372,-28.50002]]}}]}
