{"type":"FeatureCollection","features":[{"type":"Feature","properties":{"tier":"arterial"},"geometry":{"type":"LineString","coordinates":[[139.50002,-26.887319],[139.492422,-26.890833],[139.483146,-26.895028],[139.475372,-26.898727],[139.466683,-26.902659],[139.457309,-26.907028],[139.453912,-26.908601],[139.44978,-26.910465],[139.448826,-26.911029],[139.447951,-26.911689],[139.443231,-26.915723],[139.439802,-26.918679],[139.434641,-26.922901],[139.427733,-26.928711],[139.424343,-26.93154],[139.424123,-26.931724],[139.421815,-26.933649],[139.421364,-26.934026],[139.418384,-26.936491],[139.417264,-26.937418],[139.413933,-26.940199],[139.409523,-26.944538],[139.404673,-26.949123],[139.397846,-26.955762],[139.391951,-26.961497],[139.384308,-26.968819],[139.377873,-26.975034],[139.370287,-26.982339],[139.364343,-26.988138],[139.363318,-26.989151],[139.361226,-26.991321],[139.359638,-26.992928],[139.358198,-26.994438],[139.357832,-26.994781],[139.35753,-26.994995],[139.357216,-26.995162],[139.356838,-26.995332],[139.356436,-26.995437],[139.356082,-26.995485],[139.355685,-26.99548],[139.355337,-26.99542],[139.35502,-26.995313],[139.354674,-26.99513],[139.354271,-26.994875],[139.353975,-26.994635],[139.353552,-26.9942],[139.353265,-26.993776],[139.351514,-26.990659],[139.350642,-26.989024],[139.350184,-26.988308],[139.349827,-26.987839],[139.349226,-26.987275],[139.348802,-26.98695],[139.348266,-26.986594],[139.347778,-26.98634],[139.347236,-26.986099],[139.346895,-26.985992],[139.346426,-26.985882],[139.345814,-26.985738],[139.345259,-26.985643],[139.344803,-26.985602],[139.344296,-26.985609],[139.343719,-26.985633],[139.343255,-26.985712],[139.342609,-26.98587],[139.342051,-26.986046],[139.341603,-26.986214],[139.341128,-26.986438],[139.34064,-26.986723],[139.340219,-26.986986],[139.339701,-26.987421],[139.339289,-26.987841],[139.338867,-26.98837],[139.338421,-26.989144],[139.337309,-26.990929],[139.336472,-26.992363],[139.333964,-26.996515],[139.333712,-26.996943],[139.333423,-26.997416],[139.333176,-26.997731],[139.332918,-26.99803],[139.332535,-26.998305],[139.332205,-26.998501],[139.331768,-26.998659],[139.33106,-26.99885],[139.330469,-26.998964],[139.329375,-26.999165],[139.325398,-27.0],[139.325302,-27.00002]]}},{"type":"Feature","properties":{"tier":"arterial"},"geometry":{"type":"LineString","coordinates":[[139.03089,-27.00002],[139.025822,-26.998344],[139.024969,-26.998051],[139.019759,-26.996434],[139.018326,-26.996023],[139.017539,-26.995917],[139.016309,-26.995871],[139.012018,-26.99583],[139.009318,-26.995805],[139.006534,-26.995821],[139.000984,-26.996476],[138.99998,-26.996677]]}}]}
