{"type":"FeatureCollection","features":[{"type":"Feature","properties":{"tier":"arterial"},"geometry":{"type":"LineString","coordinates":[[139.50002,-31.425916],[139.49989,-31.425977],[139.49823,-31.426802],[139.497152,-31.427308],[139.495892,-31.427925],[139.494234,-31.428702],[139.493392,-31.429134],[139.492192,-31.4297],[139.490994,-31.430307],[139.49013,-31.430715],[139.488759,-31.431395],[139.488065,-31.431784],[139.486104,-31.432953],[139.483717,-31.43429],[139.482656,-31.434943],[139.480614,-31.436158],[139.480016,-31.436454],[139.478286,-31.437164],[139.477663,-31.437451],[139.477469,-31.437559],[139.477122,-31.437801],[139.476657,-31.438155],[139.476175,-31.438414],[139.475656,-31.438561],[139.475295,-31.438617],[139.474541,-31.438644],[139.473277,-31.438634],[139.473117,-31.438659],[139.472837,-31.438749],[139.472592,-31.438912],[139.472361,-31.43913],[139.471937,-31.439664],[139.471607,-31.440113],[139.470962,-31.440851],[139.470496,-31.441431],[139.470106,-31.441839],[139.469809,-31.442086],[139.46965,-31.442191],[139.469119,-31.442464],[139.468575,-31.442709],[139.468189,-31.442845],[139.466974,-31.443184],[139.466423,-31.443361],[139.465855,-31.443521],[139.465236,-31.443647],[139.464808,-31.443718],[139.463929,-31.443834],[139.463084,-31.443985],[139.462323,-31.444179],[139.461186,-31.444524],[139.460157,-31.444774],[139.459371,-31.444882],[139.457107,-31.445069],[139.456078,-31.445196],[139.453995,-31.445539],[139.452193,-31.445775],[139.450726,-31.446008],[139.449186,-31.446203],[139.447773,-31.446438],[139.446784,-31.446581],[139.445585,-31.446839],[139.444979,-31.446989],[139.443,-31.447438],[139.442619,-31.447562],[139.442247,-31.44772],[139.441886,-31.447896],[139.441166,-31.448288],[139.440622,-31.448622],[139.439414,-31.449564],[139.438586,-31.450271],[139.4374,-31.451247],[139.435928,-31.45257],[139.433758,-31.454455],[139.432954,-31.455216],[139.431997,-31.45616],[139.429533,-31.458699],[139.42924,-31.458972],[139.428927,-31.459234],[139.428762,-31.459352],[139.428417,-31.459586],[139.428049,-31.459811],[139.426481,-31.460724],[139.424416,-31.461883],[139.423388,-31.462488],[139.423269,-31.462556],[139.421592,-31.463507],[139.419552,-31.464692],[139.418398,-31.465412],[139.417331,-31.466031],[139.416547,-31.466509],[139.415046,-31.467361],[139.409699,-31.470506],[139.408871,-31.471017],[139.407993,-31.471519],[139.407228,-31.47191],[139.405328,-31.472933],[139.402148,-31.474689],[139.399961,-31.475934],[139.399357,-31.476246],[139.398186,-31.476885],[139.396831,-31.477651],[139.396428,-31.477845],[139.39601,-31.478012],[139.39535,-31.47821],[139.394717,-31.478354],[139.394093,-31.478433],[139.390697,-31.478773],[139.39019,-31.478873],[139.389612,-31.479031],[139.389534,-31.479046],[139.387324,-31.47981],[139.386864,-31.479993],[139.385725,-31.480397],[139.385262,-31.480602],[139.384393,-31.481098],[139.383984,-31.481409],[139.382295,-31.48261],[139.381556,-31.483097],[139.38097,-31.483512],[139.380361,-31.483908],[139.379868,-31.484179],[139.379355,-31.484427],[139.379011,-31.484569],[139.378652,-31.484697],[139.3779,-31.484897],[139.377517,-31.48496],[139.376755,-31.485034],[139.375993,-31.48502],[139.375428,-31.484987],[139.374287,-31.484883],[139.369145,-31.484498],[139.368196,-31.484408],[139.367728,-31.484363],[139.366901,-31.484201],[139.366577,-31.484113],[139.36635,-31.484032],[139.365851,-31.483813],[139.364543,-31.483173],[139.363844,-31.482852],[139.363436,-31.482679],[139.363158,-31.482597],[139.362475,-31.482502],[139.361956,-31.48237],[139.361432,-31.482306],[139.360653,-31.482117],[139.359666,-31.481923],[139.358038,-31.481633],[139.357244,-31.481532],[139.357084,-31.481525],[139.356932,-31.481536],[139.356618,-31.481581],[139.355319,-31.481887],[139.354604,-31.482032],[139.354036,-31.482101],[139.353083,-31.482164],[139.352301,-31.482258],[139.351739,-31.482373],[139.350995,-31.482564],[139.350626,-31.482682],[139.349123,-31.483222],[139.348222,-31.483598],[139.34717,-31.484075],[139.343854,-31.485535],[139.342585,-31.486112],[139.342408,-31.486181],[139.342226,-31.486229],[139.341837,-31.486296],[139.341441,-31.48633],[139.340237,-31.486348],[139.339646,-31.486378],[139.339076,-31.486445],[139.338169,-31.486624],[139.337821,-31.486649],[139.337466,-31.48663],[139.336567,-31.486458],[139.336016,-31.486391],[139.334291,-31.486344],[139.333926,-31.486361],[139.333396,-31.486421],[139.332142,-31.486643],[139.331248,-31.486781],[139.330754,-31.486878],[139.330276,-31.487016],[139.329652,-31.487233],[139.328414,-31.487708],[139.325789,-31.488673],[139.324328,-31.489225],[139.323341,-31.489629],[139.322786,-31.489816],[139.322181,-31.489895],[139.315937,-31.490371],[139.313841,-31.490502],[139.311365,-31.490707],[139.310984,-31.490745],[139.310422,-31.490848],[139.307323,-31.491665],[139.306131,-31.491952],[139.304509,-31.492365],[139.303708,-31.492549],[139.302536,-31.492917],[139.302122,-31.493031],[139.301018,-31.493286],[139.300333,-31.493463],[139.297379,-31.494171],[139.295743,-31.494487],[139.294093,-31.494744],[139.292222,-31.495081],[139.291784,-31.495137],[139.291139,-31.495141],[139.290731,-31.495165],[139.290528,-31.495194],[139.290116,-31.49529],[139.288106,-31.49589],[139.286894,-31.49627],[139.286144,-31.496483],[139.284125,-31.497038],[139.283135,-31.497295],[139.281679,-31.497706],[139.279009,-31.498382],[139.27783,-31.4987],[139.274134,-31.50002]]}},{"type":"Feature","properties":{"tier":"arterial"},"geometry":{"type":"LineString","coordinates":[[139.226315,-31.50002],[139.22341,-31.498875],[139.222544,-31.498514],[139.220254,-31.497597],[139.215933,-31.495759],[139.214584,-31.495171],[139.213999,-31.494898],[139.213603,-31.494736],[139.212584,-31.494353],[139.210926,-31.49377],[139.208576,-31.492892],[139.207995,-31.492654],[139.207629,-31.492465],[139.207102,-31.492125],[139.206079,-31.491395],[139.205761,-31.491132],[139.205476,-31.490838],[139.204689,-31.489902],[139.20391,-31.489023],[139.203672,-31.488731],[139.203363,-31.488271],[139.203174,-31.487946],[139.202801,-31.487266],[139.20246,-31.486583],[139.202373,-31.486426],[139.202259,-31.486278],[139.202126,-31.486148],[139.20168,-31.485808],[139.201425,-31.485576],[139.201034,-31.48506],[139.200824,-31.484855],[139.200708,-31.484768],[139.200184,-31.484462],[139.199345,-31.483934],[139.199241,-31.48389],[139.198998,-31.483847],[139.197578,-31.483803],[139.196251,-31.483614],[139.195688,-31.4835],[139.195314,-31.483398],[139.194563,-31.483166],[139.194388,-31.483095],[139.194067,-31.482922],[139.193492,-31.482549],[139.193346,-31.482471],[139.193194,-31.482414],[139.193032,-31.482374],[139.192863,-31.482352],[139.192361,-31.482388],[139.19207,-31.482388],[139.191954,-31.482365],[139.191846,-31.482319],[139.191662,-31.4822],[139.191511,-31.482029],[139.19137,-31.481838],[139.191186,-31.481668],[139.190864,-31.481461],[139.190628,-31.481367],[139.190369,-31.481329],[139.190233,-31.481339],[139.18995,-31.481418],[139.189523,-31.481618],[139.188951,-31.481969],[139.188359,-31.482293],[139.188052,-31.482411],[139.187728,-31.482498],[139.187193,-31.482608],[139.186649,-31.482693],[139.186273,-31.482728],[139.185506,-31.482765],[139.184772,-31.482833],[139.184407,-31.482846],[139.184043,-31.482823],[139.183864,-31.482796],[139.183179,-31.482644],[139.182682,-31.482487],[139.182357,-31.482351],[139.182205,-31.482267],[139.181944,-31.482046],[139.181838,-31.481925],[139.181484,-31.481447],[139.181386,-31.481347],[139.181269,-31.481262],[139.180999,-31.481157],[139.180541,-31.481066],[139.18021,-31.481036],[139.179325,-31.481029],[139.178598,-31.481073],[139.178214,-31.48113],[139.177255,-31.481355],[139.176879,-31.481418],[139.176506,-31.481462],[139.17632,-31.481501],[139.175622,-31.481721],[139.174688,-31.482053],[139.174533,-31.482091],[139.17423,-31.482128],[139.174083,-31.482124],[139.17369,-31.482032],[139.173566,-31.482012],[139.173447,-31.482015],[139.173339,-31.482048],[139.173017,-31.482256],[139.17262,-31.482461],[139.169915,-31.483463],[139.169226,-31.48374],[139.168577,-31.483968],[139.168411,-31.484014],[139.168067,-31.484062],[139.167892,-31.484068],[139.167234,-31.484024],[139.166956,-31.48404],[139.165786,-31.484303],[139.164637,-31.484541],[139.163959,-31.484732],[139.162768,-31.485019],[139.162328,-31.485162],[139.161762,-31.485372],[139.161615,-31.485415],[139.160709,-31.48559],[139.159728,-31.485925],[139.159439,-31.485977],[139.159152,-31.485987],[139.158876,-31.485955],[139.15847,-31.485867],[139.158204,-31.485787],[139.157895,-31.485661],[139.157741,-31.485566],[139.157608,-31.485454],[139.15738,-31.485157],[139.157092,-31.484853],[139.156986,-31.484703],[139.156865,-31.484476],[139.156808,-31.484332],[139.156729,-31.484222],[139.156628,-31.484154],[139.156423,-31.484064],[139.156277,-31.483981],[139.15587,-31.483627],[139.155631,-31.483454],[139.155337,-31.483308],[139.154969,-31.483194],[139.154592,-31.483138],[139.153618,-31.483103],[139.152814,-31.483046],[139.152095,-31.482979],[139.151839,-31.482937],[139.151582,-31.482881],[139.150977,-31.482692],[139.150492,-31.482598],[139.150254,-31.482532],[139.149528,-31.48223],[139.148877,-31.482022],[139.148373,-31.481834],[139.148144,-31.481734],[139.147683,-31.481501],[139.147427,-31.481425],[139.147293,-31.481412],[139.146484,-31.481467],[139.14609,-31.481427],[139.144677,-31.481106],[139.14439,-31.481032],[139.143789,-31.480846],[139.14332,-31.480732],[139.142662,-31.48062],[139.141674,-31.480399],[139.141317,-31.48033],[139.140785,-31.480252],[139.138501,-31.479801],[139.138174,-31.479728],[139.137719,-31.479599],[139.13757,-31.479575],[139.137164,-31.479596],[139.136941,-31.479574],[139.1362,-31.479282],[139.135901,-31.479213],[139.135407,-31.479176],[139.134897,-31.479182],[139.134355,-31.479216],[139.13379,-31.479194],[139.133228,-31.479091],[139.132683,-31.478962],[139.132322,-31.478898],[139.131778,-31.478867],[139.131268,-31.47889],[139.130944,-31.478854],[139.130624,-31.478771],[139.130173,-31.478628],[139.12791,-31.47773],[139.127204,-31.477511],[139.12674,-31.477401],[139.126115,-31.477295],[139.125628,-31.477272],[139.125313,-31.477298],[139.125149,-31.477333],[139.124685,-31.477389],[139.124389,-31.477391],[139.124104,-31.477354],[139.122924,-31.477042],[139.122121,-31.476853],[139.120584,-31.476425],[139.120227,-31.476322],[139.120068,-31.476304],[139.119708,-31.476264],[139.11936,-31.476342],[139.118874,-31.476448],[139.118167,-31.476621],[139.116366,-31.477063],[139.115855,-31.477213],[139.113468,-31.478081],[139.112927,-31.478238],[139.112621,-31.478285],[139.111994,-31.478347],[139.109637,-31.478493]]}},{"type":"Feature","properties":{"tier":"arterial"},"geometry":{"type":"LineString","coordinates":[[138.99998,-31.101429],[139.00021,-31.101178],[139.000592,-31.100777],[139.00144,-31.099808],[139.004205,-31.096852],[139.004533,-31.096463],[139.005562,-31.095318],[139.005976,-31.094741],[139.006132,-31.094455],[139.006303,-31.094044],[139.006414,-31.093621],[139.006494,-31.093175],[139.006534,-31.09257],[139.006511,-31.092108],[139.006412,-31.091471],[139.005838,-31.089003],[139.005543,-31.087826],[139.005455,-31.087317],[139.005398,-31.086795],[139.005385,-31.086446],[139.005395,-31.086089],[139.005545,-31.084871],[139.006035,-31.08205],[139.006203,-31.080993],[139.006375,-31.080315],[139.006641,-31.07965],[139.006816,-31.079332],[139.007225,-31.078732],[139.008732,-31.076691],[139.012248,-31.071843],[139.013143,-31.070636],[139.013774,-31.069736],[139.014281,-31.069061],[139.014566,-31.06868],[139.017687,-31.064344],[139.018274,-31.063588],[139.018524,-31.063312],[139.01921,-31.062624],[139.019954,-31.061915],[139.021946,-31.060071],[139.023833,-31.058285],[139.024165,-31.057957],[139.024239,-31.057884],[139.024518,-31.057627],[139.025699,-31.056539],[139.027959,-31.054411],[139.028515,-31.053911],[139.029241,-31.053314],[139.03041,-31.052401],[139.032277,-31.050991],[139.033329,-31.050162],[139.033982,-31.049671],[139.036424,-31.047836],[139.037833,-31.046744],[139.041624,-31.043896],[139.045955,-31.0406],[139.046938,-31.039867],[139.047583,-31.039387],[139.048905,-31.03836],[139.051348,-31.036532],[139.053005,-31.035239],[139.055201,-31.033589],[139.056255,-31.032767],[139.056719,-31.03246],[139.057526,-31.031996],[139.057873,-31.031815],[139.058966,-31.031269],[139.061047,-31.030266],[139.062344,-31.029628],[139.063575,-31.029022],[139.066416,-31.027687],[139.066723,-31.027509],[139.066864,-31.027411],[139.066996,-31.02731],[139.067209,-31.027089],[139.067366,-31.026824],[139.067485,-31.026526],[139.06753,-31.026371],[139.067586,-31.026055],[139.067607,-31.025726],[139.067592,-31.025561],[139.067511,-31.025222],[139.067423,-31.024992]]}},{"type":"Feature","properties":{"tier":"arterial"},"geometry":{"type":"LineString","coordinates":[[139.067394,-31.024917],[139.067261,-31.024569],[139.067075,-31.023922],[139.067059,-31.023608],[139.06708,-31.023299],[139.067123,-31.022989],[139.06726,-31.022252],[139.067362,-31.021885],[139.067413,-31.021766],[139.067547,-31.021546],[139.067727,-31.021327],[139.067954,-31.021112],[139.068987,-31.0203],[139.069671,-31.019722],[139.070358,-31.019109],[139.070761,-31.018717],[139.071531,-31.017875],[139.071992,-31.017288],[139.07328,-31.015722],[139.07505,-31.013511],[139.076396,-31.011891],[139.077371,-31.010662],[139.078869,-31.008842],[139.080206,-31.007186],[139.080715,-31.006597],[139.081515,-31.005721],[139.082538,-31.004635],[139.084251,-31.002817],[139.085091,-31.001957],[139.085805,-31.001189],[139.086025,-31.000924],[139.08644,-31.000362],[139.086685,-30.99998]]}},{"type":"Feature","properties":{"tier":"arterial"},"geometry":{"type":"LineString","coordinates":[[139.067423,-31.024992],[139.067394,-31.024917]]}}]}
