{"type":"FeatureCollection","features":[{"type":"Feature","properties":{"tier":"arterial"},"geometry":{"type":"LineString","coordinates":[[139.455463,-31.99998],[139.455508,-32.001938],[139.455595,-32.003263],[139.455604,-32.003605],[139.455592,-32.003769],[139.455499,-32.004272],[139.455373,-32.004607],[139.455197,-32.004951],[139.454434,-32.00619],[139.452828,-32.008709],[139.452185,-32.009674],[139.451584,-32.010686],[139.451343,-32.011055],[139.451171,-32.011372],[139.45102,-32.011753],[139.450894,-32.012167],[139.450496,-32.013918],[139.449956,-32.016141],[139.44967,-32.01748],[139.449495,-32.018149],[139.449263,-32.018785],[139.449078,-32.019194],[139.448668,-32.020006],[139.44823,-32.020808],[139.447195,-32.022517],[139.446302,-32.023915],[139.445649,-32.024974],[139.445297,-32.02553],[139.444894,-32.026285],[139.4446,-32.026963],[139.444327,-32.027687],[139.444099,-32.028434],[139.443967,-32.028932],[139.443768,-32.029921],[139.44366,-32.030644],[139.44353,-32.031348],[139.443351,-32.032015],[139.443186,-32.032434],[139.443001,-32.032835],[139.442592,-32.033581],[139.442326,-32.03392],[139.442027,-32.034214],[139.441697,-32.034482],[139.440879,-32.035095],[139.43975,-32.036016],[139.439619,-32.036103],[139.439477,-32.036169],[139.439172,-32.036246],[139.438822,-32.036299],[139.437224,-32.036402],[139.436725,-32.036474],[139.436471,-32.036529],[139.435736,-32.036739],[139.435259,-32.036908],[139.434145,-32.037381],[139.433945,-32.037482],[139.433586,-32.037695],[139.433279,-32.03794],[139.433145,-32.038069],[139.432915,-32.038347],[139.432811,-32.038494],[139.432731,-32.038641],[139.432549,-32.03907],[139.432515,-32.039212],[139.432451,-32.039919],[139.432388,-32.040189],[139.432327,-32.040316],[139.432241,-32.040433],[139.432133,-32.040535],[139.431998,-32.040619],[139.431664,-32.040741],[139.430827,-32.040927],[139.427223,-32.041561],[139.425644,-32.041868],[139.425037,-32.041999],[139.424221,-32.04221],[139.422162,-32.042923],[139.421244,-32.043271],[139.420814,-32.043485],[139.420199,-32.043868],[139.419213,-32.04457],[139.41759,-32.045676],[139.415814,-32.046957],[139.412655,-32.049131],[139.410917,-32.050382],[139.410319,-32.050775],[139.41011,-32.050892],[139.409677,-32.051102],[139.408804,-32.051444],[139.407995,-32.051842],[139.407205,-32.052303],[139.4046,-32.053889],[139.404018,-32.054213],[139.403201,-32.054549],[139.401938,-32.054984],[139.401299,-32.055232],[139.400888,-32.055419],[139.400493,-32.055625],[139.399721,-32.056086],[139.396275,-32.058243],[139.395543,-32.058735],[139.392907,-32.060617],[139.392452,-32.060972],[139.392064,-32.061338],[139.391739,-32.061728],[139.39156,-32.062005],[139.391269,-32.062539],[139.391103,-32.062905],[139.390541,-32.064348],[139.388485,-32.06956],[139.387317,-32.072609],[139.386161,-32.075483],[139.385767,-32.076532],[139.385332,-32.077585],[139.384375,-32.080016],[139.384174,-32.080583],[139.384023,-32.081144],[139.383961,-32.081525],[139.38394,-32.081911],[139.383959,-32.082717],[139.384038,-32.083917],[139.384104,-32.08453],[139.384294,-32.08578],[139.384434,-32.08642],[139.384552,-32.086848],[139.384617,-32.087063],[139.384856,-32.087697],[139.385156,-32.088335],[139.387263,-32.092592],[139.38874,-32.095515],[139.389995,-32.098088],[139.390406,-32.098898],[139.390791,-32.099711],[139.391706,-32.101526],[139.392194,-32.102533],[139.392372,-32.102938],[139.392522,-32.103352],[139.394174,-32.108431],[139.394298,-32.108992],[139.394346,-32.109356],[139.39443,-32.110589],[139.394503,-32.113239],[139.394527,-32.114749],[139.394615,-32.117198],[139.394731,-32.11967],[139.394797,-32.121693],[139.394868,-32.122788],[139.394929,-32.123444],[139.395092,-32.124456],[139.395225,-32.125167],[139.39529,-32.125773],[139.395367,-32.126349],[139.395403,-32.127192],[139.395387,-32.127895],[139.39525,-32.129557],[139.395028,-32.132865],[139.394814,-32.135755],[139.394641,-32.139005],[139.394411,-32.141866],[139.394128,-32.146576],[139.394079,-32.147016],[139.393955,-32.147661],[139.393774,-32.148277],[139.393547,-32.148876],[139.393047,-32.150043],[139.391865,-32.152939],[139.390686,-32.155732],[139.390305,-32.156713],[139.387455,-32.163692],[139.386967,-32.16498],[139.386857,-32.165347],[139.386604,-32.166408],[139.386442,-32.167253],[139.386291,-32.167922],[139.385979,-32.169542],[139.38498,-32.174263],[139.384695,-32.175734],[139.384463,-32.1768],[139.384191,-32.178168],[139.384108,-32.178678],[139.383792,-32.180231],[139.383665,-32.18096],[139.383484,-32.181691],[139.383267,-32.182391],[139.382796,-32.183626],[139.382073,-32.185312],[139.381795,-32.1859],[139.381534,-32.186501],[139.380563,-32.188999],[139.380019,-32.190446],[139.379381,-32.19198],[139.379248,-32.192382],[139.379149,-32.192807],[139.379098,-32.193255],[139.37909,-32.193481],[139.379123,-32.195049],[139.379126,-32.196375],[139.379153,-32.197902],[139.379173,-32.198327],[139.379216,-32.198748],[139.379337,-32.199361],[139.37953,-32.199954],[139.379787,-32.20052],[139.380379,-32.201597],[139.380904,-32.202471],[139.381697,-32.203879],[139.381968,-32.204408],[139.382283,-32.205109],[139.382406,-32.205455],[139.382485,-32.205805],[139.382528,-32.206155],[139.38253,-32.206652],[139.382508,-32.206814],[139.382475,-32.206984],[139.382369,-32.207304],[139.381963,-32.208086],[139.381344,-32.209185],[139.381038,-32.209761],[139.380943,-32.209934],[139.380685,-32.210543],[139.380575,-32.210853],[139.380489,-32.211165],[139.380425,-32.211469],[139.380325,-32.212181],[139.380289,-32.212514],[139.380295,-32.212844],[139.3804,-32.213364],[139.380505,-32.213727],[139.380571,-32.213907],[139.380815,-32.214438],[139.381113,-32.21495],[139.381344,-32.21528],[139.382242,-32.216384],[139.388054,-32.223296],[139.388817,-32.224231],[139.389902,-32.225505],[139.390348,-32.226007],[139.390958,-32.226649],[139.392232,-32.227899],[139.392852,-32.228496],[139.395101,-32.230731],[139.397811,-32.233468],[139.400667,-32.236319],[139.401727,-32.237428],[139.40641,-32.24215],[139.407973,-32.243811],[139.409341,-32.245307],[139.410393,-32.24642],[139.410809,-32.246881],[139.411173,-32.247338],[139.41148,-32.247777],[139.411644,-32.248062],[139.411853,-32.248487],[139.412013,-32.248916],[139.412132,-32.249326],[139.412506,-32.251176],[139.412791,-32.252741],[139.413327,-32.255402],[139.413715,-32.257351],[139.413831,-32.257779],[139.414031,-32.258226],[139.414207,-32.258518],[139.41451,-32.258955],[139.416208,-32.2613],[139.417484,-32.263185],[139.417692,-32.26344],[139.417948,-32.263661],[139.418095,-32.263746],[139.418411,-32.263898],[139.418946,-32.264101],[139.419738,-32.264377],[139.420336,-32.264554],[139.421523,-32.264858],[139.422097,-32.265048],[139.422445,-32.265194],[139.422765,-32.265365],[139.422907,-32.265469],[139.423028,-32.265587],[139.42313,-32.265718],[139.423269,-32.265999],[139.42334,-32.266306],[139.423394,-32.266782],[139.42345,-32.267111],[139.42354,-32.267442],[139.423666,-32.26777],[139.423899,-32.268281],[139.424729,-32.269978],[139.425377,-32.271387],[139.425553,-32.271714],[139.425747,-32.272031],[139.426298,-32.272826],[139.427472,-32.274405],[139.429218,-32.276596],[139.430004,-32.277518],[139.430892,-32.278517],[139.431526,-32.279281],[139.432019,-32.279915],[139.432335,-32.280412],[139.432552,-32.28072],[139.432692,-32.280952],[139.432885,-32.281432],[139.433012,-32.281841],[139.433197,-32.282695],[139.433949,-32.285843],[139.434094,-32.286358],[139.435288,-32.290017],[139.435556,-32.290838],[139.436173,-32.292541],[139.436421,-32.293404],[139.436513,-32.29367],[139.436778,-32.294435],[139.437056,-32.295321],[139.437235,-32.295857],[139.438212,-32.298785],[139.438345,-32.29928],[139.438351,-32.299469],[139.438366,-32.3],[139.438381,-32.300507],[139.438447,-32.301614],[139.438509,-32.303292],[139.438545,-32.303853],[139.438597,-32.304224],[139.438681,-32.30458],[139.438785,-32.304898],[139.438925,-32.305198],[139.440708,-32.308186],[139.441332,-32.309175],[139.444192,-32.313861],[139.445949,-32.316692],[139.446434,-32.317501],[139.446762,-32.318111],[139.447312,-32.319329],[139.448879,-32.323041],[139.44956,-32.324556],[139.449928,-32.325484],[139.45094,-32.327919],[139.452422,-32.331249],[139.452688,-32.331895],[139.45293,-32.332543],[139.453059,-32.332976],[139.453163,-32.333421],[139.453414,-32.334765],[139.453674,-32.336364],[139.45399,-32.338468],[139.454356,-32.340541],[139.455495,-32.347993],[139.455638,-32.348818],[139.455747,-32.349609],[139.456202,-32.352332],[139.456477,-32.354235],[139.456628,-32.355196],[139.457127,-32.358064],[139.457674,-32.361688],[139.457848,-32.362569],[139.457963,-32.362992],[139.458183,-32.363626],[139.458692,-32.364856],[139.459348,-32.36629],[139.459799,-32.367275],[139.460401,-32.368658],[139.460594,-32.369054],[139.461608,-32.371313],[139.462039,-32.372316],[139.462685,-32.37368],[139.46284,-32.374042],[139.462901,-32.37423],[139.462975,-32.374602],[139.462955,-32.374975],[139.462914,-32.375164],[139.462172,-32.377985],[139.461809,-32.379243],[139.461374,-32.380907],[139.461028,-32.382153],[139.4609,-32.382568],[139.460737,-32.383005],[139.459745,-32.385427],[139.45965,-32.385796],[139.45959,-32.386164],[139.459575,-32.386522],[139.459601,-32.386884],[139.459707,-32.387441],[139.459763,-32.387624],[139.459958,-32.388146],[139.460413,-32.389106],[139.460631,-32.389509],[139.460872,-32.390055],[139.461334,-32.390972],[139.463723,-32.395881],[139.465157,-32.398723],[139.466245,-32.401011],[139.466868,-32.402247],[139.467476,-32.403394],[139.467664,-32.403781],[139.468122,-32.404842],[139.468734,-32.406146],[139.468962,-32.406794],[139.469177,-32.407676],[139.469409,-32.409392],[139.469481,-32.409823],[139.469712,-32.410853],[139.46983,-32.411244],[139.469966,-32.411618],[139.470186,-32.412152],[139.470592,-32.41308],[139.470932,-32.413779],[139.471118,-32.414303],[139.471449,-32.415127],[139.472313,-32.417147],[139.473152,-32.419108],[139.473456,-32.419689],[139.473703,-32.420055],[139.473994,-32.420396],[139.474787,-32.421257],[139.475232,-32.42178],[139.476384,-32.423052],[139.481423,-32.428748],[139.482292,-32.429701],[139.484625,-32.432359],[139.487645,-32.435737],[139.488571,-32.436748],[139.489168,-32.437435],[139.490825,-32.43928],[139.491383,-32.439933],[139.49286,-32.441574],[139.495218,-32.444246],[139.49564,-32.444703],[139.496309,-32.44548],[139.499492,-32.449011],[139.50002,-32.449568]]}},{"type":"Feature","properties":{"tier":"regional"},"geometry":{"type":"LineString","coordinates":[[138.99998,-32.060957],[139.000451,-32.060192],[139.000786,-32.059701],[139.001029,-32.059385],[139.001295,-32.059115],[139.002359,-32.058025],[139.00271,-32.057732],[139.003102,-32.05747],[139.004527,-32.05668],[139.004957,-32.056507],[139.005458,-32.056341],[139.005918,-32.056248],[139.006275,-32.056201],[139.00947,-32.055875],[139.009936,-32.055852],[139.011349,-32.055853],[139.012056,-32.055787],[139.013706,-32.055482],[139.014987,-32.055228],[139.017426,-32.054146],[139.018051,-32.053824],[139.018384,-32.053546],[139.019764,-32.052468],[139.021231,-32.051166],[139.022505,-32.050206],[139.022844,-32.049978],[139.023224,-32.049816],[139.023663,-32.049641],[139.023969,-32.049487],[139.024224,-32.04932],[139.024473,-32.04909],[139.024921,-32.048563],[139.025628,-32.047678],[139.027239,-32.045777],[139.030752,-32.041198],[139.033246,-32.037957],[139.033808,-32.037234],[139.034227,-32.036752],[139.038723,-32.031467],[139.039565,-32.030362],[139.04294,-32.02579],[139.044116,-32.024152],[139.044482,-32.023661],[139.045114,-32.022912],[139.046293,-32.021473],[139.04924,-32.018161],[139.049524,-32.017874],[139.052668,-32.01428],[139.055469,-32.011103],[139.058083,-32.008136],[139.059052,-32.006933],[139.059198,-32.006516],[139.059377,-32.006053],[139.059495,-32.005586],[139.059618,-32.005308],[139.05981,-32.005036],[139.060073,-32.004684],[139.060242,-32.004289],[139.060412,-32.003624],[139.060474,-32.003124],[139.060604,-32.002797],[139.060864,-32.0025],[139.061508,-32.001724],[139.061801,-32.001307],[139.062183,-32.000578],[139.062571,-31.99998]]}},{"type":"Feature","properties":{"tier":"regional"},"geometry":{"type":"LineString","coordinates":[[139.109652,-31.99998],[139.108993,-32.001102],[139.108821,-32.001448],[139.108725,-32.001694],[139.108704,-32.001917],[139.108767,-32.002158],[139.109584,-32.004665],[139.110646,-32.008013],[139.111032,-32.00935],[139.111161,-32.009668],[139.111322,-32.009896],[139.114026,-32.01318],[139.114948,-32.014317],[139.115345,-32.014781],[139.115571,-32.01509],[139.11571,-32.015354],[139.116043,-32.015882],[139.116408,-32.016373],[139.117888,-32.017892],[139.119884,-32.01973],[139.120517,-32.020367],[139.12101,-32.020739],[139.122598,-32.021822],[139.12366,-32.02255],[139.124411,-32.023077],[139.124862,-32.023423],[139.125205,-32.023741],[139.125763,-32.024287],[139.12616,-32.024678],[139.126439,-32.025024],[139.126772,-32.025269],[139.127135,-32.025492],[139.127501,-32.025715],[139.129615,-32.026779],[139.13514,-32.029499],[139.138284,-32.031],[139.144227,-32.03381],[139.1456,-32.034405],[139.146105,-32.034538],[139.146835,-32.034629],[139.147489,-32.034747],[139.150064,-32.034874],[139.151394,-32.034883],[139.151781,-32.034883],[139.151995,-32.034938],[139.152199,-32.035038],[139.152435,-32.035266],[139.15268,-32.035648],[139.153046,-32.03622],[139.153131,-32.036534],[139.153068,-32.03683],[139.153056,-32.037161],[139.152895,-32.037771],[139.152702,-32.038998],[139.15266,-32.040249],[139.152671,-32.04054],[139.152703,-32.040713],[139.152789,-32.040832],[139.152993,-32.040931],[139.153197,-32.040986],[139.153476,-32.041059],[139.153905,-32.041195],[139.156437,-32.04235],[139.1609,-32.044533],[139.16532,-32.046743],[139.167005,-32.047598],[139.168442,-32.048216],[139.169665,-32.048871],[139.170964,-32.04958],[139.173603,-32.051217],[139.174568,-32.051826],[139.174966,-32.052044],[139.175459,-32.052272],[139.176285,-32.052554],[139.176811,-32.05269],[139.177342,-32.052796],[139.177637,-32.052854],[139.177905,-32.052908],[139.178163,-32.052908],[139.178452,-32.052926],[139.178721,-32.053036],[139.180105,-32.053581],[139.180427,-32.053736],[139.180609,-32.053854],[139.180738,-32.05399],[139.180941,-32.05429],[139.181509,-32.055349],[139.182561,-32.057027],[139.183248,-32.058],[139.184085,-32.059646],[139.184482,-32.060319],[139.186284,-32.06402],[139.187046,-32.065447],[139.187207,-32.065793],[139.187411,-32.066029],[139.187947,-32.066565],[139.189092,-32.067677],[139.189563,-32.068103],[139.189954,-32.068347],[139.191048,-32.06892],[139.191949,-32.069375],[139.192743,-32.069857],[139.193322,-32.070229],[139.193752,-32.070575],[139.195522,-32.072284],[139.196927,-32.073666],[139.198783,-32.075393],[139.199341,-32.075893],[139.199728,-32.076184],[139.199953,-32.076357],[139.200135,-32.076511],[139.200361,-32.076766],[139.200586,-32.077057],[139.200854,-32.077275],[139.201101,-32.077484],[139.201788,-32.078048],[139.202764,-32.078911],[139.203472,-32.079684],[139.205114,-32.081748],[139.206015,-32.082975],[139.206476,-32.083529],[139.206744,-32.083857],[139.207399,-32.084484],[139.207957,-32.084993],[139.208171,-32.085247],[139.208375,-32.085502],[139.208642,-32.085888],[139.20918,-32.086647],[139.209373,-32.086865],[139.209544,-32.087011],[139.209759,-32.087074],[139.210006,-32.087129],[139.21022,-32.087175],[139.210424,-32.087302],[139.210607,-32.087538],[139.211637,-32.089847],[139.211937,-32.090292],[139.212237,-32.09061],[139.213986,-32.091847],[139.215563,-32.092783],[139.215864,-32.092937],[139.216164,-32.093037],[139.216347,-32.093083],[139.216701,-32.093137],[139.217119,-32.093219],[139.217849,-32.093383],[139.2186,-32.09361],[139.219404,-32.09391],[139.220016,-32.094119],[139.2214,-32.094773],[139.222998,-32.095528],[139.224715,-32.096337],[139.225681,-32.096792],[139.226571,-32.097227],[139.227644,-32.097836],[139.228159,-32.098118],[139.228513,-32.098436],[139.229286,-32.099336],[139.229714,-32.099913],[139.2304,-32.101176],[139.230872,-32.102439],[139.231056,-32.102908],[139.231238,-32.103244],[139.231442,-32.103417],[139.231775,-32.103608],[139.232547,-32.103971],[139.233706,-32.104435],[139.234478,-32.104816],[139.237804,-32.106261],[139.241409,-32.107879],[139.243222,-32.108724],[139.244907,-32.109606],[139.24539,-32.109887],[139.245765,-32.110124],[139.24598,-32.110342],[139.246827,-32.111123],[139.250926,-32.115031],[139.253501,-32.117612],[139.25584,-32.119983],[139.256215,-32.120347],[139.256397,-32.120528],[139.256644,-32.120656],[139.256848,-32.120783],[139.257041,-32.120855],[139.25732,-32.120946],[139.257535,-32.121001],[139.257803,-32.121065],[139.258103,-32.121083],[139.258372,-32.121046],[139.258747,-32.120946],[139.260034,-32.120774],[139.260528,-32.120719],[139.260957,-32.12061],[139.261494,-32.120428],[139.261912,-32.120274],[139.262395,-32.120128],[139.262867,-32.120047],[139.263189,-32.120029],[139.263586,-32.120038],[139.263929,-32.120101],[139.264369,-32.120201],[139.264777,-32.120337],[139.265259,-32.120492],[139.265646,-32.120701],[139.266279,-32.121092],[139.267808,-32.12215],[139.269615,-32.12339],[139.269878,-32.123554],[139.270066,-32.123645],[139.270254,-32.123708],[139.270774,-32.123808],[139.271364,-32.123895],[139.271933,-32.123881],[139.272244,-32.123817],[139.272624,-32.123722],[139.273043,-32.123563],[139.273499,-32.123368],[139.273977,-32.123213],[139.274261,-32.123181],[139.27447,-32.123186],[139.274642,-32.123227],[139.274899,-32.1233],[139.275227,-32.123413],[139.275575,-32.123549],[139.275833,-32.123631],[139.276074,-32.123686],[139.276369,-32.123686],[139.277045,-32.123717],[139.277485,-32.123767],[139.277812,-32.123854],[139.278188,-32.123949],[139.278488,-32.124045],[139.279722,-32.124862],[139.280205,-32.12514],[139.280489,-32.125335],[139.280661,-32.12548],[139.28116,-32.126007],[139.282081,-32.126984],[139.283461,-32.12841],[139.283922,-32.128883],[139.285134,-32.130232],[139.285617,-32.130768],[139.285965,-32.131154],[139.286367,-32.131681],[139.287983,-32.133594],[139.28831,-32.133994],[139.288556,-32.134334],[139.288937,-32.134974],[139.289716,-32.136383],[139.290499,-32.137814],[139.290643,-32.138036],[139.290816,-32.138209],[139.29118,-32.138531],[139.292622,-32.139749],[139.29309,-32.14013],[139.293337,-32.140317],[139.294721,-32.141175],[139.295438,-32.14162],[139.296276,-32.142161],[139.298106,-32.143346],[139.299216,-32.144037],[139.299447,-32.144196],[139.299619,-32.144373],[139.30046,-32.145276],[139.300803,-32.145635],[139.30104,-32.145922],[139.301673,-32.146703],[139.302021,-32.147089],[139.302316,-32.147434],[139.302621,-32.147879],[139.302885,-32.148197],[139.303288,-32.148638],[139.303722,-32.14906],[139.304016,-32.149332],[139.304387,-32.149646],[139.306828,-32.151617],[139.307337,-32.152008],[139.307622,-32.15223],[139.308572,-32.15307],[139.308738,-32.153225],[139.31031,-32.154288],[139.311313,-32.154996],[139.31178,-32.155296],[139.31348,-32.156368],[139.317847,-32.158834],[139.321488,-32.160891],[139.324649,-32.162489],[139.326838,-32.163584],[139.328806,-32.164619],[139.330689,-32.165641],[139.331317,-32.165977],[139.331955,-32.166386],[139.332642,-32.166853],[139.332932,-32.167085],[139.333161,-32.167271],[139.333548,-32.167666],[139.334235,-32.168411],[139.334476,-32.168656],[139.334685,-32.168851],[139.334868,-32.169015],[139.335067,-32.169156],[139.335292,-32.169333],[139.335834,-32.169691],[139.337529,-32.170872],[139.338677,-32.171685],[139.338945,-32.171848],[139.339154,-32.171962],[139.339331,-32.172062],[139.340446,-32.172961],[139.342405,-32.174518],[139.34387,-32.175703],[139.345103,-32.176652],[139.345425,-32.17687],[139.345683,-32.177006],[139.346246,-32.177479],[139.348317,-32.179054],[139.348703,-32.179372],[139.348922,-32.179572],[139.349137,-32.179849],[139.349346,-32.180203],[139.349459,-32.180516],[139.350032,-32.182432],[139.350552,-32.184312],[139.351137,-32.186255],[139.351647,-32.18793],[139.351904,-32.188852],[139.352065,-32.189274],[139.352253,-32.189646],[139.352436,-32.189937],[139.352677,-32.190268],[139.352962,-32.190595],[139.353241,-32.190886],[139.353606,-32.191217],[139.354132,-32.191653],[139.354722,-32.192084],[139.355097,-32.19232],[139.35543,-32.192529],[139.357286,-32.193551],[139.358531,-32.194195],[139.359319,-32.19459],[139.360049,-32.194926],[139.362007,-32.19597],[139.362666,-32.196292],[139.362978,-32.196474],[139.363225,-32.196634],[139.363396,-32.196769],[139.363561,-32.196919],[139.363723,-32.197078],[139.36502,-32.198771],[139.366619,-32.200863],[139.367,-32.201326],[139.367237,-32.20164],[139.368015,-32.202911],[139.368309,-32.203387],[139.368486,-32.203646],[139.368717,-32.203936],[139.369104,-32.204359],[139.37022,-32.20548],[139.371201,-32.206442],[139.371657,-32.206892],[139.372537,-32.207613],[139.373122,-32.208076],[139.373368,-32.208222],[139.37354,-32.208335],[139.373969,-32.208567],[139.375579,-32.209293],[139.37678,-32.209883],[139.37707,-32.209992],[139.377268,-32.210051],[139.377498,-32.210105],[139.377691,-32.210128],[139.377928,-32.210128],[139.378159,-32.210096],[139.378357,-32.210037],[139.378604,-32.209933],[139.379162,-32.209656],[139.379359,-32.209565],[139.379537,-32.209528],[139.379671,-32.209506],[139.379805,-32.209515],[139.379967,-32.209533],[139.380223,-32.209583],[139.381038,-32.209761]]}}]}
