{"type":"FeatureCollection","features":[{"type":"Feature","properties":{"tier":"arterial"},"geometry":{"type":"LineString","coordinates":[[139.300401,-30.50002],[139.300509,-30.498324],[139.300683,-30.495131],[139.30076,-30.494077],[139.301034,-30.488816],[139.301467,-30.481977],[139.301619,-30.478989],[139.301679,-30.478098],[139.301747,-30.477716],[139.30184,-30.477504],[139.301979,-30.477311],[139.302067,-30.477223],[139.302274,-30.477061],[139.303086,-30.476609],[139.304686,-30.475798],[139.304831,-30.475703],[139.305093,-30.475482],[139.305429,-30.475104],[139.306543,-30.473451],[139.307228,-30.472511],[139.308166,-30.471183],[139.309008,-30.469947],[139.309666,-30.469034],[139.310259,-30.468104],[139.311646,-30.466179],[139.312493,-30.464945],[139.312822,-30.464498],[139.314785,-30.461694],[139.315031,-30.461256],[139.315354,-30.460564],[139.316297,-30.458757],[139.316898,-30.457882],[139.317693,-30.456588],[139.318409,-30.455486],[139.319038,-30.454553],[139.320296,-30.452601],[139.321424,-30.45089],[139.321941,-30.450056],[139.3226,-30.449044],[139.323302,-30.44801],[139.323849,-30.447154],[139.324721,-30.445842],[139.325663,-30.444459],[139.325994,-30.443998],[139.326469,-30.443393],[139.326723,-30.443103],[139.327735,-30.442075],[139.329795,-30.440085],[139.330052,-30.439819],[139.330285,-30.43954],[139.3309,-30.438644],[139.332139,-30.436725],[139.332853,-30.435662],[139.333187,-30.435114],[139.333832,-30.434115],[139.334346,-30.433383],[139.334551,-30.433031],[139.334718,-30.432626],[139.334911,-30.432042],[139.33503,-30.431747],[139.335172,-30.43146],[139.335341,-30.431173],[139.335435,-30.431034],[139.33565,-30.430774],[139.337288,-30.429],[139.33775,-30.428429],[139.337939,-30.428139],[139.338093,-30.427833],[139.338283,-30.427354],[139.338679,-30.425925],[139.338862,-30.42519],[139.339073,-30.424532],[139.339244,-30.424151],[139.339508,-30.423656],[139.340677,-30.421589],[139.341748,-30.420136],[139.34202,-30.419696],[139.342495,-30.418776],[139.342678,-30.418492],[139.343475,-30.417401],[139.343805,-30.416977],[139.344465,-30.415993],[139.344654,-30.415751],[139.344982,-30.415444],[139.345192,-30.415268],[139.34587,-30.41477],[139.346162,-30.414479],[139.346318,-30.414263],[139.34645,-30.414033],[139.347255,-30.412484],[139.347403,-30.412239],[139.347582,-30.412006],[139.347882,-30.411671],[139.348296,-30.411261],[139.348383,-30.411175],[139.348734,-30.410828],[139.349027,-30.41049],[139.349326,-30.41011],[139.349604,-30.409707],[139.349761,-30.409421],[139.349893,-30.409129],[139.349993,-30.408832],[139.350071,-30.40852],[139.3504,-30.406487],[139.350498,-30.40601],[139.350591,-30.405698],[139.350646,-30.405544],[139.350783,-30.405251],[139.350945,-30.404957],[139.3511,-30.404755],[139.351461,-30.404264],[139.351903,-30.40373],[139.351944,-30.403675],[139.352407,-30.403064],[139.352582,-30.402784],[139.353227,-30.401566],[139.353581,-30.400975],[139.353727,-30.400674],[139.353824,-30.400365],[139.354012,-30.399434],[139.354218,-30.398661],[139.354334,-30.398375],[139.354499,-30.39811],[139.354706,-30.397855],[139.355271,-30.397243],[139.356488,-30.396043],[139.357158,-30.395413],[139.357658,-30.394887],[139.357985,-30.39449],[139.358274,-30.394063],[139.358445,-30.393778],[139.358734,-30.393171],[139.358896,-30.392706],[139.35918,-30.391634],[139.359521,-30.390239],[139.359635,-30.389896],[139.359738,-30.389615],[139.359788,-30.389478],[139.359949,-30.389116],[139.360092,-30.388793],[139.360581,-30.387745],[139.360791,-30.387324],[139.361022,-30.386913],[139.361651,-30.38587],[139.363125,-30.383649],[139.363687,-30.382863],[139.365188,-30.380551],[139.365961,-30.379451],[139.367042,-30.377844],[139.367438,-30.377255],[139.367923,-30.376473],[139.368635,-30.375125],[139.369051,-30.374438],[139.369398,-30.373978],[139.371139,-30.371868],[139.372724,-30.369841],[139.373056,-30.369481],[139.373665,-30.368944],[139.37388,-30.368709],[139.37416,-30.368313],[139.374453,-30.36778],[139.374688,-30.367243],[139.37477,-30.366971],[139.374804,-30.366701],[139.374751,-30.366287],[139.374494,-30.365069],[139.374316,-30.364411],[139.374099,-30.363744],[139.373966,-30.363437],[139.373794,-30.363164],[139.373238,-30.362577],[139.373061,-30.362331],[139.372991,-30.362196],[139.372889,-30.361914],[139.372823,-30.361458],[139.372762,-30.359591],[139.372812,-30.35908],[139.372915,-30.358749],[139.372991,-30.358587],[139.373159,-30.358283],[139.373535,-30.357676],[139.373766,-30.357239],[139.373856,-30.356934],[139.373873,-30.356777],[139.373861,-30.356625],[139.373817,-30.356481],[139.373745,-30.356352],[139.373525,-30.356138],[139.37328,-30.355967],[139.373041,-30.355816],[139.372807,-30.355692],[139.371875,-30.35529],[139.371749,-30.35522],[139.371638,-30.355133],[139.371456,-30.354948],[139.371321,-30.354753],[139.371255,-30.35454],[139.371236,-30.354306],[139.371246,-30.354054],[139.371518,-30.352153],[139.371638,-30.351715],[139.371934,-30.350997],[139.372016,-30.35054],[139.372047,-30.350236],[139.372068,-30.349292],[139.37213,-30.348791],[139.372242,-30.348305],[139.372415,-30.347677],[139.373265,-30.345014],[139.373456,-30.344525],[139.3739,-30.343545],[139.374014,-30.343219],[139.374098,-30.34288],[139.374157,-30.342535],[139.374237,-30.341687],[139.374312,-30.341057],[139.374365,-30.340745],[139.374695,-30.339327],[139.374747,-30.339014],[139.374773,-30.33871],[139.374738,-30.338152],[139.374654,-30.337464],[139.374541,-30.336783],[139.374407,-30.336159],[139.374247,-30.335668],[139.374052,-30.335204],[139.373861,-30.334908],[139.373628,-30.334662],[139.37315,-30.334258],[139.373064,-30.334174],[139.372921,-30.333992],[139.372868,-30.333887],[139.372795,-30.333656],[139.372607,-30.332743],[139.372527,-30.332481],[139.37236,-30.332106],[139.37229,-30.33199],[139.372122,-30.331771],[139.371923,-30.331581],[139.371809,-30.331502],[139.371451,-30.33131],[139.371344,-30.331237],[139.370946,-30.330896],[139.370682,-30.330611],[139.37047,-30.3303],[139.370288,-30.329976],[139.370115,-30.329625],[139.369784,-30.328861],[139.369667,-30.32845],[139.369555,-30.327744],[139.369479,-30.327517],[139.369421,-30.327395],[139.369286,-30.32716],[139.369118,-30.326945],[139.368648,-30.326438],[139.368395,-30.326136],[139.368202,-30.32596],[139.367998,-30.325808],[139.3678,-30.325696],[139.367624,-30.325624],[139.367089,-30.325464],[139.366701,-30.325317],[139.366442,-30.325262],[139.365901,-30.3252],[139.365673,-30.325141],[139.365448,-30.325034],[139.365259,-30.324908],[139.365129,-30.324768],[139.36483,-30.3243],[139.364663,-30.323948],[139.364553,-30.323771],[139.364404,-30.323592],[139.363711,-30.323],[139.363419,-30.322699],[139.363193,-30.322363],[139.362979,-30.321891],[139.362837,-30.32165],[139.36257,-30.321309],[139.362365,-30.321111],[139.36214,-30.320942],[139.361888,-30.320795],[139.361616,-30.320686],[139.361067,-30.320522],[139.360822,-30.320396],[139.360613,-30.320219],[139.360183,-30.319695],[139.359979,-30.319507],[139.358811,-30.318616],[139.357068,-30.31747],[139.35655,-30.317028],[139.356221,-30.316777],[139.356107,-30.31671],[139.355873,-30.316633],[139.355372,-30.316572],[139.355092,-30.316567],[139.354819,-30.316528],[139.354682,-30.316492],[139.354054,-30.316209],[139.353783,-30.316122],[139.353503,-30.316068],[139.352541,-30.315969],[139.350693,-30.315504],[139.349891,-30.315279],[139.349017,-30.315091],[139.348532,-30.314954],[139.346527,-30.314178],[139.345299,-30.313769],[139.344863,-30.313588],[139.344753,-30.313512],[139.344666,-30.313428],[139.344586,-30.313329],[139.344402,-30.313],[139.344322,-30.31289],[139.344118,-30.312684],[139.343873,-30.312497],[139.343244,-30.312093]]}},{"type":"Feature","properties":{"tier":"arterial"},"geometry":{"type":"LineString","coordinates":[[139.337819,-30.311622],[139.33751,-30.311644],[139.337019,-30.311632],[139.33686,-30.311632],[139.336553,-30.31161],[139.336538,-30.311609],[139.336425,-30.311598],[139.336166,-30.31156]]}},{"type":"Feature","properties":{"tier":"arterial"},"geometry":{"type":"LineString","coordinates":[[139.371886,-30.483299],[139.371675,-30.483378],[139.371477,-30.483414],[139.3711,-30.483415],[139.370703,-30.483339],[139.370312,-30.48323],[139.369793,-30.483019],[139.369628,-30.482975],[139.369387,-30.482947],[139.3688,-30.482962],[139.36824,-30.483013],[139.36792,-30.483083],[139.366788,-30.483432],[139.366345,-30.483597],[139.365914,-30.4838],[139.365632,-30.483979],[139.365387,-30.484184],[139.36197,-30.48766],[139.359798,-30.489995],[139.358694,-30.491233],[139.357742,-30.492256],[139.350507,-30.50002]]}},{"type":"Feature","properties":{"tier":"arterial"},"geometry":{"type":"LineString","coordinates":[[139.377642,-30.479296],[139.37676,-30.48014],[139.376442,-30.480458],[139.375732,-30.481103],[139.374954,-30.481742],[139.374153,-30.482258],[139.373772,-30.482481],[139.373365,-30.482677],[139.37255,-30.483044],[139.371886,-30.483299]]}},{"type":"Feature","properties":{"tier":"arterial"},"geometry":{"type":"LineString","coordinates":[[139.50002,-30.324257],[139.5,-30.3243],[139.499,-30.32547],[139.496,-30.32816],[139.4932,-30.33061],[139.49151,-30.33174],[139.491425,-30.331807],[139.490123,-30.332826],[139.489619,-30.333413],[139.48911,-30.3339],[139.488115,-30.334826],[139.487308,-30.335964],[139.4865,-30.33681],[139.486398,-30.336905],[139.48444,-30.33873],[139.47864,-30.34428],[139.47586,-30.34711],[139.47466,-30.3488],[139.47179,-30.35241],[139.46918,-30.35563],[139.46701,-30.35865],[139.46565,-30.35999],[139.46381,-30.36162],[139.46198,-30.36352],[139.45767,-30.36814],[139.456001,-30.36947],[139.455516,-30.370013],[139.455319,-30.370117],[139.455118,-30.370224],[139.45486,-30.3703],[139.454348,-30.370594],[139.45226,-30.37245],[139.45076,-30.37414],[139.4498,-30.37605],[139.449,-30.37671],[139.44773,-30.37711],[139.44663,-30.37795],[139.44513,-30.3792],[139.44473,-30.38022],[139.44433,-30.38189],[139.44352,-30.38277],[139.44036,-30.38571],[139.4391,-30.38761],[139.43728,-30.3904],[139.436678,-30.391434],[139.436361,-30.39198],[139.43571,-30.39275],[139.43478,-30.39418],[139.43369,-30.3963],[139.42688,-30.40719],[139.42412,-30.41185],[139.423059,-30.413964],[139.42281,-30.41446],[139.422527,-30.415099],[139.42242,-30.41534],[139.4226,-30.41668],[139.422664,-30.417352],[139.422675,-30.417634],[139.42252,-30.41788],[139.42167,-30.4191],[139.41957,-30.42224],[139.41894,-30.42347],[139.41739,-30.42605],[139.41604,-30.42855],[139.415595,-30.42952],[139.415447,-30.429899],[139.41509,-30.430637],[139.414855,-30.431318],[139.414704,-30.431673],[139.414576,-30.431931],[139.414305,-30.432403],[139.413363,-30.434342],[139.413076,-30.434803],[139.41279,-30.435168],[139.412473,-30.435639],[139.411969,-30.436541],[139.411712,-30.43691],[139.411455,-30.437246],[139.411271,-30.437493],[139.411131,-30.437741],[139.410984,-30.43815],[139.410756,-30.43945],[139.410644,-30.439809],[139.410485,-30.440163],[139.410116,-30.440786],[139.408799,-30.442685],[139.408141,-30.44381],[139.407795,-30.444188],[139.407397,-30.444578],[139.407105,-30.444907],[139.40636,-30.44593],[139.406219,-30.446154],[139.406105,-30.44637],[139.405653,-30.447541],[139.40527,-30.448459],[139.404871,-30.449266],[139.404573,-30.44972],[139.403785,-30.450735],[139.403047,-30.451981],[139.40247,-30.452969],[139.401991,-30.453849],[139.401682,-30.454553],[139.401048,-30.456166],[139.400897,-30.45641],[139.400457,-30.456945],[139.40001,-30.457607],[139.399681,-30.458138],[139.399271,-30.458631],[139.398667,-30.459185],[139.397894,-30.459888],[139.396884,-30.460954],[139.39507,-30.4627],[139.393689,-30.463972],[139.39269,-30.4648],[139.389494,-30.467798],[139.386427,-30.47076],[139.3857,-30.47143],[139.38425,-30.473157],[139.383979,-30.473371],[139.383518,-30.473677],[139.38299,-30.474127],[139.382401,-30.474625],[139.381907,-30.47512],[139.381252,-30.475828],[139.38094,-30.47614],[139.380255,-30.47681],[139.379435,-30.477578],[139.378929,-30.478109],[139.378323,-30.478664],[139.377642,-30.479296]]}},{"type":"Feature","properties":{"tier":"arterial"},"geometry":{"type":"LineString","coordinates":[[139.002397,-30.014095],[139.000948,-30.015672],[139.00026,-30.016336],[138.99998,-30.016558]]}},{"type":"Feature","properties":{"tier":"arterial"},"geometry":{"type":"LineString","coordinates":[[139.343244,-30.312093],[139.342684,-30.311793],[139.342456,-30.311695],[139.341468,-30.311272],[139.341182,-30.311185],[139.341098,-30.31117],[139.341038,-30.31116],[139.340121,-30.311017],[139.339925,-30.310999],[139.339556,-30.311009],[139.339222,-30.311038],[139.338983,-30.311068],[139.338861,-30.311084],[139.33877,-30.311101],[139.338678,-30.311124],[139.338603,-30.311149],[139.338448,-30.311224],[139.338421,-30.311242],[139.338405,-30.311252],[139.338327,-30.311303],[139.338114,-30.311469],[139.33806,-30.31151],[139.337947,-30.311569],[139.337819,-30.311622]]}},{"type":"Feature","properties":{"tier":"arterial"},"geometry":{"type":"LineString","coordinates":[[139.005374,-29.99998],[139.005293,-30.000336],[139.005081,-30.00205],[139.004914,-30.003924],[139.004639,-30.006492],[139.004579,-30.007488],[139.004426,-30.008907],[139.004161,-30.011084],[139.00408,-30.011475],[139.003881,-30.012044],[139.003717,-30.012409],[139.003519,-30.012767],[139.003273,-30.013105],[139.002689,-30.013777],[139.002397,-30.014095]]}}]}
