{"type":"FeatureCollection","features":[{"type":"Feature","properties":{"tier":"arterial"},"geometry":{"type":"LineString","coordinates":[[139.325493,-26.99998],[139.325398,-27.0],[139.323404,-27.000418],[139.318066,-27.001526],[139.312683,-27.002643],[139.309886,-27.002792],[139.306623,-27.002881],[139.305696,-27.002927],[139.304925,-27.003059],[139.304246,-27.003278],[139.302728,-27.003949],[139.298,-27.006322],[139.294803,-27.007864],[139.293475,-27.008723],[139.29238,-27.009619],[139.29098,-27.010724],[139.286413,-27.014361],[139.282517,-27.017475],[139.278521,-27.02056],[139.277472,-27.021315],[139.276988,-27.02159],[139.276324,-27.021836],[139.275644,-27.022019],[139.275566,-27.02204],[139.2745,-27.022185],[139.273526,-27.02214],[139.27264,-27.021939],[139.272125,-27.0218],[139.268558,-27.020871],[139.266207,-27.020214],[139.265568,-27.020096],[139.264823,-27.020032],[139.264061,-27.020158],[139.263424,-27.020259],[139.262572,-27.020577],[139.261919,-27.020892],[139.261042,-27.021596],[139.260316,-27.022256],[139.256268,-27.026031],[139.253208,-27.028674],[139.250547,-27.030351],[139.24711,-27.031903],[139.243884,-27.03356],[139.239246,-27.035741],[139.235267,-27.037649],[139.233501,-27.038371],[139.231642,-27.03897],[139.23026,-27.039279],[139.228793,-27.039411],[139.227033,-27.039435],[139.225356,-27.039285],[139.22369,-27.038961],[139.221375,-27.038299],[139.213066,-27.035573],[139.199434,-27.031295],[139.190181,-27.02838],[139.177915,-27.024521],[139.170169,-27.022025],[139.168238,-27.021564],[139.165578,-27.021144],[139.156561,-27.020473],[139.149309,-27.01981],[139.141869,-27.019131],[139.129721,-27.017767],[139.122759,-27.016857],[139.119291,-27.016404],[139.106083,-27.014642],[139.084376,-27.011748],[139.073422,-27.010278],[139.069049,-27.009692],[139.056095,-27.008026],[139.054939,-27.007824],[139.053392,-27.00728],[139.039266,-27.002791],[139.030769,-26.99998]]}}]}
