{"type":"FeatureCollection","features":[{"type":"Feature","properties":{"tier":"arterial"},"geometry":{"type":"LineString","coordinates":[[139.50002,-31.758656],[139.499108,-31.759934],[139.495751,-31.764688],[139.494679,-31.766232],[139.493304,-31.768161],[139.492793,-31.768906],[139.491262,-31.771021],[139.490421,-31.772253],[139.488732,-31.774615],[139.487209,-31.776804],[139.483564,-31.781951],[139.482184,-31.783937],[139.478192,-31.789559],[139.475092,-31.793984],[139.470123,-31.800936],[139.468739,-31.802929],[139.46817,-31.803716],[139.467768,-31.804334],[139.467416,-31.80496],[139.466768,-31.806201],[139.465196,-31.809248],[139.465028,-31.809597],[139.464811,-31.810107],[139.464707,-31.81042],[139.464425,-31.811373],[139.464333,-31.8118],[139.464281,-31.81224],[139.464253,-31.812685],[139.464209,-31.814691],[139.464145,-31.816047],[139.464048,-31.819636],[139.463973,-31.821212],[139.463944,-31.822578],[139.46384,-31.825132],[139.463762,-31.828153],[139.463677,-31.830245],[139.463658,-31.831184],[139.463619,-31.831888],[139.463602,-31.832825],[139.463567,-31.833302],[139.463487,-31.83542],[139.463363,-31.839951],[139.463282,-31.841612],[139.463254,-31.843202],[139.463171,-31.8458],[139.46296,-31.851213],[139.462836,-31.855548],[139.462711,-31.858909],[139.462516,-31.863422],[139.462498,-31.864109],[139.462474,-31.865061],[139.462147,-31.872293],[139.462038,-31.875177],[139.461972,-31.876221],[139.461899,-31.878451],[139.461768,-31.881427],[139.461622,-31.885621],[139.461569,-31.886871],[139.46153,-31.887363],[139.461518,-31.888095],[139.461362,-31.890782],[139.46132,-31.891757],[139.46129,-31.893206],[139.461233,-31.894636],[139.461195,-31.895117],[139.4612,-31.895598],[139.461111,-31.897698],[139.461034,-31.900242],[139.46092,-31.902557],[139.460858,-31.904412],[139.460765,-31.906253],[139.460748,-31.907174],[139.460493,-31.91328],[139.460418,-31.914572],[139.460257,-31.918272],[139.46018,-31.92036],[139.460152,-31.92188],[139.459942,-31.925887],[139.459796,-31.927565],[139.459723,-31.928167],[139.459189,-31.93371],[139.458742,-31.93873],[139.458524,-31.940911],[139.458465,-31.941646],[139.458414,-31.94229],[139.458306,-31.94319],[139.458222,-31.943644],[139.458118,-31.944087],[139.457976,-31.944518],[139.457782,-31.944944],[139.45756,-31.945343],[139.457308,-31.945711],[139.457035,-31.946064],[139.455857,-31.947437],[139.455722,-31.947616],[139.45548,-31.947989],[139.455208,-31.948582],[139.454694,-31.949937],[139.454521,-31.950484],[139.454444,-31.950843],[139.454405,-31.951197],[139.45443,-31.951703],[139.45453,-31.9522],[139.45464,-31.952523],[139.4548,-31.952828],[139.454897,-31.952975],[139.455123,-31.953243],[139.45538,-31.95348],[139.456104,-31.954074],[139.45639,-31.954348],[139.456519,-31.954501],[139.456627,-31.954664],[139.456715,-31.954837],[139.456769,-31.955022],[139.456797,-31.955213],[139.456771,-31.955577],[139.456687,-31.955938],[139.456057,-31.957798],[139.455674,-31.958982],[139.455501,-31.959601],[139.455357,-31.960251],[139.455296,-31.960707],[139.455146,-31.962399],[139.454986,-31.964563],[139.454623,-31.968624],[139.454571,-31.969558],[139.454586,-31.97072],[139.454616,-31.971196],[139.45465,-31.972371],[139.454684,-31.972836],[139.45475,-31.975391],[139.454851,-31.978253],[139.454872,-31.980164],[139.455029,-31.985908],[139.455126,-31.988241],[139.455172,-31.991054],[139.455233,-31.992295],[139.455238,-31.99329],[139.455283,-31.994157],[139.455336,-31.996166],[139.455435,-31.998759],[139.455464,-32.00002]]}},{"type":"Feature","properties":{"tier":"arterial"},"geometry":{"type":"LineString","coordinates":[[139.274246,-31.49998],[139.273722,-31.500167],[139.272818,-31.500455],[139.269686,-31.501561],[139.268355,-31.502003],[139.267902,-31.502119],[139.266587,-31.502409],[139.265409,-31.502617],[139.26508,-31.502716],[139.264769,-31.50284],[139.264345,-31.503073],[139.263298,-31.503737],[139.262641,-31.5042],[139.261122,-31.505432],[139.260613,-31.505881],[139.25903,-31.507211],[139.258623,-31.507512],[139.258333,-31.507694],[139.258022,-31.507854],[139.257696,-31.507976],[139.257177,-31.508099],[139.257003,-31.508128],[139.25665,-31.508158],[139.256311,-31.508161],[139.254787,-31.50806],[139.254281,-31.508057],[139.25333,-31.508097],[139.251973,-31.508122],[139.251074,-31.508185],[139.250533,-31.508287],[139.250008,-31.508444],[139.249493,-31.508618],[139.248574,-31.508868],[139.247648,-31.509091],[139.247101,-31.50924],[139.246192,-31.509544],[139.24547,-31.509823],[139.245104,-31.509926],[139.244538,-31.510045],[139.244152,-31.510093],[139.243758,-31.510106],[139.243568,-31.510095],[139.2432,-31.510024],[139.242833,-31.509926],[139.241731,-31.509578],[139.240872,-31.509244],[139.240381,-31.509018],[139.239911,-31.508758],[139.238797,-31.507941],[139.237152,-31.506811],[139.235745,-31.505845],[139.233876,-31.50451],[139.233065,-31.503858],[139.232298,-31.503115],[139.231884,-31.502773],[139.231584,-31.50257],[139.230805,-31.5021],[139.230329,-31.501832],[139.22954,-31.501355],[139.229208,-31.501183],[139.228693,-31.500957],[139.226214,-31.49998]]}},{"type":"Feature","properties":{"tier":"regional"},"geometry":{"type":"LineString","coordinates":[[139.062545,-32.00002],[139.062813,-31.999605],[139.06314,-31.999243],[139.063407,-31.998987],[139.064342,-31.998415],[139.064661,-31.998286],[139.065163,-31.998173],[139.065398,-31.998065],[139.065775,-31.997782],[139.068437,-31.995817],[139.070099,-31.994775],[139.070578,-31.994508],[139.07084,-31.994403],[139.071226,-31.994297],[139.071748,-31.994156],[139.071998,-31.994084],[139.072248,-31.993974],[139.07259,-31.993823],[139.072867,-31.993674],[139.073176,-31.993466],[139.073406,-31.993264],[139.073793,-31.992818],[139.074694,-31.991926],[139.075713,-31.990816],[139.076975,-31.989358],[139.077306,-31.989011],[139.080155,-31.989042],[139.082987,-31.989051],[139.084092,-31.989051],[139.084714,-31.989024],[139.085112,-31.988951],[139.08553,-31.988842],[139.086056,-31.988696],[139.086367,-31.988596],[139.086656,-31.98845],[139.086925,-31.988277],[139.08715,-31.988095],[139.087976,-31.987458],[139.088448,-31.987049],[139.088995,-31.986503],[139.090036,-31.985693],[139.090701,-31.985165],[139.091377,-31.98471],[139.091774,-31.984392],[139.092171,-31.983955],[139.092717,-31.983495],[139.093587,-31.982945],[139.094145,-31.982572],[139.094478,-31.982362],[139.094832,-31.982244],[139.095154,-31.982108],[139.095701,-31.98198],[139.096945,-31.981835],[139.097761,-31.981725],[139.098093,-31.98168],[139.098694,-31.981653],[139.099027,-31.981625],[139.099381,-31.981498],[139.099853,-31.981334],[139.100143,-31.981252],[139.100336,-31.98117],[139.100497,-31.981161],[139.100668,-31.981152],[139.10084,-31.981179],[139.101001,-31.981225],[139.101183,-31.981325],[139.101387,-31.981379],[139.101698,-31.981434],[139.102127,-31.98148],[139.102482,-31.981498],[139.102868,-31.981552],[139.103243,-31.981644],[139.103544,-31.981789],[139.103737,-31.981944],[139.103908,-31.98218],[139.104048,-31.982554],[139.10423,-31.982845],[139.104413,-31.983136],[139.10467,-31.983373],[139.105196,-31.983755],[139.105936,-31.984173],[139.106365,-31.984465],[139.106912,-31.984665],[139.107374,-31.98481],[139.107814,-31.984974],[139.108436,-31.985338],[139.108779,-31.985566],[139.109085,-31.98562],[139.109391,-31.985675],[139.109723,-31.985748],[139.110011,-31.985797],[139.110035,-31.986084],[139.110012,-31.986307],[139.10996,-31.986539],[139.109744,-31.986771],[139.10963,-31.986903],[139.109508,-31.987044],[139.10939,-31.987281],[139.109348,-31.987504],[139.109347,-31.987799],[139.109348,-31.988177],[139.109647,-31.989455],[139.109744,-31.989856],[139.10984,-31.990101],[139.110324,-31.990925],[139.110517,-31.991262],[139.110678,-31.991562],[139.110795,-31.991976],[139.111068,-31.992902],[139.11116,-31.993241],[139.111236,-31.993573],[139.111278,-31.993823],[139.111289,-31.994123],[139.111031,-31.996416],[139.110914,-31.997513],[139.110881,-31.99779],[139.110827,-31.997981],[139.11072,-31.998163],[139.109629,-32.00002]]}}]}
