{"type":"FeatureCollection","features":[{"type":"Feature","properties":{"tier":"regional"},"geometry":{"type":"LineString","coordinates":[[139.052143,-34.499807],[139.051894,-34.499143],[139.051666,-34.498535],[139.051638,-34.498415],[139.051644,-34.498294],[139.051923,-34.497669],[139.052743,-34.495836],[139.054041,-34.492927],[139.05406,-34.492887],[139.055003,-34.490729],[139.055712,-34.489142],[139.056628,-34.487076],[139.057438,-34.485179],[139.058597,-34.482553],[139.058688,-34.48231],[139.058739,-34.482083],[139.058763,-34.481873],[139.058763,-34.481681],[139.05874,-34.481548],[139.05871,-34.481408],[139.058655,-34.48124],[139.058562,-34.480939],[139.058456,-34.480611],[139.058434,-34.480462],[139.058437,-34.480364],[139.058438,-34.480227],[139.058458,-34.480022],[139.058508,-34.479849],[139.05864,-34.479529],[139.059163,-34.478648],[139.059587,-34.477919],[139.059967,-34.477282],[139.060389,-34.476362],[139.060598,-34.475827],[139.06092,-34.475172],[139.061052,-34.474986],[139.061201,-34.474826],[139.061249,-34.474787],[139.06154,-34.474547],[139.061861,-34.474357],[139.063395,-34.473652],[139.064745,-34.473027],[139.065976,-34.472454],[139.066206,-34.472349],[139.066421,-34.472262],[139.066717,-34.47216],[139.067265,-34.47204],[139.068062,-34.471865],[139.069465,-34.471551],[139.071126,-34.471189],[139.072403,-34.4709],[139.072692,-34.470822],[139.072965,-34.470737],[139.073398,-34.470566],[139.074459,-34.470078],[139.074939,-34.469838]]}},{"type":"Feature","properties":{"tier":"arterial"},"geometry":{"type":"LineString","coordinates":[[139.359891,-34.50002],[139.359892,-34.499923],[139.359939,-34.496117],[139.359973,-34.491706],[139.360007,-34.488074],[139.360041,-34.484201],[139.360075,-34.480361],[139.360116,-34.477126],[139.360103,-34.476728],[139.360092,-34.476655],[139.360075,-34.476543],[139.360035,-34.476336],[139.359933,-34.476044],[139.358844,-34.473352],[139.358382,-34.47221],[139.356893,-34.468521],[139.355431,-34.464893],[139.353996,-34.461361],[139.352554,-34.457823],[139.351895,-34.456196],[139.350956,-34.453881],[139.350525,-34.452811],[139.350065,-34.451671],[139.349936,-34.451279],[139.349895,-34.451088],[139.349868,-34.450774],[139.349902,-34.446927],[139.349936,-34.443074],[139.349963,-34.439176],[139.350011,-34.435133],[139.350014,-34.43474],[139.350014,-34.434646],[139.350038,-34.431582],[139.350072,-34.427785],[139.350106,-34.424049],[139.350147,-34.420526],[139.350174,-34.416638],[139.350215,-34.41284],[139.350249,-34.408975],[139.350283,-34.405171],[139.350302,-34.402497],[139.35031,-34.401445],[139.350322,-34.399862],[139.350337,-34.397826],[139.350371,-34.393982],[139.350398,-34.391861],[139.350392,-34.391664],[139.350399,-34.39132]]}},{"type":"Feature","properties":{"tier":"regional"},"geometry":{"type":"LineString","coordinates":[[138.99998,-34.432353],[139.000928,-34.430193],[139.003113,-34.42522],[139.007261,-34.415405],[139.011344,-34.405741],[139.011397,-34.405616],[139.011473,-34.405439],[139.013565,-34.400557],[139.013614,-34.400456],[139.013719,-34.400205],[139.014435,-34.398537],[139.015382,-34.396304],[139.015702,-34.39555]]}},{"type":"Feature","properties":{"tier":"regional"},"geometry":{"type":"LineString","coordinates":[[139.045004,-34.50002],[139.044996,-34.499993]]}},{"type":"Feature","properties":{"tier":"regional"},"geometry":{"type":"LineString","coordinates":[[139.004481,-34.470425],[139.003679,-34.470165],[139.003527,-34.470128],[139.003409,-34.470099],[139.00313,-34.470064]]}},{"type":"Feature","properties":{"tier":"regional"},"geometry":{"type":"LineString","coordinates":[[139.020308,-34.447302],[139.018317,-34.451995],[139.018247,-34.452156],[139.016281,-34.45667]]}},{"type":"Feature","properties":{"tier":"regional"},"geometry":{"type":"LineString","coordinates":[[139.023715,-34.470579],[139.021596,-34.475476]]}},{"type":"Feature","properties":{"tier":"arterial"},"geometry":{"type":"LineString","coordinates":[[139.052143,-34.499807],[139.05222,-34.50002]]}},{"type":"Feature","properties":{"tier":"arterial"},"geometry":{"type":"LineString","coordinates":[[139.029898,-34.494751],[139.032428,-34.495509],[139.032772,-34.495612],[139.033473,-34.49586],[139.034062,-34.496068],[139.034425,-34.496196],[139.034818,-34.496325],[139.035274,-34.49655],[139.035841,-34.49687],[139.036258,-34.497094],[139.036555,-34.497236],[139.037516,-34.497668],[139.038396,-34.498012],[139.038539,-34.498064],[139.039445,-34.498331]]}},{"type":"Feature","properties":{"tier":"regional"},"geometry":{"type":"LineString","coordinates":[[139.044996,-34.499993],[139.044924,-34.499747],[139.044731,-34.49898],[139.044693,-34.498803],[139.04469,-34.498613],[139.044775,-34.498199],[139.045031,-34.496944],[139.045265,-34.495732],[139.045408,-34.495046],[139.045628,-34.494366],[139.045918,-34.493685],[139.04607,-34.493121],[139.046272,-34.492734],[139.046479,-34.492391],[139.046721,-34.492001],[139.046779,-34.491872],[139.046879,-34.491402],[139.046946,-34.49074],[139.046955,-34.490685],[139.046982,-34.490518],[139.047104,-34.489867],[139.047092,-34.489658],[139.047054,-34.489455],[139.046985,-34.489267],[139.046066,-34.4875],[139.045573,-34.486555],[139.045011,-34.485544],[139.044854,-34.485321],[139.044712,-34.485145],[139.044523,-34.484938],[139.044442,-34.484856],[139.044368,-34.484789],[139.044182,-34.484637],[139.043977,-34.484501],[139.043732,-34.48436],[139.043447,-34.484235],[139.042928,-34.484057]]}},{"type":"Feature","properties":{"tier":"regional"},"geometry":{"type":"LineString","coordinates":[[139.024365,-34.50002],[139.024667,-34.499328],[139.025071,-34.498399],[139.026282,-34.495617],[139.027032,-34.493893],[139.028413,-34.490721]]}},{"type":"Feature","properties":{"tier":"arterial"},"geometry":{"type":"LineString","coordinates":[[139.083928,-34.176479],[139.084223,-34.176426],[139.084298,-34.176413],[139.084576,-34.17638],[139.084809,-34.176362],[139.084925,-34.176368],[139.085198,-34.176417],[139.085694,-34.176508],[139.086163,-34.1766],[139.086323,-34.176645],[139.086431,-34.176693],[139.086494,-34.176734],[139.086553,-34.176772],[139.086597,-34.176814]]}},{"type":"Feature","properties":{"tier":"arterial"},"geometry":{"type":"LineString","coordinates":[[139.107661,-34.183515],[139.107635,-34.183204],[139.107641,-34.183127]]}},{"type":"Feature","properties":{"tier":"regional"},"geometry":{"type":"LineString","coordinates":[[139.041313,-34.461138],[139.042183,-34.459143],[139.044275,-34.45433],[139.046435,-34.449357],[139.050737,-34.439443],[139.052855,-34.434601]]}},{"type":"Feature","properties":{"tier":"regional"},"geometry":{"type":"LineString","coordinates":[[139.052855,-34.434601],[139.052079,-34.434356]]}},{"type":"Feature","properties":{"tier":"regional"},"geometry":{"type":"LineString","coordinates":[[139.03808,-34.4686],[139.037788,-34.469216],[139.037631,-34.469578],[139.037557,-34.469748],[139.033531,-34.479009],[139.032504,-34.481371],[139.0294,-34.488509],[139.029238,-34.488881],[139.028413,-34.490721]]}},{"type":"Feature","properties":{"tier":"high"},"geometry":{"type":"LineString","coordinates":[[139.003304,-34.456286],[139.003949,-34.456099],[139.005133,-34.455725]]}},{"type":"Feature","properties":{"tier":"regional"},"geometry":{"type":"LineString","coordinates":[[139.00313,-34.470064],[139.002507,-34.469992],[139.00236,-34.469955],[139.002275,-34.469916],[139.00221,-34.469881],[139.002118,-34.469814],[139.002,-34.469698]]}},{"type":"Feature","properties":{"tier":"high"},"geometry":{"type":"LineString","coordinates":[[139.003304,-34.456286],[139.003036,-34.456427],[139.002926,-34.456486],[139.002881,-34.456511],[139.00282,-34.456564],[139.002767,-34.456611],[139.002741,-34.456651],[139.002695,-34.456704],[139.002571,-34.456931]]}},{"type":"Feature","properties":{"tier":"regional"},"geometry":{"type":"LineString","coordinates":[[139.001619,-34.469267],[139.001511,-34.469201],[139.001374,-34.46913],[139.001215,-34.469058],[139.001007,-34.468998],[139.000921,-34.468979],[139.000856,-34.468964],[139.000699,-34.468943],[139.000623,-34.468938],[139.000534,-34.468931]]}},{"type":"Feature","properties":{"tier":"high"},"geometry":{"type":"LineString","coordinates":[[139.002571,-34.456931],[139.002533,-34.456782],[139.002495,-34.456714],[139.002457,-34.456679],[139.002416,-34.456657],[139.00237,-34.456639],[139.002303,-34.456637],[139.001918,-34.456699]]}},{"type":"Feature","properties":{"tier":"arterial"},"geometry":{"type":"LineString","coordinates":[[139.002571,-34.456931],[139.002446,-34.457314],[139.002146,-34.458179]]}},{"type":"Feature","properties":{"tier":"arterial"},"geometry":{"type":"LineString","coordinates":[[139.029616,-34.494668],[139.029898,-34.494751]]}},{"type":"Feature","properties":{"tier":"regional"},"geometry":{"type":"LineString","coordinates":[[139.016281,-34.45667],[139.015746,-34.457915],[139.01404,-34.461854],[139.013942,-34.462066]]}},{"type":"Feature","properties":{"tier":"regional"},"geometry":{"type":"LineString","coordinates":[[139.005744,-34.480944],[139.007519,-34.476855],[139.007829,-34.476126],[139.008075,-34.475559],[139.008295,-34.475051],[139.008394,-34.474821],[139.008418,-34.474765],[139.009304,-34.472718]]}},{"type":"Feature","properties":{"tier":"regional"},"geometry":{"type":"LineString","coordinates":[[139.011779,-34.466709],[139.011866,-34.466645],[139.011925,-34.466597],[139.011983,-34.466526],[139.012023,-34.466468],[139.012333,-34.465757],[139.013942,-34.462066]]}},{"type":"Feature","properties":{"tier":"regional"},"geometry":{"type":"LineString","coordinates":[[139.00935,-34.472603],[139.009626,-34.471941],[139.010811,-34.469218],[139.011448,-34.46776],[139.011477,-34.467656],[139.011491,-34.467579],[139.011489,-34.467388]]}},{"type":"Feature","properties":{"tier":"regional"},"geometry":{"type":"LineString","coordinates":[[139.011489,-34.467388],[139.011486,-34.467022],[139.011519,-34.466968],[139.011545,-34.466916],[139.011718,-34.466746],[139.011779,-34.466709]]}},{"type":"Feature","properties":{"tier":"regional"},"geometry":{"type":"LineString","coordinates":[[139.009304,-34.472718],[139.00935,-34.472603]]}},{"type":"Feature","properties":{"tier":"high"},"geometry":{"type":"LineString","coordinates":[[139.120773,-34.40806],[139.121256,-34.407892],[139.122184,-34.407569],[139.122332,-34.407537]]}},{"type":"Feature","properties":{"tier":"high"},"geometry":{"type":"LineString","coordinates":[[139.117816,-34.408564],[139.118208,-34.408555],[139.118607,-34.408528],[139.118943,-34.40849],[139.119293,-34.408433],[139.11957,-34.408382],[139.119831,-34.408326],[139.120085,-34.408259],[139.120419,-34.408174],[139.120773,-34.40806]]}},{"type":"Feature","properties":{"tier":"regional"},"geometry":{"type":"LineString","coordinates":[[139.052079,-34.434356],[139.051432,-34.434161]]}},{"type":"Feature","properties":{"tier":"regional"},"geometry":{"type":"LineString","coordinates":[[139.129279,-34.474677],[139.129367,-34.474716],[139.129713,-34.474925],[139.130099,-34.475172],[139.130936,-34.475455],[139.131558,-34.475615]]}},{"type":"Feature","properties":{"tier":"regional"},"geometry":{"type":"LineString","coordinates":[[139.051432,-34.434161],[139.048145,-34.43317],[139.046139,-34.432565],[139.04583,-34.432448],[139.045557,-34.432261],[139.045249,-34.431962]]}},{"type":"Feature","properties":{"tier":"arterial"},"geometry":{"type":"LineString","coordinates":[[139.002323,-34.480927],[139.002604,-34.48101],[139.003013,-34.481097],[139.00354,-34.481178],[139.00399,-34.481237],[139.004254,-34.48128],[139.004382,-34.481312],[139.004489,-34.481374],[139.00459,-34.481443],[139.004604,-34.481458],[139.004746,-34.481575],[139.004843,-34.481638],[139.004961,-34.481692],[139.00536,-34.48182],[139.005893,-34.481975],[139.006047,-34.482032],[139.006187,-34.482105],[139.006289,-34.482168],[139.006321,-34.482191],[139.006499,-34.482321],[139.010352,-34.485954],[139.01479,-34.490139],[139.014938,-34.490257],[139.015106,-34.490374],[139.024292,-34.493083],[139.027032,-34.493893],[139.029616,-34.494668]]}},{"type":"Feature","properties":{"tier":"high"},"geometry":{"type":"LineString","coordinates":[[139.1339,-34.409381],[139.134184,-34.409333],[139.134439,-34.409289],[139.134827,-34.409212],[139.135297,-34.409102],[139.135511,-34.40905],[139.135767,-34.40898],[139.135961,-34.408926],[139.136168,-34.408863],[139.136218,-34.408848],[139.136422,-34.408787],[139.136619,-34.408717],[139.136979,-34.408586],[139.137664,-34.408318],[139.138337,-34.408018]]}},{"type":"Feature","properties":{"tier":"arterial"},"geometry":{"type":"LineString","coordinates":[[139.051399,-34.50002],[139.052143,-34.499807]]}},{"type":"Feature","properties":{"tier":"arterial"},"geometry":{"type":"LineString","coordinates":[[139.075445,-34.182421],[139.077375,-34.18158],[139.078061,-34.181282],[139.078154,-34.181237],[139.078207,-34.181211],[139.078502,-34.181046],[139.078668,-34.180917],[139.07887,-34.180732],[139.079131,-34.180462],[139.079399,-34.180166],[139.079472,-34.180085],[139.080729,-34.178697],[139.081203,-34.178175]]}},{"type":"Feature","properties":{"tier":"arterial"},"geometry":{"type":"LineString","coordinates":[[139.100224,-34.410531],[139.100667,-34.410955],[139.100794,-34.411063]]}},{"type":"Feature","properties":{"tier":"arterial"},"geometry":{"type":"LineString","coordinates":[[138.99998,-34.28993],[139.000138,-34.28981],[139.000669,-34.289384],[139.000873,-34.28922],[139.001649,-34.288586],[139.002426,-34.287909],[139.00381,-34.286744],[139.005313,-34.285461],[139.006789,-34.284128],[139.007566,-34.283532],[139.007969,-34.283235],[139.008113,-34.28313],[139.008772,-34.28262],[139.00978,-34.281771],[139.011052,-34.28061],[139.014,-34.278105],[139.014126,-34.277999],[139.014801,-34.277452],[139.018747,-34.274094],[139.021272,-34.271947],[139.023277,-34.270251],[139.024288,-34.269393],[139.024797,-34.26895],[139.025119,-34.268663],[139.025339,-34.268443],[139.025525,-34.268231],[139.025699,-34.26799],[139.025828,-34.267778],[139.026023,-34.267406],[139.02616,-34.267092],[139.026266,-34.266667],[139.026319,-34.26629],[139.026331,-34.266021],[139.026324,-34.265718],[139.026284,-34.265379],[139.02393,-34.253898],[139.023887,-34.253623],[139.023863,-34.253376],[139.023854,-34.253132],[139.023859,-34.252921],[139.023877,-34.25263],[139.02391,-34.252409],[139.023957,-34.252212],[139.024023,-34.251973],[139.024121,-34.251688],[139.024256,-34.251373],[139.02428,-34.251317],[139.024447,-34.251021],[139.024615,-34.250779],[139.024789,-34.250543],[139.025001,-34.250303],[139.025148,-34.25015],[139.025272,-34.25003],[139.025462,-34.249873],[139.025626,-34.249749],[139.025921,-34.24953],[139.026257,-34.249328],[139.029948,-34.247383],[139.030448,-34.247063],[139.030725,-34.246862],[139.030979,-34.24667],[139.031346,-34.246337],[139.031678,-34.245987],[139.03187,-34.245752],[139.032045,-34.245516],[139.03219,-34.245284],[139.032317,-34.245043],[139.033537,-34.242708]]}},{"type":"Feature","properties":{"tier":"arterial"},"geometry":{"type":"LineString","coordinates":[[139.071223,-34.184276],[139.070734,-34.183408],[139.070563,-34.183217],[139.07041,-34.183057],[139.070106,-34.182747],[139.069705,-34.182339],[139.069546,-34.182176],[139.069413,-34.182041],[139.069326,-34.18196],[139.06925,-34.181895],[139.069186,-34.181843],[139.0691,-34.181778],[139.069015,-34.181717],[139.068939,-34.181666],[139.06884,-34.181604],[139.06875,-34.181551],[139.068657,-34.181501],[139.068543,-34.181444],[139.068427,-34.181391],[139.068312,-34.181342],[139.068191,-34.181297],[139.068065,-34.181254],[139.067972,-34.181227],[139.067845,-34.181203],[139.067708,-34.181183],[139.06752,-34.181156],[139.066402,-34.181012],[139.064544,-34.180773],[139.064228,-34.180737],[139.064029,-34.180703],[139.063758,-34.180657],[139.06299,-34.180469],[139.061801,-34.180152],[139.060994,-34.179967],[139.060542,-34.17987],[139.059943,-34.179762],[139.059266,-34.179652],[139.058332,-34.179475],[139.057855,-34.17938],[139.057347,-34.179266],[139.056857,-34.179154],[139.056339,-34.179027],[139.054276,-34.178522],[139.052582,-34.178104],[139.052459,-34.178075],[139.052326,-34.178062],[139.052061,-34.178052],[139.051584,-34.178037],[139.051351,-34.178049],[139.050948,-34.178079],[139.050338,-34.178138],[139.049646,-34.178216],[139.04884,-34.178347],[139.047995,-34.178516],[139.046747,-34.178757],[139.044999,-34.179095],[139.044562,-34.179124],[139.04409,-34.179137],[139.0436,-34.179109],[139.043175,-34.179063],[139.042695,-34.179012],[139.041505,-34.178883],[139.041199,-34.178856],[139.040834,-34.178836],[139.040427,-34.178852],[139.040244,-34.178862],[139.038595,-34.179097],[139.036367,-34.179409],[139.035507,-34.179496],[139.034932,-34.179553],[139.034154,-34.179627],[139.033375,-34.17972],[139.032916,-34.1798],[139.032543,-34.179886],[139.03189,-34.180068],[139.031762,-34.180114],[139.031469,-34.18022],[139.030466,-34.180693],[139.029685,-34.181046],[139.029246,-34.181212],[139.028919,-34.181318],[139.027778,-34.181675],[139.027043,-34.181951],[139.026665,-34.182129],[139.025563,-34.182663],[139.02496,-34.182946],[139.022944,-34.183913],[139.022168,-34.184253],[139.02179,-34.184394],[139.02142,-34.184519],[139.021178,-34.184586],[139.020969,-34.184639],[139.020698,-34.184696],[139.020331,-34.184759],[139.020037,-34.184806],[139.019764,-34.184838],[139.019432,-34.184882],[139.019072,-34.184909],[139.018722,-34.18492],[139.018289,-34.184911],[139.017875,-34.184878],[139.017441,-34.184827],[139.017092,-34.184785],[139.016489,-34.184698],[139.015137,-34.184498],[139.014496,-34.184415],[139.013705,-34.184348],[139.012926,-34.184287],[139.012199,-34.18423],[139.011145,-34.184154],[139.010667,-34.184122],[139.010274,-34.184067],[139.009909,-34.184008],[139.00968,-34.183947],[139.009486,-34.183871],[139.009128,-34.183733],[139.008064,-34.183254],[139.00653,-34.182492],[139.00396,-34.181183],[139.003357,-34.180836],[139.003138,-34.180691],[139.002852,-34.180484],[139.002579,-34.180262],[139.002196,-34.179948],[139.001923,-34.179701]]}},{"type":"Feature","properties":{"tier":"arterial"},"geometry":{"type":"LineString","coordinates":[[139.084497,-34.173236],[139.084511,-34.172847],[139.084525,-34.172378],[139.084529,-34.172233],[139.084546,-34.171639],[139.084559,-34.171158],[139.084557,-34.171096],[139.084555,-34.171026],[139.084533,-34.170903],[139.08444,-34.170461],[139.084397,-34.17026],[139.084042,-34.168604],[139.083926,-34.16795],[139.083906,-34.167826],[139.083908,-34.167803],[139.083905,-34.167679],[139.083967,-34.166468],[139.083981,-34.166197],[139.084009,-34.165671],[139.08412,-34.164494],[139.084902,-34.161614],[139.084916,-34.16157],[139.084942,-34.161486]]}},{"type":"Feature","properties":{"tier":"arterial"},"geometry":{"type":"LineString","coordinates":[[139.084344,-34.174607],[139.084369,-34.174508],[139.084427,-34.174278],[139.084436,-34.174245],[139.084456,-34.174133],[139.084464,-34.174093],[139.084473,-34.173962],[139.084478,-34.173885],[139.084479,-34.173845],[139.084485,-34.173667],[139.084488,-34.173496],[139.084497,-34.173236]]}},{"type":"Feature","properties":{"tier":"arterial"},"geometry":{"type":"LineString","coordinates":[[139.056412,-34.067634],[139.057705,-34.065821],[139.060123,-34.062447],[139.062371,-34.05927],[139.063414,-34.057814],[139.064735,-34.055971],[139.064853,-34.055803],[139.065906,-34.054306],[139.067702,-34.051796],[139.070192,-34.048299],[139.070705,-34.047589],[139.070841,-34.047365],[139.070948,-34.047158],[139.071045,-34.046945],[139.071142,-34.046683],[139.071601,-34.045237],[139.071693,-34.044952],[139.071765,-34.044622],[139.071796,-34.04432],[139.07181,-34.04409],[139.071796,-34.043854],[139.071769,-34.043578],[139.071738,-34.043364],[139.071693,-34.04318],[139.071628,-34.042975],[139.071539,-34.042656],[139.071484,-34.042408],[139.07145,-34.042115],[139.071438,-34.041917],[139.071436,-34.041876],[139.071439,-34.041635],[139.07147,-34.041378],[139.071518,-34.041105],[139.07158,-34.040866],[139.071656,-34.040639],[139.072112,-34.039173],[139.073716,-34.034011],[139.074523,-34.031458],[139.074979,-34.029969],[139.075312,-34.028876],[139.075463,-34.028492],[139.076176,-34.026665],[139.077141,-34.024211],[139.077548,-34.023167],[139.078018,-34.021968],[139.078958,-34.019583],[139.079369,-34.01853],[139.079994,-34.016966],[139.08105,-34.014269],[139.081307,-34.013614],[139.083475,-34.008097],[139.083552,-34.007861],[139.083605,-34.007599],[139.083998,-34.00579],[139.084752,-34.002273],[139.084798,-34.002078],[139.084826,-34.001877],[139.084843,-34.001615],[139.084857,-34.001307],[139.084878,-34.001042],[139.084892,-34.00019],[139.084888,-33.99998]]}},{"type":"Feature","properties":{"tier":"arterial"},"geometry":{"type":"LineString","coordinates":[[139.083928,-34.176479],[139.083956,-34.176245],[139.084007,-34.175961],[139.084344,-34.174607]]}},{"type":"Feature","properties":{"tier":"arterial"},"geometry":{"type":"LineString","coordinates":[[139.033537,-34.242708],[139.03385,-34.24211]]}},{"type":"Feature","properties":{"tier":"arterial"},"geometry":{"type":"LineString","coordinates":[[139.03385,-34.24211],[139.034414,-34.241032],[139.036842,-34.237007],[139.036969,-34.236729],[139.037017,-34.236624],[139.037213,-34.236167],[139.03738,-34.23569],[139.03749,-34.235281],[139.037571,-34.2349],[139.038098,-34.232394],[139.038227,-34.231781],[139.038946,-34.22832],[139.038982,-34.228151],[139.039312,-34.226594],[139.039499,-34.225736],[139.039582,-34.225304],[139.039614,-34.225094],[139.039639,-34.224887],[139.039674,-34.224081],[139.039724,-34.223631],[139.039775,-34.223403],[139.039886,-34.22314],[139.043946,-34.213521],[139.046265,-34.207991],[139.047704,-34.204583],[139.047712,-34.204565],[139.04847,-34.20277],[139.048617,-34.202475],[139.048751,-34.202256],[139.04892,-34.202024],[139.04911,-34.201809],[139.049275,-34.201665],[139.04944,-34.201524],[139.049686,-34.201338],[139.050177,-34.200981],[139.05121,-34.200225],[139.051601,-34.199864],[139.051794,-34.199673],[139.051988,-34.199464],[139.052204,-34.199261],[139.052426,-34.199022],[139.052621,-34.198771],[139.052831,-34.198455],[139.053066,-34.198027],[139.053984,-34.196269],[139.054233,-34.195814],[139.054489,-34.195433],[139.054746,-34.195088],[139.054992,-34.194799],[139.055244,-34.1945],[139.056659,-34.193033],[139.057102,-34.192608],[139.057478,-34.19231],[139.057865,-34.192032],[139.058216,-34.191818],[139.058687,-34.191569],[139.058893,-34.191466],[139.059108,-34.191361],[139.064595,-34.189095],[139.064961,-34.188959],[139.06526,-34.188833],[139.06545,-34.188736],[139.06572,-34.188591],[139.065976,-34.188419],[139.066232,-34.188224],[139.067483,-34.187284],[139.068112,-34.186792],[139.068726,-34.186261],[139.069922,-34.185199],[139.070431,-34.184751],[139.070679,-34.184568],[139.07087,-34.184447],[139.071041,-34.184357],[139.071179,-34.184297]]}},{"type":"Feature","properties":{"tier":"regional"},"geometry":{"type":"LineString","coordinates":[[139.074939,-34.469838],[139.075226,-34.469694]]}},{"type":"Feature","properties":{"tier":"regional"},"geometry":{"type":"LineString","coordinates":[[139.075226,-34.469694],[139.075455,-34.469578],[139.075622,-34.469502],[139.075764,-34.469436],[139.075951,-34.469369],[139.076114,-34.469319],[139.076379,-34.469263],[139.076614,-34.469227],[139.076853,-34.469207],[139.077089,-34.469214],[139.077342,-34.469237],[139.077729,-34.469291],[139.077982,-34.469338],[139.078406,-34.469406],[139.078838,-34.469468],[139.079234,-34.469499],[139.079691,-34.469502],[139.080176,-34.469482],[139.080682,-34.469423],[139.081002,-34.469372],[139.081374,-34.469299],[139.082453,-34.469032],[139.083536,-34.468733],[139.084995,-34.468316],[139.086476,-34.46792],[139.086948,-34.467796],[139.087325,-34.467744],[139.08761,-34.467732],[139.087865,-34.467751],[139.088214,-34.467807],[139.089251,-34.46812],[139.090308,-34.468438],[139.090505,-34.468485],[139.0907,-34.468519],[139.090891,-34.468529],[139.091065,-34.46852],[139.091232,-34.468501],[139.091402,-34.468449],[139.091505,-34.468413],[139.091645,-34.468351],[139.091763,-34.468273],[139.091901,-34.468164],[139.092004,-34.468063]]}},{"type":"Feature","properties":{"tier":"regional"},"geometry":{"type":"LineString","coordinates":[[139.002,-34.469698],[139.001841,-34.469507]]}},{"type":"Feature","properties":{"tier":"regional"},"geometry":{"type":"LineString","coordinates":[[139.001841,-34.469507],[139.001797,-34.469445],[139.001724,-34.469363],[139.001697,-34.469333],[139.001619,-34.469267]]}},{"type":"Feature","properties":{"tier":"arterial"},"geometry":{"type":"LineString","coordinates":[[139.039445,-34.498331],[139.039609,-34.498379]]}},{"type":"Feature","properties":{"tier":"arterial"},"geometry":{"type":"LineString","coordinates":[[139.039609,-34.498379],[139.040469,-34.498633],[139.040732,-34.498705],[139.040954,-34.498786],[139.041207,-34.498931],[139.041291,-34.498979],[139.041835,-34.499294],[139.041995,-34.499391],[139.042281,-34.499542],[139.043276,-34.50002]]}},{"type":"Feature","properties":{"tier":"high"},"geometry":{"type":"LineString","coordinates":[[139.161295,-34.402528],[139.161613,-34.402498],[139.162014,-34.402495],[139.162453,-34.40252],[139.162784,-34.402572],[139.163097,-34.40264],[139.163909,-34.402905],[139.164342,-34.403044],[139.164743,-34.403145],[139.165165,-34.403202],[139.165539,-34.403235],[139.166012,-34.403222],[139.166468,-34.403156],[139.166865,-34.403076],[139.16726,-34.402943],[139.167864,-34.402673],[139.168158,-34.402479],[139.168439,-34.402282],[139.168807,-34.401933],[139.169167,-34.401502],[139.169504,-34.401055],[139.169848,-34.400646],[139.170216,-34.40034],[139.170585,-34.400106],[139.170907,-34.39993],[139.171231,-34.399791],[139.171879,-34.3996],[139.172627,-34.399495],[139.173538,-34.39953],[139.174786,-34.399765],[139.175424,-34.399952],[139.175713,-34.400052],[139.176002,-34.400153],[139.176052,-34.40017],[139.176403,-34.400293],[139.176757,-34.40038],[139.177111,-34.400473],[139.177486,-34.400507],[139.177776,-34.400547],[139.178401,-34.400533],[139.180951,-34.40041],[139.183573,-34.400282],[139.184036,-34.400272],[139.184367,-34.400266],[139.184751,-34.400285],[139.185485,-34.400375],[139.186153,-34.400487],[139.187373,-34.400692],[139.190706,-34.401258],[139.190771,-34.401258],[139.191727,-34.401258],[139.193049,-34.400957],[139.195032,-34.400477],[139.195969,-34.400348],[139.196865,-34.40022],[139.197606,-34.400042],[139.198515,-34.399761],[139.199365,-34.399505],[139.20017,-34.399185],[139.201569,-34.398551],[139.202153,-34.398334],[139.202517,-34.398257],[139.202861,-34.398212],[139.203288,-34.398181],[139.203598,-34.398184],[139.203992,-34.398214],[139.204316,-34.398252],[139.20462,-34.398344],[139.205318,-34.398584],[139.205626,-34.398746],[139.205926,-34.398934],[139.206539,-34.39942],[139.20685,-34.399685],[139.207173,-34.399905],[139.207633,-34.400173],[139.208102,-34.400357],[139.209275,-34.400708],[139.210431,-34.401055],[139.211499,-34.401369],[139.211599,-34.401398],[139.212174,-34.401543],[139.212759,-34.401649],[139.21407,-34.401658],[139.21468,-34.401662],[139.214927,-34.401661],[139.21569,-34.401659],[139.216062,-34.401682],[139.216558,-34.401712],[139.216917,-34.401775],[139.217307,-34.401889],[139.217637,-34.401999],[139.218865,-34.402599],[139.219343,-34.402757],[139.21979,-34.40285],[139.220192,-34.402903],[139.229254,-34.403421],[139.229643,-34.40342],[139.231046,-34.403337],[139.236069,-34.402902],[139.244097,-34.402249],[139.248292,-34.401924],[139.248334,-34.401921],[139.263326,-34.400747],[139.268321,-34.399886],[139.270233,-34.399553],[139.272981,-34.399046],[139.275979,-34.398558],[139.277087,-34.398373],[139.288165,-34.396614],[139.289654,-34.3964],[139.292519,-34.396065],[139.298578,-34.395374],[139.301554,-34.395112],[139.302551,-34.395069],[139.304396,-34.395173],[139.305295,-34.395145],[139.311608,-34.394736],[139.314072,-34.394575],[139.317314,-34.394332],[139.326179,-34.393626],[139.32862,-34.393439],[139.331269,-34.393222],[139.331818,-34.393184],[139.33304,-34.393073],[139.348074,-34.391814],[139.348731,-34.391744],[139.349357,-34.391626],[139.350399,-34.39132]]}},{"type":"Feature","properties":{"tier":"regional"},"geometry":{"type":"LineString","coordinates":[[139.092004,-34.468063],[139.092134,-34.467854],[139.092315,-34.467492],[139.092683,-34.466662],[139.093398,-34.465087],[139.093476,-34.464905],[139.093551,-34.464774],[139.093659,-34.464627],[139.093752,-34.464527]]}},{"type":"Feature","properties":{"tier":"regional"},"geometry":{"type":"LineString","coordinates":[[139.093752,-34.464527],[139.093847,-34.464452],[139.093961,-34.464372],[139.094089,-34.464296],[139.094219,-34.464245],[139.094377,-34.464202],[139.094567,-34.464168],[139.094756,-34.464164],[139.094976,-34.464174],[139.095139,-34.464211],[139.095411,-34.464279],[139.096558,-34.464628],[139.100401,-34.465796],[139.10333,-34.466692],[139.105908,-34.467481],[139.109525,-34.468578],[139.114349,-34.470042],[139.117906,-34.471116]]}},{"type":"Feature","properties":{"tier":"high"},"geometry":{"type":"LineString","coordinates":[[139.056971,-34.424935],[139.057248,-34.424813]]}},{"type":"Feature","properties":{"tier":"high"},"geometry":{"type":"LineString","coordinates":[[139.057248,-34.424813],[139.057693,-34.42463],[139.058027,-34.424506],[139.059497,-34.424062],[139.071509,-34.42157],[139.078396,-34.420096],[139.080259,-34.419586],[139.083864,-34.418234],[139.086889,-34.417075]]}},{"type":"Feature","properties":{"tier":"regional"},"geometry":{"type":"LineString","coordinates":[[139.135745,-34.476556],[139.137996,-34.47726],[139.139134,-34.477627]]}},{"type":"Feature","properties":{"tier":"regional"},"geometry":{"type":"LineString","coordinates":[[139.131558,-34.475615],[139.13203,-34.475668],[139.132588,-34.475703],[139.132974,-34.475721],[139.13364,-34.475898],[139.135745,-34.476556]]}},{"type":"Feature","properties":{"tier":"regional"},"geometry":{"type":"LineString","coordinates":[[139.353866,-34.123137],[139.353831,-34.122946],[139.353578,-34.122244]]}},{"type":"Feature","properties":{"tier":"regional"},"geometry":{"type":"LineString","coordinates":[[139.000534,-34.468931],[139.000324,-34.468941],[139.00011,-34.468965],[138.99998,-34.468983]]}},{"type":"Feature","properties":{"tier":"regional"},"geometry":{"type":"LineString","coordinates":[[139.123785,-34.47289],[139.126602,-34.47374],[139.12746,-34.474023],[139.127993,-34.474192]]}},{"type":"Feature","properties":{"tier":"regional"},"geometry":{"type":"LineString","coordinates":[[139.139134,-34.477627],[139.139383,-34.478161],[139.142253,-34.484291],[139.142377,-34.484574],[139.142495,-34.484663],[139.142712,-34.484728],[139.143631,-34.485013],[139.143819,-34.485152],[139.143947,-34.485306],[139.144105,-34.485526],[139.144876,-34.486541],[139.144978,-34.486801],[139.146085,-34.490403],[139.147381,-34.492481],[139.147594,-34.492878],[139.147681,-34.493054],[139.147807,-34.493392],[139.148337,-34.494962],[139.148384,-34.495164],[139.148487,-34.496404],[139.148566,-34.497352],[139.148503,-34.49997],[139.148501,-34.50002]]}},{"type":"Feature","properties":{"tier":"regional"},"geometry":{"type":"LineString","coordinates":[[139.042928,-34.484057],[139.039555,-34.483045],[139.03943,-34.482991],[139.039325,-34.482936],[139.039238,-34.482867],[139.039161,-34.482797],[139.039104,-34.48274],[139.039063,-34.482657],[139.03902,-34.482561],[139.038995,-34.482468],[139.038986,-34.48231],[139.038993,-34.482217],[139.039015,-34.48212],[139.039101,-34.481918],[139.039167,-34.481771],[139.03944,-34.481167],[139.039464,-34.481051],[139.039464,-34.480964],[139.039446,-34.480891],[139.039407,-34.480815],[139.039341,-34.480741],[139.039232,-34.480686],[139.03911,-34.48064],[139.033531,-34.479009],[139.033432,-34.478984],[139.027072,-34.477125],[139.022875,-34.475852]]}},{"type":"Feature","properties":{"tier":"regional"},"geometry":{"type":"LineString","coordinates":[[139.004481,-34.470425],[139.00494,-34.47057],[139.005589,-34.470771],[139.008251,-34.471534],[139.009626,-34.471941],[139.009642,-34.471946],[139.010962,-34.472325]]}},{"type":"Feature","properties":{"tier":"regional"},"geometry":{"type":"LineString","coordinates":[[139.010962,-34.472325],[139.01567,-34.473697],[139.020131,-34.475028],[139.021596,-34.475476],[139.021804,-34.475539],[139.021974,-34.47559],[139.022875,-34.475852]]}},{"type":"Feature","properties":{"tier":"high"},"geometry":{"type":"LineString","coordinates":[[139.122924,-34.407521],[139.123165,-34.407586],[139.12357,-34.407718]]}},{"type":"Feature","properties":{"tier":"high"},"geometry":{"type":"LineString","coordinates":[[139.130027,-34.409661],[139.130386,-34.409753],[139.13056,-34.409788],[139.130721,-34.409807],[139.130904,-34.409813],[139.13102,-34.409813],[139.131129,-34.409804],[139.13129,-34.409783],[139.131536,-34.409745],[139.131696,-34.409718]]}},{"type":"Feature","properties":{"tier":"arterial"},"geometry":{"type":"LineString","coordinates":[[139.049337,-34.077552],[139.049451,-34.07739],[139.049715,-34.077024],[139.050352,-34.076132],[139.05194,-34.073909]]}},{"type":"Feature","properties":{"tier":"arterial"},"geometry":{"type":"LineString","coordinates":[[139.084942,-34.161486],[139.084949,-34.161198],[139.084924,-34.161067],[139.084916,-34.161019],[139.084679,-34.160207],[139.084461,-34.159475],[139.084173,-34.15851],[139.083967,-34.157812],[139.083934,-34.157699],[139.083589,-34.156534],[139.083501,-34.156247],[139.083375,-34.155889],[139.083015,-34.154963],[139.081903,-34.152079],[139.081767,-34.151737],[139.081643,-34.151475],[139.081444,-34.151112],[139.081317,-34.150861],[139.079826,-34.148202],[139.077943,-34.144812],[139.077508,-34.144031],[139.077111,-34.143263],[139.076912,-34.142882],[139.076124,-34.141434],[139.075154,-34.1396],[139.074344,-34.138083],[139.073428,-34.136369],[139.073127,-34.135734],[139.071109,-34.131215],[139.070959,-34.130894],[139.069515,-34.127653],[139.069419,-34.127437],[139.069329,-34.127252],[139.0691,-34.126783],[139.068908,-34.126395],[139.068118,-34.1248],[139.067304,-34.123143],[139.066899,-34.122321],[139.065043,-34.118559],[139.06491,-34.118282],[139.064727,-34.117901],[139.064688,-34.117816],[139.064309,-34.116995],[139.063334,-34.114829],[139.062614,-34.113234],[139.061938,-34.111766],[139.061452,-34.110655],[139.061169,-34.110069],[139.060143,-34.107786],[139.058988,-34.105223],[139.058976,-34.105198],[139.058825,-34.104864],[139.055982,-34.098589],[139.054797,-34.095975],[139.053795,-34.093764],[139.052939,-34.091878],[139.051111,-34.087849],[139.05012,-34.085669],[139.04994,-34.085254],[139.04985,-34.084995],[139.049763,-34.084686],[139.049712,-34.084414],[139.049676,-34.084177],[139.049628,-34.083764],[139.049474,-34.081665],[139.049396,-34.080601],[139.049232,-34.078402],[139.049219,-34.078154],[139.049229,-34.077939],[139.049255,-34.077776],[139.049294,-34.077683],[139.049337,-34.077552]]}},{"type":"Feature","properties":{"tier":"high"},"geometry":{"type":"LineString","coordinates":[[139.131696,-34.409718],[139.131992,-34.409672],[139.1339,-34.409381]]}},{"type":"Feature","properties":{"tier":"arterial"},"geometry":{"type":"LineString","coordinates":[[139.086597,-34.176814],[139.086911,-34.177132],[139.087158,-34.177381],[139.087518,-34.177669],[139.088055,-34.178084],[139.088226,-34.178216],[139.088337,-34.178302],[139.088902,-34.178739],[139.089145,-34.178928],[139.089651,-34.179318],[139.089802,-34.17942],[139.089969,-34.179492],[139.090163,-34.179557]]}},{"type":"Feature","properties":{"tier":"arterial"},"geometry":{"type":"LineString","coordinates":[[139.359868,-34.121091],[139.360264,-34.12085],[139.360563,-34.12072],[139.360998,-34.120579],[139.361588,-34.120471],[139.362049,-34.120444],[139.363202,-34.12044],[139.364275,-34.120433],[139.365102,-34.120357],[139.365816,-34.120231],[139.366859,-34.119988],[139.381845,-34.116311],[139.391483,-34.113974],[139.391745,-34.113909],[139.40896,-34.109746],[139.40992,-34.109553],[139.410899,-34.109411],[139.411817,-34.109305],[139.416065,-34.109091],[139.417183,-34.108942],[139.417724,-34.108849],[139.41833,-34.108726],[139.421493,-34.107931],[139.426268,-34.106723],[139.431764,-34.105339],[139.43223,-34.105196],[139.432834,-34.104959],[139.433186,-34.104791],[139.433591,-34.104574],[139.433965,-34.104363],[139.434356,-34.104161],[139.434625,-34.104051],[139.434888,-34.10395],[139.435319,-34.103814],[139.435857,-34.103675],[139.438341,-34.103199],[139.441659,-34.102563],[139.442182,-34.102449],[139.442624,-34.102341],[139.444526,-34.101852],[139.451506,-34.100088],[139.454179,-34.09941],[139.456815,-34.098748],[139.458136,-34.098417],[139.480776,-34.092734],[139.50002,-34.087859]]}},{"type":"Feature","properties":{"tier":"high"},"geometry":{"type":"LineString","coordinates":[[139.00251,-34.45652],[139.002777,-34.45644],[139.003166,-34.456327]]}},{"type":"Feature","properties":{"tier":"high"},"geometry":{"type":"LineString","coordinates":[[139.000692,-34.457053],[139.001918,-34.456699]]}},{"type":"Feature","properties":{"tier":"high"},"geometry":{"type":"LineString","coordinates":[[139.122332,-34.407537],[139.122536,-34.407499],[139.12267,-34.407494],[139.122825,-34.407502],[139.122924,-34.407521]]}},{"type":"Feature","properties":{"tier":"regional"},"geometry":{"type":"LineString","coordinates":[[139.09516,-34.176686],[139.095301,-34.17724],[139.095147,-34.177843],[139.09478,-34.178226],[139.093406,-34.178938],[139.092979,-34.179209],[139.092649,-34.179702]]}},{"type":"Feature","properties":{"tier":"high"},"geometry":{"type":"LineString","coordinates":[[139.101164,-34.411586],[139.101165,-34.411614],[139.101155,-34.411647],[139.101135,-34.411673]]}},{"type":"Feature","properties":{"tier":"high"},"geometry":{"type":"LineString","coordinates":[[139.100794,-34.411063],[139.100895,-34.411107],[139.100945,-34.411152],[139.101005,-34.41123],[139.10108,-34.411322],[139.101136,-34.411405],[139.101175,-34.411455],[139.101218,-34.411494],[139.101264,-34.411516],[139.101316,-34.411534]]}},{"type":"Feature","properties":{"tier":"high"},"geometry":{"type":"LineString","coordinates":[[139.100815,-34.411677],[139.100915,-34.411643],[139.100992,-34.411615],[139.101027,-34.411594],[139.101051,-34.411573],[139.101064,-34.41155],[139.101066,-34.411529],[139.101066,-34.411505],[139.101059,-34.411469]]}},{"type":"Feature","properties":{"tier":"arterial"},"geometry":{"type":"LineString","coordinates":[[139.101164,-34.411586],[139.101097,-34.411524],[139.101059,-34.411469],[139.101017,-34.411395],[139.100978,-34.411336],[139.100938,-34.411279],[139.100873,-34.411197],[139.100841,-34.411152],[139.100794,-34.411063]]}},{"type":"Feature","properties":{"tier":"arterial"},"geometry":{"type":"LineString","coordinates":[[139.100794,-34.411063],[139.100886,-34.411131],[139.100932,-34.411178],[139.100997,-34.411264],[139.101035,-34.41132],[139.101074,-34.411382],[139.101122,-34.41146],[139.101148,-34.411516],[139.101164,-34.411586]]}},{"type":"Feature","properties":{"tier":"high"},"geometry":{"type":"LineString","coordinates":[[139.102878,-34.411112],[139.102696,-34.411156],[139.102522,-34.411197],[139.102361,-34.411247],[139.101913,-34.411383],[139.10165,-34.411467],[139.101407,-34.411544],[139.101317,-34.411573],[139.101252,-34.411586],[139.101164,-34.411586]]}},{"type":"Feature","properties":{"tier":"high"},"geometry":{"type":"LineString","coordinates":[[139.106793,-34.41016],[139.106634,-34.410216],[139.105755,-34.410398],[139.105299,-34.410498],[139.104224,-34.410741],[139.103946,-34.410807],[139.103839,-34.410832],[139.10367,-34.410879],[139.103003,-34.411073],[139.102878,-34.411112],[139.101985,-34.411397],[139.101629,-34.411506],[139.10122,-34.411645],[139.101135,-34.411673]]}},{"type":"Feature","properties":{"tier":"high"},"geometry":{"type":"LineString","coordinates":[[139.106793,-34.41016],[139.1079,-34.409959],[139.111514,-34.40936],[139.113297,-34.409039]]}},{"type":"Feature","properties":{"tier":"high"},"geometry":{"type":"LineString","coordinates":[[139.099346,-34.412265],[139.099795,-34.412097],[139.10034,-34.411889],[139.100886,-34.411687],[139.101118,-34.411604],[139.101164,-34.411586],[139.101255,-34.411553],[139.101316,-34.411534]]}},{"type":"Feature","properties":{"tier":"arterial"},"geometry":{"type":"LineString","coordinates":[[139.00251,-34.45652],[139.002559,-34.456642],[139.002586,-34.456723],[139.002593,-34.456804],[139.002571,-34.456931]]}},{"type":"Feature","properties":{"tier":"high"},"geometry":{"type":"LineString","coordinates":[[139.098811,-34.412485],[139.099014,-34.412391],[139.099346,-34.412265]]}},{"type":"Feature","properties":{"tier":"high"},"geometry":{"type":"LineString","coordinates":[[139.350399,-34.39132],[139.351017,-34.39116],[139.351692,-34.391026],[139.352298,-34.390934],[139.356317,-34.390592],[139.362734,-34.390007],[139.36453,-34.389818],[139.367632,-34.38956],[139.36769,-34.389555],[139.370285,-34.389312],[139.370649,-34.389278],[139.375479,-34.388843],[139.376174,-34.388813],[139.376745,-34.38884],[139.379496,-34.389108],[139.380654,-34.38921],[139.383628,-34.38927],[139.38522,-34.389295],[139.388376,-34.389348],[139.388496,-34.389348],[139.390536,-34.389352],[139.409558,-34.38939],[139.421362,-34.389511],[139.421772,-34.389516],[139.429027,-34.38951],[139.431607,-34.389568],[139.432537,-34.38957],[139.438062,-34.389565],[139.453665,-34.38966],[139.472122,-34.389678],[139.47333,-34.389679],[139.474107,-34.389652],[139.475234,-34.389502],[139.475943,-34.389345],[139.479569,-34.388294],[139.480685,-34.388012],[139.480797,-34.387979],[139.481372,-34.387814]]}},{"type":"Feature","properties":{"tier":"high"},"geometry":{"type":"LineString","coordinates":[[139.101135,-34.411673],[139.101048,-34.411703],[139.10088,-34.41176]]}},{"type":"Feature","properties":{"tier":"high"},"geometry":{"type":"LineString","coordinates":[[139.045249,-34.431962],[139.047404,-34.430607],[139.050838,-34.428508]]}},{"type":"Feature","properties":{"tier":"high"},"geometry":{"type":"LineString","coordinates":[[139.050838,-34.428508],[139.051134,-34.428328],[139.053372,-34.426962],[139.056132,-34.425354],[139.056971,-34.424935]]}},{"type":"Feature","properties":{"tier":"high"},"geometry":{"type":"LineString","coordinates":[[139.481372,-34.387814],[139.495076,-34.383933]]}},{"type":"Feature","properties":{"tier":"high"},"geometry":{"type":"LineString","coordinates":[[139.495076,-34.383933],[139.50002,-34.382518]]}},{"type":"Feature","properties":{"tier":"high"},"geometry":{"type":"LineString","coordinates":[[139.026404,-34.443585],[139.026656,-34.443439],[139.030954,-34.440768],[139.032864,-34.439616],[139.038876,-34.435908],[139.039093,-34.435775]]}},{"type":"Feature","properties":{"tier":"high"},"geometry":{"type":"LineString","coordinates":[[139.039093,-34.435775],[139.045249,-34.431962]]}},{"type":"Feature","properties":{"tier":"high"},"geometry":{"type":"LineString","coordinates":[[139.113297,-34.409039],[139.114995,-34.408754],[139.115489,-34.408681],[139.115941,-34.408631],[139.116401,-34.408606],[139.117816,-34.408564]]}},{"type":"Feature","properties":{"tier":"high"},"geometry":{"type":"LineString","coordinates":[[139.086889,-34.417075],[139.088271,-34.416546],[139.098811,-34.412485]]}},{"type":"Feature","properties":{"tier":"arterial"},"geometry":{"type":"LineString","coordinates":[[139.106362,-34.182754],[139.107641,-34.183127]]}},{"type":"Feature","properties":{"tier":"high"},"geometry":{"type":"LineString","coordinates":[[139.001918,-34.456699],[139.00251,-34.45652]]}},{"type":"Feature","properties":{"tier":"high"},"geometry":{"type":"LineString","coordinates":[[139.101316,-34.411534],[139.102526,-34.411156]]}},{"type":"Feature","properties":{"tier":"high"},"geometry":{"type":"LineString","coordinates":[[139.102526,-34.411156],[139.10297,-34.411016],[139.103643,-34.410832],[139.104196,-34.410697],[139.105282,-34.410457],[139.105738,-34.410355],[139.106622,-34.41018],[139.106793,-34.41016]]}},{"type":"Feature","properties":{"tier":"arterial"},"geometry":{"type":"LineString","coordinates":[[138.99998,-34.389935],[138.999989,-34.389944],[139.000464,-34.390388],[139.000716,-34.390596],[139.00087,-34.390707],[139.001019,-34.390814],[139.001306,-34.391014],[139.001654,-34.39121],[139.002574,-34.391639],[139.00311,-34.391837],[139.004613,-34.392274],[139.007168,-34.393035],[139.009353,-34.393681],[139.011108,-34.394199],[139.013251,-34.394834],[139.01561,-34.395523],[139.015702,-34.39555],[139.017323,-34.396029],[139.020625,-34.397005],[139.02363,-34.397887],[139.025364,-34.398395],[139.027433,-34.399013],[139.027704,-34.399092],[139.029154,-34.399516],[139.031635,-34.400248],[139.03542,-34.401356],[139.037057,-34.401843],[139.037576,-34.401985],[139.037926,-34.402063],[139.038228,-34.402127],[139.038455,-34.402174],[139.038694,-34.402215],[139.038915,-34.402252],[139.039159,-34.402288],[139.039441,-34.402325],[139.039621,-34.402343],[139.039704,-34.402351],[139.039842,-34.402365],[139.040239,-34.402396],[139.040681,-34.402414],[139.040906,-34.402415],[139.041115,-34.40242],[139.041601,-34.402409],[139.041931,-34.402394],[139.042547,-34.402347],[139.04435,-34.402174],[139.044759,-34.402137],[139.045033,-34.402128],[139.045375,-34.402105],[139.04571,-34.402072],[139.046092,-34.402029],[139.046185,-34.40201],[139.046318,-34.401988],[139.046706,-34.401947],[139.049556,-34.401675],[139.049898,-34.401642],[139.05019,-34.40163],[139.05052,-34.401623],[139.050838,-34.401632],[139.051113,-34.401649],[139.051374,-34.401678],[139.051631,-34.401716],[139.051846,-34.401749],[139.052016,-34.401783],[139.052271,-34.401838],[139.05254,-34.401912],[139.052887,-34.402014],[139.053359,-34.402153],[139.054059,-34.402358],[139.056435,-34.403058],[139.056896,-34.403199],[139.057136,-34.403266],[139.057364,-34.403318],[139.057558,-34.403371],[139.057859,-34.403423],[139.058039,-34.403449],[139.058146,-34.403461],[139.058374,-34.40349],[139.058713,-34.403519],[139.05908,-34.403535],[139.059317,-34.403546],[139.05992,-34.403562],[139.062571,-34.403602],[139.065022,-34.40365],[139.069545,-34.403717],[139.07412,-34.403781],[139.07862,-34.403841],[139.079716,-34.403858],[139.079911,-34.403862],[139.080232,-34.403867],[139.080565,-34.403882],[139.080886,-34.403903],[139.081124,-34.403925],[139.081384,-34.40396],[139.081659,-34.404006],[139.081963,-34.404061],[139.08218,-34.404104],[139.082348,-34.404144],[139.082782,-34.404264],[139.086062,-34.405264],[139.088522,-34.406],[139.089761,-34.406379],[139.091465,-34.4069],[139.093685,-34.407559],[139.095155,-34.408003],[139.097069,-34.408578],[139.097471,-34.408702],[139.097702,-34.408778],[139.097876,-34.408841],[139.098044,-34.40891],[139.098195,-34.408978],[139.098334,-34.409049],[139.098467,-34.409121],[139.098596,-34.409194],[139.098713,-34.409266],[139.098827,-34.409334],[139.098938,-34.409413],[139.099052,-34.409498],[139.099171,-34.409594],[139.099306,-34.409707],[139.099505,-34.409876],[139.100224,-34.410531]]}},{"type":"Feature","properties":{"tier":"high"},"geometry":{"type":"LineString","coordinates":[[139.099346,-34.412265],[139.099427,-34.412213],[139.099545,-34.41216],[139.099795,-34.412056],[139.100347,-34.411853],[139.100815,-34.411677]]}},{"type":"Feature","properties":{"tier":"high"},"geometry":{"type":"LineString","coordinates":[[139.10088,-34.41176],[139.100514,-34.411895],[139.100316,-34.411966],[139.099978,-34.412084],[139.09984,-34.412131],[139.099656,-34.412196],[139.099425,-34.412285],[139.099039,-34.412422],[139.098811,-34.412485]]}},{"type":"Feature","properties":{"tier":"arterial"},"geometry":{"type":"LineString","coordinates":[[139.002146,-34.458179],[139.002014,-34.4585],[139.001277,-34.460148],[139.001086,-34.46057],[139.001058,-34.460632],[139.000878,-34.46107],[139.000554,-34.461802],[139.000307,-34.462368],[139.000133,-34.462778],[138.99998,-34.46317]]}},{"type":"Feature","properties":{"tier":"high"},"geometry":{"type":"LineString","coordinates":[[139.005133,-34.455725],[139.005808,-34.455489],[139.006488,-34.455229],[139.007846,-34.454671],[139.010373,-34.453417],[139.011289,-34.45285],[139.014328,-34.450973],[139.015721,-34.450112],[139.020308,-34.447302],[139.022811,-34.445665],[139.024906,-34.444452],[139.026404,-34.443585]]}},{"type":"Feature","properties":{"tier":"high"},"geometry":{"type":"LineString","coordinates":[[139.003166,-34.456327],[139.003304,-34.456286]]}},{"type":"Feature","properties":{"tier":"arterial"},"geometry":{"type":"LineString","coordinates":[[138.99998,-34.479937],[139.000266,-34.480022],[139.000396,-34.480084],[139.00052,-34.480157],[139.000892,-34.480416],[139.001028,-34.48051],[139.00117,-34.480566],[139.001364,-34.480646],[139.002165,-34.480881],[139.002323,-34.480927]]}},{"type":"Feature","properties":{"tier":"high"},"geometry":{"type":"LineString","coordinates":[[139.12357,-34.407718],[139.124062,-34.407865],[139.125881,-34.408406],[139.126817,-34.408692],[139.127001,-34.408748],[139.127154,-34.408794],[139.127824,-34.408997],[139.128149,-34.409095],[139.128532,-34.40921],[139.128701,-34.409261],[139.129384,-34.409467],[139.129412,-34.409476],[139.130027,-34.409661]]}},{"type":"Feature","properties":{"tier":"arterial"},"geometry":{"type":"LineString","coordinates":[[139.122924,-34.407521],[139.122987,-34.407284]]}},{"type":"Feature","properties":{"tier":"arterial"},"geometry":{"type":"LineString","coordinates":[[139.141405,-34.359059],[139.141595,-34.35879],[139.14177,-34.35857],[139.141827,-34.35848],[139.141917,-34.358339],[139.142015,-34.358151],[139.142169,-34.357789],[139.142308,-34.35742],[139.142386,-34.357041],[139.142502,-34.356231],[139.142568,-34.355815],[139.142628,-34.355607],[139.142681,-34.355405],[139.14578,-34.348861],[139.147459,-34.345357],[139.147678,-34.345053],[139.14801,-34.344641],[139.149155,-34.343478],[139.151242,-34.341329],[139.152022,-34.340512],[139.152661,-34.339848],[139.15308,-34.33943],[139.153509,-34.339095],[139.153995,-34.338784],[139.154452,-34.338485],[139.154806,-34.338224],[139.155075,-34.337989],[139.155465,-34.337578],[139.155663,-34.33733],[139.155853,-34.337042],[139.15605,-34.336681],[139.156201,-34.336352],[139.156291,-34.336046],[139.156374,-34.335704],[139.156429,-34.3353],[139.156441,-34.334908],[139.156404,-34.33457],[139.15631,-34.334058],[139.156212,-34.333673],[139.156146,-34.333368],[139.156047,-34.333061],[139.15594,-34.33281],[139.155877,-34.33269],[139.155781,-34.332507],[139.15563,-34.332234],[139.15538,-34.331838],[139.155156,-34.331458],[139.155067,-34.331292],[139.155006,-34.331151],[139.154942,-34.330995],[139.154878,-34.330814],[139.154801,-34.330525],[139.154768,-34.330383],[139.154737,-34.330209],[139.154713,-34.330053],[139.154707,-34.329887],[139.154692,-34.329687],[139.154698,-34.329459],[139.154721,-34.329205],[139.154762,-34.32893],[139.154835,-34.328647],[139.154932,-34.328355],[139.155037,-34.328103],[139.156651,-34.324408],[139.15676,-34.324119],[139.156823,-34.323895],[139.157432,-34.321709],[139.158018,-34.319631],[139.158432,-34.318148],[139.158634,-34.317404],[139.158833,-34.316716],[139.15895,-34.316298],[139.159065,-34.31593],[139.159181,-34.315671],[139.159326,-34.315375],[139.159459,-34.315157],[139.159618,-34.314922],[139.160304,-34.313969],[139.160544,-34.313656],[139.160784,-34.3133],[139.160891,-34.31313],[139.16097,-34.312988],[139.161094,-34.312672],[139.161152,-34.312504],[139.161218,-34.312303],[139.161282,-34.312036],[139.161323,-34.311797],[139.16135,-34.311543],[139.161354,-34.311178],[139.161337,-34.310872],[139.161214,-34.310318],[139.161059,-34.309884],[139.160854,-34.309437],[139.160456,-34.308599],[139.159334,-34.306223],[139.15788,-34.303039],[139.15654,-34.300192],[139.15641,-34.299932],[139.155134,-34.297188],[139.155069,-34.297009],[139.15502,-34.296838],[139.154979,-34.296715],[139.154939,-34.296552],[139.154898,-34.296306],[139.154853,-34.295954],[139.154842,-34.295706],[139.154848,-34.295453],[139.154875,-34.295242],[139.154906,-34.295059],[139.154943,-34.294874],[139.154985,-34.294725],[139.155061,-34.294478],[139.15514,-34.294266],[139.155266,-34.293985],[139.155373,-34.293806],[139.155486,-34.293616],[139.155706,-34.293306],[139.15589,-34.293096],[139.156169,-34.292807],[139.15654,-34.29247],[139.156884,-34.292154],[139.157178,-34.291853],[139.15768,-34.291255],[139.157836,-34.291016],[139.157955,-34.29081],[139.158288,-34.290199],[139.158561,-34.289708],[139.158803,-34.289256],[139.158943,-34.288944],[139.159023,-34.288751],[139.159274,-34.288026],[139.160697,-34.283923],[139.160921,-34.283093],[139.160876,-34.28158],[139.160713,-34.279809],[139.160369,-34.277186],[139.160197,-34.276253],[139.160134,-34.276004],[139.16002,-34.275731],[139.158929,-34.273502],[139.15881,-34.272982],[139.158709,-34.27234],[139.158682,-34.271465],[139.158674,-34.271327],[139.158674,-34.270279],[139.158611,-34.269589],[139.158465,-34.269034],[139.157758,-34.267042],[139.156026,-34.262493],[139.155799,-34.26195],[139.155287,-34.260907],[139.151362,-34.254829],[139.145652,-34.245584],[139.145426,-34.244979],[139.145337,-34.244673],[139.145272,-34.244352],[139.14517,-34.243805],[139.1452,-34.24307],[139.145255,-34.242704],[139.145355,-34.242251],[139.145588,-34.241661],[139.145917,-34.240783],[139.146254,-34.239897],[139.146317,-34.23964],[139.146398,-34.239154],[139.146443,-34.238475],[139.14641,-34.238074],[139.14634,-34.237674],[139.145666,-34.235637],[139.145315,-34.234631],[139.144925,-34.23362],[139.144771,-34.233356],[139.144608,-34.233096],[139.144246,-34.232609],[139.143794,-34.232138],[139.143274,-34.231716],[139.143066,-34.231557],[139.142836,-34.231407],[139.14234,-34.231126],[139.14133,-34.230576],[139.14092,-34.230331],[139.14055,-34.230074],[139.14021,-34.229793],[139.139877,-34.229505],[139.137949,-34.227898],[139.137631,-34.227728],[139.135142,-34.226607],[139.133977,-34.2261],[139.133407,-34.225827],[139.132895,-34.225519],[139.132593,-34.225304],[139.132308,-34.225084],[139.132035,-34.224849],[139.131805,-34.224601],[139.131583,-34.224356],[139.131365,-34.224084],[139.13094,-34.223534],[139.129227,-34.221371],[139.125831,-34.217037],[139.122443,-34.212718],[139.121034,-34.210904],[139.120752,-34.210573],[139.11992,-34.209497],[139.119506,-34.208967],[139.119325,-34.208701],[139.119187,-34.208437],[139.117971,-34.205816],[139.114959,-34.199323],[139.114416,-34.198153],[139.113091,-34.195272],[139.11229,-34.19353],[139.112041,-34.192988],[139.109765,-34.188048],[139.108568,-34.185513],[139.108005,-34.184393],[139.107854,-34.184118],[139.107732,-34.183818],[139.107661,-34.183515]]}},{"type":"Feature","properties":{"tier":"arterial"},"geometry":{"type":"LineString","coordinates":[[139.097484,-34.181216],[139.098003,-34.181361],[139.098199,-34.181389],[139.098304,-34.181404],[139.098498,-34.181422],[139.098674,-34.181428],[139.098799,-34.181432],[139.099882,-34.181431],[139.100482,-34.181446],[139.100753,-34.181463],[139.101048,-34.181507],[139.101332,-34.181561],[139.10181,-34.181652],[139.102676,-34.181799],[139.102948,-34.181831],[139.103222,-34.18188],[139.103466,-34.181925],[139.103938,-34.182032],[139.104238,-34.182098],[139.104511,-34.182166],[139.104846,-34.182273],[139.10525,-34.182405],[139.106362,-34.182754]]}},{"type":"Feature","properties":{"tier":"high"},"geometry":{"type":"LineString","coordinates":[[139.138337,-34.408018],[139.139054,-34.407653],[139.141398,-34.406295],[139.141659,-34.406159],[139.141856,-34.406061],[139.142155,-34.405929],[139.142418,-34.405825],[139.142747,-34.405729],[139.143355,-34.405557],[139.144022,-34.405405],[139.144443,-34.405326],[139.144812,-34.405276],[139.146439,-34.405188],[139.146842,-34.405149],[139.146976,-34.405136],[139.147058,-34.405128],[139.161295,-34.402528]]}},{"type":"Feature","properties":{"tier":"arterial"},"geometry":{"type":"LineString","coordinates":[[139.081203,-34.178175],[139.081307,-34.178065],[139.081903,-34.177436],[139.081987,-34.177348],[139.082222,-34.177111],[139.082469,-34.176915],[139.082536,-34.176862],[139.082626,-34.176815],[139.082727,-34.176768],[139.082869,-34.176723],[139.083121,-34.176656],[139.083401,-34.176595],[139.083928,-34.176479]]}},{"type":"Feature","properties":{"tier":"arterial"},"geometry":{"type":"LineString","coordinates":[[139.071179,-34.184297],[139.071223,-34.184276],[139.072654,-34.18363],[139.073384,-34.183329],[139.075445,-34.182421]]}},{"type":"Feature","properties":{"tier":"arterial"},"geometry":{"type":"LineString","coordinates":[[139.091815,-34.179656],[139.092234,-34.179665],[139.092649,-34.179702],[139.09358,-34.179778],[139.093971,-34.179825],[139.094204,-34.179864],[139.094367,-34.179907],[139.094503,-34.179953],[139.094663,-34.180012],[139.09492,-34.180127],[139.095461,-34.180425],[139.095706,-34.180559],[139.095756,-34.180587],[139.096097,-34.180748],[139.096994,-34.181052],[139.097484,-34.181216]]}},{"type":"Feature","properties":{"tier":"arterial"},"geometry":{"type":"LineString","coordinates":[[139.090163,-34.179557],[139.090334,-34.179598],[139.090515,-34.179629],[139.090798,-34.179649],[139.091815,-34.179656]]}},{"type":"Feature","properties":{"tier":"arterial"},"geometry":{"type":"LineString","coordinates":[[139.217436,-34.156259],[139.223315,-34.154803],[139.224132,-34.154612],[139.229058,-34.153403]]}},{"type":"Feature","properties":{"tier":"arterial"},"geometry":{"type":"LineString","coordinates":[[139.107641,-34.183127],[139.107961,-34.183216],[139.108024,-34.183233],[139.108227,-34.183276],[139.10844,-34.183287],[139.108738,-34.183298],[139.108926,-34.183291],[139.109341,-34.183267],[139.111981,-34.183095],[139.120471,-34.182562],[139.123939,-34.182339],[139.131696,-34.181865],[139.132769,-34.181812],[139.133302,-34.18177],[139.133897,-34.181675],[139.134247,-34.18163],[139.134598,-34.181553],[139.135267,-34.181384],[139.136114,-34.181104],[139.137521,-34.180543],[139.13778,-34.180439],[139.140396,-34.179368],[139.142875,-34.178366],[139.143269,-34.178207],[139.143612,-34.178087],[139.143888,-34.178012],[139.144734,-34.177853],[139.145391,-34.177738],[139.145625,-34.177708],[139.145956,-34.177696],[139.146226,-34.177711],[139.146443,-34.177732],[139.146761,-34.177784],[139.148437,-34.178174],[139.148894,-34.178279],[139.14958,-34.178445],[139.1502,-34.178559],[139.150515,-34.178567],[139.150858,-34.178553],[139.151738,-34.178459],[139.151892,-34.178442],[139.151924,-34.178438],[139.152418,-34.178384],[139.152784,-34.178369],[139.153033,-34.178384]]}},{"type":"Feature","properties":{"tier":"high"},"geometry":{"type":"LineString","coordinates":[[138.99998,-34.457261],[139.000692,-34.457053]]}},{"type":"Feature","properties":{"tier":"arterial"},"geometry":{"type":"LineString","coordinates":[[139.35684,-34.122408],[139.357555,-34.12223],[139.358336,-34.122024],[139.358687,-34.121875],[139.358958,-34.121732],[139.359288,-34.12152],[139.359868,-34.121091]]}},{"type":"Feature","properties":{"tier":"arterial"},"geometry":{"type":"LineString","coordinates":[[139.350187,-34.124035],[139.350943,-34.12385],[139.351681,-34.12367],[139.352608,-34.123444],[139.352891,-34.123375],[139.353173,-34.123306],[139.353307,-34.123273],[139.353866,-34.123137],[139.35684,-34.122408]]}},{"type":"Feature","properties":{"tier":"arterial"},"geometry":{"type":"LineString","coordinates":[[139.229058,-34.153403],[139.231259,-34.152861],[139.247331,-34.149007],[139.254051,-34.147344],[139.265411,-34.144572],[139.266004,-34.144384],[139.266049,-34.144366],[139.266759,-34.144092],[139.267509,-34.143829],[139.268011,-34.143701],[139.268613,-34.14355],[139.279732,-34.140866],[139.280525,-34.140673],[139.282012,-34.140312],[139.292933,-34.137662],[139.300081,-34.135941],[139.303232,-34.135183],[139.305623,-34.134613],[139.306623,-34.134369],[139.307884,-34.13406],[139.316828,-34.131893],[139.317284,-34.131781],[139.33008,-34.128661],[139.334538,-34.127564],[139.339086,-34.126464],[139.339393,-34.126397],[139.339535,-34.126366],[139.340994,-34.126192],[139.341388,-34.126134],[139.342391,-34.125944],[139.349882,-34.12411],[139.350187,-34.124035]]}},{"type":"Feature","properties":{"tier":"arterial"},"geometry":{"type":"LineString","coordinates":[[139.122987,-34.407284],[139.122987,-34.407157],[139.122978,-34.407071],[139.122954,-34.406996],[139.122919,-34.406922],[139.122626,-34.406447],[139.12184,-34.405196],[139.121743,-34.405023],[139.121657,-34.404849],[139.121589,-34.404702],[139.121512,-34.40448],[139.121447,-34.404293],[139.121398,-34.404101],[139.121312,-34.403721],[139.121079,-34.402732],[139.121025,-34.402481],[139.12099,-34.402221],[139.120973,-34.401972],[139.120976,-34.401713],[139.12098,-34.401593],[139.120986,-34.401462],[139.121001,-34.401326],[139.121021,-34.401204],[139.121049,-34.401079],[139.121082,-34.400953],[139.121151,-34.400701],[139.121238,-34.400447],[139.121351,-34.400201],[139.121492,-34.399954],[139.121645,-34.399712],[139.121841,-34.399443],[139.122061,-34.39918],[139.122312,-34.398928],[139.122592,-34.398682],[139.123172,-34.398215],[139.123306,-34.398091],[139.123443,-34.397959],[139.123684,-34.397695],[139.123836,-34.397504],[139.123971,-34.397312],[139.124097,-34.397097],[139.124207,-34.396895],[139.124309,-34.396682],[139.124398,-34.396474],[139.124476,-34.396243],[139.124539,-34.396026],[139.124578,-34.395809],[139.1246,-34.395596],[139.12462,-34.395387],[139.124635,-34.395161],[139.124665,-34.394291],[139.124693,-34.393424],[139.124715,-34.393055],[139.124728,-34.392888],[139.124745,-34.392722],[139.124759,-34.392652],[139.124999,-34.391572],[139.125264,-34.3904],[139.125527,-34.389236],[139.125863,-34.388095],[139.130184,-34.378703],[139.132115,-34.374459],[139.132351,-34.373936],[139.132469,-34.37373],[139.132662,-34.37342],[139.133329,-34.372412],[139.133987,-34.371395],[139.134665,-34.370384],[139.135453,-34.369178],[139.13552,-34.369056],[139.135586,-34.368932],[139.135653,-34.368802],[139.135705,-34.368678],[139.136024,-34.367952],[139.137104,-34.365485],[139.137728,-34.364058],[139.138414,-34.362487],[139.138468,-34.362368],[139.138517,-34.362278],[139.138545,-34.362218],[139.13859,-34.362137],[139.138647,-34.362047],[139.138706,-34.361952],[139.138899,-34.361677],[139.139014,-34.361541],[139.139112,-34.361423],[139.139196,-34.361339],[139.139277,-34.361249],[139.139658,-34.36091],[139.140369,-34.360298],[139.140678,-34.360018],[139.140856,-34.359824],[139.141001,-34.359633],[139.141356,-34.359129]]}},{"type":"Feature","properties":{"tier":"arterial"},"geometry":{"type":"LineString","coordinates":[[139.141356,-34.359129],[139.141405,-34.359059]]}},{"type":"Feature","properties":{"tier":"arterial"},"geometry":{"type":"LineString","coordinates":[[139.05194,-34.073909],[139.052282,-34.073429],[139.054207,-34.070743]]}},{"type":"Feature","properties":{"tier":"arterial"},"geometry":{"type":"LineString","coordinates":[[139.054207,-34.070743],[139.056412,-34.067634]]}},{"type":"Feature","properties":{"tier":"regional"},"geometry":{"type":"LineString","coordinates":[[139.127993,-34.474192],[139.128683,-34.474412],[139.129279,-34.474677]]}},{"type":"Feature","properties":{"tier":"regional"},"geometry":{"type":"LineString","coordinates":[[139.11898,-34.47144],[139.123785,-34.47289]]}},{"type":"Feature","properties":{"tier":"arterial"},"geometry":{"type":"LineString","coordinates":[[139.183402,-34.176874],[139.183768,-34.176731],[139.184082,-34.176594],[139.184326,-34.176464],[139.18457,-34.176305],[139.184791,-34.176145],[139.185687,-34.175469],[139.186009,-34.175161],[139.186038,-34.175136],[139.198708,-34.162977],[139.199147,-34.162395],[139.199312,-34.162108],[139.199424,-34.161776],[139.199982,-34.160205],[139.200047,-34.160035],[139.20013,-34.159819],[139.200263,-34.159563],[139.200391,-34.159357],[139.200652,-34.159042],[139.20086,-34.158847],[139.201058,-34.158687],[139.201329,-34.158514],[139.201633,-34.158349],[139.20184,-34.158265],[139.202025,-34.158207],[139.202334,-34.158107],[139.202644,-34.158045],[139.202967,-34.158009],[139.20346,-34.157988],[139.205772,-34.157984],[139.209119,-34.157928],[139.210587,-34.157835],[139.217436,-34.156259]]}},{"type":"Feature","properties":{"tier":"arterial"},"geometry":{"type":"LineString","coordinates":[[139.183072,-34.177002],[139.183402,-34.176874]]}},{"type":"Feature","properties":{"tier":"regional"},"geometry":{"type":"LineString","coordinates":[[139.0412,-34.461398],[139.041313,-34.461138]]}},{"type":"Feature","properties":{"tier":"regional"},"geometry":{"type":"LineString","coordinates":[[139.03808,-34.4686],[139.0412,-34.461398]]}},{"type":"Feature","properties":{"tier":"arterial"},"geometry":{"type":"LineString","coordinates":[[139.153304,-34.178402],[139.156069,-34.17881],[139.15751,-34.17903],[139.158906,-34.179224],[139.163836,-34.179969],[139.166169,-34.180322],[139.166268,-34.180337],[139.168237,-34.180622],[139.168738,-34.180663],[139.169117,-34.180673],[139.172047,-34.18065],[139.173496,-34.180639],[139.174392,-34.180633],[139.175476,-34.180624],[139.176029,-34.180611],[139.176843,-34.180538],[139.177518,-34.180391],[139.177894,-34.180261],[139.178266,-34.180109],[139.178767,-34.17984],[139.179003,-34.179679],[139.179327,-34.17945],[139.179788,-34.179117],[139.180516,-34.178592],[139.181682,-34.177741],[139.181989,-34.177524],[139.1823,-34.177336],[139.182611,-34.177189],[139.182918,-34.177062],[139.183072,-34.177002]]}},{"type":"Feature","properties":{"tier":"arterial"},"geometry":{"type":"LineString","coordinates":[[139.153033,-34.178384],[139.153304,-34.178402]]}},{"type":"Feature","properties":{"tier":"arterial"},"geometry":{"type":"LineString","coordinates":[[139.001703,-34.179502],[139.001395,-34.179223],[139.001147,-34.179012],[139.000897,-34.178829],[139.000547,-34.178601],[139.000045,-34.178241],[138.99998,-34.178191]]}},{"type":"Feature","properties":{"tier":"arterial"},"geometry":{"type":"LineString","coordinates":[[139.001923,-34.179701],[139.001703,-34.179502]]}}]}
