{"type":"FeatureCollection","features":[{"type":"Feature","properties":{"tier":"arterial"},"geometry":{"type":"LineString","coordinates":[[139.377363,-25.99998],[139.377758,-26.001325],[139.380314,-26.009794],[139.382673,-26.017687],[139.386822,-26.031759],[139.390012,-26.04062],[139.393117,-26.048896],[139.397209,-26.059226],[139.397943,-26.061394],[139.397754,-26.063317],[139.396516,-26.069574],[139.395131,-26.076661],[139.393747,-26.083672],[139.392255,-26.091463],[139.39184,-26.093413],[139.391809,-26.09405],[139.391816,-26.096995],[139.392131,-26.098201],[139.393642,-26.100537],[139.395359,-26.103087],[139.395926,-26.104077],[139.396205,-26.105219],[139.397214,-26.108656],[139.398534,-26.113119],[139.399721,-26.117489],[139.400359,-26.119114],[139.401324,-26.1207],[139.401575,-26.12113],[139.402169,-26.122152],[139.404686,-26.126715],[139.40571,-26.12852],[139.406246,-26.129465],[139.40928,-26.135328],[139.410868,-26.138359],[139.411469,-26.139937],[139.413412,-26.142733],[139.415246,-26.144961],[139.418284,-26.148573],[139.422138,-26.15332],[139.423217,-26.154842],[139.424003,-26.157388],[139.425252,-26.16226],[139.42701,-26.169095],[139.427618,-26.17138],[139.427935,-26.172569],[139.428305,-26.173509],[139.429045,-26.174727],[139.432113,-26.178836],[139.434811,-26.182586],[139.436738,-26.18473],[139.440223,-26.188521],[139.443183,-26.191925],[139.44454,-26.193529],[139.445342,-26.19501],[139.446205,-26.197472],[139.447284,-26.200792],[139.448718,-26.205108],[139.449535,-26.206893],[139.452187,-26.212508],[139.45379,-26.216174],[139.455209,-26.219521],[139.45598,-26.221444],[139.457305,-26.223629],[139.460081,-26.228193],[139.462825,-26.232992],[139.465939,-26.238206],[139.466525,-26.239381],[139.467759,-26.243018],[139.470673,-26.251633],[139.47152,-26.254191],[139.471968,-26.256334],[139.472183,-26.259169],[139.47243,-26.261519],[139.473047,-26.26398],[139.474743,-26.269801],[139.476377,-26.275801],[139.477503,-26.279727],[139.478968,-26.285578],[139.480806,-26.293554],[139.481844,-26.297654],[139.482202,-26.299128],[139.482299,-26.299782],[139.482315,-26.300504],[139.482282,-26.300985],[139.482049,-26.30381],[139.48206,-26.304175],[139.482073,-26.304498],[139.482116,-26.304745],[139.482191,-26.305108],[139.482328,-26.305558],[139.482864,-26.307068],[139.484515,-26.31156],[139.48857,-26.322703],[139.492154,-26.332732],[139.493804,-26.336718],[139.496601,-26.343789],[139.499493,-26.350774],[139.50002,-26.352089]]}}]}
