{"type":"FeatureCollection","features":[{"type":"Feature","properties":{"tier":"arterial"},"geometry":{"type":"LineString","coordinates":[[139.361319,-35.687009],[139.366234,-35.686375],[139.366737,-35.686306],[139.3668,-35.686297],[139.367178,-35.68627],[139.371807,-35.68597],[139.372148,-35.685956],[139.372513,-35.685966],[139.373518,-35.686033],[139.373909,-35.686036],[139.374167,-35.686021],[139.37445,-35.68599],[139.374732,-35.685943],[139.374999,-35.685878],[139.375281,-35.685792],[139.375704,-35.685637],[139.376204,-35.685472],[139.376404,-35.685413],[139.376665,-35.685353],[139.376991,-35.685308],[139.377353,-35.685284],[139.377661,-35.685296],[139.378075,-35.685334],[139.378466,-35.68541],[139.379803,-35.685671],[139.380138,-35.685754],[139.380426,-35.685842],[139.380717,-35.685964],[139.382462,-35.68673],[139.384725,-35.687728],[139.384922,-35.687797],[139.385177,-35.687883],[139.385506,-35.687981],[139.386793,-35.688303],[139.390748,-35.689286],[139.392908,-35.689821],[139.393193,-35.68987],[139.393465,-35.689898],[139.393784,-35.689918],[139.397605,-35.689949],[139.403593,-35.690001],[139.406412,-35.690025],[139.406761,-35.690015],[139.407075,-35.68998],[139.407277,-35.68995],[139.407436,-35.689925],[139.407712,-35.689874],[139.408081,-35.68978],[139.40851,-35.689642],[139.4091,-35.689449],[139.414972,-35.687486],[139.416739,-35.686881],[139.417636,-35.686664],[139.418318,-35.68661],[139.419363,-35.686631],[139.425213,-35.686892],[139.425828,-35.68699],[139.426592,-35.687186],[139.430675,-35.688153],[139.434902,-35.689219],[139.435786,-35.689357],[139.436301,-35.689427],[139.438006,-35.689668],[139.444691,-35.690611],[139.445157,-35.690676],[139.446154,-35.690817],[139.450919,-35.691483],[139.460166,-35.692774],[139.468781,-35.693963],[139.471067,-35.69428],[139.473408,-35.694604],[139.474117,-35.694713],[139.474479,-35.694751],[139.474874,-35.694761],[139.475476,-35.694756],[139.481561,-35.694696],[139.488562,-35.69462],[139.489218,-35.69462],[139.489666,-35.694626],[139.490215,-35.694685],[139.496306,-35.69524],[139.497243,-35.69531],[139.497625,-35.695349],[139.498033,-35.695354],[139.499813,-35.695349],[139.50002,-35.695348]]}},{"type":"Feature","properties":{"tier":"arterial"},"geometry":{"type":"LineString","coordinates":[[139.481545,-35.929444],[139.482162,-35.930136],[139.482546,-35.93054],[139.482867,-35.930858],[139.483281,-35.931217],[139.483674,-35.931562],[139.484547,-35.932308],[139.48518,-35.932863],[139.487319,-35.93472],[139.488582,-35.935821],[139.48945,-35.936577],[139.490233,-35.937262],[139.490655,-35.937626],[139.491184,-35.938082],[139.49312,-35.939765],[139.494516,-35.940984],[139.494865,-35.94129],[139.495036,-35.941448],[139.49517,-35.941592],[139.495324,-35.94177],[139.495446,-35.941914],[139.495734,-35.942292],[139.496334,-35.943071],[139.497292,-35.944293],[139.498433,-35.945772],[139.499752,-35.947501],[139.50002,-35.947839]]}},{"type":"Feature","properties":{"tier":"regional"},"geometry":{"type":"LineString","coordinates":[[139.336587,-35.692559],[139.336657,-35.692554],[139.336802,-35.692563],[139.337145,-35.692641],[139.340117,-35.693373],[139.3403,-35.693418],[139.340811,-35.693509],[139.34138,-35.693591]]}},{"type":"Feature","properties":{"tier":"arterial"},"geometry":{"type":"LineString","coordinates":[[139.476021,-35.597463],[139.476469,-35.597441],[139.494916,-35.597422],[139.496664,-35.597434],[139.4999,-35.597486],[139.50002,-35.597485]]}},{"type":"Feature","properties":{"tier":"regional"},"geometry":{"type":"LineString","coordinates":[[139.344723,-35.685353],[139.344604,-35.685589],[139.344196,-35.686401],[139.343962,-35.686866],[139.343526,-35.687695],[139.343242,-35.688277],[139.343137,-35.688376],[139.343079,-35.688492],[139.342522,-35.689503],[139.341666,-35.69117],[139.341409,-35.69175],[139.341376,-35.691865],[139.341336,-35.692025],[139.341296,-35.692325],[139.341297,-35.692462],[139.34138,-35.693591]]}},{"type":"Feature","properties":{"tier":"regional"},"geometry":{"type":"LineString","coordinates":[[139.340238,-35.68382],[139.341403,-35.684213],[139.341568,-35.684268],[139.342212,-35.684491],[139.342746,-35.684675],[139.343886,-35.685067],[139.344723,-35.685353]]}},{"type":"Feature","properties":{"tier":"arterial"},"geometry":{"type":"LineString","coordinates":[[139.338123,-35.68799],[139.339041,-35.688047],[139.33922,-35.688054],[139.339717,-35.688086],[139.341022,-35.688156],[139.342294,-35.688218],[139.343242,-35.688277]]}},{"type":"Feature","properties":{"tier":"regional"},"geometry":{"type":"LineString","coordinates":[[139.185544,-35.513624],[139.185197,-35.513778],[139.184869,-35.513892],[139.184606,-35.513965],[139.184282,-35.514014],[139.184003,-35.513992],[139.183736,-35.513936],[139.182778,-35.513653],[139.182151,-35.51348],[139.181679,-35.513378],[139.181176,-35.513304],[139.180511,-35.513232],[139.178883,-35.512994],[139.17845,-35.512956],[139.177988,-35.512951],[139.176759,-35.512959],[139.173209,-35.513053],[139.172373,-35.513053],[139.172086,-35.51304],[139.171699,-35.513022]]}},{"type":"Feature","properties":{"tier":"regional"},"geometry":{"type":"LineString","coordinates":[[139.171699,-35.513022],[139.171464,-35.512954],[139.171044,-35.512804],[139.170897,-35.512743],[139.169815,-35.512297],[139.167673,-35.511363],[139.164512,-35.510044],[139.16276,-35.509322],[139.162647,-35.509283],[139.162398,-35.509197],[139.162073,-35.509148],[139.15785,-35.508665],[139.154607,-35.508286],[139.152008,-35.508059],[139.151361,-35.508027],[139.150857,-35.508042],[139.150173,-35.508085],[139.149051,-35.508176],[139.148606,-35.508211],[139.146405,-35.508388],[139.145311,-35.508437],[139.144864,-35.508423],[139.144499,-35.508382],[139.142944,-35.508263],[139.140394,-35.507983],[139.136979,-35.507501]]}},{"type":"Feature","properties":{"tier":"arterial"},"geometry":{"type":"LineString","coordinates":[[139.171699,-35.513022],[139.17189,-35.513644],[139.17213,-35.514663],[139.172183,-35.514789],[139.172259,-35.514961],[139.173306,-35.51717],[139.173511,-35.517594],[139.17369,-35.517907],[139.173838,-35.518109],[139.17404,-35.51834],[139.174232,-35.518533],[139.174403,-35.518676],[139.174601,-35.518815],[139.175142,-35.519168],[139.177043,-35.520325],[139.17721,-35.520433],[139.177384,-35.520559],[139.177595,-35.520703],[139.177768,-35.520867],[139.179755,-35.522768],[139.180171,-35.523145],[139.18054,-35.523428],[139.181038,-35.523782],[139.181397,-35.524054],[139.181719,-35.524351],[139.181914,-35.524564],[139.182065,-35.524754],[139.182204,-35.524988],[139.182337,-35.525237],[139.182428,-35.525465],[139.182501,-35.525691],[139.182554,-35.525922],[139.182608,-35.526268],[139.182797,-35.527335],[139.182869,-35.527602],[139.182983,-35.527946],[139.183112,-35.528221],[139.183219,-35.528431],[139.183352,-35.528647],[139.183475,-35.528824],[139.183721,-35.52915],[139.183904,-35.529342],[139.18508,-35.530417],[139.186041,-35.531253],[139.189068,-35.533937],[139.191193,-35.535833],[139.193425,-35.537806],[139.194541,-35.538783],[139.194856,-35.539037],[139.195114,-35.539219],[139.19536,-35.539366],[139.195666,-35.539532],[139.195834,-35.539616],[139.196,-35.539699],[139.196353,-35.539858],[139.196773,-35.540015],[139.197284,-35.540171],[139.199721,-35.540807],[139.203249,-35.541741],[139.20416,-35.541982],[139.207924,-35.542975],[139.208545,-35.543139],[139.210184,-35.543585],[139.210566,-35.543716],[139.2109,-35.543863],[139.211291,-35.544058],[139.211682,-35.544281],[139.211947,-35.544442],[139.212161,-35.544601],[139.212401,-35.544778],[139.212688,-35.545025],[139.21293,-35.545258],[139.213189,-35.545533],[139.213397,-35.545807],[139.213637,-35.546151],[139.213823,-35.546464],[139.213961,-35.546743],[139.214113,-35.547128],[139.214273,-35.547621],[139.214374,-35.548103],[139.214526,-35.548721],[139.215077,-35.55115],[139.215642,-35.553682],[139.215828,-35.554328],[139.215954,-35.554703],[139.216143,-35.555141],[139.216348,-35.555693],[139.216524,-35.556131],[139.216859,-35.55696],[139.217363,-35.558193],[139.218296,-35.560553],[139.218643,-35.561397],[139.218886,-35.56193],[139.219466,-35.563069],[139.22033,-35.564803],[139.220438,-35.565016],[139.221209,-35.566539],[139.222158,-35.568442],[139.222587,-35.569303],[139.22318,-35.570496],[139.22394,-35.572019],[139.224236,-35.57267],[139.224419,-35.57314],[139.224599,-35.573701],[139.224762,-35.574332],[139.224835,-35.574809],[139.224926,-35.575547],[139.224952,-35.576135],[139.224952,-35.576889],[139.224939,-35.578086],[139.224933,-35.580532],[139.224923,-35.582976],[139.224904,-35.585355],[139.224895,-35.588609],[139.224885,-35.591121],[139.224888,-35.593618],[139.224885,-35.594054],[139.224873,-35.5961],[139.224863,-35.597701],[139.224826,-35.598089],[139.224775,-35.598356],[139.224721,-35.598563],[139.224643,-35.598845],[139.224532,-35.599143],[139.224387,-35.599479],[139.224167,-35.599886],[139.223962,-35.600201],[139.223722,-35.600524],[139.223457,-35.600817],[139.22317,-35.601081],[139.222899,-35.601317],[139.22266,-35.601511],[139.221487,-35.602365],[139.218652,-35.60447],[139.215421,-35.606876],[139.214185,-35.607771],[139.213791,-35.608027],[139.213359,-35.608263],[139.212949,-35.608453],[139.212533,-35.608622],[139.212082,-35.608768],[139.21166,-35.608871],[139.211159,-35.60896],[139.210367,-35.609073],[139.206928,-35.609545],[139.204904,-35.609814],[139.204497,-35.609898],[139.204166,-35.60998],[139.203866,-35.610078],[139.203488,-35.610224],[139.203173,-35.610352],[139.202842,-35.610501],[139.202501,-35.610693],[139.202205,-35.61087],[139.201918,-35.61106],[139.201574,-35.611329],[139.201262,-35.611623],[139.200966,-35.611923],[139.200717,-35.612223],[139.200436,-35.61262],[139.200234,-35.612954],[139.200033,-35.613361],[139.199926,-35.613646],[139.199806,-35.614046],[139.199702,-35.614468],[139.19967,-35.614832],[139.199658,-35.615235],[139.199648,-35.616995],[139.199626,-35.619461],[139.199591,-35.62197],[139.199589,-35.62217],[139.199588,-35.62223],[139.199582,-35.622754],[139.199572,-35.623026],[139.199547,-35.623323],[139.199478,-35.623666],[139.199377,-35.624043],[139.199244,-35.624415],[139.199065,-35.624812],[139.19885,-35.625166],[139.198668,-35.62545],[139.198355,-35.625834],[139.197968,-35.626298],[139.196704,-35.627774],[139.194531,-35.63028],[139.192394,-35.632756],[139.192006,-35.633255],[139.191867,-35.63346],[139.191725,-35.633686],[139.191498,-35.634109],[139.191186,-35.634693],[139.190004,-35.636874],[139.189039,-35.638634],[139.188882,-35.638957],[139.188721,-35.639325],[139.188642,-35.639541],[139.188538,-35.639892],[139.188481,-35.640174],[139.188437,-35.640563],[139.188429,-35.640704],[139.188415,-35.640952],[139.188437,-35.641337],[139.188491,-35.641708],[139.188551,-35.641998],[139.188648,-35.642364],[139.188781,-35.642708],[139.188891,-35.642964],[139.189042,-35.643243],[139.189235,-35.643566],[139.189601,-35.644204],[139.190931,-35.646548],[139.192293,-35.648933],[139.192551,-35.649402],[139.192804,-35.649761],[139.193535,-35.650765],[139.193948,-35.651321],[139.195676,-35.653683],[139.197287,-35.655886],[139.199071,-35.658345],[139.200629,-35.660474],[139.200724,-35.660628],[139.200802,-35.660753],[139.20095,-35.661058],[139.201089,-35.661329],[139.2016,-35.662564],[139.202545,-35.664785],[139.202965,-35.665781],[139.203513,-35.66709],[139.203715,-35.667477],[139.203882,-35.667776],[139.204131,-35.668171],[139.204446,-35.668524],[139.204863,-35.668975],[139.206877,-35.671198],[139.208967,-35.673536],[139.210862,-35.675583],[139.212949,-35.677788],[139.214737,-35.679665],[139.216773,-35.681813],[139.217738,-35.682835],[139.218498,-35.68369],[139.219327,-35.684705],[139.219822,-35.685227],[139.220182,-35.685555],[139.220598,-35.685895],[139.220858,-35.686072],[139.22102,-35.686182],[139.221745,-35.686615],[139.222679,-35.687153],[139.223101,-35.687437],[139.22346,-35.687708],[139.223839,-35.688036],[139.224157,-35.688338],[139.224479,-35.688661],[139.224999,-35.689201],[139.226698,-35.690953],[139.227313,-35.691593],[139.227641,-35.691882],[139.228492,-35.692581],[139.22917,-35.693129],[139.230794,-35.694463],[139.231197,-35.694801],[139.231389,-35.69498],[139.231607,-35.695203],[139.231787,-35.6954],[139.231995,-35.695666],[139.232301,-35.696073],[139.232673,-35.696575],[139.234107,-35.698508],[139.235705,-35.700662],[139.237197,-35.702653],[139.238313,-35.704156],[139.239134,-35.705249],[139.23981,-35.70615],[139.241538,-35.708498],[139.243351,-35.710915],[139.24389,-35.711639],[139.244189,-35.712044],[139.244353,-35.712302],[139.244502,-35.712571],[139.244609,-35.712827],[139.244725,-35.713129],[139.244823,-35.713418],[139.245214,-35.714982],[139.245605,-35.716467],[139.245813,-35.717235],[139.245961,-35.717626],[139.246113,-35.717949],[139.246349,-35.718348],[139.246614,-35.718712],[139.246835,-35.719014],[139.247143,-35.719352],[139.247629,-35.719902],[139.248222,-35.720606],[139.248471,-35.720875],[139.250946,-35.723745],[139.253159,-35.726303],[139.255382,-35.728866],[139.25681,-35.730517],[139.257042,-35.730799],[139.257235,-35.731066],[139.257402,-35.731369],[139.257512,-35.731581],[139.257605,-35.731803],[139.257699,-35.732075],[139.25776,-35.732306],[139.257882,-35.732855],[139.257971,-35.733162],[139.258104,-35.733474],[139.258233,-35.7337],[139.258416,-35.733986],[139.258547,-35.734158],[139.258833,-35.734439],[139.259105,-35.734666],[139.259373,-35.734848],[139.259719,-35.73501],[139.260015,-35.735143],[139.260276,-35.735245],[139.260598,-35.735339],[139.262412,-35.735713],[139.264059,-35.736038],[139.264519,-35.736095],[139.264789,-35.736112],[139.265006,-35.736126],[139.265418,-35.736116],[139.265866,-35.736077],[139.266259,-35.736022],[139.266399,-35.735991],[139.266717,-35.73592],[139.2672,-35.735779],[139.267628,-35.735609],[139.268063,-35.735394],[139.268637,-35.735109],[139.271949,-35.733383],[139.272352,-35.733163],[139.272593,-35.733007],[139.272683,-35.732943],[139.272822,-35.732844],[139.273131,-35.732606],[139.27347,-35.732295],[139.273727,-35.732034],[139.274017,-35.731696],[139.274204,-35.731432],[139.274381,-35.731139],[139.274559,-35.73082],[139.274707,-35.730509],[139.275267,-35.729374],[139.275448,-35.728992],[139.275577,-35.728636],[139.275657,-35.728349],[139.275709,-35.728087],[139.275718,-35.728021],[139.275741,-35.727849],[139.275754,-35.727629],[139.275754,-35.727412],[139.275747,-35.727156],[139.275693,-35.726368],[139.275683,-35.726049],[139.275696,-35.725717],[139.275744,-35.725383],[139.275797,-35.725034],[139.275886,-35.724785],[139.276011,-35.724452],[139.276169,-35.724146],[139.276298,-35.723929],[139.276655,-35.723428],[139.277102,-35.722837],[139.2779,-35.721804],[139.279056,-35.720292],[139.279607,-35.719535],[139.279825,-35.719291],[139.279887,-35.719231],[139.28009,-35.71904],[139.280367,-35.718784],[139.280736,-35.718477],[139.281256,-35.71804],[139.283451,-35.716162],[139.283986,-35.715691],[139.284266,-35.715392],[139.284727,-35.71489],[139.285144,-35.714438],[139.285568,-35.713981],[139.287823,-35.711582],[139.28907,-35.710247],[139.289315,-35.710004],[139.289563,-35.709782],[139.289804,-35.709591],[139.290081,-35.709408],[139.290391,-35.709227],[139.290755,-35.70906],[139.291145,-35.708874],[139.293058,-35.708025],[139.293554,-35.707804],[139.293912,-35.707621],[139.294315,-35.70737],[139.294565,-35.707181],[139.294627,-35.707134],[139.294911,-35.706873],[139.295204,-35.706577],[139.295455,-35.706276],[139.295791,-35.705837],[139.296821,-35.704531],[139.297131,-35.704162],[139.297372,-35.703927],[139.297669,-35.703686],[139.297907,-35.703519],[139.298332,-35.703231],[139.30071,-35.701684],[139.303558,-35.699835],[139.303785,-35.699686],[139.306416,-35.697951],[139.307102,-35.697519],[139.30747,-35.69731],[139.30785,-35.697132],[139.308118,-35.697029],[139.308478,-35.696891],[139.310785,-35.69597],[139.313398,-35.694942],[139.314016,-35.694741],[139.314628,-35.694594],[139.315099,-35.694523],[139.31566,-35.694474],[139.316391,-35.694466],[139.318092,-35.694502],[139.318859,-35.694487],[139.3193,-35.694453],[139.319661,-35.6944],[139.320089,-35.694322],[139.320583,-35.694201],[139.32105,-35.69405],[139.324916,-35.692796],[139.32548,-35.69261],[139.327477,-35.691951],[139.32786,-35.691818],[139.328242,-35.691684],[139.328852,-35.691418],[139.329499,-35.691055],[139.330086,-35.690683],[139.33078,-35.690252],[139.331176,-35.69],[139.331591,-35.689823],[139.332297,-35.689601],[139.332809,-35.689457],[139.334173,-35.68913],[139.335065,-35.688903],[139.335907,-35.688658],[139.336696,-35.688434],[139.337335,-35.688254],[139.337528,-35.688189],[139.337856,-35.688089],[139.337944,-35.68807],[139.338096,-35.688038]]}},{"type":"Feature","properties":{"tier":"regional"},"geometry":{"type":"LineString","coordinates":[[139.369695,-35.500806],[139.369537,-35.500723],[139.3693,-35.500629],[139.36736,-35.49998]]}},{"type":"Feature","properties":{"tier":"regional"},"geometry":{"type":"LineString","coordinates":[[139.229005,-35.49998],[139.227972,-35.500211],[139.227677,-35.500261],[139.227362,-35.500296],[139.227017,-35.500323],[139.225543,-35.500329],[139.224226,-35.5004],[139.22382,-35.500443],[139.223445,-35.500501],[139.222953,-35.500607],[139.221201,-35.500956],[139.220859,-35.501035],[139.220685,-35.501092],[139.220296,-35.501207],[139.220088,-35.501292],[139.219345,-35.50166],[139.218765,-35.502039],[139.217277,-35.503075],[139.215431,-35.504278],[139.213595,-35.505484]]}},{"type":"Feature","properties":{"tier":"regional"},"geometry":{"type":"LineString","coordinates":[[139.213595,-35.505484],[139.213079,-35.505822],[139.212604,-35.506081],[139.212218,-35.506242],[139.211786,-35.5064],[139.21129,-35.506555],[139.210898,-35.506618],[139.21048,-35.506676],[139.209991,-35.506716],[139.209588,-35.506716],[139.2092,-35.506703],[139.208627,-35.506692],[139.208201,-35.506689],[139.20787,-35.506719],[139.207578,-35.506757],[139.207156,-35.506812],[139.205035,-35.507123],[139.197062,-35.508255],[139.19663,-35.508336],[139.196043,-35.508484],[139.195614,-35.508634],[139.195175,-35.508811],[139.194763,-35.509018],[139.194355,-35.509288],[139.19409,-35.509468],[139.191591,-35.511143],[139.191051,-35.51147],[139.190696,-35.511672],[139.190408,-35.511786]]}},{"type":"Feature","properties":{"tier":"arterial"},"geometry":{"type":"LineString","coordinates":[[139.337202,-35.694672],[139.337386,-35.695255],[139.337715,-35.696433],[139.338099,-35.697827],[139.338217,-35.69824],[139.338311,-35.698514],[139.338413,-35.698769],[139.338535,-35.699011],[139.338652,-35.699224],[139.33872,-35.699337]]}},{"type":"Feature","properties":{"tier":"arterial"},"geometry":{"type":"LineString","coordinates":[[139.336609,-35.692641],[139.336865,-35.693612]]}},{"type":"Feature","properties":{"tier":"arterial"},"geometry":{"type":"LineString","coordinates":[[139.336865,-35.693612],[139.337202,-35.694672]]}},{"type":"Feature","properties":{"tier":"arterial"},"geometry":{"type":"LineString","coordinates":[[139.339377,-35.700234],[139.340221,-35.701212],[139.340927,-35.701982],[139.341686,-35.702827],[139.342145,-35.70333],[139.342683,-35.703935],[139.343128,-35.704435],[139.343489,-35.704845],[139.343677,-35.7051],[139.343869,-35.70538],[139.34401,-35.705612],[139.344132,-35.705838],[139.344218,-35.706036],[139.344324,-35.706297],[139.344394,-35.706494],[139.344411,-35.706555],[139.344469,-35.706761],[139.344512,-35.706962],[139.344559,-35.707172],[139.344583,-35.707404],[139.344602,-35.707681],[139.344614,-35.70799],[139.344612,-35.708038],[139.344606,-35.708175],[139.344575,-35.708407],[139.344536,-35.708738],[139.344441,-35.709325],[139.344245,-35.710536],[139.344151,-35.711131],[139.344089,-35.71159],[139.343959,-35.712675],[139.343908,-35.71312],[139.343822,-35.713856],[139.343771,-35.714209],[139.343712,-35.714498],[139.343677,-35.714636],[139.343654,-35.714724],[139.34354,-35.715049],[139.34343,-35.715329],[139.343313,-35.715558],[139.343172,-35.715829],[139.343015,-35.71608],[139.342893,-35.716248],[139.342823,-35.716344],[139.342638,-35.716567],[139.34236,-35.716876],[139.341365,-35.71791],[139.341157,-35.718111],[139.340918,-35.718305],[139.340698,-35.718483],[139.340518,-35.718613],[139.338502,-35.720116],[139.337572,-35.720802],[139.337333,-35.720993],[139.337138,-35.721161],[139.336898,-35.721398],[139.336728,-35.721573],[139.336545,-35.721793],[139.336407,-35.721968],[139.336278,-35.722145],[139.335677,-35.722953],[139.334288,-35.724809],[139.33389,-35.725346],[139.333716,-35.725573],[139.333566,-35.725787],[139.333375,-35.726094],[139.333265,-35.726275],[139.333148,-35.726483],[139.333018,-35.726733],[139.332916,-35.726951],[139.332815,-35.727191],[139.332738,-35.727382],[139.332657,-35.727606],[139.332575,-35.72785],[139.332515,-35.728087],[139.332429,-35.728443],[139.332377,-35.728746],[139.332336,-35.729036],[139.332308,-35.729372],[139.332295,-35.729686],[139.332303,-35.729999],[139.332328,-35.730368],[139.332356,-35.730658],[139.332397,-35.730918],[139.332433,-35.731139],[139.332494,-35.731409],[139.33277,-35.732519],[139.333245,-35.734503],[139.3337,-35.736368],[139.334215,-35.738542],[139.334576,-35.739995],[139.33465,-35.740367],[139.334714,-35.74068],[139.334739,-35.740931],[139.334751,-35.741129],[139.334751,-35.741376],[139.334735,-35.741754],[139.334694,-35.742061],[139.334585,-35.742782],[139.334313,-35.744545],[139.334195,-35.745257],[139.334162,-35.745576],[139.33415,-35.745833],[139.334146,-35.746123],[139.334171,-35.746396],[139.334193,-35.746655],[139.334252,-35.747276],[139.334386,-35.748696],[139.334459,-35.749427],[139.334552,-35.750465],[139.334576,-35.750722],[139.334613,-35.750913],[139.334698,-35.751249],[139.334922,-35.752099],[139.335445,-35.754039],[139.335742,-35.755159],[139.335819,-35.755423],[139.335928,-35.755699],[139.336095,-35.756081],[139.33648,-35.756845],[139.337434,-35.758753],[139.337767,-35.759448],[139.337856,-35.759675],[139.337917,-35.759876],[139.337974,-35.760054],[139.338019,-35.760219],[139.338046,-35.760342],[139.338088,-35.760568],[139.338112,-35.760772],[139.338136,-35.761019],[139.338144,-35.761286],[139.338136,-35.761622],[139.338108,-35.761885],[139.338081,-35.762119],[139.338031,-35.762406],[139.337959,-35.762675],[139.337933,-35.762779],[139.337757,-35.763267],[139.337519,-35.763937],[139.336878,-35.765722],[139.336484,-35.766835],[139.336342,-35.767267],[139.335798,-35.768937],[139.335128,-35.770985]]}},{"type":"Feature","properties":{"tier":"arterial"},"geometry":{"type":"LineString","coordinates":[[139.33872,-35.699337],[139.338874,-35.69961],[139.339041,-35.699833],[139.3392,-35.700039],[139.339377,-35.700234]]}},{"type":"Feature","properties":{"tier":"arterial"},"geometry":{"type":"LineString","coordinates":[[139.343242,-35.688277],[139.343457,-35.688292],[139.344861,-35.688374],[139.34794,-35.688567],[139.348961,-35.688569],[139.349144,-35.688558],[139.349459,-35.688545],[139.349746,-35.688518],[139.350054,-35.688479],[139.350193,-35.688462],[139.352381,-35.688187],[139.357309,-35.687543],[139.361319,-35.687009]]}},{"type":"Feature","properties":{"tier":"arterial"},"geometry":{"type":"LineString","coordinates":[[139.3973,-35.636142],[139.40363,-35.633948],[139.407656,-35.632554],[139.412601,-35.630708],[139.412797,-35.630634],[139.413373,-35.630416],[139.415045,-35.629816],[139.415539,-35.629644],[139.416082,-35.629505],[139.416871,-35.629376],[139.417111,-35.629357],[139.417905,-35.629261],[139.419386,-35.629089],[139.420817,-35.628918],[139.423157,-35.628603],[139.423795,-35.628497],[139.424358,-35.628344],[139.425014,-35.628085],[139.431263,-35.625241],[139.433479,-35.624417],[139.435077,-35.623564],[139.436511,-35.622801],[139.437465,-35.62238],[139.438375,-35.621983],[139.439075,-35.621675],[139.439135,-35.621648],[139.440138,-35.621227],[139.441039,-35.62061],[139.441912,-35.620015],[139.44255,-35.619496],[139.443131,-35.618954],[139.443816,-35.618451],[139.44468,-35.617932],[139.447138,-35.616407],[139.447738,-35.616086],[139.44878,-35.615644],[139.449615,-35.615141],[139.450619,-35.614325],[139.45562,-35.60974],[139.456952,-35.608558],[139.45774,-35.608001],[139.458885,-35.607238],[139.46079,-35.606002],[139.461278,-35.605644],[139.464881,-35.602584],[139.465415,-35.602127],[139.465819,-35.601883],[139.466307,-35.601684],[139.469591,-35.600304],[139.474817,-35.597862],[139.475558,-35.597557],[139.476021,-35.597463]]}},{"type":"Feature","properties":{"tier":"arterial"},"geometry":{"type":"LineString","coordinates":[[139.343527,-35.6758],[139.344144,-35.6758],[139.346961,-35.675782],[139.349773,-35.675802],[139.350226,-35.67579],[139.350494,-35.67577],[139.351081,-35.675699],[139.351551,-35.675643],[139.353766,-35.675286],[139.357548,-35.674694],[139.358133,-35.674603],[139.358534,-35.67454],[139.3593,-35.674462],[139.360339,-35.67439],[139.361707,-35.674328],[139.362103,-35.674294],[139.362617,-35.674236],[139.363021,-35.674168],[139.363425,-35.674086],[139.363803,-35.67399],[139.364085,-35.673904],[139.364401,-35.673805],[139.36473,-35.673682],[139.36515,-35.673518],[139.365542,-35.673337],[139.365895,-35.673149],[139.367427,-35.672243],[139.371308,-35.669914],[139.375164,-35.667602],[139.375597,-35.667319],[139.37598,-35.667052],[139.376342,-35.666765],[139.376599,-35.666542],[139.376805,-35.66632],[139.377007,-35.666098],[139.377172,-35.665882],[139.377378,-35.665578],[139.377521,-35.665349],[139.377673,-35.665096],[139.377799,-35.664839],[139.377883,-35.6646],[139.377971,-35.66435],[139.378051,-35.66406],[139.378106,-35.66379],[139.378148,-35.663458],[139.378354,-35.66158],[139.378624,-35.658516],[139.378721,-35.657603],[139.378775,-35.657223],[139.378834,-35.656957],[139.378897,-35.656721],[139.378965,-35.656519],[139.379065,-35.656262],[139.379083,-35.656218],[139.379276,-35.655821],[139.379516,-35.655425],[139.380494,-35.653868],[139.381815,-35.651789],[139.38203,-35.651408],[139.382275,-35.650936],[139.383328,-35.648819],[139.383991,-35.647486],[139.385253,-35.644916],[139.385867,-35.643591],[139.386022,-35.643161],[139.386262,-35.64248],[139.386725,-35.640859],[139.386824,-35.6406],[139.386968,-35.64033],[139.387183,-35.640034],[139.387224,-35.639993],[139.38743,-35.639786],[139.387727,-35.63957],[139.388055,-35.639381],[139.388383,-35.639256],[139.390629,-35.638512],[139.3973,-35.636142]]}},{"type":"Feature","properties":{"tier":"arterial"},"geometry":{"type":"LineString","coordinates":[[139.384856,-35.841814],[139.38525,-35.842149],[139.385928,-35.842729],[139.386098,-35.842903],[139.386245,-35.843044],[139.386403,-35.843216],[139.386525,-35.843354],[139.386654,-35.843528],[139.386817,-35.843749],[139.386951,-35.843943],[139.387052,-35.844107],[139.388197,-35.845769],[139.388404,-35.846121],[139.388509,-35.846308],[139.388603,-35.846532],[139.388684,-35.846723],[139.388749,-35.846897],[139.388798,-35.847059],[139.38885,-35.847266],[139.388903,-35.847496],[139.38894,-35.847713],[139.388972,-35.848],[139.388984,-35.848296],[139.389038,-35.849032],[139.389114,-35.850349],[139.389187,-35.851619],[139.38922,-35.851931],[139.38926,-35.852139],[139.389333,-35.852398],[139.389487,-35.852958]]}},{"type":"Feature","properties":{"tier":"arterial"},"geometry":{"type":"LineString","coordinates":[[139.365765,-35.805913],[139.366286,-35.806491],[139.366456,-35.806714],[139.366694,-35.807049],[139.366899,-35.807333],[139.367297,-35.807935],[139.367792,-35.808672],[139.368656,-35.809936],[139.369221,-35.810786],[139.36983,-35.811687],[139.370061,-35.81203],[139.370321,-35.812402],[139.37052,-35.812708],[139.370654,-35.812889],[139.370788,-35.81306],[139.370966,-35.813254],[139.371104,-35.813396],[139.371291,-35.81358],[139.371474,-35.813758],[139.373199,-35.815298],[139.373432,-35.81552],[139.37356,-35.815641],[139.373779,-35.815858],[139.373921,-35.816013],[139.374067,-35.81619],[139.374213,-35.816371],[139.374384,-35.816589],[139.375188,-35.817616],[139.375995,-35.818636],[139.377323,-35.820318],[139.378053,-35.821239],[139.378208,-35.821453],[139.378313,-35.821618],[139.378419,-35.821792],[139.378528,-35.82198],[139.378617,-35.822154],[139.378678,-35.822312],[139.378764,-35.82252],[139.378857,-35.822796],[139.379299,-35.824172],[139.379985,-35.826278],[139.380671,-35.828384],[139.381309,-35.830359],[139.381804,-35.831866],[139.382088,-35.832656],[139.382319,-35.833317],[139.382461,-35.833739],[139.382526,-35.834015],[139.382587,-35.834249],[139.382624,-35.834509],[139.382648,-35.834864],[139.382671,-35.835511]]}},{"type":"Feature","properties":{"tier":"arterial"},"geometry":{"type":"LineString","coordinates":[[139.335128,-35.770985],[139.334962,-35.771506],[139.334824,-35.77194],[139.334768,-35.772126],[139.334702,-35.772408],[139.33465,-35.772655],[139.334629,-35.772849],[139.334605,-35.773133],[139.334597,-35.773366],[139.334605,-35.773541],[139.334625,-35.773847],[139.334674,-35.77418],[139.334731,-35.774496],[139.334816,-35.774904],[139.334885,-35.775211],[139.334966,-35.775471],[139.335046,-35.775677],[139.335125,-35.775856],[139.335208,-35.776066],[139.335257,-35.776167],[139.3354,-35.776452],[139.335827,-35.777275],[139.336034,-35.777657],[139.336302,-35.778092],[139.337032,-35.779175],[139.338209,-35.78095],[139.338883,-35.781991],[139.339443,-35.782844],[139.340194,-35.784],[139.340776,-35.784904],[139.340933,-35.785142],[139.341366,-35.785796],[139.341708,-35.786285],[139.342187,-35.787029],[139.342589,-35.787635],[139.34291,-35.78805],[139.343145,-35.78831],[139.343291,-35.788455],[139.343462,-35.788616],[139.343709,-35.788823],[139.343961,-35.789021],[139.344144,-35.789143],[139.344424,-35.789324],[139.347366,-35.791269],[139.34774,-35.791507],[139.347975,-35.791681],[139.348272,-35.791922],[139.349985,-35.793394],[139.351745,-35.794915],[139.352181,-35.7953],[139.354413,-35.797222],[139.355655,-35.798299],[139.355923,-35.798513],[139.356155,-35.798691],[139.356467,-35.798908],[139.356727,-35.799073],[139.357096,-35.799303],[139.357543,-35.79955],[139.357957,-35.799748],[139.359292,-35.80039],[139.360802,-35.801124],[139.361131,-35.801292],[139.361326,-35.801397],[139.361565,-35.801545],[139.361882,-35.801759],[139.362028,-35.80187],[139.362227,-35.802029],[139.362405,-35.802207],[139.362677,-35.802477],[139.363234,-35.803076],[139.364163,-35.804116],[139.365296,-35.805354],[139.365765,-35.805913]]}},{"type":"Feature","properties":{"tier":"arterial"},"geometry":{"type":"LineString","coordinates":[[139.389487,-35.852958],[139.389565,-35.853241],[139.390101,-35.855132],[139.390539,-35.856649],[139.390848,-35.857738],[139.39092,-35.857939],[139.390965,-35.858116],[139.391018,-35.858258],[139.391128,-35.858485],[139.391221,-35.858662],[139.391306,-35.85882],[139.391444,-35.859047],[139.391842,-35.859758],[139.392146,-35.860291],[139.392414,-35.860758],[139.392625,-35.861103],[139.392853,-35.861449],[139.393068,-35.861761],[139.393673,-35.862646],[139.393928,-35.863054],[139.394103,-35.863367],[139.394233,-35.863617],[139.394407,-35.863936],[139.394606,-35.864327],[139.394903,-35.864867],[139.395028,-35.865051],[139.395174,-35.865251],[139.3953,-35.865396],[139.395487,-35.865594],[139.395653,-35.865748],[139.395864,-35.865916],[139.396088,-35.866077],[139.39638,-35.866255],[139.396532,-35.86634],[139.398065,-35.867136],[139.400041,-35.868173],[139.400585,-35.868432],[139.40089,-35.868554],[139.401101,-35.868617],[139.401433,-35.868718],[139.401701,-35.868784],[139.402042,-35.86883],[139.402627,-35.868922],[139.403106,-35.868985],[139.403463,-35.869064],[139.403881,-35.869176],[139.404157,-35.869261],[139.404636,-35.869436],[139.407869,-35.870666],[139.409324,-35.871209],[139.409921,-35.871426],[139.410282,-35.87155],[139.410587,-35.871636],[139.410907,-35.871705],[139.411269,-35.871768],[139.41189,-35.871856],[139.412503,-35.871939],[139.412945,-35.871998],[139.413481,-35.872077],[139.413728,-35.872126],[139.41398,-35.872192],[139.414256,-35.872277],[139.414517,-35.872382],[139.41473,-35.872475],[139.414931,-35.872587],[139.415163,-35.872729],[139.415347,-35.872859],[139.415556,-35.873024],[139.415731,-35.873175],[139.415866,-35.873322],[139.416082,-35.873557],[139.41696,-35.874608],[139.417629,-35.875402],[139.41867,-35.87661],[139.419442,-35.877511],[139.419673,-35.877778],[139.419888,-35.877992],[139.420193,-35.878248],[139.420477,-35.878475],[139.420741,-35.878663],[139.421037,-35.87885],[139.421252,-35.878975],[139.42152,-35.879103],[139.421808,-35.879232],[139.422088,-35.87936],[139.422531,-35.879521],[139.42536,-35.880478],[139.42575,-35.88062],[139.425973,-35.880715],[139.426229,-35.880833],[139.426492,-35.880961],[139.426805,-35.881139],[139.427065,-35.881297],[139.427267,-35.881432],[139.427483,-35.881596],[139.427735,-35.881807],[139.427945,-35.882001],[139.428165,-35.882215],[139.428351,-35.882412],[139.428498,-35.882609],[139.428752,-35.882913],[139.429143,-35.883451],[139.42991,-35.88449],[139.430418,-35.885174],[139.430572,-35.885428],[139.430665,-35.885632],[139.43073,-35.885809],[139.430803,-35.886062],[139.430852,-35.886319],[139.430868,-35.886533],[139.43088,-35.886819],[139.43089,-35.887621],[139.430909,-35.888253],[139.430919,-35.888453],[139.43095,-35.888662],[139.430974,-35.888774],[139.431014,-35.888927],[139.431146,-35.889283],[139.431275,-35.889535],[139.431452,-35.889809],[139.431549,-35.889935],[139.431697,-35.890107],[139.431905,-35.890314],[139.432074,-35.890459],[139.432228,-35.890577],[139.432383,-35.890683],[139.432414,-35.890705],[139.432704,-35.89088],[139.433005,-35.891026],[139.436459,-35.892496],[139.437165,-35.892805],[139.437478,-35.89296],[139.43788,-35.893187],[139.438107,-35.893341],[139.438351,-35.893529],[139.438578,-35.893716],[139.439807,-35.894776],[139.440327,-35.895242],[139.441045,-35.895865],[139.441383,-35.896159],[139.442734,-35.897321],[139.443449,-35.897941],[139.445162,-35.899421],[139.44599,-35.900154],[139.446729,-35.900789],[139.447049,-35.901065],[139.447248,-35.901249],[139.447443,-35.90146],[139.44778,-35.901874],[139.447914,-35.902084],[139.448214,-35.90262],[139.448791,-35.90366],[139.448831,-35.903732],[139.448998,-35.903972],[139.44916,-35.904185],[139.449322,-35.904356],[139.449464,-35.904504],[139.449574,-35.904609],[139.449724,-35.904747],[139.450938,-35.905783],[139.45287,-35.907384],[139.454201,-35.908489],[139.454408,-35.908657],[139.454656,-35.908834],[139.454875,-35.908972],[139.455062,-35.909081],[139.455253,-35.909179],[139.455476,-35.909288],[139.455732,-35.909393],[139.456006,-35.909486],[139.456029,-35.909495],[139.456338,-35.909586],[139.456551,-35.90965],[139.456585,-35.90966],[139.457095,-35.909817],[139.458995,-35.910389],[139.459226,-35.910468],[139.459381,-35.910531],[139.459531,-35.9106],[139.459673,-35.910672],[139.459823,-35.910774],[139.460002,-35.910912],[139.460598,-35.911412],[139.460988,-35.91176],[139.461118,-35.911856],[139.461244,-35.911947],[139.461366,-35.912026],[139.46152,-35.912102],[139.461739,-35.912207],[139.463468,-35.913032],[139.464195,-35.913378],[139.464467,-35.913516],[139.46469,-35.913647],[139.464929,-35.913828],[139.465063,-35.913959],[139.465238,-35.91414],[139.465413,-35.914338],[139.466362,-35.91558],[139.466667,-35.915935],[139.466858,-35.916142],[139.467024,-35.91629],[139.468156,-35.91723],[139.469812,-35.918568],[139.471375,-35.919831],[139.473267,-35.921362],[139.475142,-35.922901],[139.476303,-35.92388],[139.47718,-35.92463],[139.477505,-35.924922],[139.477793,-35.925235],[139.478617,-35.926139],[139.479433,-35.927079],[139.480857,-35.928669],[139.481545,-35.929444]]}},{"type":"Feature","properties":{"tier":"arterial"},"geometry":{"type":"LineString","coordinates":[[139.382671,-35.835511],[139.382713,-35.83672],[139.382742,-35.837408],[139.382774,-35.837632],[139.382827,-35.837938],[139.382904,-35.838214],[139.382997,-35.838576],[139.383196,-35.839303],[139.383363,-35.839771],[139.383456,-35.839998],[139.383529,-35.840139],[139.383626,-35.840323],[139.383716,-35.840468],[139.383906,-35.840774],[139.384126,-35.841041],[139.384324,-35.841294],[139.384609,-35.841583],[139.384856,-35.841814]]}},{"type":"Feature","properties":{"tier":"regional"},"geometry":{"type":"LineString","coordinates":[[139.136979,-35.507501],[139.136019,-35.507355],[139.134697,-35.507159],[139.133763,-35.507041],[139.133669,-35.507049],[139.132396,-35.506904],[139.132278,-35.506903],[139.132153,-35.506935],[139.132045,-35.506988],[139.131971,-35.507033],[139.131895,-35.507048],[139.1318,-35.507018],[139.131573,-35.506835],[139.131539,-35.506777],[139.131545,-35.506713]]}},{"type":"Feature","properties":{"tier":"regional"},"geometry":{"type":"LineString","coordinates":[[139.131775,-35.506312],[139.131763,-35.506354],[139.131734,-35.506449],[139.131714,-35.506504],[139.131669,-35.506569],[139.131585,-35.506657],[139.131561,-35.506682],[139.131545,-35.506713]]}},{"type":"Feature","properties":{"tier":"arterial"},"geometry":{"type":"LineString","coordinates":[[139.370655,-35.49998],[139.370015,-35.500532],[139.369695,-35.500806],[139.369404,-35.501044],[139.36923,-35.501199],[139.369067,-35.501374],[139.36891,-35.501551],[139.368754,-35.501752],[139.368635,-35.501929],[139.368497,-35.502145],[139.36834,-35.502449],[139.368213,-35.502745],[139.368115,-35.503031],[139.368036,-35.50333],[139.367691,-35.504902],[139.367237,-35.506826],[139.367088,-35.507473],[139.367012,-35.50773],[139.366925,-35.507972],[139.366805,-35.508247],[139.366678,-35.508501],[139.366562,-35.508723],[139.366344,-35.509057],[139.366043,-35.509518],[139.365579,-35.510297],[139.364581,-35.511808],[139.363411,-35.513534],[139.362104,-35.515498],[139.360961,-35.5172],[139.359843,-35.518896],[139.359567,-35.519333],[139.35944,-35.519563],[139.359317,-35.519809],[139.359222,-35.520027],[139.359135,-35.520234],[139.359059,-35.520482],[139.359012,-35.520668],[139.358957,-35.520902],[139.358914,-35.521111],[139.358884,-35.521363],[139.358863,-35.521602],[139.358863,-35.521809],[139.35891,-35.523454],[139.358964,-35.525392],[139.358979,-35.525821],[139.358997,-35.526119],[139.359019,-35.526335],[139.359081,-35.526663],[139.359161,-35.526963],[139.359237,-35.527242],[139.35936,-35.527593],[139.359868,-35.529153],[139.359948,-35.529437],[139.36001,-35.529753],[139.360046,-35.529977],[139.360075,-35.530216],[139.360119,-35.530553],[139.360209,-35.531243],[139.360345,-35.532544],[139.360482,-35.533847],[139.360696,-35.535773],[139.36079,-35.536192],[139.360814,-35.536428],[139.360816,-35.536656],[139.360812,-35.536902],[139.360793,-35.537139],[139.360762,-35.537351],[139.360702,-35.537622],[139.360623,-35.537889],[139.360488,-35.538227],[139.359698,-35.539976],[139.359066,-35.5414],[139.35899,-35.541606],[139.358914,-35.541846],[139.358859,-35.542038],[139.358816,-35.542224],[139.358779,-35.542472],[139.358761,-35.542673],[139.358747,-35.542882],[139.358757,-35.54293],[139.358757,-35.543119],[139.358787,-35.543411],[139.358841,-35.54368],[139.35891,-35.543946],[139.358972,-35.544161],[139.359048,-35.544415],[139.359157,-35.544773],[139.359214,-35.544952],[139.359331,-35.545316],[139.359556,-35.546046],[139.359741,-35.546636],[139.360024,-35.547525],[139.360137,-35.547838],[139.360264,-35.548128],[139.360406,-35.548376],[139.360525,-35.548556],[139.360697,-35.548796],[139.36091,-35.549052],[139.361146,-35.549297],[139.361451,-35.549587],[139.361785,-35.549897],[139.362043,-35.550142],[139.362441,-35.550533],[139.362668,-35.550788],[139.362848,-35.551027],[139.363001,-35.551257],[139.363123,-35.551467],[139.363252,-35.551729],[139.363338,-35.551933],[139.363448,-35.552264],[139.363511,-35.552561],[139.363554,-35.552842],[139.363565,-35.553145],[139.363526,-35.554519],[139.363526,-35.554717],[139.36353,-35.554956],[139.36355,-35.555154],[139.363585,-35.555402],[139.36364,-35.555651],[139.364283,-35.557772],[139.364918,-35.559863],[139.365102,-35.560345],[139.365247,-35.560654],[139.365365,-35.560855],[139.365521,-35.561097],[139.365694,-35.561333],[139.365929,-35.561617],[139.366874,-35.562771],[139.368179,-35.564382],[139.369519,-35.56603],[139.37088,-35.567691],[139.371072,-35.567962],[139.371185,-35.568144],[139.371307,-35.568367],[139.371417,-35.568622],[139.371511,-35.568887],[139.371577,-35.569107],[139.371632,-35.569368],[139.371689,-35.569617],[139.371717,-35.569767],[139.371733,-35.569927],[139.371731,-35.570217],[139.371731,-35.570566],[139.371725,-35.570918],[139.371724,-35.571363],[139.371737,-35.571689],[139.371773,-35.571912],[139.371814,-35.572155],[139.37188,-35.572389],[139.371967,-35.57264],[139.372089,-35.572923],[139.372209,-35.573189],[139.372397,-35.573562],[139.373239,-35.575359],[139.373925,-35.576736],[139.374,-35.576924],[139.374082,-35.577135],[139.374153,-35.577354],[139.374211,-35.577568],[139.374254,-35.577798],[139.374286,-35.578056],[139.374298,-35.578215],[139.374305,-35.578451],[139.37429,-35.578658],[139.374254,-35.578961],[139.374196,-35.579188],[139.374125,-35.579462],[139.374019,-35.579758],[139.373431,-35.581422],[139.372808,-35.583211],[139.372749,-35.583431],[139.372694,-35.583679],[139.372667,-35.583909],[139.372643,-35.584094],[139.372636,-35.584294],[139.372639,-35.584741],[139.372675,-35.58659],[139.37271,-35.588783],[139.37273,-35.59058],[139.372735,-35.5909],[139.372765,-35.592662],[139.372804,-35.594679],[139.372832,-35.595811],[139.372836,-35.596044],[139.372859,-35.59627],[139.372886,-35.596477],[139.372926,-35.596646],[139.372977,-35.596859],[139.373067,-35.597124],[139.373161,-35.597344],[139.37323,-35.597482],[139.373271,-35.597564],[139.373392,-35.597771],[139.373553,-35.598026],[139.373682,-35.598236],[139.373913,-35.59858],[139.374411,-35.599355],[139.375795,-35.601465],[139.376713,-35.602878],[139.376818,-35.603058],[139.376928,-35.603262],[139.377014,-35.603473],[139.377108,-35.603734],[139.377182,-35.603983],[139.377226,-35.604241],[139.377257,-35.604489],[139.377261,-35.604766],[139.377257,-35.60499],[139.377237,-35.605168],[139.377214,-35.605369],[139.377179,-35.60555],[139.377116,-35.605758],[139.377065,-35.60593],[139.376967,-35.606137],[139.3769,-35.60629],[139.376755,-35.606596],[139.376222,-35.607695],[139.375332,-35.609524],[139.374376,-35.611478],[139.374172,-35.611819],[139.374035,-35.612023],[139.373906,-35.612182],[139.373608,-35.612545],[139.37173,-35.614683],[139.370578,-35.616022],[139.370037,-35.616614],[139.369794,-35.616841],[139.369559,-35.617032],[139.369163,-35.617341],[139.367466,-35.618654],[139.366423,-35.61946],[139.366254,-35.619619],[139.366086,-35.619775],[139.365886,-35.619979],[139.365702,-35.62019],[139.365518,-35.620425],[139.365388,-35.620597],[139.365239,-35.620824],[139.364326,-35.622289],[139.363072,-35.62429],[139.361747,-35.626406],[139.360571,-35.628311],[139.35932,-35.630296],[139.358098,-35.632249],[139.356247,-35.635234],[139.354942,-35.637314],[139.354083,-35.638741],[139.353607,-35.639509],[139.352207,-35.641736],[139.350964,-35.643688],[139.350795,-35.644007],[139.350662,-35.644284],[139.35056,-35.644561],[139.350278,-35.645274],[139.350074,-35.645803],[139.349533,-35.647192],[139.349137,-35.648214],[139.348835,-35.648982],[139.348494,-35.649855],[139.348291,-35.650364],[139.347981,-35.651157],[139.347695,-35.651883],[139.346966,-35.65374],[139.346233,-35.655629],[139.346135,-35.655899],[139.346014,-35.656244],[139.345948,-35.656463],[139.345661,-35.657506],[139.345386,-35.658463],[139.344906,-35.660269],[139.344614,-35.66131],[139.34452,-35.661702],[139.344489,-35.661928],[139.344461,-35.662231],[139.344453,-35.662508],[139.34445,-35.662748]]}},{"type":"Feature","properties":{"tier":"arterial"},"geometry":{"type":"LineString","coordinates":[[139.34445,-35.662748],[139.344445,-35.663126],[139.344422,-35.664976],[139.344414,-35.66688],[139.344402,-35.668294],[139.344375,-35.66874],[139.344355,-35.669042],[139.34435,-35.669125],[139.344324,-35.669434],[139.344277,-35.670049],[139.344112,-35.671902]]}},{"type":"Feature","properties":{"tier":"regional"},"geometry":{"type":"LineString","coordinates":[[139.190408,-35.511786],[139.190297,-35.51183],[139.18956,-35.512084],[139.188357,-35.512546],[139.18819,-35.51261],[139.187801,-35.512752]]}},{"type":"Feature","properties":{"tier":"arterial"},"geometry":{"type":"LineString","coordinates":[[139.342141,-35.680676],[139.341862,-35.681123],[139.341568,-35.681597],[139.341282,-35.682078],[139.341077,-35.682416],[139.340827,-35.682818],[139.34069,-35.683055],[139.340518,-35.683348],[139.340279,-35.683743],[139.340238,-35.68382],[139.340059,-35.68416],[139.340003,-35.684249],[139.339781,-35.684682],[139.339443,-35.685323],[139.339256,-35.685695],[139.339114,-35.685979],[139.338758,-35.686691],[139.338481,-35.687246],[139.33837,-35.687468],[139.338167,-35.687877],[139.338123,-35.68799],[139.338096,-35.688038],[139.337902,-35.688419],[139.337747,-35.688724],[139.337646,-35.688913],[139.337312,-35.689581],[139.337091,-35.690022],[139.336955,-35.69025],[139.336896,-35.690394],[139.336806,-35.690648],[139.336686,-35.690997],[139.336555,-35.691377],[139.336469,-35.691654],[139.33645,-35.691771],[139.336437,-35.691893],[139.336437,-35.691957],[139.336465,-35.69211],[139.336501,-35.692245],[139.336587,-35.692559],[139.336609,-35.692641]]}},{"type":"Feature","properties":{"tier":"arterial"},"geometry":{"type":"LineString","coordinates":[[139.343527,-35.6758],[139.343455,-35.676119],[139.343124,-35.677706],[139.34283,-35.679101],[139.34276,-35.679362],[139.342685,-35.679569],[139.342666,-35.679623],[139.342564,-35.679868],[139.342443,-35.680114],[139.342333,-35.680343],[139.342196,-35.680572],[139.342141,-35.680676]]}},{"type":"Feature","properties":{"tier":"arterial"},"geometry":{"type":"LineString","coordinates":[[139.344112,-35.671902],[139.344087,-35.672193],[139.343975,-35.673494],[139.343917,-35.673862],[139.343852,-35.674187],[139.343716,-35.674845],[139.343527,-35.6758]]}}]}
