{"type":"FeatureCollection","features":[{"type":"Feature","properties":{"tier":"arterial"},"geometry":{"type":"LineString","coordinates":[[139.376368,-25.996601],[139.377374,-26.00002]]}},{"type":"Feature","properties":{"tier":"regional"},"geometry":{"type":"LineString","coordinates":[[139.378715,-25.918653],[139.378357,-25.919433],[139.377195,-25.922021],[139.373485,-25.93],[139.370904,-25.935911],[139.367402,-25.943316],[139.364717,-25.9492],[139.363975,-25.951494],[139.363901,-25.953656],[139.364331,-25.955897],[139.365687,-25.961189],[139.367031,-25.966435],[139.368752,-25.973385],[139.370043,-25.97856],[139.371349,-25.983348],[139.372521,-25.985322],[139.374005,-25.988229],[139.37453,-25.990126],[139.375592,-25.993964],[139.376368,-25.996601]]}}]}
