{"type":"FeatureCollection","features":[{"type":"Feature","properties":{"tier":"regional"},"geometry":{"type":"LineString","coordinates":[[139.082303,-33.002627],[139.080938,-33.001996],[139.080613,-33.001839],[139.080316,-33.001705],[139.080242,-33.001618],[139.080203,-33.00154],[139.08017,-33.001315],[139.080144,-33.000467],[139.080144,-33.000044],[139.080136,-32.99998]]}},{"type":"Feature","properties":{"tier":"regional"},"geometry":{"type":"LineString","coordinates":[[138.99998,-33.14074],[139.002704,-33.140762],[139.007224,-33.140799],[139.008803,-33.141025],[139.010099,-33.14159],[139.017447,-33.144952],[139.019326,-33.145506],[139.020362,-33.145547],[139.024647,-33.145147],[139.025271,-33.145226],[139.025677,-33.145398],[139.027108,-33.146668],[139.027484,-33.146918],[139.028381,-33.147195],[139.0293,-33.147108],[139.030349,-33.146869],[139.045375,-33.143782],[139.045907,-33.143593],[139.048045,-33.142389],[139.048575,-33.142126]]}},{"type":"Feature","properties":{"tier":"regional"},"geometry":{"type":"LineString","coordinates":[[139.048575,-33.142126],[139.049487,-33.142285],[139.051813,-33.142692],[139.053215,-33.143135],[139.054977,-33.143636],[139.055351,-33.143714],[139.056005,-33.143715],[139.057048,-33.143611],[139.057552,-33.143609],[139.060054,-33.143908],[139.060651,-33.143942],[139.061333,-33.143836],[139.062989,-33.143515],[139.063283,-33.143515],[139.063591,-33.143572],[139.063996,-33.143696],[139.064824,-33.144084],[139.065249,-33.144371],[139.065456,-33.144494],[139.065801,-33.144602],[139.066232,-33.144661],[139.07199,-33.14533],[139.072078,-33.145345],[139.072224,-33.145369],[139.072418,-33.145419],[139.072639,-33.145497],[139.073073,-33.145696],[139.089492,-33.153299],[139.090105,-33.153489],[139.090374,-33.153558],[139.090552,-33.153603],[139.111505,-33.158223],[139.112002,-33.158424],[139.112396,-33.158638],[139.113213,-33.159152],[139.113782,-33.159385],[139.114263,-33.159524],[139.114891,-33.159566],[139.118078,-33.159225],[139.118679,-33.159213],[139.119541,-33.15931],[139.120365,-33.159452],[139.124836,-33.161107],[139.12538,-33.161261],[139.126159,-33.161402],[139.134951,-33.162624],[139.13762,-33.163028],[139.138012,-33.163162],[139.138385,-33.163377],[139.140516,-33.164701],[139.143822,-33.166756],[139.145047,-33.167657],[139.145205,-33.167766],[139.145517,-33.167968],[139.145978,-33.168162],[139.146902,-33.168498],[139.147592,-33.168692],[139.148065,-33.168754],[139.14858,-33.168795],[139.150188,-33.168855],[139.150566,-33.168915],[139.150974,-33.169037],[139.152536,-33.169639],[139.154063,-33.170246],[139.155316,-33.170835],[139.157084,-33.171805],[139.158054,-33.172401],[139.158955,-33.17312],[139.159196,-33.173303],[139.159616,-33.173364],[139.160346,-33.173299],[139.161187,-33.173091],[139.161599,-33.173033],[139.161806,-33.173033],[139.162225,-33.173033],[139.162783,-33.172911],[139.163913,-33.172134],[139.164177,-33.172055],[139.16452,-33.17201],[139.164864,-33.172046],[139.165825,-33.17215],[139.166511,-33.172312],[139.166859,-33.172594],[139.167127,-33.172854],[139.16723,-33.17312],[139.16731,-33.173707],[139.167331,-33.174399],[139.167455,-33.17532],[139.167696,-33.17624],[139.167986,-33.177048],[139.168479,-33.178233],[139.169434,-33.180119],[139.169805,-33.180951],[139.170046,-33.181628],[139.170331,-33.182737],[139.170631,-33.184156],[139.171043,-33.185911],[139.171082,-33.186509],[139.171065,-33.186934],[139.170921,-33.187523],[139.170668,-33.188452],[139.169901,-33.191025],[139.169831,-33.19154],[139.169773,-33.192048],[139.169842,-33.192564],[139.170073,-33.195505],[139.170175,-33.195957],[139.170341,-33.196331],[139.170545,-33.196573],[139.170738,-33.196825],[139.170956,-33.197001],[139.171323,-33.197206],[139.171848,-33.197403],[139.172503,-33.197529],[139.173018,-33.197672],[139.17371,-33.198055],[139.17606,-33.199177],[139.176435,-33.19933],[139.177347,-33.199635],[139.178404,-33.199926],[139.179133,-33.200159],[139.179815,-33.20047],[139.18038,-33.200779],[139.180571,-33.200904]]}},{"type":"Feature","properties":{"tier":"regional"},"geometry":{"type":"LineString","coordinates":[[139.463686,-33.490638],[139.465958,-33.491804],[139.467103,-33.492382]]}},{"type":"Feature","properties":{"tier":"arterial"},"geometry":{"type":"LineString","coordinates":[[139.382922,-33.50002],[139.383748,-33.499818],[139.39231,-33.497653],[139.396644,-33.496526],[139.398189,-33.496204],[139.407856,-33.494334],[139.415602,-33.492813],[139.425766,-33.490862],[139.433551,-33.489368],[139.434893,-33.489099],[139.435317,-33.489018],[139.436469,-33.488885],[139.437448,-33.48883],[139.437569,-33.488835],[139.438253,-33.488861],[139.443014,-33.489225],[139.45587,-33.490083],[139.463686,-33.490638],[139.466341,-33.490808],[139.467326,-33.490871],[139.468227,-33.490907],[139.469214,-33.490764],[139.469986,-33.490263],[139.470931,-33.489475],[139.472518,-33.488187],[139.481874,-33.480277],[139.484792,-33.477878],[139.486552,-33.476804],[139.488311,-33.476017],[139.497444,-33.472081],[139.50002,-33.470928]]}},{"type":"Feature","properties":{"tier":"regional"},"geometry":{"type":"LineString","coordinates":[[139.201498,-33.201169],[139.202142,-33.201097],[139.207077,-33.200558],[139.208107,-33.200451],[139.211583,-33.199697],[139.212098,-33.199607],[139.212643,-33.199592],[139.2133,-33.199572],[139.213943,-33.199607],[139.21448,-33.199715],[139.215617,-33.199949],[139.216175,-33.200074],[139.216626,-33.20011],[139.217913,-33.200182],[139.219608,-33.200218],[139.22596,-33.200667],[139.230852,-33.20099],[139.231582,-33.201062],[139.23229,-33.201188],[139.233041,-33.201349],[139.233813,-33.201511],[139.235723,-33.20169],[139.240336,-33.202121],[139.241002,-33.202139],[139.241602,-33.202067],[139.242654,-33.201852],[139.243231,-33.20178],[139.243817,-33.201794],[139.243963,-33.201798],[139.245636,-33.201798],[139.246224,-33.201854],[139.246623,-33.201888],[139.24701,-33.201798],[139.247782,-33.201493],[139.262566,-33.194921],[139.273381,-33.190163],[139.274175,-33.189857],[139.274763,-33.189662],[139.275591,-33.189337],[139.276544,-33.189142],[139.278917,-33.188798],[139.279411,-33.188726],[139.279904,-33.188762],[139.280291,-33.188816],[139.283402,-33.189193],[139.28381,-33.189211],[139.284088,-33.189372],[139.28426,-33.18948],[139.28441,-33.189732],[139.284711,-33.189965],[139.285054,-33.190216],[139.285869,-33.190665],[139.28647,-33.190809],[139.287543,-33.191096],[139.288401,-33.19133],[139.289238,-33.191617],[139.290526,-33.192192],[139.29147,-33.192695],[139.292714,-33.193539],[139.293187,-33.193951],[139.293551,-33.194185],[139.293938,-33.194472],[139.29441,-33.194634],[139.294882,-33.194724],[139.295354,-33.194795],[139.295976,-33.194813],[139.29677,-33.194867],[139.301383,-33.195011],[139.301928,-33.194978],[139.30283,-33.194906],[139.304988,-33.194544],[139.305954,-33.194257],[139.30928,-33.193485],[139.309687,-33.193341],[139.310117,-33.193341],[139.31046,-33.193413],[139.310889,-33.193592],[139.311232,-33.193754],[139.311876,-33.193862],[139.31252,-33.19388],[139.312885,-33.193736],[139.313164,-33.193377],[139.313494,-33.193002],[139.313872,-33.192856],[139.314279,-33.192856],[139.314512,-33.192874],[139.314751,-33.192892],[139.315288,-33.192982],[139.315588,-33.193161],[139.31591,-33.193467],[139.316476,-33.19426],[139.31664,-33.19449],[139.317026,-33.194598],[139.317584,-33.19458],[139.331553,-33.194149],[139.332497,-33.194131],[139.333098,-33.194167],[139.333763,-33.194275],[139.33445,-33.194293],[139.335201,-33.194436],[139.335866,-33.194472],[139.33651,-33.194526],[139.337067,-33.19467],[139.337582,-33.194867],[139.338226,-33.195029],[139.339042,-33.195137],[139.340157,-33.195442],[139.340909,-33.195657],[139.341659,-33.195855],[139.342174,-33.195999],[139.342818,-33.196196],[139.343505,-33.196393],[139.343657,-33.196416],[139.345264,-33.196722],[139.345661,-33.196771],[139.346353,-33.196784],[139.349341,-33.196618],[139.350157,-33.196618],[139.354121,-33.196645],[139.354636,-33.196614],[139.355028,-33.196645],[139.355714,-33.196681],[139.356578,-33.196717],[139.35815,-33.196645],[139.358944,-33.196731],[139.360167,-33.19691],[139.361181,-33.196987],[139.361669,-33.196951],[139.362302,-33.196883],[139.362785,-33.196789],[139.364442,-33.196412],[139.365724,-33.196035],[139.36684,-33.195797],[139.36794,-33.195492],[139.368691,-33.195393],[139.369099,-33.195294],[139.369656,-33.195115],[139.370338,-33.19485],[139.371448,-33.194563],[139.372451,-33.19423],[139.372859,-33.194006],[139.373347,-33.193705],[139.37376,-33.193517],[139.374027,-33.193448],[139.374205,-33.193428],[139.37442,-33.19343],[139.374513,-33.19344],[139.374576,-33.193482]]}},{"type":"Feature","properties":{"tier":"regional"},"geometry":{"type":"LineString","coordinates":[[139.180571,-33.200904],[139.181434,-33.201452]]}},{"type":"Feature","properties":{"tier":"regional"},"geometry":{"type":"LineString","coordinates":[[139.181434,-33.201452],[139.1821,-33.202059],[139.183274,-33.203346],[139.1835,-33.203642],[139.183671,-33.203876],[139.183828,-33.204043],[139.184015,-33.204145],[139.184283,-33.204235],[139.184744,-33.204307],[139.185184,-33.204378],[139.185538,-33.204513],[139.185887,-33.204743],[139.186246,-33.205123],[139.186547,-33.205509],[139.186858,-33.206111],[139.187035,-33.206655],[139.187346,-33.207741],[139.188145,-33.210608],[139.188456,-33.212107],[139.188581,-33.212842],[139.188532,-33.213436],[139.188402,-33.214118],[139.188253,-33.21471],[139.18807,-33.215303],[139.187308,-33.217511],[139.185635,-33.222052],[139.184122,-33.225885],[139.18277,-33.229475],[139.182572,-33.229974],[139.182508,-33.230261],[139.182444,-33.230602],[139.182411,-33.231185],[139.182427,-33.232382],[139.182615,-33.235807],[139.182566,-33.236618],[139.18247,-33.237363],[139.182243,-33.238807],[139.181955,-33.240647],[139.181826,-33.241616],[139.181821,-33.241981],[139.181858,-33.242262],[139.181918,-33.242618],[139.182073,-33.243232],[139.182583,-33.244664],[139.18498,-33.250526],[139.185716,-33.252093],[139.185845,-33.252263],[139.185995,-33.252398],[139.186231,-33.252524],[139.186557,-33.252689],[139.18769,-33.253259],[139.195988,-33.257506],[139.198088,-33.258531],[139.198391,-33.258727],[139.19866,-33.258951],[139.198885,-33.259202],[139.19903,-33.259477],[139.199185,-33.259776],[139.199421,-33.260395],[139.199663,-33.2611],[139.199775,-33.261517],[139.199775,-33.261911],[139.199625,-33.262396],[139.199421,-33.262907],[139.199207,-33.263392],[139.199067,-33.263912],[139.198949,-33.264504],[139.198912,-33.264832],[139.198955,-33.265272],[139.199105,-33.266519],[139.199228,-33.267949],[139.199185,-33.268326],[139.199202,-33.268591],[139.199245,-33.268914],[139.199357,-33.269241],[139.199384,-33.26947],[139.199518,-33.269689],[139.199725,-33.269942],[139.199797,-33.270057],[139.199947,-33.270164],[139.200119,-33.270191],[139.200369,-33.270092],[139.200612,-33.270012],[139.200902,-33.269958],[139.201385,-33.269895],[139.202114,-33.269904],[139.202608,-33.269895],[139.202973,-33.269949],[139.203423,-33.270048],[139.203752,-33.270207],[139.203998,-33.270367],[139.204281,-33.270491],[139.204646,-33.270846],[139.204775,-33.271133],[139.204979,-33.271618],[139.205058,-33.271908],[139.205129,-33.272083],[139.205301,-33.272479],[139.205335,-33.272569],[139.205478,-33.272942],[139.205714,-33.273139],[139.206025,-33.273327],[139.206326,-33.273525],[139.206599,-33.273797],[139.206916,-33.274197],[139.207286,-33.274587],[139.207715,-33.27491],[139.20823,-33.275233],[139.208774,-33.275532],[139.209303,-33.275843],[139.209968,-33.276201],[139.210526,-33.27665],[139.210998,-33.277062],[139.211405,-33.277565],[139.211899,-33.277995],[139.212435,-33.278426],[139.2128,-33.278838],[139.213015,-33.279197],[139.213186,-33.279933],[139.213315,-33.280901],[139.21334,-33.281151],[139.213358,-33.281332],[139.213401,-33.281744],[139.213507,-33.282183],[139.213613,-33.282577],[139.213905,-33.283341],[139.214324,-33.284498],[139.21463,-33.28528],[139.214888,-33.285844],[139.214978,-33.286435],[139.215118,-33.286866],[139.21522,-33.287144],[139.215536,-33.287736],[139.215772,-33.287996],[139.216019,-33.28822],[139.216448,-33.288408],[139.216931,-33.288516],[139.217381,-33.28865],[139.21758,-33.288766],[139.217712,-33.288905],[139.217788,-33.289088],[139.217828,-33.289258],[139.217801,-33.289423],[139.217759,-33.289684],[139.217672,-33.290219]]}},{"type":"Feature","properties":{"tier":"regional"},"geometry":{"type":"LineString","coordinates":[[139.217801,-33.289423],[139.218294,-33.289387],[139.226121,-33.288526],[139.234487,-33.287431],[139.236897,-33.287144],[139.255403,-33.284874],[139.260049,-33.284287],[139.26735,-33.283096],[139.269901,-33.28261],[139.270416,-33.282529],[139.270884,-33.282493],[139.271368,-33.282505],[139.271723,-33.282534],[139.271914,-33.28255],[139.272174,-33.282552],[139.272721,-33.282561],[139.274062,-33.282417],[139.275607,-33.282247],[139.276465,-33.282121],[139.277313,-33.282031],[139.280411,-33.281599],[139.287623,-33.280569],[139.289769,-33.280184],[139.290563,-33.279995],[139.29165,-33.279677],[139.297376,-33.277681],[139.303022,-33.275787],[139.303559,-33.275578],[139.304059,-33.275362],[139.304278,-33.275218],[139.304449,-33.275013],[139.304594,-33.274914],[139.304778,-33.274865],[139.305014,-33.274874],[139.305202,-33.274896],[139.305406,-33.27486],[139.305658,-33.274757],[139.305916,-33.274578],[139.306162,-33.274309],[139.306409,-33.273968],[139.306699,-33.273385],[139.306999,-33.272497],[139.307957,-33.270196],[139.308308,-33.269294],[139.308373,-33.268864],[139.308201,-33.267913],[139.308216,-33.267667],[139.308303,-33.26744],[139.30848,-33.267339],[139.309274,-33.267016],[139.310433,-33.266478],[139.31142,-33.266083],[139.312128,-33.265868],[139.313501,-33.265114],[139.314595,-33.264504],[139.315716,-33.263786],[139.320925,-33.259983],[139.328092,-33.254564],[139.332246,-33.252139],[139.338564,-33.24875],[139.341654,-33.247171],[139.344738,-33.245751],[139.348177,-33.244443],[139.3494,-33.243979],[139.350043,-33.243895],[139.350446,-33.24389],[139.351015,-33.243941],[139.351665,-33.244065],[139.352039,-33.244228],[139.352645,-33.244538],[139.353096,-33.244823],[139.353444,-33.24505],[139.353804,-33.245326],[139.354599,-33.245929]]}},{"type":"Feature","properties":{"tier":"regional"},"geometry":{"type":"LineString","coordinates":[[139.354599,-33.245929],[139.354656,-33.246502],[139.354657,-33.247486],[139.354647,-33.248161],[139.354655,-33.248422],[139.354656,-33.248615],[139.354622,-33.24938],[139.354578,-33.250573],[139.354554,-33.251466],[139.354459,-33.253587],[139.354423,-33.254903],[139.354375,-33.255697],[139.354377,-33.256448],[139.354341,-33.25683],[139.354363,-33.257108],[139.354431,-33.257421],[139.354527,-33.257827],[139.354602,-33.258157],[139.354673,-33.258399],[139.354705,-33.258539],[139.354735,-33.25868],[139.354758,-33.258836],[139.354775,-33.259724],[139.354771,-33.261157],[139.354739,-33.263169],[139.354709,-33.263988],[139.35468,-33.265162],[139.354674,-33.267125],[139.35464,-33.268937],[139.354623,-33.26998],[139.354632,-33.270279],[139.354686,-33.271105],[139.354695,-33.272615],[139.354705,-33.274082],[139.354689,-33.275344],[139.354669,-33.275634],[139.3546,-33.276616],[139.354567,-33.277809],[139.354612,-33.278369],[139.3547,-33.279481],[139.354794,-33.280389],[139.354847,-33.281789],[139.354886,-33.28364],[139.354878,-33.284723],[139.354836,-33.28609],[139.354807,-33.288112],[139.354831,-33.289114],[139.354904,-33.289493],[139.354983,-33.289904],[139.35501,-33.290067],[139.355009,-33.290151],[139.355006,-33.290226],[139.354952,-33.29027],[139.354888,-33.290289],[139.354824,-33.290288],[139.354773,-33.290284],[139.35473,-33.290311],[139.354685,-33.290359],[139.354626,-33.290497],[139.3546,-33.290591],[139.354607,-33.290831],[139.354681,-33.291203],[139.354718,-33.291585],[139.354721,-33.291951],[139.354786,-33.312754],[139.354828,-33.318815],[139.354786,-33.319317],[139.354743,-33.319523],[139.354623,-33.319678],[139.35459,-33.319933],[139.354721,-33.320052],[139.354979,-33.32007],[139.355028,-33.320125],[139.355107,-33.320213],[139.355113,-33.320417],[139.355019,-33.320759],[139.354931,-33.321411],[139.355,-33.322365],[139.355,-33.323315],[139.355022,-33.324857],[139.355043,-33.341691],[139.355082,-33.358153],[139.35509,-33.358785],[139.355172,-33.364884],[139.355043,-33.365816],[139.355043,-33.366784],[139.355,-33.36983],[139.355086,-33.374812],[139.355043,-33.375493],[139.355022,-33.376031],[139.354979,-33.376425],[139.355022,-33.376837],[139.355129,-33.377213],[139.35515,-33.377715],[139.35515,-33.37836],[139.355086,-33.379363],[139.355022,-33.380456],[139.354936,-33.381084],[139.354957,-33.382069],[139.355064,-33.383897],[139.355022,-33.384577],[139.354957,-33.385061],[139.354979,-33.386297],[139.354979,-33.387516],[139.354979,-33.390346],[139.355064,-33.391565],[139.35515,-33.392317],[139.355086,-33.392855],[139.354979,-33.393249],[139.355043,-33.393679],[139.355086,-33.394593],[139.355022,-33.398516],[139.355043,-33.399071],[139.355193,-33.399859],[139.355236,-33.400594],[139.35515,-33.401418],[139.355199,-33.403394],[139.355279,-33.404481],[139.3552,-33.406021]]}},{"type":"Feature","properties":{"tier":"regional"},"geometry":{"type":"LineString","coordinates":[[139.35474,-33.241351],[139.354701,-33.24276],[139.354599,-33.245929]]}},{"type":"Feature","properties":{"tier":"regional"},"geometry":{"type":"LineString","coordinates":[[139.3552,-33.406021],[139.355116,-33.406248],[139.355085,-33.406519],[139.355044,-33.406948],[139.355043,-33.407751],[139.355043,-33.40878]]}},{"type":"Feature","properties":{"tier":"regional"},"geometry":{"type":"LineString","coordinates":[[139.50002,-33.340535],[139.499845,-33.340801],[139.499459,-33.341338],[139.498966,-33.341912],[139.495532,-33.345264],[139.488602,-33.35186],[139.486928,-33.353527],[139.484862,-33.355514],[139.48431,-33.355947],[139.483817,-33.35618],[139.483345,-33.356305],[139.482486,-33.356323],[139.481885,-33.356359],[139.481134,-33.356502],[139.48019,-33.356843],[139.476832,-33.358528],[139.47562,-33.359155],[139.475115,-33.359361],[139.474634,-33.359484],[139.474388,-33.35954],[139.472415,-33.359935],[139.471478,-33.360069],[139.471006,-33.360114],[139.470599,-33.360087],[139.470159,-33.360006],[139.463689,-33.358725],[139.462198,-33.358393],[139.461619,-33.358322],[139.461157,-33.358286],[139.453508,-33.35842],[139.441416,-33.358743],[139.432222,-33.358958],[139.430503,-33.358997],[139.429936,-33.359029],[139.429411,-33.359056],[139.428969,-33.359145],[139.428585,-33.359307],[139.428263,-33.359513],[139.424572,-33.362013],[139.419862,-33.365123],[139.417276,-33.366843],[139.415613,-33.36782],[139.410163,-33.370786],[139.401795,-33.375284],[139.3954,-33.378733],[139.38906,-33.382137],[139.386742,-33.383418],[139.385916,-33.38392],[139.385186,-33.384448],[139.379318,-33.388901],[139.375284,-33.391956],[139.37199,-33.394446],[139.36801,-33.397491],[139.366229,-33.398862],[139.365402,-33.399435],[139.360864,-33.402247],[139.356345,-33.405075],[139.355996,-33.405277],[139.355631,-33.40551],[139.355443,-33.405669],[139.355304,-33.405846],[139.3552,-33.406021]]}},{"type":"Feature","properties":{"tier":"regional"},"geometry":{"type":"LineString","coordinates":[[139.467103,-33.492382],[139.467793,-33.492735],[139.471047,-33.494374],[139.473517,-33.495669],[139.473914,-33.495848],[139.474279,-33.495973],[139.474752,-33.496021],[139.47577,-33.496099],[139.479661,-33.496404],[139.486903,-33.496938],[139.494631,-33.497539],[139.497408,-33.497792],[139.498987,-33.497897],[139.499878,-33.497978],[139.50002,-33.497998]]}},{"type":"Feature","properties":{"tier":"regional"},"geometry":{"type":"LineString","coordinates":[[139.355043,-33.40878],[139.354972,-33.431954],[139.355026,-33.44464],[139.355071,-33.453321],[139.355081,-33.462084],[139.355113,-33.471106],[139.355176,-33.477659],[139.355204,-33.485917],[139.355208,-33.486912],[139.355229,-33.495331],[139.355252,-33.50002]]}},{"type":"Feature","properties":{"tier":"regional"},"geometry":{"type":"LineString","coordinates":[[139.35474,-33.241351],[139.354738,-33.231176],[139.354722,-33.228563],[139.3547,-33.216641],[139.354706,-33.216516],[139.35473,-33.216332],[139.354792,-33.216058],[139.354899,-33.215795],[139.355028,-33.215582],[139.355191,-33.215385],[139.356396,-33.214027],[139.358032,-33.21214],[139.359008,-33.211027],[139.360057,-33.209833],[139.361556,-33.208089],[139.36345,-33.20593],[139.364764,-33.204357],[139.366448,-33.202465],[139.368235,-33.200407],[139.36956,-33.198858],[139.371397,-33.196749],[139.371789,-33.196291],[139.373385,-33.194401],[139.373771,-33.193939],[139.374023,-33.193714],[139.374313,-33.193551],[139.374576,-33.193482],[139.374759,-33.193456],[139.374999,-33.193455],[139.376118,-33.193481],[139.377759,-33.19346],[139.38045,-33.193472],[139.382931,-33.193451],[139.384403,-33.193444],[139.387118,-33.193413],[139.38836,-33.193427],[139.388993,-33.193409],[139.390916,-33.193371],[139.392238,-33.193382],[139.39348,-33.193368],[139.395127,-33.193359],[139.396073,-33.193355],[139.398168,-33.19333],[139.400432,-33.19331],[139.402637,-33.193285],[139.403098,-33.193306],[139.403889,-33.19338],[139.40534,-33.193519],[139.408017,-33.193804],[139.4103,-33.194026],[139.412743,-33.194266],[139.415383,-33.194531],[139.417802,-33.194771],[139.419755,-33.194971],[139.420026,-33.194973],[139.420197,-33.194946],[139.420331,-33.194906],[139.420441,-33.194839],[139.420535,-33.194769],[139.420669,-33.194632],[139.420822,-33.194417],[139.421101,-33.194033],[139.421348,-33.193698],[139.421809,-33.193097],[139.42189,-33.192879],[139.421949,-33.19267],[139.42197,-33.192423],[139.421976,-33.191416],[139.422029,-33.191034],[139.422099,-33.190706],[139.422179,-33.1905],[139.422415,-33.190127],[139.423392,-33.188713],[139.425291,-33.185925],[139.427447,-33.182787],[139.427984,-33.182028],[139.428279,-33.181705],[139.428628,-33.181422],[139.429019,-33.181171],[139.430285,-33.180313],[139.434282,-33.177512],[139.43956,-33.173821],[139.445724,-33.16955],[139.453642,-33.164032],[139.460905,-33.158953],[139.467069,-33.154623],[139.473082,-33.15037],[139.477771,-33.147069],[139.481183,-33.144671],[139.481741,-33.144314],[139.481966,-33.144215],[139.482175,-33.144179],[139.48232,-33.144179],[139.482604,-33.144253],[139.482822,-33.144352],[139.483377,-33.144608],[139.485697,-33.145731],[139.489844,-33.147597],[139.492067,-33.148643],[139.493159,-33.14916],[139.494621,-33.149816],[139.496235,-33.150575],[139.497035,-33.15099],[139.497437,-33.151174],[139.498244,-33.151498],[139.499432,-33.15201],[139.50002,-33.152288]]}},{"type":"Feature","properties":{"tier":"regional"},"geometry":{"type":"LineString","coordinates":[[139.180571,-33.200904],[139.180877,-33.200928],[139.181059,-33.200928],[139.181263,-33.200919],[139.181433,-33.200859],[139.181607,-33.200784],[139.181768,-33.200703],[139.182014,-33.200667],[139.18224,-33.200676],[139.18254,-33.200676],[139.183087,-33.200712],[139.183538,-33.20073],[139.183924,-33.200811],[139.184224,-33.200901],[139.184407,-33.200999],[139.184514,-33.201116],[139.184664,-33.201224],[139.185008,-33.201215],[139.186016,-33.201188],[139.186928,-33.201215],[139.201498,-33.201169]]}}]}
