{"type":"FeatureCollection","features":[{"type":"Feature","properties":{"tier":"arterial"},"geometry":{"type":"LineString","coordinates":[[139.385433,-29.560054],[139.383844,-29.560379],[139.382114,-29.560761],[139.380237,-29.561272],[139.375494,-29.562604],[139.375034,-29.562747],[139.374587,-29.562911],[139.373073,-29.563638],[139.370135,-29.56515],[139.368239,-29.566101],[139.367387,-29.566498],[139.366723,-29.566757],[139.365572,-29.567101],[139.364157,-29.567477],[139.363445,-29.567638],[139.360971,-29.568107],[139.360233,-29.568277],[139.359272,-29.568527],[139.356046,-29.569392],[139.353427,-29.570118],[139.350204,-29.571068],[139.348081,-29.571675],[139.347443,-29.571835],[139.347175,-29.57187],[139.346594,-29.571914],[139.343224,-29.572054],[139.342886,-29.572089],[139.341362,-29.572173],[139.339213,-29.572253],[139.335895,-29.572413],[139.334729,-29.572452],[139.333804,-29.572512],[139.332874,-29.572593],[139.331781,-29.572784],[139.329785,-29.573162],[139.327815,-29.57357],[139.324322,-29.574241],[139.323326,-29.574414],[139.321924,-29.574706],[139.321132,-29.574893],[139.318957,-29.575484],[139.30914,-29.578342],[139.304996,-29.579513],[139.299824,-29.581023],[139.296145,-29.582074],[139.295276,-29.58234],[139.29402,-29.582771],[139.293018,-29.583201],[139.29167,-29.583853],[139.290105,-29.584576],[139.289277,-29.58491],[139.288641,-29.585143],[139.286254,-29.585903],[139.281259,-29.587359],[139.280177,-29.587688],[139.278869,-29.588105],[139.275867,-29.589137],[139.275223,-29.589381],[139.274379,-29.589736],[139.271537,-29.591122],[139.268735,-29.592456],[139.267498,-29.593009],[139.266067,-29.593676],[139.263575,-29.594786],[139.262289,-29.595281],[139.25968,-29.596227],[139.249941,-29.599884],[139.24307,-29.602426],[139.239169,-29.603841],[139.238515,-29.604048],[139.238077,-29.604159],[139.237407,-29.604291],[139.236726,-29.604376],[139.235594,-29.604481],[139.233282,-29.604635],[139.230247,-29.604765],[139.227561,-29.604912],[139.226657,-29.604975],[139.223052,-29.605145],[139.219369,-29.605366],[139.217512,-29.605462],[139.216416,-29.605545],[139.215499,-29.605586],[139.213131,-29.605737],[139.210994,-29.605842],[139.209255,-29.605948],[139.207895,-29.606049],[139.206786,-29.606213],[139.206134,-29.606362],[139.205444,-29.606571],[139.203577,-29.607137],[139.202266,-29.607506],[139.20161,-29.607708],[139.200473,-29.607997],[139.199281,-29.608236],[139.198553,-29.608339],[139.19785,-29.608407],[139.196708,-29.608477],[139.195805,-29.608491],[139.191434,-29.608425],[139.187996,-29.608308],[139.186813,-29.608279],[139.186362,-29.60829],[139.18565,-29.608346],[139.183739,-29.608608],[139.181849,-29.608843],[139.180207,-29.609072],[139.17975,-29.609166],[139.179073,-29.609354],[139.16678,-29.613366],[139.165436,-29.613758],[139.16478,-29.613923],[139.158701,-29.615192],[139.153398,-29.616326],[139.148973,-29.617229],[139.148832,-29.617282],[139.142772,-29.618539],[139.13982,-29.619179],[139.135459,-29.620066],[139.134588,-29.620292],[139.134164,-29.620431],[139.13335,-29.620795],[139.132762,-29.621123],[139.132213,-29.621495],[139.13169,-29.6219],[139.131051,-29.622498],[139.130603,-29.62297],[139.130068,-29.623623],[139.126542,-29.628068],[139.125482,-29.629344],[139.124912,-29.629966],[139.124451,-29.630404],[139.123975,-29.630816],[139.122459,-29.632042],[139.121635,-29.632748],[139.120266,-29.63388],[139.117829,-29.635843],[139.116852,-29.636665],[139.116381,-29.63709],[139.115785,-29.637669],[139.115521,-29.637975],[139.115158,-29.638452],[139.114929,-29.638784],[139.11472,-29.639126],[139.114386,-29.639837],[139.114053,-29.64076],[139.113064,-29.644026],[139.11293,-29.644591],[139.112835,-29.64516],[139.112792,-29.645529],[139.112768,-29.646092],[139.112806,-29.646843],[139.112899,-29.647394],[139.113031,-29.64795],[139.113172,-29.648514],[139.114117,-29.651951],[139.11529,-29.65598],[139.115477,-29.65689],[139.115609,-29.657816],[139.11563,-29.658566],[139.115557,-29.660427],[139.115374,-29.663046],[139.11515,-29.665897],[139.115064,-29.666704],[139.114949,-29.667492],[139.114822,-29.668083],[139.114704,-29.668476],[139.114515,-29.66905],[139.114239,-29.669804],[139.11319,-29.672249],[139.112479,-29.67397],[139.111508,-29.676249],[139.110966,-29.677578],[139.11037,-29.678901],[139.110085,-29.679447],[139.109978,-29.679619],[139.109627,-29.680129],[139.109371,-29.680457],[139.108665,-29.68126],[139.104023,-29.686167],[139.103211,-29.687062],[139.102582,-29.687842],[139.102115,-29.688496],[139.101583,-29.689344],[139.101191,-29.690039],[139.10101,-29.690395],[139.100769,-29.690933],[139.100638,-29.69129],[139.100476,-29.69184],[139.100392,-29.692209],[139.100331,-29.692585],[139.100067,-29.694621],[139.099971,-29.695171],[139.099838,-29.695728],[139.099725,-29.696097],[139.099581,-29.696465],[139.099321,-29.697],[139.099121,-29.697347],[139.098895,-29.697689],[139.098644,-29.698008],[139.097795,-29.698934],[139.096074,-29.700687],[139.095416,-29.701298],[139.094786,-29.701917],[139.093038,-29.70365],[139.092329,-29.704385],[139.091833,-29.704961],[139.091312,-29.705647],[139.091038,-29.706079],[139.090793,-29.70655],[139.090522,-29.707216],[139.09033,-29.707913],[139.090219,-29.708631],[139.090177,-29.70935],[139.090172,-29.709714],[139.090238,-29.712472],[139.090317,-29.714792],[139.090329,-29.716246],[139.090372,-29.717949],[139.090462,-29.72042],[139.090467,-29.721535],[139.090425,-29.722837],[139.090302,-29.723784],[139.090222,-29.724164],[139.090056,-29.724736],[139.089856,-29.725312],[139.089704,-29.72569],[139.089269,-29.726629],[139.087469,-29.730205],[139.085703,-29.733783]]}},{"type":"Feature","properties":{"tier":"arterial"},"geometry":{"type":"LineString","coordinates":[[139.061513,-29.819065],[139.060662,-29.818762],[139.06022,-29.818623],[139.059769,-29.818504],[139.059313,-29.818414],[139.058841,-29.818357],[139.058373,-29.818329],[139.057659,-29.81835],[139.056947,-29.818417],[139.056258,-29.818531],[139.055565,-29.818697],[139.054887,-29.818913],[139.054458,-29.819085],[139.054048,-29.819286],[139.053477,-29.819645],[139.052948,-29.820063],[139.052638,-29.820374],[139.0524,-29.820703],[139.052209,-29.821058],[139.052055,-29.821437],[139.051998,-29.821627],[139.051924,-29.822021],[139.051908,-29.822224],[139.051902,-29.824878],[139.051943,-29.827838],[139.051932,-29.830168],[139.051911,-29.831015],[139.051923,-29.832737],[139.051894,-29.834782],[139.051778,-29.837837],[139.051734,-29.838154],[139.051633,-29.838554],[139.051257,-29.840699],[139.05079,-29.842918],[139.050649,-29.843403],[139.05051,-29.843775],[139.050379,-29.844053],[139.050097,-29.8445],[139.049791,-29.844884],[139.049508,-29.845199],[139.049167,-29.845498],[139.048816,-29.845765],[139.048521,-29.845959],[139.04732,-29.84662],[139.047071,-29.846802],[139.046845,-29.847014],[139.046561,-29.847365],[139.046394,-29.847635],[139.04619,-29.848063],[139.046105,-29.848363],[139.046062,-29.848685],[139.046075,-29.850054],[139.046036,-29.853723],[139.046058,-29.855488],[139.046124,-29.857884],[139.046118,-29.859256],[139.04605,-29.861701],[139.045712,-29.869579],[139.045721,-29.870161],[139.045773,-29.870725],[139.045861,-29.871272],[139.046236,-29.874238],[139.046527,-29.876087],[139.046684,-29.876704],[139.047246,-29.878582],[139.047506,-29.879394],[139.048798,-29.88382],[139.048994,-29.884887],[139.049183,-29.88618],[139.049637,-29.888851],[139.049754,-29.88967],[139.049782,-29.890483],[139.049723,-29.891507],[139.049458,-29.894911],[139.049405,-29.89578],[139.049214,-29.897897],[139.049172,-29.89854],[139.049146,-29.899397],[139.049165,-29.90004],[139.049228,-29.900676],[139.049447,-29.90214],[139.049907,-29.9045],[139.05112,-29.911013],[139.051246,-29.911871],[139.051298,-29.912528],[139.051275,-29.912963],[139.051156,-29.913786],[139.049862,-29.920357],[139.049343,-29.923086],[139.049235,-29.92373],[139.049177,-29.924165],[139.049128,-29.924826],[139.049083,-29.926383],[139.049094,-29.927469],[139.049133,-29.928128],[139.049186,-29.928566],[139.049358,-29.929427],[139.05,-29.931795],[139.050277,-29.932895],[139.050402,-29.933325],[139.050545,-29.933735],[139.050862,-29.934551],[139.051267,-29.935523],[139.051336,-29.93572],[139.051437,-29.936117],[139.05152,-29.936713],[139.051526,-29.936892],[139.051556,-29.937752],[139.051519,-29.938373],[139.051489,-29.93858],[139.051386,-29.93899],[139.05123,-29.939399],[139.051134,-29.939593],[139.050791,-29.940183],[139.050522,-29.940568],[139.050226,-29.940952],[139.049894,-29.941309],[139.049336,-29.941794],[139.048109,-29.942684],[139.047702,-29.942998],[139.046364,-29.944124],[139.044335,-29.945908],[139.042281,-29.947683],[139.041393,-29.948519],[139.041093,-29.948877],[139.040682,-29.94944],[139.04029,-29.950027],[139.039166,-29.951822],[139.038411,-29.952951],[139.032862,-29.961465],[139.032136,-29.962608],[139.030657,-29.964856],[139.028427,-29.96818],[139.02615,-29.971285],[139.025638,-29.972055],[139.025424,-29.972447],[139.025158,-29.973063],[139.024149,-29.976212],[139.023815,-29.977158],[139.023446,-29.977989],[139.023377,-29.978112],[139.023273,-29.978298],[139.023049,-29.978627],[139.022652,-29.979136],[139.016573,-29.9862],[139.015686,-29.987272],[139.014082,-29.989152],[139.012772,-29.990653],[139.010876,-29.992794],[139.009246,-29.994577],[139.00861,-29.995223],[139.007776,-29.996026],[139.007286,-29.996538],[139.006648,-29.997264],[139.006221,-29.997836],[139.005914,-29.998381],[139.005672,-29.998931],[139.00548,-29.999515],[139.005365,-30.00002]]}},{"type":"Feature","properties":{"tier":"arterial"},"geometry":{"type":"LineString","coordinates":[[139.065777,-29.819902],[139.065108,-29.820006],[139.064671,-29.820015],[139.064451,-29.820004],[139.064016,-29.819948],[139.063797,-29.819899],[139.063371,-29.819772],[139.062294,-29.819359],[139.061719,-29.819138],[139.061513,-29.819065]]}},{"type":"Feature","properties":{"tier":"arterial"},"geometry":{"type":"LineString","coordinates":[[139.50002,-29.581232],[139.494051,-29.579055],[139.490116,-29.577547],[139.486867,-29.576302],[139.486161,-29.576022],[139.485702,-29.57582],[139.485036,-29.575477],[139.484389,-29.5751],[139.480347,-29.572505],[139.478766,-29.571458],[139.4784,-29.571184],[139.478224,-29.571029],[139.477876,-29.570705],[139.47755,-29.570362],[139.477129,-29.56981],[139.476864,-29.56942],[139.476496,-29.56883],[139.473795,-29.564147],[139.473036,-29.562859],[139.472268,-29.561607],[139.472037,-29.561258],[139.471511,-29.56056],[139.471208,-29.560231],[139.471041,-29.560079],[139.470684,-29.559793],[139.470302,-29.559531],[139.469709,-29.559176],[139.469271,-29.55896],[139.469045,-29.558866],[139.468578,-29.558704],[139.468194,-29.558582],[139.467852,-29.558489],[139.466244,-29.558098],[139.462331,-29.557042],[139.462154,-29.556996],[139.458665,-29.556091],[139.457456,-29.555796],[139.452999,-29.554545],[139.451724,-29.554187],[139.449549,-29.553627],[139.447988,-29.553234],[139.441374,-29.551443],[139.439071,-29.550771],[139.437995,-29.550484]]}},{"type":"Feature","properties":{"tier":"arterial"},"geometry":{"type":"LineString","coordinates":[[139.437995,-29.550484],[139.436919,-29.550197],[139.436273,-29.550082],[139.435359,-29.549976],[139.434896,-29.549963],[139.434226,-29.549987],[139.433756,-29.55003],[139.432826,-29.550179],[139.431685,-29.550431],[139.426835,-29.551443],[139.405867,-29.555779],[139.401325,-29.556736],[139.396671,-29.557695],[139.393394,-29.558393],[139.391905,-29.558693],[139.390931,-29.558909],[139.389957,-29.5591],[139.388262,-29.559474],[139.385433,-29.560054]]}},{"type":"Feature","properties":{"tier":"arterial"},"geometry":{"type":"LineString","coordinates":[[139.085703,-29.733783],[139.085463,-29.734268],[139.083721,-29.737674],[139.082636,-29.739871],[139.082148,-29.740993],[139.081956,-29.741581],[139.081795,-29.742176],[139.081669,-29.742793],[139.081617,-29.743202],[139.081592,-29.74362],[139.081537,-29.747364],[139.081564,-29.74886],[139.081606,-29.749293],[139.081737,-29.750141],[139.081929,-29.750994],[139.084603,-29.761195],[139.086596,-29.76958],[139.087178,-29.77214],[139.087935,-29.775272],[139.088107,-29.776117],[139.088196,-29.776752],[139.088244,-29.777393],[139.088322,-29.780186],[139.088402,-29.784814],[139.088443,-29.78592],[139.088451,-29.7868],[139.088545,-29.790287],[139.088545,-29.790952],[139.088547,-29.791359],[139.088628,-29.79561]]}},{"type":"Feature","properties":{"tier":"arterial"},"geometry":{"type":"LineString","coordinates":[[139.088628,-29.79561],[139.088747,-29.801797],[139.088741,-29.802382],[139.088699,-29.802967],[139.088668,-29.803156],[139.088569,-29.803522],[139.088421,-29.803874],[139.088325,-29.804045],[139.088101,-29.804367],[139.08768,-29.804811],[139.087353,-29.805089],[139.087175,-29.805214],[139.086987,-29.805335],[139.086594,-29.805548],[139.08617,-29.80573],[139.085728,-29.805907],[139.084592,-29.806316],[139.083946,-29.806593],[139.08355,-29.8068],[139.083366,-29.806914],[139.083008,-29.807153],[139.082663,-29.807419],[139.079824,-29.809864],[139.079135,-29.810492],[139.077083,-29.812471],[139.073238,-29.816245],[139.072724,-29.816674],[139.071979,-29.817174],[139.071364,-29.817531],[139.069919,-29.818309],[139.069149,-29.818744],[139.068365,-29.819107],[139.067537,-29.819392],[139.066452,-29.81973],[139.065777,-29.819902]]}}]}
