{"type":"FeatureCollection","features":[{"type":"Feature","properties":{"tier":"arterial"},"geometry":{"type":"LineString","coordinates":[[139.536746,-32.49998],[139.537357,-32.500807],[139.538699,-32.502569],[139.539046,-32.503162],[139.539741,-32.504254],[139.540204,-32.504946],[139.540509,-32.505465],[139.542975,-32.509342],[139.543703,-32.510445],[139.544907,-32.512381],[139.545643,-32.513497],[139.546835,-32.515383],[139.547379,-32.516204],[139.548462,-32.517931],[139.548637,-32.518237],[139.548929,-32.518825],[139.549141,-32.519299],[139.549601,-32.520414],[139.549861,-32.521155],[139.550057,-32.521884],[139.55029,-32.522998],[139.550747,-32.524967],[139.550827,-32.525251],[139.551031,-32.525705],[139.552052,-32.527684],[139.552629,-32.528725],[139.553007,-32.529407],[139.553744,-32.530612],[139.554395,-32.531624],[139.554913,-32.532473],[139.555146,-32.532793],[139.555402,-32.533108],[139.555684,-32.533422],[139.556522,-32.534321],[139.557212,-32.535029],[139.557441,-32.535317],[139.557625,-32.53562],[139.557698,-32.535777],[139.557995,-32.536587],[139.558249,-32.537346],[139.558426,-32.537806],[139.558579,-32.53831],[139.558692,-32.538827],[139.559479,-32.544243],[139.55986,-32.54629],[139.560295,-32.548313],[139.560796,-32.550956],[139.561062,-32.552678],[139.561556,-32.557046],[139.561731,-32.558309],[139.561818,-32.559501],[139.561852,-32.560314],[139.562008,-32.562826],[139.562111,-32.564364],[139.562136,-32.565103],[139.562161,-32.565297],[139.562295,-32.567774],[139.562434,-32.569876],[139.562467,-32.570541],[139.562475,-32.57122],[139.56247,-32.571663],[139.562431,-32.572112],[139.562327,-32.572789],[139.562016,-32.574377],[139.561728,-32.575959],[139.561493,-32.577119]]}},{"type":"Feature","properties":{"tier":"high"},"geometry":{"type":"LineString","coordinates":[[139.572498,-32.5772],[139.572008,-32.577273],[139.571207,-32.577388],[139.570894,-32.577442],[139.570534,-32.57751],[139.570203,-32.577588],[139.569913,-32.577667],[139.569632,-32.577756],[139.569337,-32.57786],[139.569144,-32.577939],[139.56905,-32.577977],[139.568774,-32.578119],[139.568222,-32.578414]]}},{"type":"Feature","properties":{"tier":"high"},"geometry":{"type":"LineString","coordinates":[[139.574039,-32.576963],[139.573591,-32.577031]]}},{"type":"Feature","properties":{"tier":"high"},"geometry":{"type":"LineString","coordinates":[[139.563208,-32.581192],[139.562995,-32.581314],[139.562617,-32.581531],[139.562287,-32.581711],[139.562084,-32.581823],[139.561771,-32.582],[139.561207,-32.582319]]}},{"type":"Feature","properties":{"tier":"high"},"geometry":{"type":"LineString","coordinates":[[139.573591,-32.577031],[139.572498,-32.5772]]}},{"type":"Feature","properties":{"tier":"arterial"},"geometry":{"type":"LineString","coordinates":[[139.561406,-32.577625],[139.561362,-32.577807],[139.561328,-32.578074],[139.561307,-32.578314],[139.561367,-32.578593],[139.561465,-32.578857],[139.561509,-32.578946],[139.561608,-32.579126],[139.561691,-32.579235]]}},{"type":"Feature","properties":{"tier":"arterial"},"geometry":{"type":"LineString","coordinates":[[139.561493,-32.577119],[139.561406,-32.577625]]}},{"type":"Feature","properties":{"tier":"regional"},"geometry":{"type":"LineString","coordinates":[[139.556858,-32.584779],[139.55739,-32.585366],[139.557429,-32.585405],[139.557622,-32.58562],[139.557815,-32.585766],[139.558063,-32.585943],[139.559122,-32.586733],[139.562542,-32.589283],[139.564208,-32.59062],[139.565839,-32.591949],[139.566708,-32.592645],[139.56704,-32.592988],[139.567266,-32.593341],[139.567587,-32.593919],[139.56778,-32.594335],[139.567984,-32.594706],[139.568253,-32.595149],[139.568521,-32.595375],[139.568833,-32.595556],[139.569261,-32.595682],[139.571418,-32.596179],[139.57306,-32.59655],[139.573757,-32.596722],[139.573917,-32.596762],[139.57433,-32.596939],[139.574851,-32.597237],[139.576058,-32.597919],[139.576541,-32.598168],[139.577436,-32.59866],[139.577769,-32.598805],[139.578075,-32.5989],[139.5786,-32.59895],[139.579861,-32.599013],[139.580285,-32.599027],[139.580816,-32.598986],[139.581465,-32.598895],[139.582179,-32.598791],[139.582823,-32.598719],[139.583702,-32.598665],[139.58514,-32.598629],[139.585494,-32.598629],[139.586025,-32.598629],[139.586417,-32.598669],[139.586695,-32.598737],[139.586937,-32.598846],[139.587409,-32.599076],[139.587967,-32.599388],[139.588434,-32.599686],[139.588702,-32.59989],[139.589244,-32.600328],[139.589828,-32.600812],[139.590161,-32.601142],[139.590343,-32.601331],[139.590477,-32.601498],[139.590584,-32.601705],[139.590645,-32.601852],[139.590669,-32.602056],[139.590617,-32.602335],[139.590526,-32.602597],[139.590386,-32.602976],[139.590333,-32.603347],[139.590386,-32.60369],[139.59044,-32.604205],[139.590483,-32.604612],[139.590429,-32.605073],[139.590418,-32.605389],[139.59044,-32.605634],[139.590529,-32.605984],[139.590665,-32.606393],[139.590783,-32.606808],[139.590955,-32.607251],[139.591202,-32.607595],[139.591567,-32.607975],[139.591942,-32.608219],[139.592811,-32.608508],[139.593691,-32.608688],[139.59412,-32.608742],[139.594613,-32.608761],[139.595214,-32.608688],[139.595718,-32.608589],[139.596255,-32.608553],[139.596834,-32.608589],[139.597274,-32.608661],[139.597735,-32.608797],[139.598156,-32.608987],[139.598497,-32.60924],[139.598804,-32.609541],[139.599177,-32.610136],[139.601299,-32.614346],[139.602853,-32.616731],[139.605106,-32.620075],[139.605418,-32.620464],[139.605654,-32.620699],[139.608797,-32.622994],[139.609752,-32.623635],[139.610546,-32.624069],[139.612112,-32.624665],[139.613249,-32.625117],[139.614451,-32.625641],[139.619687,-32.627945],[139.62283,-32.629355],[139.623882,-32.629843],[139.62533,-32.630502],[139.626006,-32.630792],[139.626532,-32.630918],[139.627401,-32.631009],[139.629147,-32.631092],[139.629542,-32.631121],[139.629832,-32.631154],[139.630179,-32.631225],[139.630824,-32.631442],[139.631277,-32.631616],[139.63195,-32.631894],[139.633226,-32.632237],[139.634439,-32.632517],[139.635555,-32.632798],[139.637271,-32.633358],[139.638709,-32.633882],[139.639846,-32.634306],[139.640501,-32.634586],[139.641359,-32.635048],[139.643097,-32.636177],[139.644588,-32.63695],[139.6455,-32.637469],[139.64593,-32.637794],[139.646241,-32.637993],[139.646499,-32.638227],[139.646713,-32.638498],[139.646916,-32.638842],[139.647134,-32.639127],[139.647206,-32.639221],[139.647399,-32.63951],[139.647742,-32.639836],[139.648091,-32.640206],[139.648343,-32.640436],[139.648523,-32.640637],[139.648606,-32.64073],[139.648778,-32.641028],[139.648808,-32.641091],[139.649071,-32.641628],[139.649261,-32.642017],[139.649454,-32.642411],[139.649501,-32.642497],[139.649555,-32.642594],[139.6496,-32.6427],[139.649652,-32.642921],[139.64968,-32.643068],[139.64972,-32.643277],[139.649754,-32.643391],[139.649835,-32.643529],[139.650025,-32.643738],[139.650291,-32.643906],[139.650533,-32.644062],[139.65072,-32.644149],[139.650875,-32.644213],[139.651342,-32.644357],[139.651702,-32.644493],[139.652068,-32.644683],[139.652441,-32.644895],[139.652646,-32.64503],[139.653023,-32.645266],[139.653468,-32.645433],[139.653797,-32.645565],[139.654208,-32.645801],[139.654706,-32.646169],[139.659463,-32.650423],[139.663653,-32.654064],[139.665842,-32.655961],[139.666851,-32.656665],[139.667966,-32.657406],[139.668739,-32.657894],[139.669275,-32.658165],[139.670026,-32.658382],[139.67082,-32.658616],[139.67155,-32.658851],[139.67243,-32.659231],[139.673159,-32.659664],[139.673588,-32.660007],[139.674017,-32.660604],[139.674447,-32.661055],[139.674854,-32.66138],[139.675326,-32.661633],[139.680412,-32.663873],[139.683137,-32.665084],[139.683974,-32.665499],[139.686012,-32.66661],[139.687332,-32.66735],[139.687611,-32.66754],[139.687797,-32.667752],[139.688317,-32.668398],[139.689016,-32.669202],[139.689757,-32.670024],[139.690078,-32.670322],[139.690304,-32.670466],[139.690947,-32.670873],[139.691902,-32.671415],[139.692556,-32.671902],[139.693876,-32.672896],[139.695421,-32.674069],[139.696226,-32.674711],[139.696591,-32.675],[139.696913,-32.675289],[139.697213,-32.675587],[139.697406,-32.675786],[139.697632,-32.676048],[139.697857,-32.67631],[139.697996,-32.676562],[139.698136,-32.676887],[139.698286,-32.677285],[139.699766,-32.681322],[139.700732,-32.683895],[139.701247,-32.68525],[139.70143,-32.685692],[139.701634,-32.685972],[139.70188,-32.686261],[139.702248,-32.686661],[139.702492,-32.686875],[139.702814,-32.687209],[139.702984,-32.687479],[139.703178,-32.687995],[139.703607,-32.689505],[139.704259,-32.691521],[139.704785,-32.693209],[139.705321,-32.694839],[139.705509,-32.695439],[139.705595,-32.695816],[139.705643,-32.696112],[139.705665,-32.696426],[139.705767,-32.697227],[139.70582,-32.697563],[139.705879,-32.697868],[139.705941,-32.69813],[139.706083,-32.6985],[139.706371,-32.699133],[139.707202,-32.701051],[139.707661,-32.702262],[139.70794,-32.702966],[139.708198,-32.703471],[139.71015,-32.706938],[139.712468,-32.711019],[139.712682,-32.711524],[139.712811,-32.712012],[139.712876,-32.712517],[139.712922,-32.714711],[139.71294,-32.715514],[139.713047,-32.716326],[139.713219,-32.717229],[139.713283,-32.717951],[139.713412,-32.718691],[139.713412,-32.719359],[139.713391,-32.723475],[139.713348,-32.724956],[139.713391,-32.725515],[139.713627,-32.726057],[139.714077,-32.72714],[139.714295,-32.727506],[139.714485,-32.727826],[139.714904,-32.728309],[139.715386,-32.728728],[139.716921,-32.730033],[139.717834,-32.73093],[139.719313,-32.732483],[139.719932,-32.733028],[139.720311,-32.733286],[139.720718,-32.733575],[139.721201,-32.733801],[139.721748,-32.733918],[139.722424,-32.734026],[139.723454,-32.734351],[139.72402,-32.734563],[139.724431,-32.734721],[139.724795,-32.734784],[139.725153,-32.734775],[139.725546,-32.734757],[139.726362,-32.734694],[139.727413,-32.734685],[139.728786,-32.734739],[139.731061,-32.734775],[139.733475,-32.734847],[139.736957,-32.734977],[139.737405,-32.734997],[139.740105,-32.735136],[139.740971,-32.735143],[139.747115,-32.735088],[139.751006,-32.734992],[139.760684,-32.734829],[139.767442,-32.734739],[139.775983,-32.734667],[139.783311,-32.734561],[139.783991,-32.734525],[139.784609,-32.734488],[139.78536,-32.734432],[139.785939,-32.73436],[139.786827,-32.734142],[139.791883,-32.733223],[139.792441,-32.733115],[139.792913,-32.733115],[139.793342,-32.733241],[139.793739,-32.733471],[139.79511,-32.734201],[139.795573,-32.734432],[139.795831,-32.734595],[139.796217,-32.734721],[139.796668,-32.734739],[139.797033,-32.734649],[139.802483,-32.733038],[139.80289,-32.732952],[139.803191,-32.732934],[139.803513,-32.732988],[139.804006,-32.733133],[139.80435,-32.733313],[139.804837,-32.733666],[139.807225,-32.735786],[139.816409,-32.743944],[139.822675,-32.749431],[139.825164,-32.751885],[139.828897,-32.755133],[139.830266,-32.756293],[139.830983,-32.75685],[139.831249,-32.757089],[139.831704,-32.757796],[139.832416,-32.759103],[139.832945,-32.759961],[139.833175,-32.760462],[139.833256,-32.761073],[139.833069,-32.76185],[139.832451,-32.763633],[139.831386,-32.766321],[139.830743,-32.768017],[139.82997,-32.769027],[139.829155,-32.770218],[139.828425,-32.771048],[139.826794,-32.772455],[139.825807,-32.773321],[139.825078,-32.774079],[139.820655,-32.779555],[139.819542,-32.780971],[139.818555,-32.782198],[139.817954,-32.78328],[139.817525,-32.784218],[139.814263,-32.791542],[139.811538,-32.797828],[139.810891,-32.79929],[139.810723,-32.79974],[139.810605,-32.800191],[139.810587,-32.800664],[139.81068,-32.801093],[139.810819,-32.80148],[139.811044,-32.801841],[139.81139,-32.802228],[139.811774,-32.802554],[139.812235,-32.80286],[139.813061,-32.803401],[139.814419,-32.804226],[139.814779,-32.804445],[139.815239,-32.804724],[139.815889,-32.805104],[139.815944,-32.805136],[139.816373,-32.805411],[139.816843,-32.805745],[139.817371,-32.806051],[139.817569,-32.8062],[139.817782,-32.806323],[139.818158,-32.806539],[139.818447,-32.806711],[139.818744,-32.806953],[139.819263,-32.80736],[139.819606,-32.807595],[139.819788,-32.807689],[139.820191,-32.807793],[139.820745,-32.80788],[139.821199,-32.807964],[139.821352,-32.807994],[139.821763,-32.808073],[139.822273,-32.80824],[139.822756,-32.808411],[139.823896,-32.808889],[139.824178,-32.80903],[139.824627,-32.809254],[139.825035,-32.809506],[139.825636,-32.809975],[139.830099,-32.813618],[139.832433,-32.815494],[139.833317,-32.816287],[139.835013,-32.817676],[139.836865,-32.819078],[139.838124,-32.819948],[139.843675,-32.823684],[139.844046,-32.823915],[139.844518,-32.824113],[139.845057,-32.824247],[139.847263,-32.824408],[139.848234,-32.824495],[139.848834,-32.824583],[139.849067,-32.824708],[139.849379,-32.824931],[139.849895,-32.825431],[139.85033,-32.82585],[139.852245,-32.827782],[139.853166,-32.828648],[139.853521,-32.828967],[139.853681,-32.829108],[139.853949,-32.829234],[139.854271,-32.829351],[139.857544,-32.830109],[139.858071,-32.830244],[139.858519,-32.83037],[139.859099,-32.830559],[139.859509,-32.830694],[139.859818,-32.830785],[139.860107,-32.830848],[139.863122,-32.831325],[139.864152,-32.831506],[139.864592,-32.831578],[139.864935,-32.831677],[139.865247,-32.831839],[139.865493,-32.831984],[139.866993,-32.832963],[139.869057,-32.83432],[139.871249,-32.835759],[139.872692,-32.836734],[139.8734,-32.837221],[139.873893,-32.837503],[139.874538,-32.837672],[139.875055,-32.837878],[139.875525,-32.838337],[139.877585,-32.840052],[139.8781,-32.840484],[139.879194,-32.841224],[139.880074,-32.841819],[139.880806,-32.842405],[139.886339,-32.846938],[139.886897,-32.847425],[139.887241,-32.847749],[139.890652,-32.85204],[139.891639,-32.853248],[139.891961,-32.85368],[139.892133,-32.854131],[139.893184,-32.857538],[139.893978,-32.859953],[139.894343,-32.861215],[139.8947,-32.86205],[139.895437,-32.862945],[139.896231,-32.863972],[139.897133,-32.86509],[139.897862,-32.865937],[139.899643,-32.867775],[139.901332,-32.869566],[139.904536,-32.873164],[139.906618,-32.875742],[139.907551,-32.876677],[139.90784,-32.876966],[139.909106,-32.8783],[139.909709,-32.878939],[139.910372,-32.879651],[139.917433,-32.887822],[139.918248,-32.888741],[139.918633,-32.889148],[139.918848,-32.889526],[139.918998,-32.889958],[139.919127,-32.890607],[139.919255,-32.8914],[139.919298,-32.892013],[139.91932,-32.892553],[139.919212,-32.893977],[139.919212,-32.894517],[139.919406,-32.894985],[139.919663,-32.8954],[139.920006,-32.895706],[139.920436,-32.896048],[139.925671,-32.899057],[139.928504,-32.900588],[139.931443,-32.902228],[139.931958,-32.902589],[139.932431,-32.902931],[139.932774,-32.903327],[139.934705,-32.905723],[139.936658,-32.908227],[139.937344,-32.909128],[139.938481,-32.910353],[139.940584,-32.912713],[139.943307,-32.915516],[139.945713,-32.917973],[139.946635,-32.918963],[139.947172,-32.919594],[139.947601,-32.920242],[139.948309,-32.921287],[139.949296,-32.922728],[139.94995,-32.923735],[139.950262,-32.924259],[139.950519,-32.924817],[139.952236,-32.928996],[139.956141,-32.938505],[139.95642,-32.939135],[139.956613,-32.939513],[139.956892,-32.939855],[139.963926,-32.947201],[139.966909,-32.950384],[139.967387,-32.950856],[139.96817,-32.951685],[139.968422,-32.951959],[139.968669,-32.952256],[139.968921,-32.952643],[139.969114,-32.952995],[139.96927,-32.95331],[139.969403,-32.953643],[139.969522,-32.954021],[139.969645,-32.954566],[139.969688,-32.954903],[139.969693,-32.955331],[139.969618,-32.957451],[139.96959,-32.958219],[139.969578,-32.958441],[139.969484,-32.960746],[139.969457,-32.961596],[139.969366,-32.963721],[139.969361,-32.964517],[139.969431,-32.964994],[139.9695,-32.965314],[139.969618,-32.965643],[139.969774,-32.966007],[139.970138,-32.966756],[139.970267,-32.966984],[139.970364,-32.967209],[139.970407,-32.967384],[139.970412,-32.967636],[139.970359,-32.967888],[139.970112,-32.968834],[139.968739,-32.974396],[139.967097,-32.980669],[139.965734,-32.986186],[139.964821,-32.989722],[139.964666,-32.990249],[139.964644,-32.990425],[139.964688,-32.990591],[139.964876,-32.990865],[139.965143,-32.991332],[139.965477,-32.991819],[139.965607,-32.992064],[139.965664,-32.992419],[139.96559,-32.992779],[139.96537,-32.993979],[139.964962,-32.996355]]}},{"type":"Feature","properties":{"tier":"regional"},"geometry":{"type":"LineString","coordinates":[[139.964876,-32.990865],[139.962516,-32.991873],[139.960864,-32.992539],[139.959426,-32.993079],[139.958568,-32.993367],[139.955821,-32.994087],[139.950285,-32.995635],[139.94668,-32.996679],[139.937668,-32.999594],[139.936344,-33.00002]]}},{"type":"Feature","properties":{"tier":"regional"},"geometry":{"type":"LineString","coordinates":[[139.964962,-32.996355],[139.964319,-33.00002]]}},{"type":"Feature","properties":{"tier":"high"},"geometry":{"type":"LineString","coordinates":[[139.558134,-32.584054],[139.556858,-32.584779],[139.55602,-32.585278],[139.554759,-32.585981],[139.554303,-32.586247],[139.553894,-32.5865]]}},{"type":"Feature","properties":{"tier":"high"},"geometry":{"type":"LineString","coordinates":[[139.763458,-32.49998],[139.763394,-32.500017],[139.763198,-32.500133],[139.762985,-32.500243],[139.762765,-32.500347],[139.762521,-32.500454],[139.762296,-32.500546],[139.762079,-32.500632],[139.761819,-32.500718],[139.761538,-32.500802],[139.76126,-32.500881],[139.760965,-32.500953],[139.760656,-32.501021],[139.758605,-32.501393],[139.753452,-32.502302],[139.751553,-32.502641],[139.75075,-32.502787],[139.749948,-32.502923],[139.749295,-32.503059],[139.74869,-32.503209],[139.747766,-32.503467],[139.746811,-32.503752],[139.738693,-32.506066],[139.736123,-32.506803],[139.730962,-32.508283],[139.730282,-32.508477],[139.729725,-32.508656],[139.729163,-32.50885],[139.728611,-32.509063],[139.727994,-32.509311],[139.727323,-32.509619],[139.726818,-32.509847],[139.725187,-32.51066],[139.721916,-32.512292],[139.716331,-32.515087],[139.71583,-32.515338],[139.713153,-32.516678],[139.709672,-32.518299],[139.707443,-32.519256],[139.706421,-32.519718],[139.705881,-32.51997],[139.705214,-32.520294],[139.704363,-32.52072],[139.703209,-32.521304],[139.702326,-32.521741],[139.701175,-32.52235],[139.700686,-32.522631],[139.699821,-32.523168],[139.699259,-32.523548],[139.698697,-32.523946],[139.69664,-32.525389],[139.691997,-32.528678],[139.691197,-32.529226],[139.6895,-32.530453],[139.682959,-32.535055],[139.681562,-32.536054],[139.680552,-32.536745],[139.679893,-32.537217],[139.679578,-32.537439],[139.679257,-32.537648],[139.678939,-32.537837],[139.678588,-32.538024],[139.678169,-32.538245],[139.677752,-32.538467],[139.677336,-32.538697],[139.676877,-32.538937],[139.676461,-32.539139],[139.675996,-32.53934],[139.675557,-32.539503],[139.675189,-32.539622],[139.674677,-32.539771],[139.674117,-32.539915],[139.673619,-32.540018],[139.673017,-32.540131],[139.667786,-32.540909],[139.666518,-32.541113],[139.665644,-32.541266],[139.664981,-32.541402],[139.664237,-32.541584],[139.663536,-32.54176],[139.662951,-32.541917],[139.66233,-32.542099],[139.661614,-32.542325],[139.660674,-32.542633],[139.659313,-32.543081],[139.657289,-32.543773],[139.65677,-32.54395],[139.656447,-32.54406],[139.65619,-32.544143],[139.655991,-32.544207],[139.654774,-32.5446]]}},{"type":"Feature","properties":{"tier":"high"},"geometry":{"type":"LineString","coordinates":[[139.654774,-32.5446],[139.654383,-32.544727]]}},{"type":"Feature","properties":{"tier":"high"},"geometry":{"type":"LineString","coordinates":[[139.654383,-32.544727],[139.65202,-32.54553],[139.649598,-32.546353],[139.634269,-32.551422],[139.621006,-32.555856],[139.613904,-32.558237],[139.612923,-32.558558],[139.61226,-32.558787],[139.611622,-32.558997],[139.611113,-32.55918],[139.610667,-32.559356],[139.610214,-32.559549],[139.609756,-32.559758],[139.609341,-32.559967],[139.608954,-32.560172],[139.608513,-32.560424],[139.604401,-32.56293],[139.601978,-32.564458],[139.601607,-32.564676],[139.601151,-32.56493],[139.600692,-32.565169],[139.600065,-32.565475],[139.599457,-32.565762],[139.595831,-32.56745],[139.586832,-32.571599],[139.579737,-32.574887],[139.577982,-32.575702],[139.577473,-32.575946],[139.577133,-32.576102],[139.576775,-32.576266],[139.57638,-32.57643],[139.576048,-32.576543],[139.575756,-32.576638],[139.575418,-32.576724],[139.575039,-32.576802],[139.574039,-32.576963]]}},{"type":"Feature","properties":{"tier":"high"},"geometry":{"type":"LineString","coordinates":[[139.545979,-32.593685],[139.545712,-32.593949],[139.543444,-32.596238],[139.542707,-32.59699],[139.542364,-32.597321],[139.542017,-32.597637],[139.541656,-32.597935],[139.541347,-32.598183],[139.541074,-32.598383],[139.54068,-32.598662],[139.539695,-32.599316],[139.539572,-32.599393],[139.538558,-32.600028],[139.537301,-32.600814],[139.537136,-32.600917],[139.531258,-32.604582],[139.52902,-32.605968],[139.52538,-32.608228],[139.523595,-32.609328],[139.520284,-32.611385],[139.51634,-32.613844],[139.513214,-32.615743],[139.511331,-32.616833],[139.508444,-32.618523],[139.505246,-32.620403],[139.502786,-32.621904],[139.500088,-32.623578],[139.49998,-32.623645]]}},{"type":"Feature","properties":{"tier":"high"},"geometry":{"type":"LineString","coordinates":[[139.561207,-32.582319],[139.560379,-32.582789],[139.56004,-32.58298],[139.559382,-32.583354],[139.558833,-32.583665],[139.558134,-32.584054]]}},{"type":"Feature","properties":{"tier":"high"},"geometry":{"type":"LineString","coordinates":[[139.568222,-32.578414],[139.568006,-32.578524],[139.567775,-32.578653],[139.565539,-32.579908],[139.565465,-32.579949],[139.565321,-32.58003]]}},{"type":"Feature","properties":{"tier":"high"},"geometry":{"type":"LineString","coordinates":[[139.565321,-32.58003],[139.564885,-32.580273],[139.564636,-32.580411],[139.56436,-32.580561],[139.564262,-32.580614],[139.563768,-32.580885],[139.563317,-32.581132],[139.563208,-32.581192]]}},{"type":"Feature","properties":{"tier":"high"},"geometry":{"type":"LineString","coordinates":[[139.553894,-32.5865],[139.553545,-32.586704],[139.553187,-32.58693],[139.552927,-32.5871],[139.552633,-32.58731],[139.552362,-32.587521],[139.551996,-32.58781],[139.551664,-32.588102],[139.549668,-32.590001],[139.548388,-32.591299],[139.546135,-32.59353]]}},{"type":"Feature","properties":{"tier":"high"},"geometry":{"type":"LineString","coordinates":[[139.546135,-32.59353],[139.545979,-32.593685]]}}]}
