{"type":"FeatureCollection","features":[{"type":"Feature","properties":{"tier":"arterial"},"geometry":{"type":"LineString","coordinates":[[139.49998,-35.695348],[139.504244,-35.695338],[139.506437,-35.695324],[139.506825,-35.695316],[139.507046,-35.695343],[139.507206,-35.69537],[139.50739,-35.6954],[139.507655,-35.695457],[139.507856,-35.695528],[139.50899,-35.695963],[139.511024,-35.696744],[139.514071,-35.697926],[139.517041,-35.699066],[139.517525,-35.69923],[139.517965,-35.69936],[139.518352,-35.699431],[139.518676,-35.699478],[139.519106,-35.699509],[139.519474,-35.699537],[139.522739,-35.699757],[139.527397,-35.700059],[139.52862,-35.700146],[139.533708,-35.700491],[139.534584,-35.700554],[139.538497,-35.700809],[139.541529,-35.701033],[139.546516,-35.701359],[139.553331,-35.701815],[139.559711,-35.702204],[139.56291,-35.702391],[139.569766,-35.702738],[139.576736,-35.703119],[139.583851,-35.703468],[139.59459,-35.70401],[139.602341,-35.704383],[139.611238,-35.704849],[139.614243,-35.705009],[139.619621,-35.70529],[139.620419,-35.705323],[139.620591,-35.705337],[139.62092,-35.705361],[139.62123,-35.705384],[139.621669,-35.705439],[139.622612,-35.705612],[139.629488,-35.706942],[139.62985,-35.707],[139.630238,-35.707037],[139.630667,-35.70707],[139.634384,-35.707226],[139.635017,-35.707258],[139.635505,-35.707265],[139.636024,-35.707251],[139.637061,-35.707209],[139.639648,-35.707124],[139.640396,-35.707088],[139.643983,-35.706787],[139.644327,-35.706753],[139.644605,-35.706707],[139.644908,-35.706644],[139.645652,-35.706429],[139.645991,-35.706298],[139.646316,-35.706138],[139.647964,-35.705242],[139.648441,-35.70497],[139.64866,-35.704813],[139.648896,-35.704631],[139.653716,-35.700846],[139.654098,-35.700563],[139.654362,-35.700378],[139.654634,-35.700217],[139.654903,-35.700069],[139.655301,-35.699888],[139.655639,-35.699759],[139.656094,-35.699617],[139.656465,-35.699528],[139.6569,-35.699461],[139.657301,-35.699429],[139.657683,-35.699419],[139.658163,-35.699439],[139.658622,-35.699471],[139.659175,-35.699508],[139.659749,-35.699585],[139.661632,-35.699902],[139.674618,-35.702195],[139.68586,-35.704141],[139.686373,-35.70423],[139.687811,-35.704482],[139.687875,-35.704493],[139.69299,-35.705379],[139.69345,-35.70545],[139.694245,-35.705546],[139.69524,-35.70564],[139.698281,-35.705968],[139.698747,-35.706006],[139.699176,-35.706025],[139.699592,-35.706011],[139.700019,-35.705956],[139.701793,-35.705649],[139.702157,-35.705589],[139.70255,-35.705548],[139.70301,-35.705525],[139.703534,-35.70554],[139.704074,-35.705598],[139.708113,-35.706028],[139.712996,-35.706526],[139.713518,-35.706575],[139.714111,-35.706584],[139.717258,-35.706606],[139.720413,-35.706651],[139.721266,-35.70662],[139.723601,-35.706495],[139.724044,-35.70648],[139.724472,-35.706482],[139.724899,-35.706511],[139.725453,-35.706575],[139.736488,-35.70833],[139.737016,-35.708401],[139.737403,-35.708435],[139.73784,-35.708452],[139.738741,-35.708422],[139.748182,-35.708006],[139.748666,-35.707979],[139.748961,-35.707959],[139.749446,-35.707904],[139.749851,-35.707838],[139.760926,-35.705657],[139.761521,-35.70552],[139.761897,-35.705407],[139.762159,-35.705309],[139.762441,-35.70519],[139.762763,-35.705034],[139.763135,-35.704823],[139.763531,-35.704569],[139.765615,-35.703205],[139.765972,-35.70299],[139.766357,-35.70278],[139.766832,-35.702576],[139.767407,-35.702384],[139.768104,-35.702171],[139.779318,-35.698587],[139.77965,-35.698484],[139.780017,-35.698389],[139.780449,-35.698304],[139.780917,-35.698234],[139.781573,-35.69819],[139.788187,-35.698182],[139.842098,-35.698197],[139.849234,-35.69823],[139.849871,-35.698212],[139.850227,-35.69818],[139.850997,-35.698037],[139.851757,-35.697833],[139.852382,-35.697504],[139.852827,-35.697265],[139.853982,-35.696621],[139.854483,-35.696339],[139.855081,-35.696016]]}},{"type":"Feature","properties":{"tier":"arterial"},"geometry":{"type":"LineString","coordinates":[[139.49998,-35.947788],[139.50002,-35.947839],[139.500292,-35.948184],[139.500463,-35.948352],[139.500572,-35.948457],[139.500706,-35.948575],[139.500909,-35.948733],[139.501274,-35.948966],[139.503064,-35.950048],[139.503341,-35.950225],[139.503531,-35.950359],[139.503714,-35.950501],[139.503913,-35.950659],[139.504148,-35.950869],[139.506267,-35.952653],[139.50867,-35.95471],[139.510817,-35.956566],[139.511207,-35.956892],[139.51143,-35.957056],[139.511629,-35.9572],[139.512441,-35.95772],[139.514995,-35.959344],[139.516853,-35.960532],[139.517389,-35.960884],[139.517596,-35.961041],[139.517779,-35.961206],[139.517937,-35.961357],[139.518099,-35.961524],[139.518481,-35.961915],[139.519053,-35.962526],[139.520831,-35.964429],[139.521778,-35.96543],[139.522816,-35.966528],[139.523421,-35.967172],[139.523737,-35.967494],[139.524111,-35.967895],[139.524383,-35.968148],[139.52472,-35.96843],[139.525048,-35.96869],[139.525357,-35.968936],[139.525592,-35.969143],[139.52584,-35.969353],[139.526087,-35.969603],[139.526245,-35.969775],[139.526549,-35.970164],[139.527244,-35.971138],[139.527913,-35.972064],[139.528448,-35.972815],[139.528682,-35.973174],[139.528798,-35.973355],[139.528896,-35.973559],[139.528976,-35.973741],[139.529046,-35.973911],[139.52955,-35.975251],[139.530376,-35.97748],[139.530562,-35.977982],[139.530702,-35.978322],[139.530894,-35.97873],[139.531015,-35.97893],[139.53115,-35.97913],[139.531318,-35.979346],[139.531505,-35.97958],[139.531724,-35.979821],[139.531925,-35.980025],[139.532173,-35.980252],[139.532481,-35.980494],[139.532812,-35.980765],[139.534189,-35.981868],[139.535631,-35.983043],[139.535855,-35.98325],[139.536037,-35.983421],[139.536154,-35.983553],[139.53634,-35.983779],[139.536522,-35.984032],[139.536662,-35.984289],[139.536812,-35.984572],[139.537002,-35.984955],[139.537628,-35.986223],[139.538646,-35.988322],[139.53971,-35.990494],[139.540004,-35.991064],[139.540167,-35.991354],[139.540354,-35.991619],[139.540545,-35.991868],[139.540671,-35.992015],[139.54083,-35.992189],[139.541077,-35.992431],[139.54139,-35.992699],[139.542412,-35.993548],[139.545002,-35.995705],[139.545825,-35.996407],[139.547209,-35.997526],[139.548338,-35.998477],[139.548713,-35.998814],[139.548971,-35.999063],[139.54921,-35.999317],[139.549876,-36.00002]]}},{"type":"Feature","properties":{"tier":"arterial"},"geometry":{"type":"LineString","coordinates":[[139.855081,-35.696016],[139.855764,-35.69684],[139.856016,-35.697183],[139.856917,-35.698273],[139.857079,-35.698453],[139.857282,-35.698656],[139.857432,-35.698764],[139.857714,-35.698934],[139.857947,-35.699108],[139.858178,-35.699328],[139.860447,-35.702013],[139.860559,-35.70213],[139.860659,-35.702189],[139.860741,-35.702215],[139.860835,-35.702224],[139.860984,-35.702184],[139.861104,-35.702121],[139.861161,-35.70209],[139.861622,-35.701841]]}},{"type":"Feature","properties":{"tier":"arterial"},"geometry":{"type":"LineString","coordinates":[[139.49998,-35.597485],[139.501167,-35.59748],[139.502574,-35.597465],[139.50424,-35.597412],[139.506728,-35.59725],[139.508118,-35.597183],[139.514284,-35.597171],[139.521207,-35.597158],[139.536356,-35.597129],[139.562342,-35.59708],[139.574465,-35.597057],[139.618938,-35.596972],[139.619508,-35.596969],[139.619828,-35.596932]]}},{"type":"Feature","properties":{"tier":"regional"},"geometry":{"type":"LineString","coordinates":[[139.858336,-35.688758],[139.856195,-35.689972],[139.855211,-35.69053],[139.853282,-35.691647]]}},{"type":"Feature","properties":{"tier":"arterial"},"geometry":{"type":"LineString","coordinates":[[139.77281,-35.49998],[139.772278,-35.500155],[139.771347,-35.500667],[139.770548,-35.501265],[139.769893,-35.502108],[139.768726,-35.504337],[139.767888,-35.50534],[139.767167,-35.50581],[139.766,-35.506322],[139.764336,-35.506813],[139.761046,-35.507634],[139.760155,-35.507677],[139.756931,-35.507666],[139.756766,-35.507707],[139.756541,-35.507763]]}},{"type":"Feature","properties":{"tier":"regional"},"geometry":{"type":"LineString","coordinates":[[139.679702,-35.49998],[139.679792,-35.500084],[139.680056,-35.500411],[139.680185,-35.500615],[139.68028,-35.500822],[139.680371,-35.501043],[139.680457,-35.5013],[139.680539,-35.501581],[139.680945,-35.503281],[139.681316,-35.504686],[139.68138,-35.505016],[139.681376,-35.50529],[139.681307,-35.505547],[139.681204,-35.505768],[139.681044,-35.505986],[139.680893,-35.506133],[139.68069,-35.506277],[139.680483,-35.506397],[139.679944,-35.506614],[139.678947,-35.507053],[139.678502,-35.50725],[139.678291,-35.50737],[139.678148,-35.507482],[139.678058,-35.507609],[139.67795,-35.507809],[139.677864,-35.50809],[139.677851,-35.508322],[139.677894,-35.508518],[139.677967,-35.50869],[139.678101,-35.508831],[139.678269,-35.508954],[139.678817,-35.509312],[139.679961,-35.510043],[139.680565,-35.510436],[139.680759,-35.510556],[139.680975,-35.510654],[139.681225,-35.510735],[139.681467,-35.510784],[139.68179,-35.51083],[139.68214,-35.510868],[139.68359,-35.510953],[139.684202,-35.511026],[139.684496,-35.511097],[139.684738,-35.511191],[139.684906,-35.5113],[139.68529,-35.51175],[139.687197,-35.514075],[139.687344,-35.514282],[139.6874,-35.514409],[139.687422,-35.514553],[139.687417,-35.514669],[139.687391,-35.514802],[139.687322,-35.514943],[139.68718,-35.515167],[139.685967,-35.517212],[139.685816,-35.517521],[139.685756,-35.51784],[139.685713,-35.518409],[139.685734,-35.518708],[139.685795,-35.51895],[139.685907,-35.519227],[139.686036,-35.519456],[139.686226,-35.51973],[139.686464,-35.519983],[139.686688,-35.520172],[139.687003,-35.520401],[139.687383,-35.520674],[139.689169,-35.521876],[139.689342,-35.52203],[139.689501,-35.522241],[139.689657,-35.522452],[139.689782,-35.522697],[139.689907,-35.522926],[139.690024,-35.523294],[139.690166,-35.523575],[139.690313,-35.52386],[139.690679,-35.524439],[139.690805,-35.524682],[139.691383,-35.525988],[139.692224,-35.527716],[139.692302,-35.52793],[139.692336,-35.528123],[139.692358,-35.52832],[139.692341,-35.528594],[139.692293,-35.528815],[139.692233,-35.529029],[139.692112,-35.529352],[139.691995,-35.529644],[139.690472,-35.533531],[139.690308,-35.533956],[139.690252,-35.534212],[139.690231,-35.534557],[139.690282,-35.534953],[139.690356,-35.535196],[139.690434,-35.535431],[139.690874,-35.536632],[139.690973,-35.536895],[139.69105,-35.537067],[139.691163,-35.537243],[139.691322,-35.537387],[139.691486,-35.537527],[139.691642,-35.537643],[139.69187,-35.537762],[139.698503,-35.5414]]}},{"type":"Feature","properties":{"tier":"regional"},"geometry":{"type":"LineString","coordinates":[[139.963963,-35.618262],[139.963049,-35.619],[139.962367,-35.619691],[139.961802,-35.620425],[139.961192,-35.621212],[139.960717,-35.621798],[139.960094,-35.622403],[139.955804,-35.625394],[139.954547,-35.626272],[139.953955,-35.626709],[139.953364,-35.627277],[139.952934,-35.627804],[139.952511,-35.628414],[139.95136,-35.6308],[139.949336,-35.634972],[139.948939,-35.635753],[139.948575,-35.636159],[139.948156,-35.636458],[139.947738,-35.636663],[139.94728,-35.636798],[139.946264,-35.637035],[139.945626,-35.637178],[139.9451,-35.63732],[139.944502,-35.637587],[139.943628,-35.638103],[139.940929,-35.639614],[139.940102,-35.640089],[139.939471,-35.640411],[139.939293,-35.640502],[139.9387,-35.640725],[139.93812,-35.640856],[139.937589,-35.64094],[139.937032,-35.641006],[139.936196,-35.641046],[139.93554,-35.641126],[139.934668,-35.641316],[139.934252,-35.641455],[139.931751,-35.642284],[139.92761,-35.643722],[139.924776,-35.644706],[139.92287,-35.645356],[139.92225,-35.645568],[139.921594,-35.645728],[139.920293,-35.645942],[139.919513,-35.646064],[139.918984,-35.64616],[139.918453,-35.64629],[139.915308,-35.647282],[139.91081,-35.648688],[139.910025,-35.648957],[139.909526,-35.649121],[139.909099,-35.649311],[139.908663,-35.649545],[139.908174,-35.649855],[139.906151,-35.651181],[139.901635,-35.654184],[139.897762,-35.656759],[139.896477,-35.657609],[139.895425,-35.658231],[139.892445,-35.659848],[139.891935,-35.660139],[139.8914,-35.660475],[139.89034,-35.66127],[139.887219,-35.663651],[139.883255,-35.666615],[139.882865,-35.666847],[139.882537,-35.667011],[139.881962,-35.667263],[139.880444,-35.667904],[139.87993,-35.668154],[139.879542,-35.668352],[139.877247,-35.669997],[139.874874,-35.6717],[139.874463,-35.671939],[139.874133,-35.672103],[139.870165,-35.673845],[139.867161,-35.675165],[139.866421,-35.675556],[139.865744,-35.676097],[139.86534,-35.67644],[139.864815,-35.677034],[139.864587,-35.677352],[139.863619,-35.679135],[139.860849,-35.68607],[139.860644,-35.686413],[139.860444,-35.686704],[139.859951,-35.687294],[139.859233,-35.688084],[139.858927,-35.688353],[139.858336,-35.688758]]}},{"type":"Feature","properties":{"tier":"arterial"},"geometry":{"type":"LineString","coordinates":[[139.619828,-35.596932],[139.620476,-35.596804],[139.620981,-35.596677],[139.62146,-35.596498],[139.621943,-35.596295],[139.622461,-35.596046],[139.622827,-35.595825],[139.62426,-35.594983],[139.630102,-35.591487],[139.630718,-35.591164],[139.631377,-35.590812],[139.632531,-35.590207],[139.640415,-35.586212],[139.64393,-35.58442],[139.644717,-35.584003],[139.645388,-35.583611],[139.645797,-35.583274],[139.646194,-35.582881],[139.646597,-35.582445],[139.647079,-35.581809],[139.647366,-35.581338],[139.647503,-35.581099],[139.64761,-35.580911],[139.647866,-35.580206],[139.648098,-35.579397],[139.648653,-35.577516],[139.648891,-35.577005],[139.649184,-35.576563],[139.649392,-35.576256],[139.649624,-35.575958],[139.650728,-35.574647],[139.651119,-35.574285],[139.651424,-35.574027],[139.651839,-35.573724],[139.652632,-35.573268],[139.652794,-35.573169],[139.654499,-35.572136],[139.660431,-35.568622],[139.66098,-35.568254],[139.661365,-35.567976],[139.661829,-35.567569],[139.662347,-35.567108],[139.665398,-35.564541],[139.665452,-35.564495],[139.665549,-35.564411],[139.667467,-35.562754],[139.667803,-35.562432],[139.668224,-35.56196],[139.668657,-35.561439],[139.66964,-35.560168],[139.671788,-35.557547],[139.672117,-35.557204],[139.672691,-35.556658],[139.673319,-35.556117],[139.676499,-35.553247],[139.677036,-35.55282],[139.677426,-35.552587],[139.677878,-35.552354],[139.678226,-35.552209],[139.678696,-35.552065],[139.679867,-35.551708],[139.682552,-35.550919],[139.684029,-35.550556],[139.690162,-35.549012],[139.691474,-35.548665],[139.69195,-35.548506],[139.692396,-35.548327],[139.692756,-35.548118],[139.693116,-35.547895],[139.693415,-35.547691],[139.693879,-35.547364],[139.695545,-35.546202],[139.695911,-35.545859],[139.696216,-35.545532],[139.696551,-35.545085],[139.696863,-35.544568],[139.697156,-35.543997],[139.697931,-35.542369],[139.698364,-35.541604],[139.698503,-35.5414],[139.698773,-35.541058],[139.699291,-35.540472],[139.699932,-35.539727],[139.700396,-35.539146],[139.700768,-35.538545],[139.70133,-35.537641],[139.702172,-35.536286],[139.70255,-35.535839],[139.703044,-35.535357],[139.703636,-35.534915],[139.70421,-35.534597],[139.704698,-35.534374],[139.705333,-35.534115],[139.705797,-35.533986],[139.706352,-35.533842],[139.70684,-35.533778],[139.707432,-35.533733],[139.709299,-35.533589],[139.710068,-35.533564],[139.710837,-35.533614],[139.713608,-35.533698],[139.714413,-35.533679],[139.715182,-35.533634],[139.715744,-35.53354],[139.716354,-35.5334],[139.716952,-35.533232],[139.723445,-35.531444],[139.72652,-35.530585],[139.728083,-35.530088],[139.730469,-35.529224],[139.731042,-35.528971],[139.731512,-35.528707],[139.731854,-35.528464],[139.732348,-35.528057],[139.732733,-35.527699],[139.733026,-35.527307],[139.73341,-35.526815],[139.734576,-35.524853],[139.73493,-35.524426],[139.735302,-35.524034],[139.735827,-35.523607],[139.736382,-35.523219],[139.736876,-35.522961],[139.73748,-35.522688],[139.738176,-35.522474],[139.738921,-35.522261],[139.740758,-35.521764],[139.741502,-35.521536],[139.742088,-35.521292],[139.742668,-35.520975],[139.743809,-35.520294],[139.746378,-35.518744],[139.749319,-35.516996],[139.750167,-35.516484],[139.750625,-35.516147],[139.751113,-35.515709],[139.753414,-35.513355],[139.755715,-35.51104],[139.756514,-35.510255],[139.756868,-35.509893]]}},{"type":"Feature","properties":{"tier":"arterial"},"geometry":{"type":"LineString","coordinates":[[139.756868,-35.509893],[139.757088,-35.509709],[139.757264,-35.509591],[139.757891,-35.509234]]}},{"type":"Feature","properties":{"tier":"arterial"},"geometry":{"type":"LineString","coordinates":[[139.853817,-35.692256],[139.853524,-35.692514],[139.853253,-35.692655],[139.853038,-35.692802],[139.852993,-35.692885],[139.852996,-35.692985],[139.853613,-35.69375],[139.853729,-35.694046],[139.853822,-35.694376],[139.853868,-35.694524],[139.854637,-35.695476],[139.855081,-35.696016]]}},{"type":"Feature","properties":{"tier":"arterial"},"geometry":{"type":"LineString","coordinates":[[139.548338,-35.998477],[139.548477,-35.998372],[139.552695,-35.997134],[139.554878,-35.996497],[139.557047,-35.995851],[139.56075,-35.994798],[139.561131,-35.994697],[139.561503,-35.994616],[139.562214,-35.994478],[139.565577,-35.993827],[139.569862,-35.993017],[139.578467,-35.991394],[139.585549,-35.990088],[139.592719,-35.988821],[139.600002,-35.987554],[139.60758,-35.986235],[139.609602,-35.985886],[139.610265,-35.985771],[139.611826,-35.985497],[139.612714,-35.985338],[139.612994,-35.985266],[139.614613,-35.984857],[139.617381,-35.984091],[139.62359,-35.982359],[139.630235,-35.980521],[139.63664,-35.978721],[139.638954,-35.978083],[139.643477,-35.976835],[139.645018,-35.976382],[139.648154,-35.975508],[139.65025,-35.974916],[139.650848,-35.974746],[139.651055,-35.974676],[139.651246,-35.974611],[139.651422,-35.974535],[139.651751,-35.974404],[139.652105,-35.974237],[139.652542,-35.974015],[139.652915,-35.973788],[139.653297,-35.973542],[139.65369,-35.973248],[139.654117,-35.972871],[139.656114,-35.971088],[139.656191,-35.971018],[139.657248,-35.970059],[139.657631,-35.969745],[139.658004,-35.969471],[139.658144,-35.969382]]}},{"type":"Feature","properties":{"tier":"arterial"},"geometry":{"type":"LineString","coordinates":[[139.658144,-35.969382],[139.658367,-35.969241],[139.658711,-35.969026],[139.659069,-35.968839],[139.659403,-35.968669],[139.659785,-35.968494],[139.659834,-35.968473],[139.6601,-35.968359],[139.66062,-35.96818],[139.661169,-35.968029],[139.661783,-35.96789],[139.662382,-35.967783],[139.662868,-35.967723],[139.663368,-35.96768],[139.663967,-35.967668],[139.664649,-35.96768],[139.66515,-35.967707],[139.66567,-35.967763],[139.666239,-35.96785],[139.666848,-35.96797],[139.670063,-35.968788],[139.675005,-35.970051],[139.677164,-35.970595],[139.681302,-35.971664],[139.683005,-35.972077],[139.683815,-35.972295],[139.684659,-35.972537],[139.685292,-35.972732],[139.685935,-35.972966],[139.686465,-35.973189],[139.687172,-35.973447],[139.687996,-35.973773],[139.688413,-35.973963],[139.688796,-35.974154],[139.689199,-35.974361],[139.691422,-35.975647],[139.693424,-35.976843],[139.694209,-35.977296],[139.696187,-35.978416],[139.697596,-35.979258],[139.698068,-35.979534],[139.699274,-35.980243],[139.701262,-35.981392],[139.702302,-35.981976],[139.703035,-35.982304],[139.70845,-35.984721],[139.708698,-35.984837],[139.709167,-35.984964],[139.709637,-35.985106],[139.710091,-35.985203],[139.710512,-35.985261],[139.710939,-35.985305],[139.711519,-35.985349],[139.712411,-35.985402],[139.713401,-35.985407],[139.715534,-35.985477],[139.716819,-35.985505],[139.719232,-35.985557],[139.723296,-35.985632],[139.724303,-35.985668],[139.724926,-35.985663],[139.725588,-35.985628],[139.726042,-35.985535],[139.726622,-35.985424],[139.727076,-35.985305],[139.727508,-35.985176],[139.727678,-35.985111],[139.728017,-35.984982],[139.729406,-35.984406],[139.729762,-35.984265],[139.730096,-35.984154],[139.730451,-35.98407],[139.731895,-35.983738],[139.735341,-35.983034],[139.735883,-35.982932],[139.736321,-35.982892],[139.736802,-35.98287],[139.738153,-35.982857],[139.740426,-35.982863],[139.741926,-35.982867],[139.742912,-35.98287],[139.743304,-35.982868],[139.748103,-35.982835],[139.750619,-35.982857],[139.750997,-35.982861],[139.751205,-35.982883],[139.751539,-35.982932],[139.75208,-35.983052],[139.753502,-35.983463],[139.754695,-35.983795],[139.755094,-35.983884],[139.755461,-35.983946],[139.755723,-35.983972],[139.75598,-35.984003],[139.756287,-35.984021],[139.756522,-35.984021],[139.756861,-35.983999],[139.757029,-35.983983],[139.757632,-35.983924],[139.758188,-35.983894],[139.758305,-35.983888],[139.759798,-35.983747],[139.76104,-35.983645],[139.761336,-35.983614],[139.761686,-35.983561],[139.761954,-35.983486],[139.763753,-35.98299],[139.766746,-35.982113],[139.769935,-35.981193],[139.770508,-35.981061],[139.770957,-35.980995],[139.771355,-35.98097],[139.771866,-35.980942],[139.772992,-35.980945],[139.775753,-35.980939],[139.776918,-35.980945],[139.778279,-35.980939],[139.780766,-35.980954],[139.78125,-35.980942],[139.781961,-35.980929],[139.783528,-35.980957],[139.784158,-35.980948],[139.787114,-35.980929],[139.787493,-35.980923],[139.787965,-35.980936],[139.78938,-35.980929],[139.793616,-35.980948],[139.794142,-35.980932],[139.794834,-35.980923],[139.797565,-35.980911],[139.79801,-35.98092],[139.798462,-35.980932],[139.798849,-35.980923],[139.799313,-35.980898],[139.800002,-35.980904],[139.801518,-35.980923],[139.80187,-35.980936],[139.803146,-35.980914],[139.806639,-35.980929],[139.80833,-35.980911],[139.809432,-35.980932],[139.8106,-35.980926],[139.811447,-35.98092],[139.81364,-35.980926],[139.81424,-35.980901],[139.814433,-35.98088],[139.814669,-35.980854],[139.81499,-35.980804],[139.815338,-35.980723],[139.815837,-35.980598],[139.820483,-35.979427],[139.825256,-35.978231],[139.829387,-35.97722],[139.830114,-35.977013],[139.83158,-35.976532],[139.832771,-35.976156],[139.834462,-35.975611],[139.836187,-35.97506],[139.839231,-35.974068],[139.839815,-35.973864],[139.840256,-35.97372],[139.840979,-35.973492],[139.842,-35.973163],[139.842925,-35.972863],[139.843892,-35.97255],[139.845021,-35.972177],[139.846112,-35.971811],[139.847829,-35.971247],[139.849806,-35.970603],[139.852506,-35.969726],[139.855983,-35.968605],[139.857797,-35.968023],[139.859901,-35.967331],[139.861147,-35.966927],[139.862361,-35.966546],[139.863274,-35.966226],[139.864117,-35.965894],[139.866121,-35.965127],[139.867719,-35.964479],[139.868017,-35.964336],[139.868279,-35.96421],[139.868655,-35.964003],[139.869123,-35.963687],[139.869537,-35.963349],[139.869831,-35.963052],[139.870136,-35.962732],[139.87036,-35.962444],[139.87055,-35.962141],[139.870716,-35.961849],[139.87089,-35.961496],[139.871006,-35.961239],[139.871718,-35.959598],[139.872028,-35.958925],[139.872143,-35.958691],[139.87226,-35.958478],[139.872403,-35.958255],[139.872538,-35.958067],[139.872681,-35.957876],[139.872913,-35.95762],[139.873142,-35.957379],[139.873339,-35.957206],[139.873656,-35.956937],[139.873927,-35.95673],[139.874194,-35.956558],[139.874418,-35.956417],[139.874716,-35.956258],[139.874983,-35.956123],[139.875223,-35.956007],[139.875574,-35.955876],[139.875969,-35.955744],[139.876317,-35.955644],[139.87663,-35.955585],[139.876998,-35.955522],[139.877257,-35.955478],[139.877648,-35.955437],[139.878093,-35.955397],[139.880367,-35.955156],[139.885341,-35.954655],[139.890613,-35.95411],[139.896129,-35.953559],[139.901648,-35.952995],[139.906766,-35.952466],[139.912216,-35.951906],[139.912711,-35.951821],[139.913465,-35.951655],[139.913999,-35.951517],[139.914413,-35.951383],[139.915368,-35.951091],[139.920687,-35.949472],[139.925367,-35.948023],[139.928017,-35.947221],[139.928446,-35.947108],[139.928759,-35.947043],[139.929088,-35.946986],[139.929386,-35.946949],[139.929749,-35.946924],[139.930183,-35.946914],[139.931417,-35.94693],[139.933908,-35.946958],[139.934461,-35.946955],[139.934886,-35.946927],[139.935281,-35.946877],[139.935575,-35.946839],[139.935903,-35.946764],[139.93629,-35.94667],[139.936607,-35.94656],[139.936913,-35.946448],[139.937269,-35.946307],[139.937613,-35.946147],[139.939153,-35.945399],[139.94239,-35.943827],[139.945454,-35.942317],[139.949662,-35.940225],[139.953031,-35.938559],[139.956029,-35.937066],[139.96034,-35.934935],[139.964245,-35.932986],[139.967838,-35.931213],[139.972281,-35.928995],[139.975973,-35.927119],[139.976499,-35.92684],[139.977254,-35.926469],[139.980242,-35.925029],[139.983598,-35.923428],[139.98425,-35.923109],[139.984342,-35.923067],[139.985456,-35.922516],[139.989318,-35.920595],[139.993638,-35.918454],[139.997417,-35.916587],[140.00002,-35.915294]]}},{"type":"Feature","properties":{"tier":"high"},"geometry":{"type":"LineString","coordinates":[[139.794816,-35.569846],[139.795735,-35.57113],[139.796251,-35.571895],[139.798514,-35.575023],[139.799035,-35.575744],[139.799827,-35.576779],[139.800829,-35.578017],[139.802006,-35.579394],[139.803435,-35.580979]]}},{"type":"Feature","properties":{"tier":"high"},"geometry":{"type":"LineString","coordinates":[[139.792166,-35.566206],[139.792855,-35.567127],[139.793885,-35.568546],[139.794816,-35.569846]]}},{"type":"Feature","properties":{"tier":"high"},"geometry":{"type":"LineString","coordinates":[[139.966185,-35.814662],[139.968415,-35.81648],[139.977439,-35.823537],[140.00002,-35.841073]]}},{"type":"Feature","properties":{"tier":"high"},"geometry":{"type":"LineString","coordinates":[[139.961655,-35.811167],[139.961959,-35.811429],[139.962024,-35.811479],[139.96356,-35.812649],[139.964016,-35.812997],[139.965106,-35.813827],[139.965962,-35.81448],[139.966185,-35.814662]]}},{"type":"Feature","properties":{"tier":"high"},"geometry":{"type":"LineString","coordinates":[[139.850481,-35.688325],[139.852777,-35.691047]]}},{"type":"Feature","properties":{"tier":"high"},"geometry":{"type":"LineString","coordinates":[[139.860055,-35.699919],[139.860501,-35.700461],[139.861622,-35.701841],[139.863306,-35.703845]]}},{"type":"Feature","properties":{"tier":"high"},"geometry":{"type":"LineString","coordinates":[[139.859547,-35.69928],[139.85994,-35.699774],[139.860055,-35.699919]]}},{"type":"Feature","properties":{"tier":"high"},"geometry":{"type":"LineString","coordinates":[[139.863306,-35.703845],[139.866756,-35.708019]]}},{"type":"Feature","properties":{"tier":"regional"},"geometry":{"type":"LineString","coordinates":[[139.851757,-35.697833],[139.829047,-35.710473],[139.803096,-35.724958],[139.7846,-35.735165],[139.783527,-35.735618],[139.782604,-35.735897],[139.781681,-35.736036],[139.7804,-35.735973],[139.776848,-35.735771],[139.776086,-35.735658],[139.775206,-35.735326],[139.772868,-35.734125],[139.772331,-35.733863],[139.771591,-35.733663],[139.77069,-35.733498],[139.764499,-35.732644],[139.763523,-35.732601],[139.762847,-35.732653],[139.762188,-35.732759],[139.761978,-35.732792],[139.76069,-35.733158],[139.759886,-35.733428],[139.758856,-35.73395],[139.757504,-35.734821],[139.752215,-35.738017],[139.75179,-35.738264],[139.742956,-35.74339],[139.742033,-35.74407],[139.741228,-35.744923],[139.735789,-35.751985],[139.735317,-35.752786],[139.735048,-35.753465],[139.732677,-35.758053],[139.73169,-35.758933],[139.730457,-35.759612],[139.72918,-35.760221],[139.723762,-35.762781],[139.722592,-35.763469],[139.72153,-35.764269],[139.720307,-35.765584],[139.719256,-35.766785],[139.71637,-35.770859],[139.714031,-35.774158],[139.712861,-35.775804],[139.712647,-35.776178],[139.712454,-35.776718],[139.710082,-35.78335],[139.70976,-35.784125],[139.70931,-35.784934],[139.706832,-35.789503],[139.706016,-35.790304],[139.704106,-35.791409],[139.697218,-35.795221],[139.696585,-35.795665],[139.692653,-35.798987],[139.69069,-35.800651],[139.688762,-35.802321]]}},{"type":"Feature","properties":{"tier":"high"},"geometry":{"type":"LineString","coordinates":[[139.943597,-35.79577],[139.944772,-35.796351],[139.945469,-35.79674],[139.946295,-35.797295],[139.946408,-35.79739],[139.946864,-35.797773],[139.947371,-35.798228],[139.947845,-35.798728],[139.948332,-35.799332],[139.948935,-35.800161],[139.949422,-35.800792],[139.95018,-35.80172],[139.950688,-35.802302],[139.95157,-35.803238],[139.951773,-35.803455],[139.95203,-35.803716],[139.952413,-35.804063],[139.953019,-35.804594],[139.95347,-35.804977],[139.954794,-35.805992],[139.958563,-35.808879],[139.959803,-35.809817],[139.960982,-35.810719],[139.961655,-35.811167]]}},{"type":"Feature","properties":{"tier":"high"},"geometry":{"type":"LineString","coordinates":[[139.930971,-35.786808],[139.93213,-35.787715],[139.938931,-35.793034],[139.939723,-35.793605],[139.940643,-35.794199],[139.941652,-35.794786],[139.942315,-35.795137],[139.94351,-35.795727],[139.943597,-35.79577]]}},{"type":"Feature","properties":{"tier":"high"},"geometry":{"type":"LineString","coordinates":[[139.918518,-35.773951],[139.922002,-35.778786],[139.922808,-35.779785],[139.923356,-35.780422],[139.923918,-35.781015],[139.924317,-35.781405],[139.924852,-35.781916],[139.925529,-35.782525],[139.926206,-35.78308],[139.930971,-35.786808]]}},{"type":"Feature","properties":{"tier":"high"},"geometry":{"type":"LineString","coordinates":[[139.911004,-35.763778],[139.918518,-35.773951]]}},{"type":"Feature","properties":{"tier":"high"},"geometry":{"type":"LineString","coordinates":[[139.898324,-35.745263],[139.899125,-35.746252],[139.899828,-35.747166],[139.900652,-35.748323],[139.901236,-35.749155],[139.901804,-35.750017],[139.905936,-35.756329],[139.909065,-35.761088],[139.910018,-35.762448],[139.911004,-35.763778]]}},{"type":"Feature","properties":{"tier":"high"},"geometry":{"type":"LineString","coordinates":[[139.89011,-35.735559],[139.891065,-35.736603],[139.891994,-35.737646],[139.898324,-35.745263]]}},{"type":"Feature","properties":{"tier":"high"},"geometry":{"type":"LineString","coordinates":[[139.874715,-35.717607],[139.880664,-35.724738],[139.880962,-35.725099],[139.885707,-35.730838],[139.887149,-35.732472],[139.888402,-35.733794],[139.889988,-35.735433],[139.89011,-35.735559]]}},{"type":"Feature","properties":{"tier":"high"},"geometry":{"type":"LineString","coordinates":[[139.866756,-35.708019],[139.870441,-35.71246],[139.871337,-35.713561],[139.871706,-35.713982],[139.874715,-35.717607]]}},{"type":"Feature","properties":{"tier":"high"},"geometry":{"type":"LineString","coordinates":[[139.82851,-35.648624],[139.83053,-35.653639],[139.833998,-35.662458],[139.83434,-35.663329],[139.835999,-35.668323],[139.836116,-35.668662],[139.836202,-35.668911],[139.836507,-35.669725],[139.83696,-35.670748],[139.837413,-35.671655],[139.837799,-35.672375],[139.838368,-35.673381],[139.839011,-35.674355],[139.839674,-35.675289],[139.840182,-35.675955],[139.849317,-35.686927],[139.850481,-35.688325]]}},{"type":"Feature","properties":{"tier":"high"},"geometry":{"type":"LineString","coordinates":[[139.824126,-35.638217],[139.824993,-35.640048],[139.82571,-35.64167],[139.82851,-35.648624]]}},{"type":"Feature","properties":{"tier":"high"},"geometry":{"type":"LineString","coordinates":[[139.807004,-35.591964],[139.807211,-35.600349],[139.807232,-35.600839],[139.807293,-35.601361],[139.807388,-35.601868],[139.807509,-35.602341],[139.807658,-35.602864],[139.80797,-35.603695],[139.808071,-35.603959],[139.808288,-35.604394],[139.811086,-35.610459],[139.812902,-35.614453],[139.81572,-35.620473],[139.822525,-35.634838],[139.822966,-35.63577],[139.824126,-35.638217]]}},{"type":"Feature","properties":{"tier":"high"},"geometry":{"type":"LineString","coordinates":[[139.803435,-35.580979],[139.804754,-35.58246],[139.805472,-35.583533],[139.80623,-35.584959],[139.806629,-35.586022],[139.806873,-35.587133],[139.807015,-35.5884],[139.807004,-35.591964]]}},{"type":"Feature","properties":{"tier":"high"},"geometry":{"type":"LineString","coordinates":[[139.781838,-35.551417],[139.783744,-35.554039],[139.78765,-35.559953],[139.792166,-35.566206]]}},{"type":"Feature","properties":{"tier":"high"},"geometry":{"type":"LineString","coordinates":[[139.774118,-35.540502],[139.774376,-35.540998],[139.775135,-35.542193],[139.781838,-35.551417]]}},{"type":"Feature","properties":{"tier":"high"},"geometry":{"type":"LineString","coordinates":[[139.770769,-35.523432],[139.770938,-35.523922],[139.771175,-35.524765],[139.771378,-35.525756],[139.772502,-35.535787],[139.772772,-35.53706],[139.773158,-35.53831],[139.773713,-35.539725],[139.774118,-35.540502]]}},{"type":"Feature","properties":{"tier":"high"},"geometry":{"type":"LineString","coordinates":[[139.762289,-35.513589],[139.763182,-35.514385],[139.763734,-35.514901],[139.764148,-35.515316],[139.764544,-35.515718],[139.764942,-35.516125],[139.765323,-35.516522],[139.766411,-35.517653],[139.767142,-35.518395],[139.767863,-35.519179],[139.768511,-35.519895],[139.769205,-35.520699],[139.76992,-35.521757],[139.770376,-35.522556],[139.770769,-35.523432]]}},{"type":"Feature","properties":{"tier":"high"},"geometry":{"type":"LineString","coordinates":[[139.749155,-35.49998],[139.749587,-35.500343],[139.750325,-35.501032],[139.756541,-35.507763],[139.757837,-35.509179],[139.757891,-35.509234],[139.75973,-35.511189],[139.760487,-35.511939],[139.761072,-35.512498],[139.761637,-35.513013],[139.762289,-35.513589]]}},{"type":"Feature","properties":{"tier":"regional"},"geometry":{"type":"LineString","coordinates":[[140.00002,-35.574401],[139.995165,-35.574081],[139.99423,-35.57401],[139.990169,-35.5737],[139.989343,-35.57364],[139.988498,-35.573556],[139.987746,-35.573424],[139.985413,-35.572758],[139.984225,-35.572388],[139.98375,-35.57224],[139.983348,-35.572055],[139.982623,-35.571681],[139.981555,-35.571057],[139.980722,-35.570725],[139.98006,-35.570563],[139.979454,-35.570495],[139.978883,-35.57049],[139.978261,-35.570531],[139.977863,-35.570603],[139.97749,-35.570716],[139.976969,-35.570935],[139.976349,-35.571221],[139.976289,-35.571249],[139.975871,-35.571532],[139.975384,-35.571965],[139.97489,-35.572584],[139.97467,-35.573064],[139.974553,-35.573503],[139.974518,-35.57409],[139.974644,-35.576176],[139.974762,-35.578759],[139.974832,-35.580725],[139.974538,-35.586162],[139.974501,-35.586926],[139.974423,-35.587571],[139.974358,-35.588004],[139.974221,-35.588453],[139.973887,-35.589239],[139.973398,-35.590009],[139.970941,-35.593381],[139.968347,-35.596942],[139.96775,-35.597897],[139.967414,-35.598647],[139.967291,-35.59917],[139.967245,-35.599592],[139.967232,-35.600121],[139.967293,-35.600664],[139.967388,-35.601377],[139.968009,-35.604007],[139.96823,-35.605402],[139.968813,-35.610596],[139.968798,-35.611232],[139.968646,-35.612773],[139.968485,-35.613613],[139.968158,-35.614331],[139.967623,-35.615046],[139.966947,-35.615736],[139.963963,-35.618262]]}},{"type":"Feature","properties":{"tier":"high"},"geometry":{"type":"LineString","coordinates":[[139.852777,-35.691047],[139.853282,-35.691647],[139.853817,-35.692256]]}},{"type":"Feature","properties":{"tier":"high"},"geometry":{"type":"LineString","coordinates":[[139.854674,-35.693289],[139.854749,-35.69338],[139.855189,-35.693903],[139.855432,-35.694191],[139.856076,-35.694956],[139.856378,-35.695315],[139.856957,-35.696004],[139.856994,-35.696048],[139.857075,-35.696151],[139.857682,-35.696881],[139.857858,-35.697094],[139.859547,-35.69928]]}},{"type":"Feature","properties":{"tier":"high"},"geometry":{"type":"LineString","coordinates":[[139.853817,-35.692256],[139.854674,-35.693289]]}},{"type":"Feature","properties":{"tier":"high"},"geometry":{"type":"LineString","coordinates":[[139.958563,-35.808879],[139.959178,-35.809166],[139.959272,-35.809238],[139.960571,-35.810245],[139.960982,-35.810719]]}},{"type":"Feature","properties":{"tier":"high"},"geometry":{"type":"LineString","coordinates":[[139.946408,-35.79739],[139.946135,-35.797368],[139.946037,-35.797389],[139.945759,-35.797471]]}},{"type":"Feature","properties":{"tier":"high"},"geometry":{"type":"LineString","coordinates":[[139.943533,-35.796359],[139.943656,-35.796223],[139.943705,-35.796024],[139.943653,-35.795888],[139.94351,-35.795727]]}}]}
