{"type":"FeatureCollection","features":[{"type":"Feature","properties":{"tier":"arterial"},"geometry":{"type":"LineString","coordinates":[[139.544785,-31.50002],[139.544777,-31.49998],[139.544292,-31.497475],[139.543198,-31.492026],[139.542949,-31.490657],[139.54213,-31.486574],[139.541717,-31.484704],[139.540879,-31.480412],[139.540476,-31.478575],[139.540187,-31.477454],[139.539349,-31.474486],[139.538807,-31.472444],[139.537787,-31.468781],[139.53761,-31.468099],[139.536077,-31.46263],[139.535514,-31.460723],[139.534888,-31.458513],[139.534453,-31.457067],[139.533629,-31.454164],[139.53252,-31.450355],[139.530858,-31.444712],[139.529199,-31.439216],[139.528865,-31.438045],[139.528661,-31.437176],[139.528204,-31.434709],[139.527173,-31.42943],[139.526963,-31.428527],[139.526523,-31.427026],[139.52636,-31.426581],[139.526095,-31.425939],[139.525943,-31.425621],[139.524007,-31.421816],[139.523749,-31.421328],[139.523311,-31.420596],[139.52311,-31.420332],[139.5229,-31.420096],[139.522695,-31.419916],[139.522512,-31.419797],[139.521563,-31.419285],[139.52011,-31.418681],[139.519886,-31.418619],[139.519551,-31.4185],[139.517498,-31.417666],[139.516517,-31.417308],[139.516373,-31.417267],[139.516159,-31.417243],[139.516077,-31.417244],[139.515901,-31.417275],[139.515811,-31.417308],[139.515629,-31.417412],[139.515331,-31.417611],[139.514992,-31.417807],[139.514634,-31.418039],[139.513718,-31.418563],[139.513322,-31.418816],[139.513,-31.418992],[139.511994,-31.419594],[139.511516,-31.419912],[139.509509,-31.421064],[139.509355,-31.421167],[139.508984,-31.421416],[139.508481,-31.42172],[139.507341,-31.422356],[139.506549,-31.422886],[139.50628,-31.423034],[139.505609,-31.423366],[139.502811,-31.424611],[139.49998,-31.425935]]}},{"type":"Feature","properties":{"tier":"arterial"},"geometry":{"type":"LineString","coordinates":[[139.513629,-30.99998],[139.51713,-31.018871],[139.517225,-31.019579],[139.517351,-31.019999],[139.51751,-31.020462],[139.517878,-31.021338],[139.523103,-31.034054],[139.523846,-31.035667],[139.524318,-31.036471],[139.524831,-31.037287],[139.528406,-31.043002],[139.542158,-31.064827],[139.542624,-31.065709],[139.543008,-31.066739],[139.552313,-31.093646],[139.55286,-31.095109],[139.553224,-31.09606],[139.561373,-31.114595],[139.561611,-31.115091],[139.561888,-31.115589],[139.562812,-31.116658],[139.563773,-31.117382],[139.564299,-31.117683],[139.564929,-31.117979],[139.567105,-31.118728],[139.571318,-31.120178],[139.571788,-31.12034],[139.572587,-31.120622],[139.573314,-31.120907],[139.574341,-31.121453],[139.578765,-31.1242],[139.58296,-31.126808],[139.583772,-31.127448],[139.584099,-31.127784],[139.584389,-31.128115],[139.58478,-31.128686],[139.587402,-31.134087],[139.601467,-31.162906],[139.601647,-31.163262],[139.601799,-31.163531],[139.601934,-31.163751],[139.602028,-31.163896],[139.602129,-31.164043],[139.602237,-31.164193],[139.602344,-31.164336],[139.602469,-31.164494],[139.602605,-31.164657],[139.602812,-31.16489],[139.603016,-31.165104],[139.603221,-31.165305],[139.603511,-31.165568],[139.603943,-31.165989],[139.61277,-31.174639],[139.615413,-31.177277],[139.61595,-31.17783],[139.616414,-31.178402],[139.617367,-31.17958],[139.644254,-31.213957],[139.644717,-31.214572],[139.645357,-31.215277],[139.646089,-31.216026],[139.654578,-31.224609],[139.660197,-31.230289],[139.660829,-31.230878],[139.661656,-31.231427],[139.662226,-31.231674],[139.662894,-31.231908],[139.664295,-31.232326],[139.667106,-31.233097],[139.667647,-31.233183],[139.668267,-31.233229],[139.669466,-31.233188],[139.689572,-31.231354],[139.691074,-31.231042],[139.704431,-31.226557],[139.706644,-31.225782],[139.707414,-31.22563],[139.707894,-31.225601],[139.708411,-31.22562],[139.717388,-31.226099],[139.729244,-31.225679],[139.741392,-31.225225],[139.74294,-31.225161],[139.744458,-31.225184],[139.750248,-31.225338],[139.751529,-31.225346],[139.752166,-31.225313],[139.75287,-31.225237],[139.761498,-31.223867],[139.762364,-31.22383],[139.762815,-31.223862],[139.763061,-31.223904],[139.763279,-31.223941],[139.763673,-31.224023],[139.764095,-31.224161],[139.764542,-31.224353],[139.764931,-31.224565],[139.765309,-31.224849],[139.765618,-31.225152],[139.765963,-31.225582],[139.766149,-31.225923],[139.766298,-31.226386],[139.767023,-31.232349],[139.767066,-31.232853],[139.767034,-31.233355],[139.766999,-31.233757],[139.76691,-31.234204],[139.76679,-31.234683],[139.759621,-31.256762],[139.758711,-31.261022],[139.757872,-31.265359],[139.747379,-31.317715],[139.747043,-31.319264],[139.746834,-31.320024],[139.746585,-31.320758],[139.739461,-31.341524],[139.732829,-31.362814],[139.732323,-31.364366],[139.731071,-31.368406],[139.730248,-31.3712],[139.729995,-31.371918],[139.729807,-31.372665],[139.729638,-31.374208],[139.72975,-31.384417],[139.72964,-31.385593],[139.729348,-31.386917],[139.725533,-31.401622],[139.724632,-31.406121],[139.724459,-31.40717],[139.724282,-31.407964],[139.724105,-31.408685],[139.72381,-31.409557],[139.723467,-31.410407],[139.722986,-31.411359],[139.706191,-31.439451],[139.705528,-31.440431],[139.704979,-31.441479],[139.702876,-31.446605],[139.701696,-31.449022],[139.700754,-31.450252],[139.699786,-31.4514],[139.685275,-31.465086],[139.68443,-31.465966],[139.683679,-31.466936],[139.682161,-31.468917],[139.679078,-31.47298],[139.67129,-31.48321],[139.668098,-31.487855],[139.667549,-31.488617],[139.666886,-31.489342],[139.656246,-31.50002]]}}]}
