{"type":"FeatureCollection","features":[{"type":"Feature","properties":{"tier":"arterial"},"geometry":{"type":"LineString","coordinates":[[139.648868,-36.1287],[139.648945,-36.129506],[139.649026,-36.129998],[139.649227,-36.130491],[139.649356,-36.130755],[139.649553,-36.131034],[139.649777,-36.13134],[139.650053,-36.131645],[139.65044,-36.131999],[139.65107,-36.132489],[139.651551,-36.132825],[139.652652,-36.133571],[139.654346,-36.134709],[139.655065,-36.135237],[139.655513,-36.135637],[139.655784,-36.135893],[139.655989,-36.136127],[139.656195,-36.136406],[139.656437,-36.136749],[139.656666,-36.137137],[139.656806,-36.137412],[139.65696,-36.137819],[139.657413,-36.13947],[139.658005,-36.141535],[139.658775,-36.14414],[139.65885,-36.144298],[139.659107,-36.144709],[139.659443,-36.145202],[139.659984,-36.145888],[139.661436,-36.147818],[139.662444,-36.149133],[139.66369,-36.150761],[139.665067,-36.152585],[139.666453,-36.15439],[139.667736,-36.156135],[139.668413,-36.15702],[139.668688,-36.157393],[139.669272,-36.158151],[139.669976,-36.159066],[139.67035,-36.159568],[139.670756,-36.160095],[139.671134,-36.160607],[139.671288,-36.160871],[139.671446,-36.16118],[139.671559,-36.161418],[139.671638,-36.16164],[139.67174,-36.162009],[139.67182,-36.162314],[139.671866,-36.162586],[139.671899,-36.162857],[139.671904,-36.163252],[139.671895,-36.163531],[139.671866,-36.163791],[139.67182,-36.164096],[139.671764,-36.164364],[139.67133,-36.166338],[139.67084,-36.168663],[139.670359,-36.170859],[139.669897,-36.172973],[139.66971,-36.173949],[139.669678,-36.174182],[139.669664,-36.17445],[139.669664,-36.174736],[139.669668,-36.174974],[139.66971,-36.175252],[139.669771,-36.17561],[139.669846,-36.175863],[139.669953,-36.17616],[139.67007,-36.176443],[139.670242,-36.176801],[139.670821,-36.177976],[139.671092,-36.178549],[139.671703,-36.179796],[139.67237,-36.181148],[139.672707,-36.181837],[139.672837,-36.182078],[139.672987,-36.182327],[139.673285,-36.182756],[139.673873,-36.183563],[139.67483,-36.1849],[139.676104,-36.186689],[139.676729,-36.187544],[139.677392,-36.188456],[139.678316,-36.189763],[139.67918,-36.190938],[139.679959,-36.192019],[139.680655,-36.192991],[139.681784,-36.194557],[139.682657,-36.195778],[139.68345,-36.196874],[139.68458,-36.198429],[139.685616,-36.199879],[139.68591,-36.200339],[139.686479,-36.201273],[139.687184,-36.202406],[139.687949,-36.203645],[139.688719,-36.204873],[139.689853,-36.206692],[139.691239,-36.208951],[139.691501,-36.209384],[139.691781,-36.20984],[139.692093,-36.210333],[139.692327,-36.210691],[139.69249,-36.210943],[139.692672,-36.211278],[139.692952,-36.21173],[139.693414,-36.212465],[139.693722,-36.212977],[139.69404,-36.213477],[139.694334,-36.213956],[139.694586,-36.214377],[139.695071,-36.215134],[139.695701,-36.216155],[139.696261,-36.217047],[139.696448,-36.217371],[139.696597,-36.217664],[139.6967,-36.217917],[139.696807,-36.218207],[139.696905,-36.218549],[139.696956,-36.218817],[139.696999,-36.219118],[139.697017,-36.219468],[139.697069,-36.220063],[139.697106,-36.220899],[139.697208,-36.222612],[139.697362,-36.225262],[139.697484,-36.227461],[139.697519,-36.228164],[139.69754,-36.228374],[139.697551,-36.228496],[139.697577,-36.228672],[139.69763,-36.228923],[139.697685,-36.229118],[139.697752,-36.229316],[139.697867,-36.229587],[139.697969,-36.229813],[139.698084,-36.230031],[139.69821,-36.230246],[139.698394,-36.230511],[139.698828,-36.23115],[139.700018,-36.232939],[139.700243,-36.233269],[139.700634,-36.233872],[139.701082,-36.23455],[139.701829,-36.23569],[139.702356,-36.236481],[139.702587,-36.236814],[139.702856,-36.237241],[139.70329,-36.237896],[139.703593,-36.238322],[139.703994,-36.238807],[139.704918,-36.239914],[139.705642,-36.240787],[139.705889,-36.241115],[139.706025,-36.241322],[139.706197,-36.241612],[139.706398,-36.241977],[139.707247,-36.243479],[139.707751,-36.244367],[139.709039,-36.246659],[139.71037,-36.249064],[139.710762,-36.249749],[139.710864,-36.249931]]}},{"type":"Feature","properties":{"tier":"arterial"},"geometry":{"type":"LineString","coordinates":[[139.549838,-35.99998],[139.550799,-36.000994],[139.553151,-36.003448],[139.554607,-36.004959],[139.556716,-36.007145],[139.557533,-36.007968],[139.558863,-36.009346],[139.56003,-36.010537],[139.560628,-36.011173],[139.561402,-36.011973],[139.562205,-36.012823],[139.562709,-36.013355],[139.563208,-36.013857],[139.563764,-36.014427],[139.564865,-36.01559],[139.56599,-36.016756],[139.566186,-36.016949],[139.566629,-36.017406],[139.566835,-36.017643],[139.567021,-36.017874],[139.56725,-36.01821],[139.567399,-36.0185],[139.567553,-36.01881],[139.56802,-36.020123],[139.568164,-36.020511],[139.568832,-36.022313],[139.569584,-36.024347],[139.569943,-36.025366],[139.570186,-36.026019],[139.570368,-36.026472],[139.570965,-36.028174],[139.571124,-36.02856],[139.571282,-36.028907],[139.571422,-36.029171],[139.571553,-36.029382],[139.571639,-36.029493],[139.571791,-36.029692],[139.572006,-36.02996],[139.572351,-36.030307],[139.57341,-36.031311],[139.573961,-36.031856],[139.57447,-36.032319],[139.575063,-36.032904],[139.575637,-36.033466],[139.576043,-36.033855],[139.576435,-36.034228],[139.576743,-36.034526],[139.576999,-36.034821],[139.577191,-36.035062],[139.577443,-36.035417],[139.577639,-36.035678],[139.577872,-36.035995],[139.578096,-36.036289],[139.578535,-36.036878],[139.579206,-36.037791],[139.579772,-36.038561],[139.581569,-36.040938],[139.582843,-36.04261],[139.584527,-36.044901],[139.584956,-36.045469],[139.585367,-36.046014],[139.586236,-36.047176],[139.586623,-36.047693],[139.586856,-36.047995],[139.587318,-36.048633],[139.587622,-36.049085],[139.58772,-36.049289],[139.587832,-36.049512],[139.587953,-36.049818],[139.588037,-36.050108],[139.588154,-36.05047],[139.588326,-36.051168],[139.58869,-36.052497],[139.588961,-36.053466],[139.589376,-36.054908],[139.589488,-36.055175],[139.589591,-36.055389],[139.589731,-36.055628],[139.58989,-36.055889],[139.590058,-36.056138],[139.590249,-36.056375],[139.590455,-36.056624],[139.590679,-36.056843],[139.590912,-36.057039],[139.591186,-36.05729],[139.591547,-36.057537],[139.592155,-36.057962],[139.592783,-36.058401],[139.592971,-36.058511],[139.593614,-36.058888],[139.59423,-36.059201],[139.594428,-36.059273],[139.5948,-36.059409],[139.59626,-36.059914],[139.597772,-36.060431],[139.598234,-36.06062],[139.598505,-36.060752],[139.598799,-36.06091],[139.59907,-36.061073],[139.599294,-36.061223],[139.599537,-36.061393],[139.599793,-36.061578],[139.600027,-36.061786],[139.600255,-36.062023],[139.600507,-36.06231],[139.600713,-36.06257],[139.600895,-36.062827],[139.601058,-36.063076],[139.60124,-36.063415],[139.60139,-36.063725],[139.601492,-36.064027],[139.601572,-36.064298],[139.601651,-36.064653],[139.601684,-36.064932],[139.601702,-36.065177],[139.601707,-36.06546],[139.601628,-36.067086],[139.601604,-36.067618],[139.601604,-36.067826],[139.601618,-36.067999],[139.601674,-36.068263],[139.601767,-36.06881],[139.602202,-36.070934],[139.602309,-36.071556],[139.602319,-36.071715],[139.602346,-36.071949],[139.602346,-36.072122],[139.602355,-36.07239],[139.602351,-36.072579],[139.602323,-36.073005],[139.60222,-36.07465],[139.602141,-36.075823],[139.602132,-36.076011],[139.602127,-36.07626],[139.602136,-36.076483],[139.602178,-36.076736],[139.602223,-36.076955],[139.602295,-36.077226],[139.602374,-36.077509],[139.602584,-36.078162],[139.602874,-36.078984],[139.602948,-36.079225],[139.60313,-36.079772],[139.603289,-36.080115],[139.603415,-36.080334],[139.603653,-36.080674],[139.603891,-36.080964],[139.604185,-36.081277],[139.604442,-36.081507],[139.604736,-36.081737],[139.605006,-36.081941],[139.606126,-36.082793],[139.606374,-36.082959],[139.606691,-36.083155],[139.608026,-36.083846],[139.608259,-36.083959],[139.610187,-36.084943],[139.613571,-36.086659],[139.615091,-36.087448],[139.615582,-36.087696],[139.615806,-36.087828],[139.616072,-36.088017],[139.616338,-36.088228],[139.616534,-36.088402],[139.616693,-36.088538],[139.616907,-36.088741],[139.617099,-36.088967],[139.617253,-36.089145],[139.617408,-36.089369],[139.617542,-36.089537],[139.617649,-36.08971],[139.61778,-36.089948],[139.617892,-36.09017],[139.618042,-36.090491],[139.618186,-36.090812],[139.618564,-36.091675],[139.618826,-36.092252],[139.619642,-36.094081],[139.620002,-36.094847],[139.620184,-36.095254],[139.620333,-36.095514],[139.62044,-36.095699],[139.620524,-36.095833],[139.620683,-36.096057],[139.620856,-36.096276],[139.62108,-36.096529],[139.621313,-36.096793],[139.621612,-36.09714],[139.621967,-36.097543],[139.622312,-36.09792],[139.62297,-36.098644],[139.623777,-36.099564],[139.624057,-36.099855],[139.624328,-36.100108],[139.624599,-36.10033],[139.624953,-36.100609],[139.625322,-36.100881],[139.626204,-36.101548],[139.626597,-36.101848],[139.626732,-36.101951],[139.627049,-36.102227],[139.627278,-36.10246],[139.627516,-36.102717],[139.627758,-36.10303],[139.628253,-36.103663],[139.629233,-36.104949],[139.62933,-36.105078],[139.629662,-36.105492],[139.630409,-36.106484],[139.631436,-36.107796],[139.63173,-36.108165],[139.631926,-36.108373],[139.632017,-36.108475],[139.632183,-36.108614],[139.632523,-36.108897],[139.632737,-36.109058],[139.633055,-36.109293],[139.633541,-36.109613],[139.634213,-36.110058],[139.634446,-36.110217],[139.634651,-36.110383],[139.634885,-36.110579],[139.635053,-36.110733],[139.635291,-36.110978],[139.635492,-36.111216],[139.635963,-36.111815],[139.637158,-36.11332],[139.638026,-36.11447],[139.63846,-36.115088],[139.639108,-36.116015],[139.640439,-36.117931],[139.641377,-36.119284],[139.641595,-36.119611],[139.642352,-36.120713],[139.64302,-36.121621],[139.643916,-36.122884],[139.644354,-36.123552],[139.644602,-36.123857],[139.644798,-36.124064],[139.644986,-36.124263],[139.645194,-36.124464],[139.64539,-36.12463]]}},{"type":"Feature","properties":{"tier":"arterial"},"geometry":{"type":"LineString","coordinates":[[139.710864,-36.249931],[139.711835,-36.251639],[139.712826,-36.253407],[139.714689,-36.25675],[139.715088,-36.257668],[139.715482,-36.258611],[139.716049,-36.259945],[139.716657,-36.261351],[139.717207,-36.26268],[139.717756,-36.263982],[139.71811,-36.264803],[139.718388,-36.26529],[139.718635,-36.265646],[139.719428,-36.266711],[139.71959,-36.266937],[139.719886,-36.267331],[139.720058,-36.267584],[139.720231,-36.267903],[139.720788,-36.269066],[139.721804,-36.27123],[139.72237,-36.272444],[139.7228,-36.273367],[139.722877,-36.273531],[139.723212,-36.274251],[139.723512,-36.274861],[139.723671,-36.275165],[139.723821,-36.2754],[139.724016,-36.275681],[139.724151,-36.275831],[139.724311,-36.276029],[139.724595,-36.276287],[139.724847,-36.276494],[139.725125,-36.276695],[139.725528,-36.276949],[139.726053,-36.277206],[139.727786,-36.277988],[139.728786,-36.278446],[139.729729,-36.2789],[139.730051,-36.279097],[139.730413,-36.279341],[139.730681,-36.279556],[139.730993,-36.27987],[139.731283,-36.280203],[139.73154,-36.280597],[139.731857,-36.281204],[139.732198,-36.281897],[139.733822,-36.285305],[139.735412,-36.28862],[139.735786,-36.28924],[139.73626,-36.289904],[139.741867,-36.298508],[139.743974,-36.301714],[139.744374,-36.302315],[139.744714,-36.302992],[139.745032,-36.303691],[139.745393,-36.304426],[139.746651,-36.307102],[139.747319,-36.308532],[139.74765,-36.309242],[139.747958,-36.309909],[139.748491,-36.311036],[139.749626,-36.313467],[139.752872,-36.320423],[139.753389,-36.321491],[139.755323,-36.325649],[139.756298,-36.327751],[139.757259,-36.3298],[139.759434,-36.334501],[139.762252,-36.34175],[139.762825,-36.343225],[139.764185,-36.346707],[139.76553,-36.350167],[139.765767,-36.350744],[139.766014,-36.35128],[139.766234,-36.351691],[139.766463,-36.352041],[139.766902,-36.352696],[139.770052,-36.357436],[139.771151,-36.35909],[139.772863,-36.361699],[139.773034,-36.361997],[139.773225,-36.362328],[139.773554,-36.362995],[139.77836,-36.373984],[139.785098,-36.38929],[139.787314,-36.394389],[139.787622,-36.395079],[139.787808,-36.395648],[139.787903,-36.396039],[139.787964,-36.396407],[139.787989,-36.396821],[139.787998,-36.397184],[139.788032,-36.398063],[139.788104,-36.398624],[139.788267,-36.399194],[139.789541,-36.402591],[139.790862,-36.406047],[139.796682,-36.421356],[139.79803,-36.424903],[139.798282,-36.425535],[139.798563,-36.426237],[139.79863,-36.426393],[139.799075,-36.42742],[139.799477,-36.428325],[139.79989,-36.429199],[139.801631,-36.433102],[139.80295,-36.436057],[139.805803,-36.442889],[139.808659,-36.449827],[139.809026,-36.450729],[139.809284,-36.4516],[139.810537,-36.456804],[139.811567,-36.461034],[139.812097,-36.463206],[139.812278,-36.463756],[139.812998,-36.46559],[139.813233,-36.466188]]}},{"type":"Feature","properties":{"tier":"arterial"},"geometry":{"type":"LineString","coordinates":[[139.648799,-36.127711],[139.648811,-36.12784],[139.648817,-36.127935]]}},{"type":"Feature","properties":{"tier":"arterial"},"geometry":{"type":"LineString","coordinates":[[139.648817,-36.127935],[139.648863,-36.128366],[139.648865,-36.128504],[139.648868,-36.1287]]}},{"type":"Feature","properties":{"tier":"arterial"},"geometry":{"type":"LineString","coordinates":[[139.813233,-36.466188],[139.813718,-36.467422],[139.814977,-36.470604],[139.815625,-36.472236],[139.815938,-36.472991],[139.816255,-36.473677],[139.819731,-36.480095],[139.821776,-36.48396],[139.822038,-36.484504],[139.822318,-36.485172],[139.822778,-36.486479],[139.823893,-36.489619],[139.824273,-36.490702],[139.824651,-36.491719],[139.825567,-36.493862],[139.828275,-36.50002]]}},{"type":"Feature","properties":{"tier":"arterial"},"geometry":{"type":"LineString","coordinates":[[139.64539,-36.12463],[139.645591,-36.12478],[139.645806,-36.124939],[139.646048,-36.125093],[139.64652,-36.125399],[139.647123,-36.125773],[139.64741,-36.125951],[139.647616,-36.126084],[139.647869,-36.126248],[139.648122,-36.126446],[139.648314,-36.126654],[139.648426,-36.126795],[139.648497,-36.126896],[139.648592,-36.127057],[139.648706,-36.127346],[139.648779,-36.127593],[139.648799,-36.127711]]}}]}
