{"type":"FeatureCollection","features":[{"type":"Feature","properties":{"tier":"arterial"},"geometry":{"type":"LineString","coordinates":[[139.632411,-34.49998],[139.632466,-34.500565],[139.632485,-34.500986],[139.632457,-34.501445],[139.632327,-34.502287],[139.632093,-34.503099],[139.631881,-34.503619],[139.63163,-34.50414],[139.631157,-34.504882],[139.630095,-34.506125],[139.626348,-34.510042],[139.623521,-34.51305],[139.62079,-34.515906],[139.620298,-34.516524],[139.619843,-34.517175],[139.619386,-34.518097],[139.619109,-34.518851],[139.618914,-34.519739],[139.618217,-34.524178],[139.618078,-34.524637],[139.617916,-34.525024],[139.617613,-34.525616],[139.617233,-34.526221],[139.616796,-34.526841],[139.616406,-34.527468],[139.616016,-34.528379],[139.614667,-34.531859],[139.613861,-34.534073],[139.613703,-34.534784],[139.613656,-34.535771],[139.61377,-34.536482],[139.613818,-34.536777],[139.615207,-34.541706],[139.615839,-34.543851],[139.61609,-34.544961],[139.616248,-34.54607],[139.616322,-34.547065],[139.616361,-34.547582],[139.616369,-34.548235],[139.616325,-34.54906],[139.616238,-34.549972],[139.616132,-34.550694],[139.614897,-34.556934]]}},{"type":"Feature","properties":{"tier":"arterial"},"geometry":{"type":"LineString","coordinates":[[139.568258,-34.754396],[139.567886,-34.754768],[139.567812,-34.754845],[139.567768,-34.754977],[139.567778,-34.755077],[139.56783,-34.755179],[139.568573,-34.755538],[139.569202,-34.755818],[139.569491,-34.75602],[139.569716,-34.756234],[139.569884,-34.756472],[139.569959,-34.756642],[139.570013,-34.756852],[139.570263,-34.758183]]}},{"type":"Feature","properties":{"tier":"arterial"},"geometry":{"type":"LineString","coordinates":[[139.614761,-34.558122],[139.615045,-34.558046],[139.615561,-34.557913],[139.616266,-34.55777],[139.619774,-34.55714],[139.619944,-34.557109],[139.635688,-34.554396],[139.663272,-34.549642],[139.685111,-34.545864],[139.699702,-34.543346],[139.71807,-34.540173],[139.723474,-34.539242],[139.723992,-34.539177],[139.724533,-34.53913],[139.725105,-34.539102],[139.725717,-34.539098],[139.726323,-34.539114],[139.727892,-34.539194],[139.728543,-34.539208],[139.729038,-34.539183],[139.729602,-34.539136],[139.730226,-34.539059],[139.730777,-34.538945],[139.731242,-34.538825],[139.732253,-34.538511],[139.734555,-34.537619],[139.735617,-34.537278],[139.736512,-34.537037],[139.737216,-34.536875],[139.737717,-34.536777],[139.738267,-34.536688],[139.751919,-34.534324],[139.752782,-34.534183],[139.753647,-34.534079],[139.754546,-34.534015],[139.755458,-34.533974],[139.757576,-34.533911],[139.758149,-34.533884],[139.75879,-34.533828],[139.759595,-34.533688],[139.760359,-34.533513],[139.760968,-34.533337],[139.762478,-34.532801],[139.769672,-34.530197],[139.770624,-34.529849],[139.77106,-34.529669],[139.771397,-34.529509],[139.771937,-34.529182],[139.772467,-34.528786],[139.773559,-34.527747],[139.774088,-34.527272],[139.774562,-34.526914],[139.775034,-34.526615],[139.775404,-34.526419],[139.775766,-34.526254],[139.776101,-34.526121],[139.781346,-34.524214],[139.785586,-34.522683],[139.786173,-34.522474],[139.786562,-34.522361],[139.786999,-34.52226],[139.787419,-34.522184],[139.789257,-34.521928],[139.79288,-34.52142],[139.793476,-34.521336],[139.793978,-34.521229],[139.794477,-34.521095],[139.795081,-34.520875],[139.795603,-34.520635],[139.796089,-34.52036],[139.796466,-34.520107],[139.797594,-34.519148],[139.798104,-34.518775],[139.798479,-34.518549],[139.798895,-34.518336],[139.799504,-34.518081],[139.800682,-34.517673],[139.801792,-34.517288],[139.802608,-34.516932],[139.803169,-34.516612],[139.803714,-34.516227],[139.804919,-34.515205],[139.80599,-34.51429],[139.806295,-34.51406],[139.806691,-34.51381],[139.807119,-34.513571],[139.807738,-34.513288],[139.808693,-34.512976],[139.851331,-34.49998]]}},{"type":"Feature","properties":{"tier":"arterial"},"geometry":{"type":"LineString","coordinates":[[139.657937,-34.664608],[139.657973,-34.664627],[139.658009,-34.664641],[139.65805,-34.664653],[139.658102,-34.664662],[139.658153,-34.664666],[139.658418,-34.664665],[139.670761,-34.664635],[139.676025,-34.664622],[139.678171,-34.664619],[139.678998,-34.664613],[139.680288,-34.66461],[139.686804,-34.664598],[139.689868,-34.664651],[139.692814,-34.66465],[139.695471,-34.664639],[139.698776,-34.66463],[139.699541,-34.664628]]}},{"type":"Feature","properties":{"tier":"regional"},"geometry":{"type":"LineString","coordinates":[[139.991615,-34.983889],[139.992001,-34.986139],[139.99243,-34.988073],[139.992731,-34.988881],[139.994404,-34.992784],[139.996035,-34.997108],[139.99655,-34.998479],[139.996765,-34.999253],[139.996737,-35.00002]]}},{"type":"Feature","properties":{"tier":"arterial"},"geometry":{"type":"LineString","coordinates":[[139.608474,-34.585643],[139.609166,-34.585701],[139.60929,-34.585712],[139.609965,-34.58577],[139.61011,-34.585773],[139.610186,-34.585766]]}},{"type":"Feature","properties":{"tier":"arterial"},"geometry":{"type":"LineString","coordinates":[[139.597717,-34.565752],[139.598074,-34.565923],[139.598227,-34.565965],[139.598361,-34.565986],[139.598438,-34.565975],[139.598488,-34.565967],[139.598688,-34.565902],[139.59876,-34.565865],[139.598826,-34.565831],[139.599006,-34.565783],[139.599754,-34.565645]]}},{"type":"Feature","properties":{"tier":"arterial"},"geometry":{"type":"LineString","coordinates":[[139.610329,-34.585868],[139.610431,-34.58606],[139.61066,-34.586432],[139.61103,-34.586945]]}},{"type":"Feature","properties":{"tier":"regional"},"geometry":{"type":"LineString","coordinates":[[139.587167,-34.602763],[139.57894,-34.621812],[139.578659,-34.622499],[139.578531,-34.623394],[139.578333,-34.625352],[139.575539,-34.636403],[139.573081,-34.644128],[139.570692,-34.652242],[139.564368,-34.660485]]}},{"type":"Feature","properties":{"tier":"arterial"},"geometry":{"type":"LineString","coordinates":[[139.597717,-34.565752],[139.59778,-34.565626],[139.5978,-34.565548],[139.597798,-34.56553],[139.597794,-34.56549],[139.597688,-34.565149]]}},{"type":"Feature","properties":{"tier":"arterial"},"geometry":{"type":"LineString","coordinates":[[139.597075,-34.563473],[139.597011,-34.563321],[139.596942,-34.563067],[139.596946,-34.562986],[139.596979,-34.562925],[139.597038,-34.562858],[139.597125,-34.562816],[139.597254,-34.562782],[139.597814,-34.562696],[139.598229,-34.562622],[139.598448,-34.562567],[139.598528,-34.562537],[139.598724,-34.562465],[139.598938,-34.562369],[139.599202,-34.562215],[139.599418,-34.56206],[139.599612,-34.561889],[139.599767,-34.56172],[139.599898,-34.561539],[139.600023,-34.561328],[139.6001,-34.561154],[139.600169,-34.560951],[139.600206,-34.560795],[139.600234,-34.560578],[139.600239,-34.560396],[139.600221,-34.560233],[139.600194,-34.560078],[139.600138,-34.559851],[139.60003,-34.55952],[139.599919,-34.559178],[139.599838,-34.558985],[139.599736,-34.558788],[139.59959,-34.558581],[139.59944,-34.558413],[139.599268,-34.558245],[139.599085,-34.558095],[139.598912,-34.557981],[139.59867,-34.557855],[139.598474,-34.557771],[139.598198,-34.557683],[139.597926,-34.557615],[139.597646,-34.557578],[139.597353,-34.557563],[139.59709,-34.557575],[139.596759,-34.557613],[139.594169,-34.557947],[139.591196,-34.558336],[139.588854,-34.558662],[139.587459,-34.559069],[139.584884,-34.559702],[139.584514,-34.559804],[139.579839,-34.561022],[139.576793,-34.561622],[139.569334,-34.5625],[139.561429,-34.563602],[139.546709,-34.56551],[139.528159,-34.567936],[139.504266,-34.571058],[139.49998,-34.571621]]}},{"type":"Feature","properties":{"tier":"arterial"},"geometry":{"type":"LineString","coordinates":[[139.614761,-34.558122],[139.614657,-34.558149],[139.614397,-34.55823],[139.614297,-34.558267],[139.614098,-34.558342],[139.613454,-34.558614],[139.612782,-34.558926],[139.612004,-34.559287],[139.611563,-34.559495]]}},{"type":"Feature","properties":{"tier":"arterial"},"geometry":{"type":"LineString","coordinates":[[139.580643,-34.754192],[139.581059,-34.754922],[139.582743,-34.757874],[139.582962,-34.758305],[139.58311,-34.758663],[139.583249,-34.759061],[139.583349,-34.75945],[139.583411,-34.759781],[139.584613,-34.768221],[139.586992,-34.784908],[139.587055,-34.785503],[139.587078,-34.786096],[139.587024,-34.78659],[139.586923,-34.787186],[139.581203,-34.806916],[139.581156,-34.807167],[139.581106,-34.807439],[139.581073,-34.807825],[139.581078,-34.80827],[139.581127,-34.808691],[139.581189,-34.809],[139.581234,-34.809185],[139.581307,-34.809416],[139.581394,-34.809665],[139.581548,-34.810005],[139.581663,-34.810233],[139.581836,-34.810512],[139.582341,-34.81122],[139.582856,-34.811687],[139.583238,-34.812002],[139.583655,-34.812289],[139.584063,-34.812544],[139.584504,-34.812846],[139.585036,-34.813254],[139.585271,-34.813448],[139.585601,-34.813738],[139.585914,-34.814028],[139.586487,-34.814619],[139.591792,-34.820453],[139.605361,-34.835374],[139.605934,-34.835906],[139.606361,-34.836219],[139.606911,-34.836565],[139.607501,-34.836871],[139.608034,-34.837092],[139.619699,-34.841387],[139.620654,-34.841732],[139.621521,-34.842021],[139.623882,-34.842788],[139.624758,-34.843077],[139.625804,-34.843449],[139.62827,-34.844359],[139.630029,-34.845009],[139.63102,-34.845403],[139.631739,-34.845748],[139.632395,-34.846105],[139.638483,-34.84981],[139.63885,-34.850018],[139.639587,-34.85046]]}},{"type":"Feature","properties":{"tier":"arterial"},"geometry":{"type":"LineString","coordinates":[[139.619921,-34.895887],[139.619895,-34.896276],[139.620001,-34.930164],[139.620004,-34.931067],[139.620115,-34.96655],[139.620118,-34.96734],[139.619701,-34.968541],[139.618996,-34.969727],[139.61805,-34.970616],[139.616237,-34.971547]]}},{"type":"Feature","properties":{"tier":"regional"},"geometry":{"type":"LineString","coordinates":[[139.609561,-34.560394],[139.609598,-34.560466]]}},{"type":"Feature","properties":{"tier":"arterial"},"geometry":{"type":"LineString","coordinates":[[139.49998,-34.80012],[139.500729,-34.799037],[139.501645,-34.797715],[139.502243,-34.796913],[139.502522,-34.796607],[139.502825,-34.796308],[139.50304,-34.796129],[139.503657,-34.795679],[139.504197,-34.795339],[139.505377,-34.794641],[139.514561,-34.789096],[139.528096,-34.781677],[139.528234,-34.781591],[139.539247,-34.775602],[139.539661,-34.775416],[139.540078,-34.775268],[139.540619,-34.775114],[139.54109,-34.775013],[139.541454,-34.774954],[139.542318,-34.774875],[139.542964,-34.774875],[139.543213,-34.774886],[139.543495,-34.774918],[139.544508,-34.775085],[139.547489,-34.775613],[139.548027,-34.775721],[139.548269,-34.77578],[139.548705,-34.775915],[139.55041,-34.776499],[139.55062,-34.776564],[139.550968,-34.776639],[139.554417,-34.777213],[139.554804,-34.777264],[139.555139,-34.777291],[139.555732,-34.777302],[139.556211,-34.777272],[139.556516,-34.777235],[139.55686,-34.777178],[139.557185,-34.7771],[139.557785,-34.776895],[139.558099,-34.776758],[139.558306,-34.776658],[139.558854,-34.776351],[139.55928,-34.776068],[139.559932,-34.775522],[139.561395,-34.774232],[139.56507,-34.770313],[139.565421,-34.769895],[139.565539,-34.769736],[139.56571,-34.769453],[139.567166,-34.766779],[139.567258,-34.766582],[139.567995,-34.763906],[139.568071,-34.763751],[139.568182,-34.763592],[139.568414,-34.763335]]}},{"type":"Feature","properties":{"tier":"regional"},"geometry":{"type":"LineString","coordinates":[[139.818367,-35.00002],[139.81831,-34.99958],[139.816795,-34.996528],[139.814855,-34.993187],[139.814615,-34.991163],[139.815392,-34.988904],[139.81694,-34.985493],[139.817014,-34.984389]]}},{"type":"Feature","properties":{"tier":"arterial"},"geometry":{"type":"LineString","coordinates":[[139.638483,-34.84981],[139.638412,-34.849871],[139.638335,-34.849929],[139.63825,-34.849987],[139.638152,-34.850024],[139.636437,-34.850485],[139.634657,-34.850952],[139.632858,-34.851394],[139.630658,-34.851914],[139.628696,-34.85238],[139.627743,-34.852601],[139.627557,-34.852643],[139.62691,-34.852794],[139.62579,-34.853063],[139.625477,-34.853146],[139.625206,-34.853225],[139.625033,-34.853278],[139.624945,-34.853305],[139.624673,-34.853392],[139.62389,-34.853661],[139.622511,-34.854127],[139.621885,-34.854339],[139.621619,-34.854421],[139.621429,-34.85446],[139.621256,-34.854484],[139.621088,-34.854498]]}},{"type":"Feature","properties":{"tier":"arterial"},"geometry":{"type":"LineString","coordinates":[[139.574478,-34.755132],[139.57412,-34.755189],[139.573278,-34.755323],[139.573105,-34.755332],[139.572924,-34.755323],[139.572711,-34.75528],[139.572522,-34.755211],[139.572399,-34.755141],[139.572278,-34.755051],[139.572159,-34.754939],[139.572065,-34.754819],[139.571989,-34.754671],[139.571942,-34.754507],[139.571863,-34.754062],[139.5718,-34.753749],[139.571724,-34.753465],[139.571638,-34.753198],[139.571519,-34.752946],[139.571265,-34.752515],[139.570811,-34.751805],[139.570696,-34.75168],[139.57059,-34.751612],[139.570462,-34.751579],[139.570318,-34.751594],[139.570179,-34.751648],[139.570079,-34.75175],[139.570045,-34.751823],[139.570032,-34.75199],[139.570066,-34.752269],[139.570066,-34.752463],[139.570054,-34.752552],[139.569754,-34.752904]]}},{"type":"Feature","properties":{"tier":"arterial"},"geometry":{"type":"LineString","coordinates":[[139.556534,-34.752551],[139.556313,-34.752687],[139.556202,-34.752776],[139.556137,-34.752885],[139.555992,-34.753126],[139.555254,-34.754549],[139.554859,-34.755204],[139.554638,-34.755519],[139.554356,-34.755855],[139.553739,-34.75645],[139.553205,-34.756839],[139.552697,-34.757135],[139.552218,-34.757377],[139.551366,-34.757695],[139.550474,-34.75792],[139.549795,-34.758008],[139.549234,-34.758037],[139.548751,-34.758034],[139.529679,-34.757651],[139.49998,-34.757076]]}},{"type":"Feature","properties":{"tier":"arterial"},"geometry":{"type":"LineString","coordinates":[[139.599754,-34.565645],[139.598549,-34.566689],[139.59835,-34.566876],[139.598237,-34.566994],[139.598132,-34.567149],[139.598064,-34.567287],[139.598013,-34.567431],[139.597962,-34.567705],[139.597925,-34.567794],[139.597883,-34.567869],[139.597791,-34.567962],[139.596703,-34.568583]]}},{"type":"Feature","properties":{"tier":"arterial"},"geometry":{"type":"LineString","coordinates":[[139.603009,-34.563392],[139.602379,-34.563713],[139.602326,-34.56374],[139.601472,-34.564267],[139.60111,-34.564512],[139.600679,-34.564833],[139.599754,-34.565645]]}},{"type":"Feature","properties":{"tier":"regional"},"geometry":{"type":"LineString","coordinates":[[139.49998,-34.706563],[139.500997,-34.70691],[139.502169,-34.707806],[139.503774,-34.709075],[139.517106,-34.714257],[139.518882,-34.714954]]}},{"type":"Feature","properties":{"tier":"arterial"},"geometry":{"type":"LineString","coordinates":[[139.49998,-34.841661],[139.513281,-34.841062],[139.521805,-34.840663],[139.522468,-34.840633],[139.522968,-34.840627],[139.523669,-34.84065],[139.524446,-34.840695],[139.525557,-34.840815],[139.526872,-34.841032],[139.527514,-34.841165],[139.52812,-34.841319],[139.528419,-34.841395],[139.529247,-34.84165],[139.529962,-34.841897],[139.539526,-34.845634],[139.540277,-34.845881],[139.540869,-34.84605],[139.541626,-34.846226],[139.542744,-34.846406],[139.543424,-34.846479],[139.54898,-34.84676],[139.556575,-34.84713],[139.571757,-34.84787],[139.573242,-34.847929],[139.57413,-34.847899],[139.575027,-34.847801],[139.57605,-34.847601],[139.57675,-34.847406],[139.577262,-34.847231],[139.577675,-34.847081],[139.578036,-34.846922],[139.579425,-34.846242],[139.580171,-34.845917],[139.580571,-34.845765],[139.580938,-34.845631],[139.581823,-34.845368],[139.583427,-34.844969],[139.584022,-34.844755],[139.584403,-34.844569],[139.584836,-34.844311],[139.586216,-34.843242],[139.586409,-34.84313],[139.58667,-34.842979],[139.587007,-34.842835],[139.587314,-34.842709],[139.587564,-34.842636],[139.588027,-34.842548],[139.588313,-34.842511],[139.588809,-34.8425],[139.58915,-34.842523],[139.589322,-34.842541],[139.589647,-34.842602],[139.590146,-34.842734],[139.593969,-34.843923],[139.594464,-34.844043],[139.597207,-34.844631],[139.598119,-34.844842],[139.598689,-34.845059],[139.601854,-34.846394],[139.602966,-34.846882],[139.606163,-34.848436],[139.606532,-34.848649],[139.609749,-34.850735],[139.610116,-34.850991],[139.611649,-34.852138],[139.614637,-34.854396],[139.614844,-34.854601],[139.614951,-34.854774],[139.615,-34.854917],[139.61506,-34.855391],[139.615122,-34.855509],[139.615178,-34.855558],[139.615238,-34.855592],[139.615367,-34.855623],[139.615536,-34.855596],[139.615599,-34.855563],[139.615849,-34.855352],[139.616144,-34.855103]]}},{"type":"Feature","properties":{"tier":"arterial"},"geometry":{"type":"LineString","coordinates":[[139.621088,-34.854498],[139.620926,-34.8545],[139.620252,-34.854473],[139.619551,-34.854436],[139.61926,-34.854409],[139.619107,-34.854383],[139.618769,-34.854295],[139.618547,-34.854233],[139.61841,-34.854187],[139.618286,-34.854127],[139.618136,-34.854046],[139.618024,-34.853984],[139.617951,-34.853954],[139.617863,-34.853934],[139.617787,-34.853934],[139.617726,-34.853949],[139.617648,-34.853982]]}},{"type":"Feature","properties":{"tier":"regional"},"geometry":{"type":"LineString","coordinates":[[139.817014,-34.984389],[139.81661,-34.98139],[139.816561,-34.98105],[139.816358,-34.979632],[139.816142,-34.978229],[139.815959,-34.976579],[139.81631,-34.975191],[139.817222,-34.972972],[139.819907,-34.966442],[139.825228,-34.952936],[139.830035,-34.940976],[139.831333,-34.93785],[139.832207,-34.935745],[139.832414,-34.935077],[139.832517,-34.934582],[139.832611,-34.933708],[139.833008,-34.930753],[139.833401,-34.927949],[139.833697,-34.925566],[139.834044,-34.923665],[139.83407,-34.922982],[139.834036,-34.922026],[139.833872,-34.921382],[139.830758,-34.913672],[139.827422,-34.905563],[139.827232,-34.904411],[139.827204,-34.903309],[139.827631,-34.901565]]}},{"type":"Feature","properties":{"tier":"regional"},"geometry":{"type":"LineString","coordinates":[[139.827631,-34.901565],[139.830549,-34.88833],[139.831392,-34.883627],[139.829587,-34.870002],[139.829492,-34.867933],[139.829936,-34.866181],[139.830755,-34.864364],[139.831614,-34.861589],[139.83257,-34.858502],[139.832815,-34.856476],[139.837984,-34.839917],[139.840368,-34.832279],[139.841482,-34.820802],[139.841611,-34.820024],[139.841917,-34.819037],[139.848848,-34.803427],[139.848959,-34.80318],[139.849485,-34.801922],[139.849562,-34.801632],[139.8499,-34.799363],[139.849952,-34.798818],[139.849967,-34.798435],[139.849957,-34.798088],[139.849875,-34.797614],[139.849725,-34.79714],[139.84912,-34.795556],[139.848691,-34.79443],[139.848651,-34.794364],[139.847909,-34.793151],[139.847702,-34.792697],[139.847444,-34.791971],[139.847052,-34.79087],[139.846635,-34.789701],[139.846492,-34.789262],[139.846285,-34.78783],[139.846175,-34.787031],[139.846168,-34.786948],[139.846056,-34.785659],[139.846099,-34.783732],[139.846243,-34.780631],[139.846228,-34.775754],[139.846129,-34.764684],[139.846029,-34.754073]]}},{"type":"Feature","properties":{"tier":"arterial"},"geometry":{"type":"LineString","coordinates":[[139.49998,-34.906425],[139.50163,-34.906309],[139.505377,-34.906066],[139.507099,-34.905879],[139.523016,-34.904004],[139.523905,-34.903884],[139.524394,-34.903818],[139.525365,-34.903631],[139.526453,-34.903275],[139.528871,-34.902377],[139.52978,-34.902129],[139.530737,-34.901953],[139.540387,-34.900976],[139.547805,-34.900247],[139.549795,-34.900056],[139.550526,-34.900033],[139.551235,-34.900089],[139.551518,-34.900156],[139.551903,-34.900247],[139.552489,-34.900468],[139.553232,-34.900835],[139.554114,-34.901445],[139.555746,-34.902818],[139.55638,-34.90323],[139.557179,-34.903597],[139.561853,-34.90532],[139.566312,-34.906964],[139.5675,-34.907396],[139.572408,-34.909184],[139.573551,-34.909545],[139.574681,-34.909715],[139.575769,-34.909743],[139.577029,-34.909573],[139.580796,-34.908653],[139.584924,-34.9077],[139.585446,-34.907594],[139.586217,-34.907464],[139.586399,-34.907433],[139.599621,-34.905471],[139.601252,-34.905117],[139.604293,-34.904413],[139.604665,-34.904321],[139.605351,-34.904116],[139.606114,-34.903832],[139.606784,-34.90352],[139.607034,-34.903385],[139.613478,-34.899636]]}},{"type":"Feature","properties":{"tier":"arterial"},"geometry":{"type":"LineString","coordinates":[[139.557044,-34.752966],[139.556864,-34.752858],[139.556683,-34.752759],[139.556543,-34.752732],[139.556445,-34.752732],[139.556295,-34.752778],[139.556137,-34.752885]]}},{"type":"Feature","properties":{"tier":"arterial"},"geometry":{"type":"LineString","coordinates":[[139.568414,-34.763335],[139.568338,-34.763162],[139.567971,-34.7621],[139.567742,-34.761559],[139.567588,-34.761297],[139.567405,-34.761086],[139.566092,-34.760058],[139.557249,-34.753131],[139.557113,-34.753022],[139.557044,-34.752966],[139.556534,-34.752551]]}},{"type":"Feature","properties":{"tier":"arterial"},"geometry":{"type":"LineString","coordinates":[[139.570263,-34.758183],[139.570827,-34.76119],[139.570818,-34.761458],[139.570756,-34.76176],[139.570714,-34.761854],[139.570618,-34.762005],[139.570454,-34.76221],[139.570302,-34.762347],[139.570112,-34.762481],[139.569808,-34.762642],[139.568836,-34.763101],[139.568414,-34.763335]]}},{"type":"Feature","properties":{"tier":"arterial"},"geometry":{"type":"LineString","coordinates":[[139.553768,-35.00002],[139.554222,-34.999774],[139.555405,-34.9989],[139.556171,-34.998335],[139.560471,-34.995161],[139.562585,-34.993609],[139.564861,-34.991917],[139.57353,-34.985574],[139.574956,-34.984745],[139.58563,-34.979096],[139.590593,-34.97646],[139.591524,-34.976045],[139.592338,-34.97574],[139.596705,-34.974144],[139.597409,-34.973926],[139.598132,-34.973753],[139.598838,-34.97363],[139.599519,-34.973546],[139.605464,-34.973072],[139.607129,-34.972922],[139.610615,-34.972708],[139.613663,-34.972145],[139.616237,-34.971547]]}},{"type":"Feature","properties":{"tier":"arterial"},"geometry":{"type":"LineString","coordinates":[[139.581059,-34.754922],[139.580789,-34.754597],[139.580647,-34.754486],[139.580507,-34.754413],[139.580358,-34.754362],[139.580202,-34.754337],[139.579845,-34.754314]]}},{"type":"Feature","properties":{"tier":"arterial"},"geometry":{"type":"LineString","coordinates":[[139.579845,-34.754314],[139.580298,-34.754208],[139.580428,-34.754165],[139.580472,-34.754118],[139.580488,-34.754059],[139.580476,-34.753989],[139.580364,-34.753675]]}},{"type":"Feature","properties":{"tier":"arterial"},"geometry":{"type":"LineString","coordinates":[[139.61103,-34.586945],[139.610747,-34.586653],[139.610434,-34.586207],[139.610218,-34.585834]]}},{"type":"Feature","properties":{"tier":"regional"},"geometry":{"type":"LineString","coordinates":[[139.609673,-34.584034],[139.609895,-34.584826],[139.610174,-34.585552],[139.610271,-34.585747]]}},{"type":"Feature","properties":{"tier":"arterial"},"geometry":{"type":"LineString","coordinates":[[139.61103,-34.586945],[139.611279,-34.587229],[139.611629,-34.58757],[139.611888,-34.587803],[139.615996,-34.590969],[139.624965,-34.597841],[139.628817,-34.600796],[139.640174,-34.609521],[139.645536,-34.613622],[139.651884,-34.618457],[139.655475,-34.62125],[139.657141,-34.622522],[139.657618,-34.622886],[139.658144,-34.623289],[139.658581,-34.623626],[139.65934,-34.624206],[139.660274,-34.624923],[139.660908,-34.625406],[139.661458,-34.625829],[139.661642,-34.625971],[139.662004,-34.626266],[139.662314,-34.626532],[139.662542,-34.626739],[139.662751,-34.626937],[139.663008,-34.62719],[139.663203,-34.627386],[139.663369,-34.627571],[139.663504,-34.627712],[139.663612,-34.627843],[139.663751,-34.628008],[139.663958,-34.628249],[139.6641,-34.62844],[139.664313,-34.628721],[139.664453,-34.628909],[139.664615,-34.629143],[139.664764,-34.629363],[139.664936,-34.629632],[139.66505,-34.629828],[139.665127,-34.629953],[139.66522,-34.63012],[139.665442,-34.630554],[139.665585,-34.63084],[139.665693,-34.631075],[139.665784,-34.631287],[139.665937,-34.631666],[139.666121,-34.63214],[139.666459,-34.632996],[139.666824,-34.633906],[139.667159,-34.634764],[139.667351,-34.635234],[139.66758,-34.635829],[139.667691,-34.636154],[139.667752,-34.636362],[139.667799,-34.636542],[139.667839,-34.636718],[139.66788,-34.636914],[139.667937,-34.637169],[139.667976,-34.637502],[139.667999,-34.637735],[139.668016,-34.638061],[139.668005,-34.638638],[139.667989,-34.638827],[139.667945,-34.639114],[139.667901,-34.639449],[139.667818,-34.639825],[139.667716,-34.640217],[139.667628,-34.640517],[139.66747,-34.641086],[139.667317,-34.641603],[139.667163,-34.642164],[139.667006,-34.642709],[139.66684,-34.643309],[139.66656,-34.644277],[139.666463,-34.644645],[139.666238,-34.645446],[139.665721,-34.64727],[139.664444,-34.651724],[139.662859,-34.657359],[139.662588,-34.658196],[139.662388,-34.658629],[139.662183,-34.659062],[139.661915,-34.659541],[139.66158,-34.660041],[139.661242,-34.660533]]}},{"type":"Feature","properties":{"tier":"arterial"},"geometry":{"type":"LineString","coordinates":[[139.610434,-34.586207],[139.610234,-34.586018],[139.610047,-34.585918],[139.609939,-34.585876],[139.609821,-34.58582]]}},{"type":"Feature","properties":{"tier":"arterial"},"geometry":{"type":"LineString","coordinates":[[139.610303,-34.585811],[139.610218,-34.585834]]}},{"type":"Feature","properties":{"tier":"arterial"},"geometry":{"type":"LineString","coordinates":[[139.608474,-34.585643],[139.608395,-34.585628],[139.608035,-34.585543],[139.607726,-34.585437],[139.607429,-34.585307],[139.607127,-34.585139],[139.606951,-34.585012],[139.606672,-34.584773],[139.606454,-34.584557],[139.606252,-34.584261],[139.606072,-34.583943],[139.605868,-34.583448],[139.605749,-34.583148],[139.605342,-34.582123],[139.604909,-34.580914],[139.604542,-34.580092],[139.603323,-34.577828],[139.602933,-34.577105],[139.601377,-34.574284],[139.601155,-34.573923],[139.600634,-34.573255],[139.600023,-34.572533],[139.597947,-34.570062],[139.596703,-34.568583]]}},{"type":"Feature","properties":{"tier":"arterial"},"geometry":{"type":"LineString","coordinates":[[139.608066,-34.561094],[139.603009,-34.563392]]}},{"type":"Feature","properties":{"tier":"arterial"},"geometry":{"type":"LineString","coordinates":[[139.611245,-34.559644],[139.61105,-34.559758],[139.610031,-34.560252],[139.609598,-34.560466]]}},{"type":"Feature","properties":{"tier":"arterial"},"geometry":{"type":"LineString","coordinates":[[139.608066,-34.561094],[139.609464,-34.560441]]}},{"type":"Feature","properties":{"tier":"regional"},"geometry":{"type":"LineString","coordinates":[[139.609567,-34.561909],[139.609551,-34.561688],[139.609528,-34.561025],[139.609522,-34.560578],[139.609502,-34.560514]]}},{"type":"Feature","properties":{"tier":"regional"},"geometry":{"type":"LineString","coordinates":[[139.609567,-34.561909],[139.609553,-34.567642],[139.609574,-34.570016],[139.609575,-34.572991],[139.609587,-34.575839],[139.609576,-34.577836],[139.609598,-34.579226],[139.609603,-34.582894],[139.609613,-34.583288],[139.609638,-34.583712],[139.609673,-34.584034]]}},{"type":"Feature","properties":{"tier":"regional"},"geometry":{"type":"LineString","coordinates":[[139.610031,-34.560252],[139.609854,-34.560395],[139.609767,-34.560505],[139.609692,-34.560626],[139.609648,-34.560767],[139.609605,-34.560952]]}},{"type":"Feature","properties":{"tier":"arterial"},"geometry":{"type":"LineString","coordinates":[[139.614098,-34.558342],[139.614384,-34.558164],[139.614512,-34.558039],[139.61465,-34.557843]]}},{"type":"Feature","properties":{"tier":"arterial"},"geometry":{"type":"LineString","coordinates":[[139.614897,-34.556934],[139.61489,-34.557071],[139.61473,-34.557967],[139.614761,-34.558122]]}},{"type":"Feature","properties":{"tier":"arterial"},"geometry":{"type":"LineString","coordinates":[[139.614657,-34.558149],[139.614627,-34.557967],[139.61465,-34.557843],[139.61466,-34.557793],[139.614838,-34.557069],[139.614897,-34.556934]]}},{"type":"Feature","properties":{"tier":"regional"},"geometry":{"type":"LineString","coordinates":[[140.00002,-34.980972],[139.999997,-34.980964],[139.99909,-34.980643],[139.998337,-34.980404],[139.997959,-34.980366],[139.997401,-34.980382],[139.996682,-34.980384],[139.996148,-34.98041],[139.995322,-34.980571],[139.994627,-34.980696],[139.994144,-34.980751],[139.993662,-34.980762],[139.993034,-34.980742],[139.992379,-34.980724],[139.99114,-34.980705]]}},{"type":"Feature","properties":{"tier":"regional"},"geometry":{"type":"LineString","coordinates":[[139.584514,-34.559804],[139.584533,-34.559857],[139.584538,-34.559915],[139.584496,-34.560042],[139.584441,-34.560167],[139.58424,-34.56049],[139.583057,-34.562271],[139.581706,-34.564796],[139.580602,-34.567111],[139.580468,-34.568494],[139.580243,-34.570648],[139.580102,-34.573317],[139.580927,-34.576337],[139.581749,-34.577765],[139.584003,-34.581515],[139.585731,-34.584425],[139.587378,-34.587356],[139.588697,-34.589669],[139.589704,-34.591586],[139.59034,-34.593344],[139.590375,-34.594498],[139.590011,-34.596088],[139.589023,-34.598455],[139.587331,-34.602383],[139.587167,-34.602763]]}},{"type":"Feature","properties":{"tier":"regional"},"geometry":{"type":"LineString","coordinates":[[139.564368,-34.660485],[139.5518,-34.676905],[139.549524,-34.67883],[139.544205,-34.683339],[139.543716,-34.684208],[139.543354,-34.685669],[139.54294,-34.687211],[139.542872,-34.688149],[139.54272,-34.689522],[139.54205,-34.690644],[139.540821,-34.691616],[139.539826,-34.692228],[139.537897,-34.693348],[139.537131,-34.693919],[139.535003,-34.695442],[139.534405,-34.695976],[139.533408,-34.697066],[139.532547,-34.697934],[139.532276,-34.69833],[139.531625,-34.698826],[139.530433,-34.699067],[139.529878,-34.699253],[139.529442,-34.6997],[139.529403,-34.70051],[139.528845,-34.701701],[139.528212,-34.7029],[139.527697,-34.703491],[139.526689,-34.704929],[139.525745,-34.705855],[139.523624,-34.70778],[139.522962,-34.70884],[139.521436,-34.711281],[139.518882,-34.714954],[139.5136,-34.721067],[139.49998,-34.736928]]}},{"type":"Feature","properties":{"tier":"regional"},"geometry":{"type":"LineString","coordinates":[[139.56656,-34.49998],[139.566464,-34.5001],[139.56593,-34.500837],[139.56532,-34.501679],[139.564484,-34.502833],[139.564161,-34.503408],[139.564104,-34.50391],[139.564082,-34.504108],[139.564053,-34.504364],[139.564144,-34.506136],[139.564394,-34.508022],[139.564703,-34.510065],[139.565258,-34.511902],[139.565398,-34.512623],[139.565481,-34.513831],[139.565613,-34.515784],[139.565768,-34.516577],[139.566086,-34.517249],[139.566632,-34.518209],[139.570158,-34.523001],[139.572228,-34.525559],[139.573717,-34.5278],[139.575817,-34.530446],[139.577637,-34.533209],[139.578069,-34.533894],[139.579073,-34.536197],[139.579916,-34.538333],[139.580531,-34.540489]]}},{"type":"Feature","properties":{"tier":"regional"},"geometry":{"type":"LineString","coordinates":[[139.580531,-34.540489],[139.58069,-34.541064],[139.581219,-34.542327],[139.581665,-34.543124],[139.582112,-34.543708],[139.582745,-34.544412],[139.582957,-34.544786],[139.583167,-34.545379],[139.583201,-34.545495],[139.584257,-34.550853],[139.584884,-34.55384],[139.585499,-34.556593],[139.585548,-34.557206],[139.585455,-34.557706],[139.58502,-34.55883],[139.584871,-34.559101],[139.58481,-34.559392],[139.584831,-34.559571],[139.584884,-34.559702]]}},{"type":"Feature","properties":{"tier":"arterial"},"geometry":{"type":"LineString","coordinates":[[139.609464,-34.560441],[139.609561,-34.560394]]}},{"type":"Feature","properties":{"tier":"arterial"},"geometry":{"type":"LineString","coordinates":[[139.609561,-34.560394],[139.60967,-34.560338],[139.611027,-34.559729],[139.611245,-34.559644]]}},{"type":"Feature","properties":{"tier":"regional"},"geometry":{"type":"LineString","coordinates":[[139.609598,-34.560466],[139.609609,-34.560552],[139.609605,-34.560952],[139.609599,-34.561684],[139.609567,-34.561909]]}},{"type":"Feature","properties":{"tier":"arterial"},"geometry":{"type":"LineString","coordinates":[[139.609598,-34.560466],[139.609502,-34.560514]]}},{"type":"Feature","properties":{"tier":"regional"},"geometry":{"type":"LineString","coordinates":[[139.609502,-34.560514],[139.609464,-34.560441]]}},{"type":"Feature","properties":{"tier":"arterial"},"geometry":{"type":"LineString","coordinates":[[139.609502,-34.560514],[139.609323,-34.560604],[139.608066,-34.561094]]}},{"type":"Feature","properties":{"tier":"arterial"},"geometry":{"type":"LineString","coordinates":[[139.611563,-34.559495],[139.611245,-34.559644]]}},{"type":"Feature","properties":{"tier":"arterial"},"geometry":{"type":"LineString","coordinates":[[139.610271,-34.585747],[139.610303,-34.585811]]}},{"type":"Feature","properties":{"tier":"arterial"},"geometry":{"type":"LineString","coordinates":[[139.610303,-34.585811],[139.610329,-34.585868]]}},{"type":"Feature","properties":{"tier":"arterial"},"geometry":{"type":"LineString","coordinates":[[139.609821,-34.58582],[139.609344,-34.58579],[139.609023,-34.585758],[139.60862,-34.585693],[139.608474,-34.585643]]}},{"type":"Feature","properties":{"tier":"arterial"},"geometry":{"type":"LineString","coordinates":[[139.610218,-34.585834],[139.610113,-34.585826],[139.609821,-34.58582]]}},{"type":"Feature","properties":{"tier":"regional"},"geometry":{"type":"LineString","coordinates":[[139.610218,-34.585834],[139.610186,-34.585766]]}},{"type":"Feature","properties":{"tier":"arterial"},"geometry":{"type":"LineString","coordinates":[[139.610186,-34.585766],[139.610271,-34.585747]]}},{"type":"Feature","properties":{"tier":"regional"},"geometry":{"type":"LineString","coordinates":[[139.610186,-34.585766],[139.609998,-34.585356],[139.60986,-34.584976],[139.609744,-34.584541],[139.609679,-34.584203],[139.609673,-34.584034]]}},{"type":"Feature","properties":{"tier":"arterial"},"geometry":{"type":"LineString","coordinates":[[139.580643,-34.754192],[139.579845,-34.754314],[139.574478,-34.755132]]}},{"type":"Feature","properties":{"tier":"arterial"},"geometry":{"type":"LineString","coordinates":[[139.617648,-34.853982],[139.617451,-34.854111],[139.617258,-34.854236]]}},{"type":"Feature","properties":{"tier":"arterial"},"geometry":{"type":"LineString","coordinates":[[139.613478,-34.899636],[139.619921,-34.895887]]}},{"type":"Feature","properties":{"tier":"arterial"},"geometry":{"type":"LineString","coordinates":[[139.648602,-34.68365],[139.647968,-34.684271],[139.647363,-34.684779],[139.646718,-34.685246],[139.645693,-34.685949],[139.642274,-34.687874],[139.640093,-34.688822],[139.639073,-34.689153],[139.637718,-34.689546],[139.635507,-34.689978],[139.631915,-34.690611],[139.630474,-34.690719],[139.628532,-34.690789],[139.626789,-34.69082],[139.625303,-34.690749],[139.623723,-34.690491],[139.616544,-34.68904],[139.615676,-34.688916],[139.614815,-34.688866],[139.61338,-34.688925],[139.611783,-34.689172],[139.609586,-34.689927],[139.606502,-34.691072],[139.604151,-34.692011],[139.60325,-34.6925],[139.602295,-34.693149],[139.601166,-34.693947],[139.598795,-34.695485],[139.597301,-34.696624],[139.593161,-34.699502],[139.591207,-34.700871],[139.589876,-34.701911],[139.589102,-34.702717],[139.588779,-34.703183],[139.588047,-34.70415],[139.587776,-34.704509],[139.587441,-34.705017],[139.586768,-34.705953],[139.585993,-34.706852],[139.58488,-34.707987],[139.583643,-34.709189],[139.580643,-34.712016],[139.579936,-34.712704],[139.579405,-34.713431],[139.578965,-34.714362],[139.578762,-34.715173],[139.578697,-34.717117],[139.578692,-34.720671],[139.578685,-34.7224],[139.578703,-34.725848],[139.578733,-34.749219],[139.578772,-34.74994],[139.578807,-34.750219],[139.578881,-34.750586],[139.578953,-34.750828],[139.579036,-34.751067],[139.579187,-34.751437],[139.579339,-34.751757],[139.579635,-34.752247],[139.580364,-34.753675],[139.580643,-34.754192]]}},{"type":"Feature","properties":{"tier":"arterial"},"geometry":{"type":"LineString","coordinates":[[139.650294,-34.681367],[139.649899,-34.68199],[139.649469,-34.682615],[139.649114,-34.683087],[139.648602,-34.68365]]}},{"type":"Feature","properties":{"tier":"arterial"},"geometry":{"type":"LineString","coordinates":[[139.652625,-34.673383],[139.652324,-34.675308],[139.652231,-34.675891],[139.652084,-34.676958],[139.651941,-34.677901],[139.651828,-34.678414],[139.651744,-34.678682],[139.651612,-34.679048],[139.651398,-34.679533],[139.651134,-34.680026],[139.650866,-34.680466],[139.650294,-34.681367]]}},{"type":"Feature","properties":{"tier":"arterial"},"geometry":{"type":"LineString","coordinates":[[139.661242,-34.660533],[139.660684,-34.661228],[139.657937,-34.664608],[139.654916,-34.668328],[139.654511,-34.668818],[139.654129,-34.669292],[139.653956,-34.669513],[139.653842,-34.669664],[139.653694,-34.669877],[139.653583,-34.670056],[139.653497,-34.670199],[139.653411,-34.670349],[139.653343,-34.670484],[139.653276,-34.670627],[139.653206,-34.670785],[139.653141,-34.670946],[139.653077,-34.671118],[139.653028,-34.671271],[139.652972,-34.671455],[139.652907,-34.671676],[139.652872,-34.671829],[139.652844,-34.67198],[139.652823,-34.672122],[139.652625,-34.673383]]}},{"type":"Feature","properties":{"tier":"arterial"},"geometry":{"type":"LineString","coordinates":[[139.639587,-34.85046],[139.64218,-34.85201],[139.642649,-34.852301],[139.643104,-34.852635],[139.643462,-34.852946],[139.643763,-34.853236],[139.647859,-34.858212],[139.648225,-34.858609],[139.648467,-34.85884],[139.648742,-34.859053],[139.648984,-34.859219],[139.649222,-34.859363],[139.649702,-34.85962],[139.650886,-34.860105],[139.652414,-34.8607],[139.652774,-34.860861],[139.653076,-34.86102],[139.653521,-34.861304],[139.653732,-34.861448],[139.653949,-34.861629],[139.654201,-34.861853],[139.654465,-34.862135],[139.654583,-34.862268],[139.654739,-34.862473],[139.654933,-34.862767],[139.655074,-34.863025],[139.65714,-34.867417],[139.659323,-34.872226],[139.659441,-34.872547],[139.65958,-34.873188],[139.659607,-34.873492],[139.659609,-34.873656],[139.659607,-34.873825],[139.659587,-34.874038],[139.659545,-34.874308],[139.659493,-34.874529],[139.659429,-34.874752],[139.659264,-34.875167],[139.659032,-34.87558],[139.658749,-34.875995],[139.658443,-34.876322],[139.655616,-34.87924],[139.655298,-34.879567],[139.65505,-34.879901],[139.654858,-34.880199],[139.654704,-34.880505],[139.654569,-34.88081],[139.654476,-34.881083],[139.654396,-34.881442],[139.654311,-34.882008],[139.654229,-34.882339],[139.654142,-34.882604],[139.654052,-34.88283],[139.653908,-34.883099],[139.653756,-34.883341],[139.653592,-34.883579],[139.653358,-34.883871],[139.653127,-34.884107],[139.649724,-34.887413],[139.649449,-34.887645],[139.649111,-34.887897],[139.648909,-34.888036],[139.648665,-34.888178],[139.648425,-34.888304],[139.648143,-34.888433],[139.646394,-34.889128],[139.643992,-34.890083],[139.643269,-34.890363],[139.643025,-34.890457],[139.64277,-34.890535],[139.642314,-34.890653],[139.641869,-34.89074],[139.641561,-34.890787],[139.641125,-34.890826],[139.640599,-34.890844],[139.6405,-34.890848],[139.637702,-34.890968],[139.636153,-34.891027],[139.635556,-34.891057],[139.635057,-34.891098],[139.634558,-34.891162],[139.633915,-34.891267],[139.627173,-34.892419],[139.626334,-34.892561],[139.625226,-34.892752],[139.624695,-34.892867],[139.624313,-34.892973],[139.623882,-34.893131],[139.62342,-34.893347],[139.622988,-34.893584],[139.622616,-34.893842],[139.620506,-34.895476],[139.62003,-34.895807],[139.619921,-34.895887]]}}]}
