{"type":"FeatureCollection","features":[{"type":"Feature","properties":{"tier":"arterial"},"geometry":{"type":"LineString","coordinates":[[139.81675,-29.99998],[139.81859,-30.00519],[139.8207,-30.01101],[139.82107,-30.01291],[139.82057,-30.01384],[139.8198,-30.01495],[139.81915,-30.0161],[139.81875,-30.01778],[139.81893,-30.01931],[139.82681,-30.05252],[139.82771,-30.05623],[139.82843,-30.05981],[139.82913,-30.06359],[139.82986,-30.06771],[139.83087,-30.07423],[139.83324,-30.08982],[139.83322,-30.09136],[139.83298,-30.09234],[139.83228,-30.09422],[139.83121,-30.09579],[139.8163,-30.117],[139.81476,-30.11877],[139.81466,-30.118918],[139.81336,-30.12084],[139.81244,-30.12195],[139.81137,-30.12238],[139.80977,-30.12297],[139.80716,-30.12398],[139.80437,-30.12503],[139.80356,-30.12565],[139.80226,-30.12711],[139.80067,-30.12833],[139.79836,-30.12958],[139.79147,-30.13338],[139.78728,-30.13566],[139.78251,-30.13838],[139.78159,-30.13944],[139.77802,-30.14594],[139.77394,-30.15311],[139.77234,-30.15601],[139.77052,-30.15909],[139.76827,-30.16241],[139.76602,-30.16546],[139.76284,-30.16955],[139.76141,-30.17083],[139.75872,-30.17303],[139.75467,-30.1762],[139.75345,-30.17686],[139.75232,-30.1771],[139.7464,-30.17825],[139.74304,-30.17892],[139.7386,-30.17968],[139.73472,-30.18025],[139.732878,-30.180476],[139.7304,-30.18078],[139.72703,-30.18122],[139.72405,-30.18199],[139.71989,-30.18313],[139.713043,-30.184984],[139.711174,-30.186044],[139.70303,-30.19082],[139.70077,-30.19208],[139.699137,-30.193358],[139.698187,-30.194593],[139.69691,-30.19627],[139.69547,-30.19808],[139.69408,-30.19896],[139.6913,-30.20035],[139.68821,-30.20194],[139.6847,-30.20382],[139.67945,-30.20657],[139.63698,-30.22892],[139.634,-30.23023],[139.632588,-30.230808],[139.631322,-30.231132],[139.63005,-30.23141],[139.629112,-30.231586],[139.628364,-30.2318],[139.627825,-30.231998],[139.627564,-30.232115],[139.627315,-30.232296],[139.627032,-30.232535],[139.626693,-30.232771],[139.62469,-30.23547],[139.62278,-30.23686],[139.61919,-30.23865],[139.61716,-30.23975],[139.61485,-30.2409],[139.60616,-30.2457],[139.6017,-30.24818],[139.5976,-30.25043],[139.5935,-30.25273],[139.58533,-30.25788],[139.58306,-30.25926],[139.58053,-30.26055],[139.5766,-30.26237],[139.574144,-30.263807]]}},{"type":"Feature","properties":{"tier":"arterial"},"geometry":{"type":"LineString","coordinates":[[139.574144,-30.263807],[139.5736,-30.264107],[139.57181,-30.26508],[139.571093,-30.265303],[139.57028,-30.265444],[139.569524,-30.265658],[139.569118,-30.265711],[139.568768,-30.265744],[139.568378,-30.265868],[139.568028,-30.265984],[139.567203,-30.266203]]}},{"type":"Feature","properties":{"tier":"arterial"},"geometry":{"type":"LineString","coordinates":[[139.567203,-30.266203],[139.566217,-30.266392],[139.5661,-30.26641],[139.565835,-30.266428],[139.56547,-30.266412],[139.56469,-30.26634],[139.564298,-30.266307],[139.563808,-30.26636],[139.56334,-30.26651],[139.562752,-30.266796],[139.56234,-30.26717],[139.56102,-30.26864],[139.55887,-30.27074],[139.5581,-30.27197],[139.55677,-30.27446],[139.55598,-30.27523],[139.55506,-30.27655],[139.55231,-30.27987],[139.55014,-30.28227],[139.54921,-30.2828],[139.54738,-30.28352],[139.546286,-30.284147],[139.54574,-30.28446],[139.54398,-30.28525],[139.54084,-30.28679],[139.53712,-30.28865],[139.52963,-30.29245],[139.52547,-30.29445],[139.52108,-30.29644],[139.51914,-30.29727],[139.51828,-30.29795],[139.51483,-30.30204],[139.50831,-30.30987],[139.506296,-30.312385],[139.50622,-30.31248],[139.50467,-30.31466],[139.50333,-30.31714],[139.50207,-30.31977],[139.50117,-30.3218],[139.5,-30.3243],[139.49998,-30.324323]]}}]}
