{"type":"FeatureCollection","features":[{"type":"Feature","properties":{"tier":"arterial"},"geometry":{"type":"LineString","coordinates":[[139.795104,-35.318528],[139.793475,-35.318296],[139.792945,-35.31823],[139.792462,-35.318182],[139.79196,-35.318158],[139.784147,-35.317921],[139.781974,-35.317842],[139.781217,-35.317754],[139.780452,-35.317646],[139.780095,-35.317584],[139.779567,-35.31747],[139.769072,-35.315067],[139.758042,-35.312548],[139.747,-35.310025],[139.737416,-35.307826],[139.735976,-35.307496],[139.735172,-35.307339],[139.734427,-35.307208],[139.733418,-35.307101],[139.732661,-35.307043],[139.731667,-35.307007],[139.731154,-35.307011],[139.730697,-35.30703],[139.729756,-35.307081],[139.725066,-35.30742],[139.718361,-35.307901],[139.717894,-35.307914],[139.717287,-35.307909],[139.713264,-35.307751],[139.6962,-35.30713],[139.694655,-35.307069],[139.692514,-35.306933],[139.688832,-35.30666],[139.681466,-35.306137],[139.68071,-35.306064],[139.679908,-35.305985],[139.679414,-35.305915],[139.678957,-35.305827],[139.676749,-35.305267],[139.673237,-35.304271],[139.671727,-35.303971],[139.667165,-35.303215],[139.660356,-35.301671],[139.658677,-35.301432],[139.654552,-35.301019],[139.650924,-35.300122],[139.646248,-35.298742],[139.644965,-35.298218],[139.642877,-35.296898],[139.64109,-35.295733],[139.640816,-35.295548],[139.640447,-35.295369],[139.639859,-35.295088],[139.639504,-35.294941],[139.63914,-35.294802],[139.638619,-35.294619],[139.637625,-35.294332],[139.636033,-35.2939],[139.635678,-35.293771],[139.63539,-35.293645],[139.635198,-35.293555],[139.633323,-35.292561],[139.63135,-35.291494],[139.631071,-35.291357],[139.630556,-35.291153],[139.630286,-35.291062],[139.630063,-35.290998],[139.629716,-35.290922],[139.628789,-35.290754],[139.626879,-35.290427],[139.623106,-35.289744],[139.621719,-35.289504],[139.621264,-35.289448],[139.620714,-35.289408],[139.619686,-35.289327],[139.612188,-35.289072],[139.60199,-35.288667],[139.60019,-35.288595],[139.599758,-35.288542],[139.599383,-35.288463],[139.598716,-35.28828],[139.597363,-35.287909],[139.596462,-35.287652],[139.595532,-35.287385],[139.593781,-35.286892],[139.593526,-35.286835],[139.593302,-35.286786],[139.592962,-35.286738],[139.592619,-35.286699],[139.592447,-35.286684],[139.592219,-35.28667],[139.591822,-35.286658],[139.591028,-35.286654],[139.58938,-35.286633],[139.586148,-35.286599],[139.579728,-35.286534],[139.561946,-35.286382],[139.558612,-35.286358],[139.544454,-35.286217],[139.532031,-35.286079],[139.526714,-35.286023],[139.513263,-35.285901],[139.50998,-35.285872],[139.50983,-35.285869],[139.506763,-35.285812],[139.50159,-35.285781],[139.49998,-35.285766]]}},{"type":"Feature","properties":{"tier":"arterial"},"geometry":{"type":"LineString","coordinates":[[139.49998,-35.097027],[139.500302,-35.097121],[139.501072,-35.097353],[139.501644,-35.09753],[139.501974,-35.097648],[139.502238,-35.097764],[139.502474,-35.097884],[139.502645,-35.097987],[139.502883,-35.098133],[139.503006,-35.098217],[139.503174,-35.098354],[139.503323,-35.098491],[139.503446,-35.098611],[139.5039,-35.099132],[139.504316,-35.099659],[139.505272,-35.100847],[139.505775,-35.101461],[139.506331,-35.102154],[139.507035,-35.103008],[139.50759,-35.103712],[139.507914,-35.104117],[139.5084,-35.10472],[139.508828,-35.105227],[139.509272,-35.105752],[139.5098,-35.106369],[139.510224,-35.106872],[139.510805,-35.107562],[139.511201,-35.108019],[139.511394,-35.108245],[139.511651,-35.10851],[139.511967,-35.108828],[139.512293,-35.109164],[139.51264,-35.109513],[139.51295,-35.109831],[139.513263,-35.110155],[139.513511,-35.110406],[139.513693,-35.110605],[139.513869,-35.110808],[139.513975,-35.110932],[139.514274,-35.111286],[139.514505,-35.111556],[139.514676,-35.111765],[139.514863,-35.111971],[139.515123,-35.112277],[139.515461,-35.112677],[139.515704,-35.112974],[139.515882,-35.113182],[139.516011,-35.113328],[139.516178,-35.113511],[139.516335,-35.113657],[139.516516,-35.113817],[139.516715,-35.113979],[139.51689,-35.114112],[139.5171,-35.11427],[139.517374,-35.114471],[139.518027,-35.11496],[139.518477,-35.1153],[139.518952,-35.115647],[139.519759,-35.116255],[139.51996,-35.116406],[139.52015,-35.116547],[139.520312,-35.116666],[139.520412,-35.116738],[139.520717,-35.116972],[139.521208,-35.117342],[139.521736,-35.11774],[139.522108,-35.117998],[139.522345,-35.118151],[139.52251,-35.11824],[139.522619,-35.118297],[139.522781,-35.118377],[139.522929,-35.118437],[139.523082,-35.118501],[139.523239,-35.118551],[139.523426,-35.118612],[139.523669,-35.118683],[139.523948,-35.118752],[139.524185,-35.118807],[139.525126,-35.119042],[139.52571,-35.119202],[139.525992,-35.119293],[139.526191,-35.119371],[139.526392,-35.119455],[139.526878,-35.119654],[139.527358,-35.119855],[139.527551,-35.119926],[139.527819,-35.120022],[139.528078,-35.120106],[139.528623,-35.120269],[139.529475,-35.120522],[139.530251,-35.120751],[139.531011,-35.120968],[139.531804,-35.121201],[139.532424,-35.121383],[139.53315,-35.121598],[139.53384,-35.121797],[139.534312,-35.121929],[139.534762,-35.12206],[139.535454,-35.122247],[139.536164,-35.122427],[139.536935,-35.122631],[139.537532,-35.122788],[139.537934,-35.122891],[139.538124,-35.122939],[139.538306,-35.122978],[139.538524,-35.123017],[139.538817,-35.123067],[139.539163,-35.123117],[139.539909,-35.123211],[139.540487,-35.123286],[139.540976,-35.12335],[139.54173,-35.123446],[139.542518,-35.123551],[139.542864,-35.123599],[139.543046,-35.123633],[139.543246,-35.12368],[139.543473,-35.123741],[139.543702,-35.123812],[139.543953,-35.123905],[139.54416,-35.123993],[139.544804,-35.124294],[139.545791,-35.124738],[139.546247,-35.124954],[139.546532,-35.125106],[139.546745,-35.125239],[139.547302,-35.125581],[139.547693,-35.125812],[139.547926,-35.12593],[139.548117,-35.12602],[139.548341,-35.126111],[139.548621,-35.126203],[139.548834,-35.126264],[139.549243,-35.126366],[139.549952,-35.126549],[139.551135,-35.126841],[139.552241,-35.127118],[139.552425,-35.127164],[139.553955,-35.127551],[139.555192,-35.127855],[139.556307,-35.128136],[139.557988,-35.128547],[139.55918,-35.128848],[139.56072,-35.12923],[139.563599,-35.129931],[139.564871,-35.130241],[139.565159,-35.130309],[139.565606,-35.130415],[139.565937,-35.13047],[139.566159,-35.130499],[139.567942,-35.130605],[139.57109,-35.130763],[139.573373,-35.130886],[139.573891,-35.130915],[139.574159,-35.130941],[139.574416,-35.130983],[139.574775,-35.131044],[139.575222,-35.131157],[139.575854,-35.131309],[139.577248,-35.131654],[139.579428,-35.132194],[139.579673,-35.132252],[139.579961,-35.13231],[139.580246,-35.132346],[139.580585,-35.132371],[139.580925,-35.132397],[139.581277,-35.132407],[139.581549,-35.13241],[139.581893,-35.132394],[139.582209,-35.132359],[139.582691,-35.132287],[139.583939,-35.132078],[139.587264,-35.131503],[139.589433,-35.131118],[139.592316,-35.130621],[139.592777,-35.130537],[139.593177,-35.130466],[139.593501,-35.130424],[139.593753,-35.130401],[139.594028,-35.130373],[139.59441,-35.130362],[139.594993,-35.130376],[139.595398,-35.130406],[139.595879,-35.130485],[139.596443,-35.130608],[139.596811,-35.130705],[139.597206,-35.130831],[139.597573,-35.130976],[139.598039,-35.131167],[139.598841,-35.131506],[139.600706,-35.132297],[139.601954,-35.13281],[139.603329,-35.133453],[139.60466,-35.134115],[139.605509,-35.134525],[139.606251,-35.1349],[139.606516,-35.135033],[139.606796,-35.135162],[139.60733,-35.135378],[139.607776,-35.135562],[139.60836,-35.135775],[139.609565,-35.136241],[139.611797,-35.1371],[139.614226,-35.13804],[139.614876,-35.138304],[139.616469,-35.138905],[139.617231,-35.139199],[139.618045,-35.139512],[139.618432,-35.139661],[139.618728,-35.139755],[139.618938,-35.139819],[139.619175,-35.139861],[139.619396,-35.139887],[139.619672,-35.1399],[139.619858,-35.13989],[139.620036,-35.139865],[139.620221,-35.139816],[139.620391,-35.139761],[139.620648,-35.139655],[139.620841,-35.139571],[139.621098,-35.139451],[139.621351,-35.139335],[139.621655,-35.139186],[139.621892,-35.139086],[139.622093,-35.139009],[139.622346,-35.138937],[139.622548,-35.138895],[139.62284,-35.138863],[139.623172,-35.138841],[139.625707,-35.138724],[139.626134,-35.138734],[139.626371,-35.138753],[139.626632,-35.138815],[139.626801,-35.138873],[139.626983,-35.13895],[139.627188,-35.139067],[139.62736,-35.139217],[139.628034,-35.1398],[139.629366,-35.141017],[139.629785,-35.141391],[139.630293,-35.141844],[139.630479,-35.141996],[139.630652,-35.142122],[139.630866,-35.142268],[139.631106,-35.14239],[139.631347,-35.1425],[139.631608,-35.142616],[139.631904,-35.1427],[139.632145,-35.142758],[139.632362,-35.142784],[139.632754,-35.142804],[139.6335,-35.142833],[139.633915,-35.142852],[139.634132,-35.142884],[139.634361,-35.142933],[139.634634,-35.143014],[139.635029,-35.143156],[139.635688,-35.143414],[139.63818,-35.144396],[139.639535,-35.144922],[139.641688,-35.145772],[139.642059,-35.145949],[139.642288,-35.146091],[139.642422,-35.146185],[139.642549,-35.146285],[139.642683,-35.146447],[139.642813,-35.146595],[139.642975,-35.146776],[139.64307,-35.146886],[139.643204,-35.147057],[139.643449,-35.147399],[139.643722,-35.147709],[139.643967,-35.148013],[139.644077,-35.148129],[139.644196,-35.148223],[139.64429,-35.1483],[139.644413,-35.148384],[139.644516,-35.148423],[139.644634,-35.148475],[139.644808,-35.148543],[139.645487,-35.148759],[139.646443,-35.149062],[139.646853,-35.149191],[139.647778,-35.149463],[139.648125,-35.149579],[139.648485,-35.149721],[139.648931,-35.149918],[139.64967,-35.15028],[139.6501,-35.150496],[139.650531,-35.150716],[139.650736,-35.150816],[139.65104,-35.150971],[139.651874,-35.151388],[139.652296,-35.15161],[139.652691,-35.151849],[139.652818,-35.15195],[139.652948,-35.152059],[139.653023,-35.152143],[139.653126,-35.152279],[139.653213,-35.152408],[139.653604,-35.15309],[139.653908,-35.153635],[139.654208,-35.154168],[139.654484,-35.15464],[139.654611,-35.154801],[139.654745,-35.154946],[139.654899,-35.155085],[139.655026,-35.155182],[139.65516,-35.15525],[139.655228,-35.155277],[139.655511,-35.155402],[139.656139,-35.15565],[139.657731,-35.15627],[139.658995,-35.156774],[139.661029,-35.157543],[139.662131,-35.157979],[139.662514,-35.158108],[139.662672,-35.158142],[139.662794,-35.158169],[139.663099,-35.158211],[139.663347,-35.158237],[139.663589,-35.158245],[139.664054,-35.158217],[139.664359,-35.158182],[139.664698,-35.158098],[139.665069,-35.157979],[139.665397,-35.157811],[139.665729,-35.157636],[139.66601,-35.157449],[139.666601,-35.156926],[139.667881,-35.155759],[139.669315,-35.154453],[139.670174,-35.15369],[139.671956,-35.152063],[139.674466,-35.149831],[139.675528,-35.148823],[139.677148,-35.147374],[139.680657,-35.144217],[139.681847,-35.143117],[139.68449,-35.140693],[139.685242,-35.139978],[139.685534,-35.139643],[139.685732,-35.139393],[139.685922,-35.139129],[139.686562,-35.137923],[139.686811,-35.137214],[139.687505,-35.132773],[139.687938,-35.131213],[139.688253,-35.130602],[139.68874,-35.129972],[139.689597,-35.129192],[139.69439,-35.126301],[139.695102,-35.125901],[139.695821,-35.125616],[139.696407,-35.125445],[139.697006,-35.125328],[139.697515,-35.125266],[139.697956,-35.125236],[139.698335,-35.125241],[139.698799,-35.125283],[139.699397,-35.125362],[139.700007,-35.125478],[139.712399,-35.127897],[139.713297,-35.128091],[139.713678,-35.128184],[139.719101,-35.129651],[139.720683,-35.130022],[139.7216,-35.13023],[139.722199,-35.130326],[139.722783,-35.130392],[139.724318,-35.13053],[139.725909,-35.130615],[139.72662,-35.13063],[139.72711,-35.130612],[139.727483,-35.130561],[139.728144,-35.130471],[139.728712,-35.13046],[139.729547,-35.130484],[139.729693,-35.130488],[139.730075,-35.130507],[139.730293,-35.130519],[139.73198,-35.130606],[139.732256,-35.13062],[139.735559,-35.13079],[139.735895,-35.130811],[139.736246,-35.13086],[139.737323,-35.131112],[139.737735,-35.131187],[139.738292,-35.131224],[139.740761,-35.131352],[139.743643,-35.131467],[139.749477,-35.131777],[139.758466,-35.132216],[139.762006,-35.132404],[139.762466,-35.132419],[139.763079,-35.132447],[139.763544,-35.13247],[139.764049,-35.132491],[139.764366,-35.132504],[139.764708,-35.132509],[139.765082,-35.132504],[139.765427,-35.132493],[139.765786,-35.132466],[139.766108,-35.132429],[139.766362,-35.132389],[139.766791,-35.132313],[139.76714,-35.132241],[139.767704,-35.132114],[139.768015,-35.132036],[139.786156,-35.127428],[139.789452,-35.126571],[139.790417,-35.126323],[139.790833,-35.126214],[139.791302,-35.126086],[139.791667,-35.125978],[139.792005,-35.125865],[139.792295,-35.125744],[139.792483,-35.12565],[139.792646,-35.125564],[139.792858,-35.125456],[139.793058,-35.125337],[139.793439,-35.125113],[139.793795,-35.12488],[139.794002,-35.124731],[139.794274,-35.124531],[139.794518,-35.124325],[139.794784,-35.124076],[139.795053,-35.123777],[139.79522,-35.123582],[139.795438,-35.123314],[139.795636,-35.123035],[139.795744,-35.122869],[139.795906,-35.122595],[139.79609,-35.122242],[139.796298,-35.121827],[139.797032,-35.12019],[139.801215,-35.110943],[139.80137,-35.110587],[139.801541,-35.110214],[139.801656,-35.11001],[139.8018,-35.109789],[139.80197,-35.109564],[139.802235,-35.109269],[139.80244,-35.109073],[139.802594,-35.108941],[139.802837,-35.108755],[139.803061,-35.108604],[139.803279,-35.108473],[139.803466,-35.108372],[139.803665,-35.108274],[139.803868,-35.108185],[139.804076,-35.108104],[139.804358,-35.108009],[139.804662,-35.107924],[139.804937,-35.107862],[139.80515,-35.107824],[139.805408,-35.107787],[139.805762,-35.107756],[139.806081,-35.107746],[139.80668,-35.107703],[139.807101,-35.107668],[139.807948,-35.107619],[139.819378,-35.10687],[139.825017,-35.106492],[139.826192,-35.10649],[139.827227,-35.106549],[139.832243,-35.106832],[139.83287,-35.10684],[139.833424,-35.106849],[139.83415,-35.106801],[139.835419,-35.106649],[139.838151,-35.106191],[139.838718,-35.106068],[139.838974,-35.105995],[139.839268,-35.105885],[139.839797,-35.105664],[139.840055,-35.105562],[139.840334,-35.105462],[139.840739,-35.105367],[139.840998,-35.105314],[139.845034,-35.104661],[139.845464,-35.104597],[139.845766,-35.104566],[139.846139,-35.104542],[139.847377,-35.104576],[139.847795,-35.104595],[139.848131,-35.104595],[139.848653,-35.104564],[139.866343,-35.101785],[139.881131,-35.099461],[139.882435,-35.099216]]}},{"type":"Feature","properties":{"tier":"regional"},"geometry":{"type":"LineString","coordinates":[[139.893712,-35.09701],[139.899485,-35.095225],[139.90014,-35.094969],[139.90169,-35.09417],[139.90205,-35.093954],[139.902643,-35.093588],[139.903175,-35.093237]]}},{"type":"Feature","properties":{"tier":"regional"},"geometry":{"type":"LineString","coordinates":[[139.892569,-35.093384],[139.892822,-35.093778],[139.893166,-35.09439],[139.893196,-35.094515],[139.893179,-35.095567]]}},{"type":"Feature","properties":{"tier":"arterial"},"geometry":{"type":"LineString","coordinates":[[139.49998,-35.253769],[139.504073,-35.253676],[139.510066,-35.253532],[139.516326,-35.253395],[139.516876,-35.253411],[139.517435,-35.253502],[139.518459,-35.253767],[139.518705,-35.253822],[139.518916,-35.253843],[139.519128,-35.253852],[139.51935,-35.253811],[139.519551,-35.25373],[139.519789,-35.253592],[139.520014,-35.253395],[139.52019,-35.253211],[139.520584,-35.252962],[139.520699,-35.25279],[139.521238,-35.252417],[139.523513,-35.250959],[139.525675,-35.249571],[139.526916,-35.248758],[139.527561,-35.248347],[139.528182,-35.247985],[139.529683,-35.247192],[139.530718,-35.246554],[139.532354,-35.24546],[139.533561,-35.244622],[139.534093,-35.244166],[139.534553,-35.243682],[139.534789,-35.243391],[139.534977,-35.243119],[139.535422,-35.242418],[139.53622,-35.240997],[139.537321,-35.239067],[139.53878,-35.236654],[139.540268,-35.234267],[139.541337,-35.23257],[139.544835,-35.227018],[139.545656,-35.225995],[139.546078,-35.225632],[139.546612,-35.225271],[139.547225,-35.224993],[139.549071,-35.224389],[139.554031,-35.222828],[139.554425,-35.222706],[139.554929,-35.22251],[139.559043,-35.220922],[139.559388,-35.220793],[139.562003,-35.219759],[139.564887,-35.21864],[139.567705,-35.21754],[139.569115,-35.217003],[139.569234,-35.216958],[139.569337,-35.216908],[139.569728,-35.216721],[139.570166,-35.216424],[139.570644,-35.21597],[139.571198,-35.215358],[139.571336,-35.215174],[139.571688,-35.214706],[139.571814,-35.214464],[139.571922,-35.2142],[139.572099,-35.213653],[139.572309,-35.212679],[139.572751,-35.210561],[139.573511,-35.206721],[139.573889,-35.204501],[139.57406,-35.203814],[139.574229,-35.203403],[139.574438,-35.20307],[139.574763,-35.20272],[139.57511,-35.202449],[139.575509,-35.202183],[139.577693,-35.200771],[139.578296,-35.200394],[139.578935,-35.20007],[139.579468,-35.199845],[139.580018,-35.199644],[139.580571,-35.199476],[139.583309,-35.198689],[139.583749,-35.198544],[139.58404,-35.198427],[139.585687,-35.197695],[139.586425,-35.197361],[139.58673,-35.197205],[139.587175,-35.196957],[139.588354,-35.196197],[139.588682,-35.195982],[139.58914,-35.195705],[139.589546,-35.19549],[139.589979,-35.195278],[139.601381,-35.190072],[139.601818,-35.189843],[139.602099,-35.189664],[139.602525,-35.189306],[139.602916,-35.188856],[139.603132,-35.188565],[139.603329,-35.18823],[139.603488,-35.187859],[139.603599,-35.187502],[139.60376,-35.186581],[139.60393,-35.185448],[139.603999,-35.185155],[139.604097,-35.184944],[139.604266,-35.184598],[139.604458,-35.18432],[139.604719,-35.184047],[139.604973,-35.18384],[139.605249,-35.183636],[139.605608,-35.18345],[139.605918,-35.183335],[139.606283,-35.183221],[139.606743,-35.183159],[139.607201,-35.183128],[139.608344,-35.183124],[139.616236,-35.183126],[139.618462,-35.183109],[139.618927,-35.183075],[139.619096,-35.183057],[139.619341,-35.183031],[139.61981,-35.182931],[139.620323,-35.182799],[139.620848,-35.182615],[139.621315,-35.182394],[139.621723,-35.182184],[139.623289,-35.181207],[139.623798,-35.180905],[139.624476,-35.180633],[139.624998,-35.180464],[139.625519,-35.180322],[139.626835,-35.180034],[139.627533,-35.179786],[139.62804,-35.179564],[139.628444,-35.179327],[139.628834,-35.179071],[139.631505,-35.176692],[139.632046,-35.176229],[139.632513,-35.17589],[139.633108,-35.175537],[139.633689,-35.175249],[139.634175,-35.175048],[139.638525,-35.173461],[139.639191,-35.173193],[139.639883,-35.17284],[139.640416,-35.172506],[139.645846,-35.168794],[139.646338,-35.168466],[139.646955,-35.168127],[139.647469,-35.16789],[139.65325,-35.165754],[139.653701,-35.165588],[139.659663,-35.163389],[139.660361,-35.163047],[139.660838,-35.162783],[139.661463,-35.162395],[139.662567,-35.161683],[139.663002,-35.161366],[139.663582,-35.160846],[139.664357,-35.160138],[139.664891,-35.159743],[139.665047,-35.159634],[139.664695,-35.159149],[139.664569,-35.158911],[139.664359,-35.158182]]}},{"type":"Feature","properties":{"tier":"regional"},"geometry":{"type":"LineString","coordinates":[[139.805059,-35.136131],[139.80489,-35.13603],[139.804418,-35.135468],[139.803345,-35.13438],[139.802444,-35.133889],[139.800684,-35.133854],[139.799483,-35.133643],[139.797337,-35.132766],[139.791286,-35.130204],[139.786951,-35.128414],[139.786672,-35.128276],[139.786337,-35.128032],[139.786205,-35.127656],[139.786187,-35.127579],[139.786156,-35.127428]]}},{"type":"Feature","properties":{"tier":"regional"},"geometry":{"type":"LineString","coordinates":[[139.891093,-35.155493],[139.890854,-35.155515],[139.890654,-35.15552],[139.890405,-35.155513],[139.89019,-35.155504],[139.889988,-35.155476],[139.889751,-35.155421],[139.88953,-35.155353],[139.889246,-35.155232],[139.888543,-35.154892],[139.887995,-35.154663],[139.887453,-35.154484],[139.8868,-35.15429],[139.884619,-35.153773],[139.884276,-35.153671],[139.883974,-35.153545],[139.883259,-35.153238],[139.882556,-35.152929],[139.881956,-35.152626],[139.880447,-35.151786],[139.877228,-35.150011],[139.871994,-35.147109],[139.868207,-35.145005],[139.867225,-35.144428],[139.866954,-35.144233],[139.866694,-35.144001],[139.866375,-35.143681],[139.86587,-35.143108],[139.865439,-35.142654],[139.865168,-35.142424],[139.864921,-35.14224],[139.864733,-35.142117],[139.864481,-35.142001],[139.864237,-35.141906],[139.863929,-35.141821],[139.863658,-35.141765],[139.863371,-35.141726],[139.862845,-35.141677],[139.860187,-35.141408],[139.855834,-35.140939],[139.854674,-35.140808],[139.854399,-35.14077],[139.854177,-35.140723],[139.85394,-35.140649],[139.85299,-35.140276],[139.849396,-35.1387],[139.846996,-35.137642],[139.846734,-35.137529],[139.846537,-35.13746],[139.846353,-35.137408],[139.846175,-35.137375],[139.845934,-35.137355],[139.844263,-35.137252],[139.842022,-35.137142],[139.841779,-35.137105],[139.841582,-35.137073],[139.841378,-35.13702],[139.841222,-35.13695],[139.839578,-35.136113],[139.839295,-35.135951],[139.839117,-35.135822],[139.838965,-35.135686],[139.838002,-35.134589],[139.836881,-35.133257],[139.836474,-35.132788],[139.836305,-35.132632],[139.836154,-35.132511],[139.836008,-35.132413],[139.83578,-35.132308],[139.835405,-35.132144],[139.833897,-35.131472],[139.833535,-35.131298],[139.8333,-35.131152],[139.833047,-35.130966],[139.832846,-35.130817],[139.832641,-35.130697],[139.832244,-35.13051],[139.831467,-35.130167],[139.829231,-35.129186],[139.828948,-35.129075],[139.828751,-35.129011],[139.828535,-35.128957],[139.828293,-35.128921],[139.828028,-35.128887],[139.82768,-35.128831],[139.827334,-35.128764],[139.826174,-35.128486],[139.825215,-35.128283],[139.82465,-35.128165],[139.824334,-35.128095],[139.824121,-35.128038],[139.824033,-35.127994],[139.823952,-35.127927]]}},{"type":"Feature","properties":{"tier":"regional"},"geometry":{"type":"LineString","coordinates":[[139.996738,-34.99998],[139.996636,-35.002803],[139.996595,-35.003574],[139.996507,-35.005229],[139.996636,-35.006459],[139.997237,-35.008392],[139.998353,-35.010115],[140.00002,-35.012829]]}},{"type":"Feature","properties":{"tier":"arterial"},"geometry":{"type":"LineString","coordinates":[[139.795104,-35.318528],[139.795793,-35.318587],[139.796618,-35.318619],[139.79935,-35.318701],[139.800667,-35.318739],[139.80089,-35.318746]]}},{"type":"Feature","properties":{"tier":"arterial"},"geometry":{"type":"LineString","coordinates":[[140.00002,-35.15354],[139.990978,-35.149505],[139.98451,-35.146628],[139.983832,-35.146292],[139.98302,-35.145869],[139.98155,-35.144949],[139.97859,-35.142774],[139.97753,-35.142015],[139.97647,-35.141325],[139.973978,-35.139842],[139.971458,-35.138341],[139.969006,-35.136896],[139.968155,-35.136389],[139.967535,-35.13597],[139.966503,-35.135181],[139.966417,-35.135115],[139.965843,-35.134715],[139.955844,-35.128801],[139.95025,-35.125466],[139.94642,-35.123212],[139.944122,-35.121862],[139.943482,-35.121419],[139.942847,-35.120854],[139.942389,-35.1203],[139.941874,-35.119556],[139.941013,-35.118066],[139.940825,-35.117745],[139.939683,-35.115787],[139.939158,-35.115068],[139.938379,-35.114398],[139.937681,-35.113935],[139.935608,-35.112927],[139.934921,-35.112532],[139.934392,-35.112121],[139.933956,-35.111693],[139.933649,-35.111346],[139.932591,-35.109902],[139.932169,-35.109324],[139.931684,-35.108794],[139.931309,-35.108454],[139.930773,-35.108043],[139.930226,-35.107704],[139.92962,-35.107425],[139.928886,-35.10716],[139.91898,-35.103796],[139.915365,-35.102571]]}},{"type":"Feature","properties":{"tier":"arterial"},"geometry":{"type":"LineString","coordinates":[[139.915365,-35.102571],[139.914442,-35.102286],[139.913596,-35.102127],[139.912824,-35.102067],[139.912082,-35.102056],[139.911336,-35.102138],[139.910518,-35.102302],[139.907287,-35.103168],[139.906593,-35.10329],[139.905999,-35.103336],[139.905315,-35.103332],[139.904593,-35.103274],[139.903982,-35.103167],[139.903336,-35.103003]]}},{"type":"Feature","properties":{"tier":"arterial"},"geometry":{"type":"LineString","coordinates":[[139.903336,-35.103003],[139.899982,-35.10208],[139.897119,-35.101276],[139.8946,-35.100573]]}},{"type":"Feature","properties":{"tier":"regional"},"geometry":{"type":"LineString","coordinates":[[139.898573,-35.091524],[139.896725,-35.0921],[139.89532,-35.092539],[139.894661,-35.092746],[139.892569,-35.093384]]}},{"type":"Feature","properties":{"tier":"regional"},"geometry":{"type":"LineString","coordinates":[[139.899516,-35.093501],[139.899043,-35.092535],[139.898573,-35.091524]]}},{"type":"Feature","properties":{"tier":"regional"},"geometry":{"type":"LineString","coordinates":[[139.813264,-35.0214],[139.814207,-35.017466],[139.818119,-35.003861],[139.818583,-35.001677],[139.818362,-34.99998]]}},{"type":"Feature","properties":{"tier":"regional"},"geometry":{"type":"LineString","coordinates":[[139.892569,-35.093384],[139.892286,-35.092966],[139.892106,-35.092711],[139.891349,-35.091566],[139.889253,-35.089804],[139.887627,-35.088667],[139.886775,-35.088107],[139.883872,-35.086811],[139.879608,-35.085003],[139.878802,-35.084722],[139.877322,-35.084265],[139.876649,-35.084019],[139.876178,-35.08382],[139.875598,-35.083489]]}},{"type":"Feature","properties":{"tier":"arterial"},"geometry":{"type":"LineString","coordinates":[[139.808528,-35.318955],[139.809159,-35.318982],[139.809768,-35.319019],[139.810242,-35.319069],[139.823829,-35.320961],[139.848362,-35.324378],[139.855891,-35.32541],[139.859644,-35.325934],[139.862905,-35.326375],[139.865412,-35.326779],[139.865974,-35.326923],[139.866507,-35.32708],[139.867213,-35.327343],[139.867802,-35.327596],[139.868401,-35.327902],[139.868944,-35.328227],[139.875796,-35.33296],[139.879376,-35.335441],[139.893917,-35.34552],[139.894439,-35.345848],[139.895084,-35.346205],[139.895745,-35.346534],[139.896391,-35.346808],[139.897347,-35.347172],[139.930843,-35.35821],[139.940824,-35.361504],[139.94467,-35.362781],[139.9453,-35.36299],[139.945673,-35.363128],[139.946036,-35.363273],[139.94645,-35.363458],[139.946884,-35.363673]]}},{"type":"Feature","properties":{"tier":"arterial"},"geometry":{"type":"LineString","coordinates":[[139.946884,-35.363673],[139.949194,-35.364892],[139.949621,-35.365122],[139.950345,-35.365512],[139.951632,-35.366206],[139.951812,-35.366303],[139.952482,-35.366635],[139.95293,-35.366872],[139.955394,-35.368172],[139.957516,-35.36929]]}},{"type":"Feature","properties":{"tier":"regional"},"geometry":{"type":"LineString","coordinates":[[139.665074,-35.460914],[139.665054,-35.460935],[139.664708,-35.461315],[139.664321,-35.461741],[139.663936,-35.462164],[139.663562,-35.462575],[139.663434,-35.462857],[139.66336,-35.463108],[139.66334,-35.463435],[139.663334,-35.463757],[139.66336,-35.464176],[139.663568,-35.466651],[139.663675,-35.468234],[139.663806,-35.469749],[139.663813,-35.469833],[139.663903,-35.470909],[139.664188,-35.473536],[139.6642,-35.473793],[139.664259,-35.474045],[139.664376,-35.474427],[139.664399,-35.474507],[139.664477,-35.474781],[139.664585,-35.474985],[139.664836,-35.475435],[139.66676,-35.47803],[139.667346,-35.478766],[139.670089,-35.482329],[139.670859,-35.483616],[139.671553,-35.485367],[139.672306,-35.487335],[139.673497,-35.49043],[139.673734,-35.491111]]}},{"type":"Feature","properties":{"tier":"arterial"},"geometry":{"type":"LineString","coordinates":[[139.893179,-35.095567],[139.895615,-35.094778],[139.896823,-35.0944],[139.8977,-35.094135],[139.897889,-35.094075],[139.899252,-35.09361],[139.899516,-35.093501]]}},{"type":"Feature","properties":{"tier":"regional"},"geometry":{"type":"LineString","coordinates":[[139.890926,-35.09838],[139.890975,-35.098422],[139.891042,-35.098442],[139.891736,-35.098435],[139.894586,-35.098448]]}},{"type":"Feature","properties":{"tier":"regional"},"geometry":{"type":"LineString","coordinates":[[139.891751,-35.097248],[139.891736,-35.098435]]}},{"type":"Feature","properties":{"tier":"regional"},"geometry":{"type":"LineString","coordinates":[[139.888048,-35.095903],[139.887198,-35.096182],[139.88702,-35.096198],[139.886545,-35.096194],[139.886426,-35.096221],[139.886329,-35.09629],[139.886292,-35.096373],[139.886287,-35.096887],[139.886775,-35.097956]]}},{"type":"Feature","properties":{"tier":"regional"},"geometry":{"type":"LineString","coordinates":[[139.888348,-35.096562],[139.887851,-35.096706],[139.88774,-35.096715]]}},{"type":"Feature","properties":{"tier":"regional"},"geometry":{"type":"LineString","coordinates":[[139.887897,-35.095251],[139.88789,-35.095523],[139.888048,-35.095903],[139.888348,-35.096562],[139.888586,-35.097056],[139.888584,-35.09713],[139.888552,-35.0972],[139.888216,-35.097314],[139.888098,-35.09733]]}},{"type":"Feature","properties":{"tier":"arterial"},"geometry":{"type":"LineString","coordinates":[[139.642877,-35.296898],[139.642352,-35.297987],[139.641399,-35.299918],[139.639025,-35.304943],[139.638992,-35.305361],[139.63898,-35.305979],[139.639415,-35.307061],[139.641877,-35.311726],[139.642479,-35.313017],[139.643916,-35.317244],[139.645197,-35.32069],[139.647225,-35.32628],[139.648629,-35.330207],[139.649387,-35.334361],[139.649587,-35.335234],[139.649855,-35.335797],[139.650323,-35.336352],[139.651236,-35.336961],[139.653409,-35.338415],[139.653921,-35.338942],[139.654245,-35.339606],[139.65459,-35.341314],[139.65547,-35.345949],[139.65752,-35.350411],[139.659559,-35.355382],[139.660124,-35.356663],[139.66054,-35.357717],[139.660941,-35.36018],[139.661632,-35.363805],[139.661899,-35.365505],[139.662289,-35.367267],[139.662735,-35.370974],[139.663069,-35.3735],[139.664751,-35.376997],[139.66484,-35.377533],[139.664874,-35.379786],[139.664863,-35.380931],[139.664506,-35.382675],[139.664083,-35.38481],[139.663798,-35.385939],[139.663755,-35.386135],[139.663574,-35.387038],[139.663578,-35.387718],[139.663795,-35.388444],[139.664504,-35.390275],[139.665217,-35.392063],[139.666001,-35.394103],[139.666678,-35.395869],[139.667021,-35.396662],[139.667557,-35.398033],[139.668329,-35.400056],[139.669211,-35.402294],[139.670153,-35.404705],[139.671114,-35.40711],[139.671799,-35.408863],[139.672169,-35.40947],[139.672591,-35.409891],[139.673135,-35.410257],[139.6738,-35.410552],[139.675144,-35.410789],[139.678988,-35.411326],[139.682833,-35.411862],[139.686422,-35.412363],[139.687631,-35.412549],[139.690361,-35.412934],[139.693162,-35.413335],[139.693693,-35.413422],[139.694268,-35.413599],[139.69484,-35.413859],[139.695438,-35.414302],[139.695856,-35.414819],[139.696144,-35.415502],[139.696254,-35.416164],[139.69625,-35.417567],[139.69624,-35.423785],[139.696263,-35.432156],[139.696263,-35.441379],[139.696318,-35.449984],[139.696371,-35.453537],[139.696394,-35.458978],[139.696382,-35.462708],[139.696392,-35.46754],[139.696393,-35.468139],[139.696346,-35.468871],[139.696325,-35.469143],[139.69632,-35.469208],[139.696197,-35.469636],[139.696139,-35.469844],[139.696097,-35.470015],[139.696037,-35.470202]]}},{"type":"Feature","properties":{"tier":"arterial"},"geometry":{"type":"LineString","coordinates":[[139.8946,-35.100573],[139.8946,-35.100909],[139.894591,-35.105395],[139.894624,-35.107101],[139.894607,-35.107489],[139.894565,-35.107926],[139.894441,-35.108657],[139.894283,-35.109448],[139.894219,-35.10987],[139.894186,-35.110218],[139.894171,-35.112198],[139.894133,-35.121873],[139.894146,-35.129194],[139.89412,-35.133717],[139.894277,-35.134574],[139.894985,-35.136278],[139.895902,-35.138122],[139.896125,-35.139601],[139.89619,-35.140372],[139.896217,-35.141423],[139.894133,-35.146138],[139.89235,-35.15051],[139.891197,-35.153885],[139.891027,-35.15485],[139.891093,-35.155493],[139.891132,-35.155975],[139.891603,-35.156993],[139.892337,-35.157882],[139.893517,-35.158686],[139.8964,-35.159854],[139.897448,-35.160561],[139.897907,-35.161],[139.898274,-35.161889],[139.898445,-35.162746],[139.898235,-35.163679],[139.896426,-35.166818],[139.893923,-35.170846],[139.892822,-35.173664],[139.88948,-35.182565],[139.889585,-35.183283],[139.8899,-35.184279],[139.89045,-35.185318],[139.892652,-35.188456],[139.893779,-35.190266],[139.893884,-35.192184],[139.893871,-35.193169],[139.893834,-35.194678],[139.893805,-35.195889],[139.893412,-35.196778],[139.888838,-35.20224],[139.88817,-35.2033],[139.887777,-35.204307],[139.887645,-35.208986],[139.887462,-35.209747],[139.884802,-35.215668],[139.884159,-35.216685],[139.883568,-35.217281],[139.882639,-35.218216],[139.882439,-35.218637]]}},{"type":"Feature","properties":{"tier":"arterial"},"geometry":{"type":"LineString","coordinates":[[139.806478,-35.318899],[139.806205,-35.323301],[139.806161,-35.324042],[139.806176,-35.324407],[139.806232,-35.324749],[139.806312,-35.325032],[139.806512,-35.325641],[139.809321,-35.334178],[139.811514,-35.340882],[139.811654,-35.341363],[139.81172,-35.341879],[139.8118,-35.342918],[139.811935,-35.343513],[139.815416,-35.354175],[139.815671,-35.355154],[139.815723,-35.356009],[139.81554,-35.357078],[139.814832,-35.358692],[139.814321,-35.360071],[139.814229,-35.361332],[139.814504,-35.364004],[139.814845,-35.367306],[139.814885,-35.368086],[139.814858,-35.369315],[139.814426,-35.370395],[139.813456,-35.372372],[139.813194,-35.373312],[139.813063,-35.375503],[139.812997,-35.379371],[139.812945,-35.383378],[139.812866,-35.389703],[139.812843,-35.390823],[139.812735,-35.3959],[139.812709,-35.398699],[139.812578,-35.40544],[139.812499,-35.410001],[139.812421,-35.412521],[139.812539,-35.413376],[139.813142,-35.415608],[139.813784,-35.417723],[139.815029,-35.42176],[139.815068,-35.422326],[139.815055,-35.422935],[139.814819,-35.423715],[139.813679,-35.426075],[139.812906,-35.427538],[139.812709,-35.42836],[139.812074,-35.432991],[139.812054,-35.433138],[139.811254,-35.439241],[139.810704,-35.443309],[139.810586,-35.444494],[139.809629,-35.451167],[139.809328,-35.453623],[139.808961,-35.454562],[139.80841,-35.455534],[139.806038,-35.459622],[139.803234,-35.464308],[139.802603,-35.465325],[139.802565,-35.465386],[139.799905,-35.469891],[139.796012,-35.476188],[139.79537,-35.477223],[139.791412,-35.483765],[139.790705,-35.484469],[139.785122,-35.489538],[139.783761,-35.49075],[139.783719,-35.490787],[139.782684,-35.491459],[139.78039,-35.492974],[139.779866,-35.49354],[139.779355,-35.494287],[139.778346,-35.496688],[139.777874,-35.497306],[139.777258,-35.497925],[139.77638,-35.498587],[139.775227,-35.499184],[139.772688,-35.50002]]}},{"type":"Feature","properties":{"tier":"arterial"},"geometry":{"type":"LineString","coordinates":[[139.87277,-35.261625],[139.870267,-35.263354],[139.869001,-35.264194],[139.868089,-35.265026],[139.863557,-35.271187],[139.862784,-35.272032],[139.861733,-35.27284],[139.860595,-35.273455],[139.858917,-35.274172],[139.858013,-35.274557],[139.856952,-35.27521],[139.855274,-35.277029],[139.854291,-35.277949],[139.851277,-35.279725],[139.848879,-35.28133],[139.843912,-35.284721],[139.842654,-35.285395],[139.833637,-35.288893],[139.83289,-35.289289],[139.831968,-35.29005],[139.829881,-35.292789],[139.829614,-35.293305],[139.827842,-35.29583],[139.82584,-35.298802],[139.824155,-35.301201],[139.823201,-35.302479],[139.822254,-35.303212],[139.81838,-35.30514],[139.810041,-35.309202],[139.808511,-35.310033],[139.8079,-35.310662],[139.807399,-35.311205],[139.807085,-35.311803],[139.806843,-35.312581],[139.806678,-35.31566],[139.806554,-35.317601],[139.806518,-35.318233],[139.806478,-35.318899]]}},{"type":"Feature","properties":{"tier":"regional"},"geometry":{"type":"LineString","coordinates":[[139.673734,-35.491111],[139.673997,-35.49166],[139.675395,-35.494713],[139.675564,-35.495043],[139.675741,-35.495331],[139.675995,-35.495661],[139.676263,-35.496012],[139.679737,-35.50002]]}},{"type":"Feature","properties":{"tier":"regional"},"geometry":{"type":"LineString","coordinates":[[139.89357,-35.09687],[139.892227,-35.097298],[139.892154,-35.097302],[139.891751,-35.097248],[139.891578,-35.097225],[139.891518,-35.097228],[139.890876,-35.097437]]}},{"type":"Feature","properties":{"tier":"high"},"geometry":{"type":"LineString","coordinates":[[139.693018,-35.468519],[139.696037,-35.470202],[139.696293,-35.470342],[139.696429,-35.470425],[139.69693,-35.470711],[139.697161,-35.470846]]}},{"type":"Feature","properties":{"tier":"high"},"geometry":{"type":"LineString","coordinates":[[139.707214,-35.476442],[139.724785,-35.486186],[139.730773,-35.489223]]}},{"type":"Feature","properties":{"tier":"high"},"geometry":{"type":"LineString","coordinates":[[139.730773,-35.489223],[139.73478,-35.491272],[139.74459,-35.496887]]}},{"type":"Feature","properties":{"tier":"high"},"geometry":{"type":"LineString","coordinates":[[139.74459,-35.496887],[139.746162,-35.497786],[139.747874,-35.498949],[139.748802,-35.499682],[139.749203,-35.50002]]}},{"type":"Feature","properties":{"tier":"high"},"geometry":{"type":"LineString","coordinates":[[139.658773,-35.456474],[139.659416,-35.45707],[139.66028,-35.457771],[139.661196,-35.458395],[139.664429,-35.460495],[139.665074,-35.460914],[139.668874,-35.463372],[139.670294,-35.46405],[139.671492,-35.464478],[139.673013,-35.464811],[139.674775,-35.465003],[139.683184,-35.465122],[139.685367,-35.46538],[139.687301,-35.46584],[139.689052,-35.466456],[139.690316,-35.467017],[139.693018,-35.468519]]}},{"type":"Feature","properties":{"tier":"high"},"geometry":{"type":"LineString","coordinates":[[139.655709,-35.452203],[139.657503,-35.454951],[139.658102,-35.455737],[139.658773,-35.456474]]}},{"type":"Feature","properties":{"tier":"high"},"geometry":{"type":"LineString","coordinates":[[139.64435,-35.446208],[139.651269,-35.448575],[139.65221,-35.449057],[139.652976,-35.44953],[139.653861,-35.450187],[139.654879,-35.451194],[139.655709,-35.452203]]}},{"type":"Feature","properties":{"tier":"high"},"geometry":{"type":"LineString","coordinates":[[139.643044,-35.445761],[139.64435,-35.446208]]}},{"type":"Feature","properties":{"tier":"high"},"geometry":{"type":"LineString","coordinates":[[139.604261,-35.417058],[139.612753,-35.424542],[139.614958,-35.426472],[139.616467,-35.427682],[139.619444,-35.429912],[139.63784,-35.443268],[139.63905,-35.444066],[139.640004,-35.444573],[139.641031,-35.445044],[139.642083,-35.445432],[139.643044,-35.445761]]}},{"type":"Feature","properties":{"tier":"high"},"geometry":{"type":"LineString","coordinates":[[139.594218,-35.408125],[139.602447,-35.415445],[139.604261,-35.417058]]}},{"type":"Feature","properties":{"tier":"high"},"geometry":{"type":"LineString","coordinates":[[139.585036,-35.400153],[139.586737,-35.401634],[139.588137,-35.402751],[139.589992,-35.404207],[139.591395,-35.405404],[139.592682,-35.406609],[139.594218,-35.408125]]}},{"type":"Feature","properties":{"tier":"high"},"geometry":{"type":"LineString","coordinates":[[139.575521,-35.391863],[139.584621,-35.399791],[139.584844,-35.399986],[139.585036,-35.400153]]}},{"type":"Feature","properties":{"tier":"high"},"geometry":{"type":"LineString","coordinates":[[139.547873,-35.363824],[139.550159,-35.367055],[139.550564,-35.367551],[139.551035,-35.368073],[139.551557,-35.368619],[139.552139,-35.369141],[139.552801,-35.369683],[139.553861,-35.370476],[139.560617,-35.375096],[139.561665,-35.375885],[139.562386,-35.37654],[139.562788,-35.37695],[139.564107,-35.37852],[139.565366,-35.380006],[139.566425,-35.381266],[139.570547,-35.386175],[139.574341,-35.390692],[139.575521,-35.391863]]}},{"type":"Feature","properties":{"tier":"high"},"geometry":{"type":"LineString","coordinates":[[139.540632,-35.353531],[139.545061,-35.359849],[139.547873,-35.363824]]}},{"type":"Feature","properties":{"tier":"high"},"geometry":{"type":"LineString","coordinates":[[139.536534,-35.34815],[139.538627,-35.35067],[139.540632,-35.353531]]}},{"type":"Feature","properties":{"tier":"high"},"geometry":{"type":"LineString","coordinates":[[139.534799,-35.34606],[139.536534,-35.34815]]}},{"type":"Feature","properties":{"tier":"high"},"geometry":{"type":"LineString","coordinates":[[139.51247,-35.319246],[139.514049,-35.320949],[139.518164,-35.326009],[139.523306,-35.33221],[139.530516,-35.340902],[139.534355,-35.345525],[139.534591,-35.345809],[139.534799,-35.34606]]}},{"type":"Feature","properties":{"tier":"high"},"geometry":{"type":"LineString","coordinates":[[139.504886,-35.309864],[139.505688,-35.310909],[139.506492,-35.312102],[139.507366,-35.313316],[139.508494,-35.314741],[139.509585,-35.316041]]}},{"type":"Feature","properties":{"tier":"high"},"geometry":{"type":"LineString","coordinates":[[139.49998,-35.304255],[139.500185,-35.30448],[139.500436,-35.304757],[139.500486,-35.304811],[139.500723,-35.305053],[139.501052,-35.305391]]}},{"type":"Feature","properties":{"tier":"arterial"},"geometry":{"type":"LineString","coordinates":[[139.899516,-35.093501],[139.900793,-35.092938],[139.901038,-35.092867],[139.901211,-35.092852],[139.901396,-35.092873],[139.901609,-35.092932],[139.902231,-35.093159],[139.902433,-35.093225],[139.902632,-35.093262],[139.902913,-35.093266],[139.903175,-35.093237],[139.90328,-35.093204],[139.903538,-35.093098],[139.903704,-35.092985],[139.903997,-35.092702]]}},{"type":"Feature","properties":{"tier":"arterial"},"geometry":{"type":"LineString","coordinates":[[139.903997,-35.092702],[139.904936,-35.091732],[139.906748,-35.08988],[139.90816,-35.088549],[139.909119,-35.087622],[139.909809,-35.086968],[139.911057,-35.085785],[139.913813,-35.083194],[139.916131,-35.081015],[139.919762,-35.077673],[139.924153,-35.073631],[139.924839,-35.073177],[139.92574,-35.072673],[139.927811,-35.071596],[139.928334,-35.07135],[139.929466,-35.070902],[139.931183,-35.07048],[139.934278,-35.069686],[139.934373,-35.069662],[139.940214,-35.068174],[139.947654,-35.066215],[139.947752,-35.066189],[139.952995,-35.064689],[139.955002,-35.064102],[139.95736,-35.063347],[139.958446,-35.062861],[139.964159,-35.059887],[139.965554,-35.059137],[139.967154,-35.0584],[139.968055,-35.058015],[139.970434,-35.057215],[139.974876,-35.05591],[139.985751,-35.052663],[139.988257,-35.051914],[139.989374,-35.051536],[139.989897,-35.051347],[139.991427,-35.050565],[139.992155,-35.050218],[139.997924,-35.047241],[140.00002,-35.046253]]}},{"type":"Feature","properties":{"tier":"regional"},"geometry":{"type":"LineString","coordinates":[[139.890876,-35.097437],[139.890879,-35.098274],[139.890897,-35.098335],[139.890926,-35.09838]]}},{"type":"Feature","properties":{"tier":"arterial"},"geometry":{"type":"LineString","coordinates":[[139.886775,-35.097956],[139.889261,-35.097182],[139.890095,-35.096899],[139.890577,-35.096724],[139.890902,-35.096568],[139.891254,-35.096363],[139.891748,-35.09608],[139.892016,-35.095956],[139.892346,-35.095827],[139.892993,-35.095626],[139.893179,-35.095567]]}},{"type":"Feature","properties":{"tier":"arterial"},"geometry":{"type":"LineString","coordinates":[[139.882435,-35.099216],[139.883,-35.099077],[139.883638,-35.098915],[139.886775,-35.097956]]}},{"type":"Feature","properties":{"tier":"regional"},"geometry":{"type":"LineString","coordinates":[[139.875598,-35.083489],[139.867173,-35.077464],[139.857157,-35.070475],[139.83527,-35.055229],[139.826773,-35.051646],[139.825953,-35.051076],[139.825056,-35.050451],[139.824935,-35.050315],[139.823842,-35.048921],[139.822194,-35.046817],[139.820106,-35.044819],[139.81897,-35.043686],[139.818935,-35.043651],[139.818035,-35.042734],[139.817448,-35.041891],[139.817356,-35.041761],[139.816791,-35.04096],[139.816355,-35.040292],[139.816134,-35.039818],[139.81591,-35.039115],[139.815529,-35.037311]]}},{"type":"Feature","properties":{"tier":"regional"},"geometry":{"type":"LineString","coordinates":[[139.815529,-35.037311],[139.814156,-35.029791],[139.813383,-35.025222],[139.813264,-35.0214]]}},{"type":"Feature","properties":{"tier":"arterial"},"geometry":{"type":"LineString","coordinates":[[139.80089,-35.318746],[139.801314,-35.318758],[139.801504,-35.318763]]}},{"type":"Feature","properties":{"tier":"arterial"},"geometry":{"type":"LineString","coordinates":[[139.801504,-35.318763],[139.801856,-35.318771],[139.801979,-35.318774],[139.803513,-35.31881],[139.806478,-35.318899],[139.808528,-35.318955]]}},{"type":"Feature","properties":{"tier":"arterial"},"geometry":{"type":"LineString","coordinates":[[139.957516,-35.36929],[139.962241,-35.371819],[139.962651,-35.372013],[139.963079,-35.372193],[139.968982,-35.374394],[139.969433,-35.374562],[139.969958,-35.374766],[139.970456,-35.374978],[139.971004,-35.375237],[139.971524,-35.375496],[139.97284,-35.376188],[139.973265,-35.376392],[139.973599,-35.376531],[139.974086,-35.37672],[139.974558,-35.376888],[139.975693,-35.377255],[139.977248,-35.377746],[139.978033,-35.378024],[139.978852,-35.378346],[139.979924,-35.378833],[139.981829,-35.379693],[139.983446,-35.38008],[139.985475,-35.380438],[139.987768,-35.381169],[139.988912,-35.381613],[139.990164,-35.382013],[139.991398,-35.382315],[139.99296,-35.382655],[139.99449,-35.383055],[139.995801,-35.383503],[139.997699,-35.384279],[139.99938,-35.384778],[140.00002,-35.384891]]}},{"type":"Feature","properties":{"tier":"arterial"},"geometry":{"type":"LineString","coordinates":[[139.49998,-35.025092],[139.500009,-35.025064],[139.500901,-35.023907],[139.501639,-35.022959],[139.502413,-35.022279],[139.503068,-35.021831],[139.503852,-35.02143],[139.50536,-35.020714],[139.506304,-35.020197],[139.507086,-35.01959],[139.507626,-35.018897],[139.507953,-35.01828],[139.508561,-35.016613],[139.509258,-35.014659],[139.509536,-35.014141],[139.510104,-35.013376],[139.510697,-35.012811],[139.511164,-35.012494],[139.512171,-35.012003],[139.513155,-35.011709],[139.514355,-35.011468],[139.51741,-35.010834],[139.520819,-35.010148],[139.521637,-35.009946],[139.522805,-35.009511],[139.523861,-35.008963],[139.525062,-35.008329],[139.526227,-35.007914],[139.527186,-35.007739],[139.530034,-35.007303],[139.531263,-35.006983],[139.534813,-35.005903],[139.535959,-35.005573],[139.547602,-35.00202],[139.548103,-35.00187],[139.55251,-35.000552],[139.55329,-35.000279],[139.553842,-34.99998]]}},{"type":"Feature","properties":{"tier":"arterial"},"geometry":{"type":"LineString","coordinates":[[139.892993,-35.095626],[139.89325,-35.0963],[139.893383,-35.096587],[139.89357,-35.09687],[139.893712,-35.09701],[139.89396,-35.097237],[139.894151,-35.097411],[139.894282,-35.097557],[139.894409,-35.097749],[139.894487,-35.097922],[139.894549,-35.098116],[139.894586,-35.098448],[139.894598,-35.099162],[139.8946,-35.100573]]}},{"type":"Feature","properties":{"tier":"high"},"geometry":{"type":"LineString","coordinates":[[139.697161,-35.470846],[139.697958,-35.471274]]}},{"type":"Feature","properties":{"tier":"high"},"geometry":{"type":"LineString","coordinates":[[139.697958,-35.471274],[139.698433,-35.471545],[139.702075,-35.473576],[139.704792,-35.475093],[139.707214,-35.476442]]}},{"type":"Feature","properties":{"tier":"regional"},"geometry":{"type":"LineString","coordinates":[[139.823952,-35.127927],[139.823791,-35.128017],[139.823544,-35.128119],[139.823352,-35.128172],[139.823132,-35.128208],[139.82284,-35.128229],[139.822376,-35.128243],[139.820511,-35.128238],[139.818666,-35.128343],[139.817636,-35.128484],[139.815962,-35.129151],[139.815233,-35.129958],[139.813087,-35.132169],[139.812229,-35.133082],[139.811242,-35.133678],[139.807894,-35.134731],[139.806478,-35.135293],[139.805784,-35.135648],[139.805059,-35.136131]]}},{"type":"Feature","properties":{"tier":"arterial"},"geometry":{"type":"LineString","coordinates":[[139.882439,-35.218637],[139.882076,-35.219405],[139.881866,-35.220593],[139.881931,-35.221482],[139.882469,-35.228815],[139.882062,-35.230025],[139.881604,-35.230838],[139.880254,-35.232466],[139.876532,-35.236309],[139.875339,-35.237625],[139.87454,-35.239199],[139.874199,-35.24332]]}},{"type":"Feature","properties":{"tier":"arterial"},"geometry":{"type":"LineString","coordinates":[[139.875373,-35.257246],[139.875392,-35.257907],[139.875208,-35.259084],[139.874514,-35.260176],[139.873596,-35.261054],[139.87277,-35.261625]]}},{"type":"Feature","properties":{"tier":"arterial"},"geometry":{"type":"LineString","coordinates":[[139.874199,-35.24332],[139.874055,-35.244957],[139.873714,-35.248468],[139.873151,-35.251871],[139.873121,-35.252496],[139.873242,-35.253102],[139.87378,-35.254365],[139.874867,-35.255938],[139.875373,-35.257246]]}},{"type":"Feature","properties":{"tier":"high"},"geometry":{"type":"LineString","coordinates":[[139.501052,-35.305391],[139.503155,-35.307684],[139.504236,-35.308982],[139.504886,-35.309864]]}},{"type":"Feature","properties":{"tier":"high"},"geometry":{"type":"LineString","coordinates":[[139.509585,-35.316041],[139.510321,-35.316918],[139.51247,-35.319246]]}}]}
