{"type":"FeatureCollection","features":[{"type":"Feature","properties":{"tier":"arterial"},"geometry":{"type":"LineString","coordinates":[[139.799726,-36.99998],[139.799722,-37.000329],[139.799718,-37.00069],[139.799667,-37.009689],[139.799623,-37.01621],[139.799603,-37.023302],[139.799624,-37.025472],[139.799613,-37.026813],[139.799631,-37.028401],[139.799651,-37.029501],[139.799776,-37.030459],[139.801411,-37.03877],[139.801494,-37.040152],[139.801177,-37.045232],[139.801042,-37.047589],[139.800467,-37.056279],[139.800431,-37.056616],[139.800357,-37.057014],[139.79875,-37.063406],[139.798572,-37.064354],[139.798612,-37.065302],[139.798739,-37.066226],[139.79903,-37.067165],[139.799475,-37.067925],[139.799937,-37.068622],[139.800486,-37.069218],[139.801151,-37.069787],[139.80352,-37.071368],[139.80421,-37.071824],[139.804756,-37.072225],[139.805188,-37.072687],[139.806405,-37.073917],[139.80857,-37.076212],[139.809742,-37.07708],[139.810989,-37.077801],[139.811489,-37.078255],[139.811998,-37.078877],[139.812323,-37.079375],[139.812508,-37.079879],[139.812568,-37.080078],[139.812639,-37.080442],[139.81267,-37.080653],[139.812686,-37.080892],[139.812682,-37.081114],[139.812654,-37.081416],[139.812622,-37.081607],[139.812572,-37.081788],[139.812529,-37.081896],[139.812446,-37.082162],[139.81238,-37.082337],[139.812323,-37.082483],[139.812214,-37.082707],[139.812074,-37.082965],[139.811828,-37.083318],[139.811618,-37.083557],[139.811419,-37.083775],[139.809585,-37.085616],[139.809303,-37.085921],[139.809126,-37.086119],[139.808984,-37.086279],[139.808578,-37.086771],[139.80592,-37.09006],[139.805384,-37.090853],[139.805031,-37.09184],[139.804982,-37.092576],[139.805069,-37.093377],[139.805306,-37.094063],[139.805633,-37.094638],[139.810953,-37.102615],[139.811401,-37.103333],[139.811823,-37.104389],[139.81249,-37.106151],[139.813074,-37.10772],[139.813826,-37.109744],[139.815284,-37.114327],[139.815916,-37.117085],[139.816377,-37.119958],[139.81704,-37.125749],[139.817113,-37.13039],[139.817115,-37.130997],[139.817086,-37.131529],[139.816995,-37.132695],[139.816927,-37.13366],[139.81689,-37.134132],[139.816863,-37.134496],[139.816788,-37.134959],[139.816148,-37.137763],[139.815767,-37.139454],[139.815388,-37.141092],[139.815301,-37.141514],[139.815243,-37.14172],[139.815181,-37.141944],[139.815071,-37.142248],[139.814286,-37.14414],[139.813771,-37.145338],[139.813407,-37.146219],[139.812703,-37.148037],[139.812376,-37.148688],[139.811999,-37.149331],[139.811453,-37.150034],[139.810882,-37.1507],[139.810621,-37.151004],[139.80786,-37.153231],[139.805578,-37.154939],[139.800325,-37.15863],[139.799694,-37.1591],[139.797579,-37.16129],[139.797024,-37.161838]]}},{"type":"Feature","properties":{"tier":"arterial"},"geometry":{"type":"LineString","coordinates":[[139.762487,-37.165427],[139.762657,-37.16548],[139.762845,-37.165512],[139.762999,-37.165525],[139.763181,-37.165545],[139.763821,-37.165597],[139.763928,-37.165599],[139.764134,-37.165593],[139.76435,-37.165558],[139.764593,-37.165488],[139.766078,-37.165107],[139.76612,-37.165095],[139.766579,-37.164975],[139.766703,-37.164939],[139.767288,-37.164781],[139.768252,-37.164514],[139.768538,-37.164443],[139.768775,-37.164403],[139.769051,-37.16441],[139.769403,-37.164502],[139.769617,-37.164596],[139.769804,-37.164735],[139.769945,-37.164859],[139.770061,-37.165025],[139.770124,-37.165101],[139.770183,-37.165195],[139.770355,-37.165503],[139.770483,-37.165649],[139.770633,-37.165754],[139.770935,-37.165879],[139.771126,-37.165946],[139.771275,-37.165961],[139.772434,-37.16611],[139.7727,-37.166185],[139.772954,-37.166269],[139.773136,-37.166348],[139.774626,-37.166967],[139.775614,-37.167301],[139.776084,-37.167454],[139.776391,-37.167552],[139.77673,-37.167611],[139.776988,-37.167604],[139.777104,-37.167596],[139.777169,-37.167592],[139.777404,-37.16755],[139.777602,-37.167496],[139.778014,-37.167388],[139.778269,-37.167321]]}},{"type":"Feature","properties":{"tier":"arterial"},"geometry":{"type":"LineString","coordinates":[[139.909161,-37.249957],[139.908573,-37.249431],[139.908226,-37.24908],[139.90793,-37.248715],[139.907694,-37.24838],[139.907472,-37.248036],[139.907291,-37.247703],[139.907118,-37.247293],[139.906839,-37.246567],[139.906175,-37.244562],[139.905978,-37.243932],[139.905819,-37.243487],[139.905657,-37.243185],[139.905427,-37.242779],[139.904663,-37.241357],[139.904474,-37.240972],[139.904134,-37.240504],[139.903875,-37.240209],[139.903531,-37.239883],[139.903153,-37.239588],[139.902769,-37.239298],[139.900704,-37.237805],[139.900505,-37.237648],[139.900313,-37.237471],[139.900138,-37.237303],[139.899996,-37.23715],[139.899777,-37.236883],[139.899608,-37.23666],[139.899499,-37.236474],[139.899347,-37.236212],[139.899188,-37.235871],[139.896313,-37.229782],[139.896134,-37.229453],[139.895974,-37.229203],[139.895832,-37.22898],[139.895636,-37.228706],[139.894595,-37.227366],[139.894324,-37.226991],[139.89416,-37.226746],[139.89395,-37.226368],[139.893846,-37.226162],[139.893707,-37.225872],[139.893554,-37.225468],[139.893385,-37.225022],[139.891214,-37.218474],[139.891093,-37.218154],[139.890944,-37.217781],[139.890691,-37.217246],[139.890544,-37.216988],[139.890405,-37.216773],[139.890265,-37.216536],[139.890032,-37.216243],[139.889724,-37.215892],[139.889416,-37.215531],[139.8892,-37.215277],[139.88903,-37.215058],[139.888825,-37.214762],[139.888669,-37.214498],[139.888509,-37.214215],[139.888444,-37.214109],[139.888048,-37.213372],[139.886528,-37.210563],[139.88639,-37.210329],[139.886271,-37.210134],[139.886085,-37.209885],[139.88589,-37.209628],[139.885471,-37.20908],[139.881827,-37.204408],[139.881602,-37.204141],[139.881356,-37.203874],[139.881153,-37.203678],[139.880905,-37.203478],[139.880518,-37.203181],[139.880154,-37.202929],[139.876344,-37.200332],[139.875873,-37.200046],[139.875288,-37.199719],[139.871633,-37.19769],[139.87118,-37.197462],[139.870814,-37.197288],[139.870347,-37.197083],[139.869686,-37.196858],[139.86821,-37.196385],[139.864128,-37.195105],[139.863494,-37.194905],[139.863022,-37.194765],[139.86274,-37.194702],[139.862156,-37.19457],[139.861683,-37.194483],[139.858901,-37.194],[139.85733,-37.193755],[139.852737,-37.193087],[139.851942,-37.19301],[139.850959,-37.192965],[139.846696,-37.192931],[139.845857,-37.192957],[139.845119,-37.193038],[139.835236,-37.194267]]}},{"type":"Feature","properties":{"tier":"arterial"},"geometry":{"type":"LineString","coordinates":[[140.00002,-37.279156],[139.999024,-37.27898],[139.992558,-37.277852],[139.989116,-37.277247],[139.988442,-37.27715],[139.987963,-37.277109],[139.987492,-37.277106],[139.98696,-37.27713],[139.986409,-37.277181],[139.985909,-37.277272],[139.985141,-37.277444],[139.984322,-37.277618],[139.983779,-37.277706],[139.9832,-37.277757],[139.982639,-37.277773],[139.982077,-37.27775],[139.981516,-37.277701],[139.973483,-37.276955],[139.971566,-37.276783],[139.970425,-37.276672],[139.969999,-37.276593],[139.969621,-37.276522],[139.968746,-37.276274],[139.967816,-37.275864],[139.966551,-37.275274],[139.963502,-37.273807],[139.954283,-37.269374],[139.941229,-37.263094],[139.940747,-37.262889],[139.940232,-37.262713],[139.939521,-37.262535],[139.93887,-37.262424],[139.938123,-37.262354],[139.928466,-37.261665],[139.928299,-37.261654],[139.927902,-37.261633],[139.927399,-37.261619],[139.922718,-37.261598],[139.921948,-37.26159],[139.921366,-37.261557],[139.921003,-37.261516],[139.920503,-37.261409],[139.919911,-37.261258],[139.919429,-37.261102],[139.918971,-37.260919],[139.918445,-37.260678],[139.918051,-37.260446],[139.91759,-37.260124],[139.917042,-37.259681],[139.916454,-37.25914],[139.915944,-37.258542],[139.915594,-37.258023],[139.915102,-37.256971],[139.914847,-37.256516],[139.914595,-37.256157],[139.914355,-37.25586],[139.914033,-37.255508],[139.913446,-37.254946],[139.913235,-37.254706],[139.912944,-37.254359],[139.912712,-37.254015],[139.912467,-37.253603],[139.912184,-37.253035],[139.911942,-37.252609],[139.911684,-37.25226],[139.911442,-37.251979],[139.910978,-37.251555],[139.910317,-37.250998],[139.910007,-37.250707]]}},{"type":"Feature","properties":{"tier":"regional"},"geometry":{"type":"LineString","coordinates":[[139.975092,-37.43932],[139.975099,-37.43957],[139.97534,-37.4398],[139.975888,-37.440139],[139.976308,-37.440512],[139.976841,-37.440955],[139.97751,-37.441401],[139.978243,-37.441618],[139.979132,-37.441969],[139.979776,-37.442519],[139.980341,-37.443111],[139.980771,-37.444615],[139.981095,-37.446262],[139.979441,-37.44777],[139.978769,-37.448411],[139.978576,-37.448656],[139.978466,-37.448867],[139.978469,-37.449156],[139.978716,-37.449734],[139.978958,-37.449951],[139.979314,-37.450129],[139.979847,-37.450352],[139.980228,-37.450577],[139.981849,-37.451695],[139.981957,-37.451956],[139.981988,-37.453159],[139.982116,-37.453473],[139.982334,-37.453812],[139.982569,-37.453975],[139.982811,-37.454064],[139.983245,-37.454119],[139.98336,-37.454134],[139.984186,-37.454036],[139.985289,-37.453857],[139.986717,-37.453742],[139.987286,-37.453713],[139.987559,-37.453689],[139.988083,-37.453627],[139.989584,-37.45349],[139.990326,-37.453503],[139.990867,-37.453461],[139.991721,-37.453332],[139.992904,-37.453282],[139.993952,-37.453153],[139.994416,-37.453361],[139.994878,-37.453602],[139.995196,-37.453891],[139.995508,-37.454236],[139.995909,-37.454633],[139.997268,-37.455757],[139.997408,-37.456087],[139.997433,-37.45704],[139.997505,-37.457575],[139.997317,-37.458231],[139.997486,-37.45991],[139.997515,-37.461817],[139.997515,-37.462522],[139.997949,-37.463534],[139.998369,-37.464439],[139.998674,-37.46532],[139.998708,-37.465394],[139.99888,-37.465768],[139.998907,-37.465827]]}},{"type":"Feature","properties":{"tier":"arterial"},"geometry":{"type":"LineString","coordinates":[[139.909911,-37.25139],[139.90988,-37.251149],[139.909854,-37.250953],[139.90983,-37.25083],[139.909767,-37.250678],[139.909666,-37.250535],[139.909602,-37.250446],[139.909161,-37.249957]]}},{"type":"Feature","properties":{"tier":"arterial"},"geometry":{"type":"LineString","coordinates":[[139.835236,-37.194267],[139.834811,-37.194311],[139.833587,-37.194438],[139.832995,-37.194449],[139.832111,-37.194376],[139.831735,-37.194303],[139.83125,-37.194205],[139.830701,-37.194029],[139.826526,-37.192066],[139.824714,-37.19114],[139.824115,-37.190703],[139.823629,-37.190291],[139.822135,-37.188783],[139.82097,-37.187608],[139.820457,-37.187179],[139.819773,-37.18674],[139.818729,-37.18624],[139.813364,-37.184018],[139.812633,-37.183634],[139.811713,-37.18294],[139.808261,-37.180242],[139.808124,-37.18014],[139.807107,-37.17935],[139.806637,-37.179019],[139.806134,-37.178713],[139.804392,-37.177887],[139.802591,-37.177033],[139.801903,-37.176732],[139.801567,-37.176604],[139.801049,-37.176436],[139.800278,-37.176267],[139.799477,-37.17616],[139.798689,-37.176088],[139.798066,-37.175984],[139.797625,-37.17588],[139.797285,-37.175771],[139.796541,-37.175446],[139.796079,-37.175176],[139.795465,-37.174685],[139.792992,-37.172272]]}},{"type":"Feature","properties":{"tier":"arterial"},"geometry":{"type":"LineString","coordinates":[[140.00002,-37.367658],[139.999797,-37.36727],[139.998464,-37.364945],[139.99721,-37.362758],[139.99504,-37.358952],[139.994538,-37.358183],[139.994067,-37.357613],[139.993653,-37.35719],[139.993457,-37.357028],[139.992887,-37.35661],[139.991694,-37.355839],[139.984775,-37.351352],[139.983686,-37.350494],[139.982889,-37.349781],[139.977932,-37.345006],[139.977178,-37.344145],[139.976179,-37.342899],[139.973172,-37.338681],[139.971874,-37.336903],[139.971337,-37.336198],[139.970684,-37.335444],[139.969638,-37.33437],[139.967851,-37.332563],[139.96709,-37.331801],[139.963671,-37.328448],[139.962929,-37.327705],[139.961981,-37.326821],[139.961277,-37.326214],[139.958506,-37.323875],[139.955019,-37.320906],[139.954509,-37.320464],[139.953569,-37.31968],[139.950302,-37.316913],[139.949652,-37.31638],[139.948965,-37.315862],[139.948473,-37.315559],[139.947683,-37.315101],[139.94454,-37.313467],[139.938054,-37.310027],[139.933798,-37.307821],[139.93286,-37.307308],[139.931873,-37.306699],[139.930033,-37.305324],[139.92745,-37.303412],[139.926566,-37.302646],[139.92559,-37.301561],[139.92345,-37.298627],[139.922849,-37.298012],[139.921301,-37.296642],[139.920166,-37.295688],[139.919592,-37.295247],[139.91867,-37.294595],[139.917618,-37.29392],[139.914911,-37.292285],[139.914113,-37.29169],[139.913547,-37.291084],[139.913239,-37.290675],[139.912942,-37.290168],[139.910095,-37.28521],[139.908843,-37.283062],[139.908605,-37.282577],[139.908413,-37.282084],[139.908226,-37.281349],[139.908165,-37.280963],[139.908149,-37.280538],[139.908165,-37.280042],[139.908273,-37.279296],[139.908507,-37.278554],[139.909559,-37.275871],[139.910062,-37.274332],[139.910343,-37.273316],[139.911293,-37.269433],[139.911527,-37.268418],[139.911591,-37.267906],[139.911607,-37.267496],[139.911577,-37.267111],[139.911532,-37.266864],[139.911479,-37.266506],[139.911348,-37.266089],[139.910514,-37.264109],[139.909192,-37.261184],[139.909042,-37.26068],[139.908946,-37.260167],[139.908918,-37.259639],[139.90895,-37.259124],[139.909911,-37.25139]]}},{"type":"Feature","properties":{"tier":"arterial"},"geometry":{"type":"LineString","coordinates":[[139.778552,-37.167246],[139.778723,-37.167198],[139.77884,-37.167165],[139.779413,-37.167004],[139.78154,-37.166533],[139.781918,-37.166452],[139.782171,-37.166424],[139.782365,-37.166427],[139.782607,-37.166451],[139.782829,-37.166496],[139.78304,-37.166565],[139.783243,-37.166652],[139.784181,-37.16714],[139.78679,-37.168558]]}},{"type":"Feature","properties":{"tier":"arterial"},"geometry":{"type":"LineString","coordinates":[[139.778269,-37.167321],[139.778552,-37.167246]]}},{"type":"Feature","properties":{"tier":"arterial"},"geometry":{"type":"LineString","coordinates":[[139.79085,-37.165726],[139.788574,-37.16684],[139.788383,-37.16695],[139.788128,-37.167097],[139.787906,-37.16727],[139.787719,-37.167472],[139.78679,-37.168558]]}},{"type":"Feature","properties":{"tier":"arterial"},"geometry":{"type":"LineString","coordinates":[[139.797024,-37.161838],[139.796415,-37.16228],[139.793037,-37.164515],[139.79164,-37.165288],[139.791089,-37.165599],[139.79085,-37.165726]]}},{"type":"Feature","properties":{"tier":"arterial"},"geometry":{"type":"LineString","coordinates":[[139.909911,-37.25139],[139.909976,-37.250853],[139.910007,-37.250707]]}},{"type":"Feature","properties":{"tier":"arterial"},"geometry":{"type":"LineString","coordinates":[[139.910007,-37.250707],[139.909161,-37.249957]]}},{"type":"Feature","properties":{"tier":"arterial"},"geometry":{"type":"LineString","coordinates":[[139.792723,-37.172007],[139.791897,-37.171192],[139.791477,-37.170828],[139.79102,-37.170484],[139.790509,-37.170186],[139.78998,-37.169941],[139.788517,-37.169419],[139.788079,-37.169227],[139.787638,-37.168999],[139.787397,-37.168873],[139.78679,-37.168558]]}},{"type":"Feature","properties":{"tier":"arterial"},"geometry":{"type":"LineString","coordinates":[[139.792992,-37.172272],[139.792723,-37.172007]]}}]}
