{"type":"FeatureCollection","features":[{"type":"Feature","properties":{"tier":"arterial"},"geometry":{"type":"LineString","coordinates":[[139.652867,-34.00002],[139.651543,-33.997652],[139.649031,-33.993189],[139.648352,-33.992142],[139.647511,-33.991058],[139.646753,-33.990195],[139.640605,-33.984368],[139.639566,-33.98334],[139.638594,-33.982227],[139.629575,-33.971315],[139.629091,-33.970818],[139.628794,-33.970605],[139.628537,-33.970421],[139.62795,-33.970059],[139.627443,-33.969795],[139.626866,-33.969549],[139.623349,-33.968441],[139.62161,-33.967981],[139.6198,-33.967691],[139.578581,-33.962707],[139.566907,-33.960954],[139.562047,-33.960225],[139.560681,-33.96002],[139.550596,-33.958505],[139.548879,-33.95824],[139.548375,-33.958154],[139.548026,-33.958087],[139.547849,-33.958045],[139.547584,-33.957979],[139.547246,-33.95789],[139.547021,-33.957823],[139.546853,-33.957768],[139.546603,-33.957684],[139.546301,-33.957572],[139.546005,-33.957451],[139.545577,-33.957255],[139.545324,-33.957125],[139.544948,-33.956923],[139.544683,-33.956763],[139.544519,-33.956657],[139.544235,-33.956467],[139.544022,-33.956316],[139.543776,-33.956127],[139.543678,-33.956048],[139.5435,-33.9559],[139.543201,-33.95563],[139.542995,-33.955434],[139.542566,-33.95501],[139.541199,-33.953635],[139.537685,-33.950101],[139.536293,-33.948708],[139.535401,-33.947812],[139.535244,-33.947654],[139.535037,-33.947464],[139.534897,-33.947337],[139.534706,-33.947176],[139.534549,-33.94705],[139.534324,-33.946879],[139.534066,-33.946692],[139.53377,-33.946498],[139.533538,-33.946352],[139.533326,-33.946225],[139.527866,-33.942986],[139.527494,-33.942765],[139.522956,-33.940068],[139.522518,-33.939807],[139.49998,-33.92641]]}},{"type":"Feature","properties":{"tier":"regional"},"geometry":{"type":"LineString","coordinates":[[140.00002,-33.588315],[139.999723,-33.588325],[139.9941,-33.588204],[139.993703,-33.588151],[139.9934,-33.588058],[139.992994,-33.587935],[139.992646,-33.587843],[139.992307,-33.587792],[139.991963,-33.587776],[139.991583,-33.587782],[139.972791,-33.58873],[139.96401,-33.582283],[139.956457,-33.582283],[139.948217,-33.57785],[139.9261,-33.573529],[139.925313,-33.573381],[139.924895,-33.573318],[139.924515,-33.57331],[139.924242,-33.573333],[139.923988,-33.573374],[139.923657,-33.573467],[139.910796,-33.577605],[139.899596,-33.581144],[139.893155,-33.58321],[139.892224,-33.583512],[139.891324,-33.583936],[139.880059,-33.589391],[139.874235,-33.592295],[139.87382,-33.592592],[139.873355,-33.592928],[139.857724,-33.607147],[139.857405,-33.607354],[139.857088,-33.607551],[139.856581,-33.607777],[139.848685,-33.610881],[139.844544,-33.612582],[139.844042,-33.612808],[139.843702,-33.613007],[139.843368,-33.613265],[139.842853,-33.613808],[139.837471,-33.619355],[139.835814,-33.621074],[139.835659,-33.621255],[139.835585,-33.621406],[139.835536,-33.621597],[139.835452,-33.621779],[139.835277,-33.621957],[139.833497,-33.623459],[139.830905,-33.625579],[139.824363,-33.630931],[139.818661,-33.635548],[139.810579,-33.642078],[139.80412,-33.647366],[139.803743,-33.647674],[139.803433,-33.647939],[139.803206,-33.648172],[139.803021,-33.648476],[139.802733,-33.649107],[139.800646,-33.653727],[139.798887,-33.657606],[139.798798,-33.657802],[139.798765,-33.657942],[139.798756,-33.658142],[139.798757,-33.658273],[139.798757,-33.658493],[139.798717,-33.658738],[139.798678,-33.658962],[139.798602,-33.659203],[139.798483,-33.659462],[139.796854,-33.661993],[139.793051,-33.667911],[139.789347,-33.673655],[139.785699,-33.679297],[139.783383,-33.682956],[139.782405,-33.684514],[139.782115,-33.684956],[139.781862,-33.685228],[139.781469,-33.685538],[139.781022,-33.685822],[139.780514,-33.686156],[139.777742,-33.687885],[139.777474,-33.688085],[139.777243,-33.688272],[139.777035,-33.688498],[139.776892,-33.68878],[139.776601,-33.689408],[139.773523,-33.696203],[139.77011,-33.703775],[139.769918,-33.704173],[139.769765,-33.704534],[139.769634,-33.704945],[139.769503,-33.705464],[139.767952,-33.71152],[139.766197,-33.718122],[139.764884,-33.723293],[139.763419,-33.728833],[139.763352,-33.729101],[139.763319,-33.729385],[139.763409,-33.730513],[139.763756,-33.735771],[139.763756,-33.736266],[139.763745,-33.736664],[139.763723,-33.737409],[139.763729,-33.737777],[139.763777,-33.738188],[139.763841,-33.738568],[139.763955,-33.73917],[139.764107,-33.739852],[139.764739,-33.742509],[139.765164,-33.743775],[139.765358,-33.744373],[139.765474,-33.744689],[139.765532,-33.744936],[139.765516,-33.745217],[139.765442,-33.7455],[139.76507,-33.746491],[139.764338,-33.748568],[139.763844,-33.750271],[139.763397,-33.751956],[139.762877,-33.754027],[139.762673,-33.755128],[139.76196,-33.75863],[139.761314,-33.761501],[139.761057,-33.763071],[139.7605,-33.766024],[139.76005,-33.768482],[139.759979,-33.768807],[139.759884,-33.769139],[139.759676,-33.769545],[139.758848,-33.770893],[139.756434,-33.7748],[139.754055,-33.778822],[139.753533,-33.779695],[139.752508,-33.781372],[139.750376,-33.78495],[139.746742,-33.791067],[139.744147,-33.795328],[139.74232,-33.798459],[139.739986,-33.80238],[139.736496,-33.808388],[139.733342,-33.813219],[139.733033,-33.813628],[139.732746,-33.814042],[139.732473,-33.814511],[139.732278,-33.814917],[139.731932,-33.815771],[139.731457,-33.817112],[139.73127,-33.817519],[139.731026,-33.817977],[139.730797,-33.818421],[139.729056,-33.821542],[139.72637,-33.826333],[139.726125,-33.826838],[139.725904,-33.8272],[139.725659,-33.827508],[139.724862,-33.828419],[139.722243,-33.83125],[139.722002,-33.831503],[139.721777,-33.831768],[139.721563,-33.832091],[139.721305,-33.832508],[139.721061,-33.832894],[139.72077,-33.833362],[139.720473,-33.833861],[139.720262,-33.834283],[139.720132,-33.834593],[139.720062,-33.834886],[139.719962,-33.835332],[139.719607,-33.838726],[139.719617,-33.839281],[139.71967,-33.840416],[139.719811,-33.841214],[139.720015,-33.842037],[139.720094,-33.842446],[139.720153,-33.84317],[139.720233,-33.844261],[139.720335,-33.84577],[139.720423,-33.847925],[139.720507,-33.850425],[139.720531,-33.851071],[139.72051,-33.851612],[139.720475,-33.852058],[139.720352,-33.852545],[139.720226,-33.853054],[139.720088,-33.853458],[139.719933,-33.853851],[139.719689,-33.854252],[139.71949,-33.854562],[139.719289,-33.854846],[139.718903,-33.855317],[139.714815,-33.859725],[139.711056,-33.863713],[139.709125,-33.865799],[139.7084,-33.866545],[139.706948,-33.868142],[139.705369,-33.869832],[139.703705,-33.871598],[139.702347,-33.873109],[139.700912,-33.874536],[139.700748,-33.874719],[139.700594,-33.874926]]}},{"type":"Feature","properties":{"tier":"regional"},"geometry":{"type":"LineString","coordinates":[[139.509739,-33.49998],[139.513308,-33.500843],[139.513643,-33.500957],[139.513975,-33.501091],[139.514351,-33.501225],[139.514898,-33.501359],[139.517612,-33.502012],[139.523438,-33.503471],[139.523835,-33.503569],[139.524168,-33.503676],[139.524661,-33.503945],[139.528631,-33.506504],[139.533448,-33.509617],[139.536688,-33.511746],[139.539606,-33.513624],[139.544123,-33.516549],[139.549681,-33.520127],[139.552267,-33.521791],[139.55276,-33.522149],[139.55335,-33.522614],[139.556386,-33.525181],[139.562684,-33.530404],[139.564894,-33.532228],[139.565293,-33.532549],[139.565627,-33.532804],[139.566272,-33.533221],[139.567464,-33.533981],[139.570194,-33.535761],[139.575065,-33.538819],[139.577329,-33.540241],[139.578316,-33.540912],[139.578767,-33.541189],[139.57925,-33.541573],[139.579979,-33.542235],[139.582447,-33.544435],[139.586223,-33.547761],[139.589281,-33.550533],[139.590257,-33.551329],[139.590762,-33.551695],[139.591362,-33.551928],[139.592049,-33.552071],[139.592714,-33.552053],[139.593272,-33.552017],[139.594367,-33.551856],[139.595954,-33.55157]]}},{"type":"Feature","properties":{"tier":"regional"},"geometry":{"type":"LineString","coordinates":[[139.595954,-33.55157],[139.597336,-33.551304],[139.59813,-33.551179],[139.599044,-33.551141],[139.59986,-33.551159],[139.600654,-33.551177],[139.601469,-33.551284],[139.604108,-33.552142],[139.61252,-33.554842],[139.613271,-33.555057],[139.61415,-33.55529],[139.615803,-33.55554],[139.617283,-33.555808],[139.618201,-33.556002],[139.619515,-33.556434],[139.6246,-33.558383],[139.626746,-33.559188],[139.640694,-33.564498],[139.646273,-33.566644],[139.646788,-33.566787],[139.647346,-33.566823],[139.648333,-33.566769],[139.666336,-33.565911],[139.682515,-33.564945],[139.684038,-33.564802],[139.685098,-33.564662],[139.686815,-33.564358],[139.690119,-33.56375],[139.690819,-33.563533],[139.694509,-33.562138],[139.695432,-33.561745],[139.696018,-33.561515],[139.696591,-33.561442],[139.697342,-33.561459],[139.69908,-33.561562],[139.700003,-33.561615],[139.701338,-33.561656],[139.702915,-33.561749],[139.704675,-33.56183],[139.705705,-33.56191],[139.706601,-33.562049],[139.707277,-33.562192],[139.707389,-33.562213],[139.707506,-33.562234],[139.708375,-33.56232],[139.708983,-33.562433],[139.709996,-33.562613],[139.71012,-33.562635],[139.710352,-33.562609],[139.71057,-33.562633],[139.71159,-33.562943],[139.712357,-33.563184],[139.713097,-33.563363],[139.714272,-33.563569],[139.715146,-33.563757],[139.715602,-33.563868],[139.715897,-33.564016],[139.716198,-33.56419],[139.716976,-33.564664],[139.718574,-33.565634],[139.71947,-33.56617],[139.719744,-33.566264],[139.720119,-33.56638],[139.721428,-33.566617],[139.722163,-33.56668],[139.723193,-33.56676],[139.726342,-33.566903],[139.727726,-33.566929],[139.729099,-33.567],[139.729469,-33.567024],[139.729759,-33.567104],[139.730108,-33.56723],[139.731031,-33.567636],[139.731922,-33.568013],[139.736357,-33.569929],[139.737001,-33.570198],[139.737248,-33.570399],[139.737387,-33.5706],[139.737527,-33.570868],[139.737661,-33.571534],[139.737972,-33.57296],[139.738165,-33.573496],[139.738369,-33.573863],[139.739265,-33.575181],[139.74,-33.576294],[139.741298,-33.578189],[139.741539,-33.578649],[139.741561,-33.578998],[139.741555,-33.579485],[139.741545,-33.582018],[139.741555,-33.584665],[139.741797,-33.58647],[139.741781,-33.587065],[139.74169,-33.587614],[139.74126,-33.588763],[139.741003,-33.589397],[139.740686,-33.590255],[139.740627,-33.590514],[139.740595,-33.590751],[139.740719,-33.591234],[139.740928,-33.591774],[139.741877,-33.593991],[139.743492,-33.597767],[139.745273,-33.601949],[139.746228,-33.604214],[139.746389,-33.604598],[139.746475,-33.604723],[139.746625,-33.604844],[139.746799,-33.60492],[139.746898,-33.604945],[139.747413,-33.605038],[139.748848,-33.605356],[139.753566,-33.606377],[139.75943,-33.607641],[139.768345,-33.60954],[139.775104,-33.61101],[139.783382,-33.612738],[139.789438,-33.61411],[139.790323,-33.614396],[139.793274,-33.615361],[139.79646,-33.616455],[139.796975,-33.616585],[139.797721,-33.616661],[139.799126,-33.616826],[139.799979,-33.616862],[139.800682,-33.616762],[139.802179,-33.616536],[139.802785,-33.616491],[139.803273,-33.616509],[139.803911,-33.61663],[139.804469,-33.616777],[139.805247,-33.617054],[139.806578,-33.617528],[139.8086,-33.618215],[139.809045,-33.618314],[139.809474,-33.618336],[139.809775,-33.618314],[139.810435,-33.618068],[139.811636,-33.617568],[139.812124,-33.617443],[139.812714,-33.61734],[139.813176,-33.617326],[139.814147,-33.617376],[139.815182,-33.617425],[139.815906,-33.617496],[139.816325,-33.617581],[139.817499,-33.617939],[139.818465,-33.618233],[139.818921,-33.618345],[139.819645,-33.618417],[139.820917,-33.61851],[139.821823,-33.618649],[139.822478,-33.618783],[139.8245,-33.619238],[139.825213,-33.619341],[139.825922,-33.61943],[139.830836,-33.6199],[139.832037,-33.619989],[139.832359,-33.619991],[139.832649,-33.619937],[139.832975,-33.619862],[139.835807,-33.619232],[139.836463,-33.619205],[139.837471,-33.619355]]}},{"type":"Feature","properties":{"tier":"regional"},"geometry":{"type":"LineString","coordinates":[[139.700594,-33.874926],[139.700473,-33.875146],[139.700386,-33.875386],[139.700337,-33.875566],[139.700288,-33.875781],[139.700262,-33.876016],[139.700154,-33.881902],[139.700068,-33.888868],[139.700083,-33.889446],[139.700098,-33.889885],[139.700132,-33.890179],[139.700216,-33.890471],[139.700254,-33.890764],[139.700311,-33.89125],[139.700293,-33.89155],[139.700273,-33.892047],[139.700255,-33.89249],[139.7002,-33.892892],[139.70016,-33.893373],[139.700165,-33.895171],[139.700164,-33.895552],[139.700134,-33.909528],[139.700145,-33.928036],[139.700136,-33.944245],[139.700132,-33.958145],[139.700118,-33.970332],[139.700088,-33.982059],[139.700307,-33.983825],[139.700576,-33.985306],[139.701123,-33.98833],[139.701323,-33.990337],[139.701519,-33.990874],[139.702577,-33.992983],[139.702739,-33.993561],[139.702751,-33.994207],[139.702153,-33.996727],[139.702107,-33.997249],[139.7023,-33.998005],[139.702634,-33.999301],[139.702635,-33.999982],[139.702625,-34.00002]]}}]}
