{"type":"FeatureCollection","features":[{"type":"Feature","properties":{"tier":"arterial"},"geometry":{"type":"LineString","coordinates":[[139.49998,-26.351989],[139.502055,-26.357168],[139.503344,-26.36052],[139.508169,-26.372264],[139.513402,-26.385105],[139.519013,-26.399141],[139.522895,-26.408797],[139.523429,-26.410613],[139.523696,-26.413217],[139.523964,-26.416764],[139.524294,-26.417918],[139.527641,-26.424801],[139.528013,-26.425511],[139.528569,-26.426138],[139.53036,-26.427686],[139.531963,-26.429389],[139.532796,-26.431275],[139.53329,-26.432563],[139.533598,-26.433639],[139.535515,-26.436792],[139.537181,-26.439986],[139.53814,-26.441956],[139.538375,-26.442827],[139.538438,-26.443687],[139.538515,-26.445207],[139.539146,-26.446769],[139.541739,-26.451736],[139.549522,-26.466554],[139.56016,-26.487033],[139.566742,-26.50002]]}}]}
