{"type":"FeatureCollection","features":[{"type":"Feature","properties":{"tier":"regional"},"geometry":{"type":"LineString","coordinates":[[139.847733,-36.598466],[139.848312,-36.598225],[139.849943,-36.597881],[139.852046,-36.597605],[139.853677,-36.597743],[139.854552,-36.597898],[139.855608,-36.597837],[139.856386,-36.598044],[139.856853,-36.598328],[139.857239,-36.598604],[139.858569,-36.598948],[139.859299,-36.599052],[139.860028,-36.598983],[139.861788,-36.598742],[139.863302,-36.598591],[139.864078,-36.598516]]}},{"type":"Feature","properties":{"tier":"regional"},"geometry":{"type":"LineString","coordinates":[[139.863145,-36.657946],[139.863175,-36.658116],[139.863209,-36.658291],[139.86325,-36.658462],[139.863356,-36.658768],[139.863881,-36.659977],[139.864173,-36.66059],[139.864277,-36.660918],[139.86437,-36.66136],[139.864684,-36.663668],[139.864856,-36.664865],[139.864992,-36.665464],[139.865178,-36.666069],[139.865318,-36.666459],[139.865472,-36.666818],[139.865832,-36.667568],[139.866554,-36.669074],[139.86679,-36.669597],[139.866951,-36.67011],[139.867004,-36.670334],[139.867045,-36.670631],[139.867123,-36.671231],[139.867333,-36.672952],[139.867515,-36.674479],[139.867566,-36.674832],[139.867634,-36.675114],[139.867731,-36.67545],[139.867907,-36.67586],[139.868021,-36.676082],[139.868139,-36.676258],[139.868318,-36.676542],[139.868505,-36.676782],[139.86898,-36.67724],[139.86932,-36.677463],[139.869643,-36.677675],[139.869904,-36.677814],[139.870161,-36.677921],[139.870442,-36.677958]]}},{"type":"Feature","properties":{"tier":"regional"},"geometry":{"type":"LineString","coordinates":[[139.853944,-36.657969],[139.854042,-36.657959],[139.854098,-36.657971],[139.854194,-36.658008],[139.854267,-36.658047],[139.85431,-36.658052],[139.854351,-36.65804],[139.854382,-36.658022],[139.854438,-36.657979],[139.854478,-36.657956]]}},{"type":"Feature","properties":{"tier":"arterial"},"geometry":{"type":"LineString","coordinates":[[139.830839,-36.912539],[139.829325,-36.913807],[139.827993,-36.915038],[139.827169,-36.915928],[139.822753,-36.922298],[139.822207,-36.923103],[139.821964,-36.923627],[139.821762,-36.924198],[139.821715,-36.924365],[139.821434,-36.925353],[139.821296,-36.925821],[139.820771,-36.927603],[139.819481,-36.932114],[139.816441,-36.94303],[139.81642,-36.943104],[139.814312,-36.950675],[139.809487,-36.968186],[139.808675,-36.971917],[139.808617,-36.972183],[139.808291,-36.973638],[139.807908,-36.974567],[139.807411,-36.975412],[139.803792,-36.981244],[139.803469,-36.981836],[139.803131,-36.982727],[139.802935,-36.98355],[139.80235,-36.986434],[139.799879,-36.997761],[139.799848,-36.997923],[139.799798,-36.998187],[139.79974,-36.998683],[139.799725,-37.00002]]}},{"type":"Feature","properties":{"tier":"regional"},"geometry":{"type":"LineString","coordinates":[[139.813927,-36.872583],[139.815983,-36.873481],[139.816874,-36.873866],[139.817214,-36.874012],[139.819675,-36.875036],[139.821659,-36.875902],[139.825803,-36.877634],[139.826787,-36.878046],[139.836003,-36.881911]]}},{"type":"Feature","properties":{"tier":"regional"},"geometry":{"type":"LineString","coordinates":[[139.682963,-36.942986],[139.683034,-36.943872],[139.683247,-36.946494],[139.683275,-36.946602],[139.683295,-36.94668],[139.683422,-36.946813],[139.683606,-36.946892],[139.683834,-36.946909],[139.684866,-36.946915],[139.686446,-36.946924],[139.688179,-36.946938],[139.689896,-36.946944],[139.691575,-36.946953],[139.693184,-36.946963],[139.69406,-36.94697],[139.694378,-36.946953],[139.69465,-36.946916],[139.694922,-36.946872],[139.695548,-36.946744],[139.695855,-36.946682],[139.697234,-36.946401],[139.697477,-36.94635],[139.697578,-36.946329],[139.697924,-36.946246],[139.699841,-36.94568]]}},{"type":"Feature","properties":{"tier":"arterial"},"geometry":{"type":"LineString","coordinates":[[139.861362,-36.825829],[139.861174,-36.826093]]}},{"type":"Feature","properties":{"tier":"arterial"},"geometry":{"type":"LineString","coordinates":[[139.861446,-36.82571],[139.861362,-36.825829]]}},{"type":"Feature","properties":{"tier":"regional"},"geometry":{"type":"LineString","coordinates":[[139.863145,-36.657946],[139.863032,-36.656499],[139.862346,-36.649992],[139.861917,-36.646136],[139.861573,-36.644414],[139.860758,-36.642279],[139.857282,-36.63305],[139.857013,-36.632447],[139.856853,-36.630467],[139.856719,-36.629107],[139.856337,-36.628366],[139.855007,-36.626093],[139.854793,-36.625335],[139.853162,-36.61948],[139.852818,-36.617758],[139.852003,-36.616277],[139.851402,-36.611936],[139.848355,-36.605563],[139.848227,-36.605219],[139.84857,-36.599982],[139.848227,-36.59919],[139.847733,-36.598466]]}},{"type":"Feature","properties":{"tier":"arterial"},"geometry":{"type":"LineString","coordinates":[[139.869537,-36.792352],[139.86933,-36.792696]]}},{"type":"Feature","properties":{"tier":"arterial"},"geometry":{"type":"LineString","coordinates":[[139.86933,-36.792696],[139.868482,-36.794061],[139.868281,-36.794461],[139.868122,-36.794873],[139.868003,-36.795273],[139.867908,-36.795733],[139.867864,-36.796255],[139.867902,-36.797599],[139.868263,-36.811569],[139.868262,-36.812153],[139.868221,-36.812594],[139.868173,-36.812862],[139.868119,-36.813145],[139.868064,-36.813358],[139.868009,-36.813569],[139.867918,-36.813877],[139.8678,-36.814213],[139.867624,-36.814632],[139.866704,-36.816393],[139.865486,-36.818743]]}},{"type":"Feature","properties":{"tier":"arterial"},"geometry":{"type":"LineString","coordinates":[[140.00002,-36.794835],[139.996956,-36.796373],[139.993329,-36.798165],[139.992492,-36.798426],[139.99054,-36.79883],[139.984756,-36.800063],[139.982268,-36.800651],[139.981152,-36.801099],[139.97639,-36.803041],[139.973373,-36.804299],[139.967912,-36.80648],[139.961743,-36.808989],[139.95153,-36.813184],[139.935661,-36.819614],[139.917959,-36.826811],[139.90444,-36.832255],[139.902779,-36.833178],[139.902025,-36.833829],[139.901255,-36.834637],[139.899179,-36.837329]]}},{"type":"Feature","properties":{"tier":"regional"},"geometry":{"type":"LineString","coordinates":[[139.884485,-36.656626],[139.884787,-36.656487],[139.884962,-36.656366],[139.885108,-36.656237],[139.885595,-36.655758],[139.888521,-36.652612],[139.890427,-36.650547],[139.890703,-36.650282],[139.890943,-36.650075],[139.891817,-36.649377],[139.892405,-36.648891],[139.892608,-36.64872],[139.892784,-36.648546],[139.892963,-36.648336],[139.893128,-36.648124],[139.89331,-36.647842],[139.89406,-36.646661],[139.895457,-36.64445],[139.896461,-36.642874],[139.896723,-36.64249],[139.896922,-36.642217],[139.897232,-36.641814],[139.898089,-36.640787],[139.899533,-36.639048],[139.899974,-36.638515],[139.900325,-36.638096],[139.901494,-36.636658],[139.903011,-36.634819],[139.904849,-36.632586],[139.906947,-36.630195],[139.907876,-36.629118],[139.908117,-36.628861],[139.908382,-36.628649],[139.908605,-36.628489],[139.908808,-36.628365],[139.909004,-36.62826],[139.909204,-36.628171],[139.909424,-36.628083],[139.909875,-36.627923],[139.91422,-36.626506],[139.917041,-36.625579],[139.91777,-36.625328],[139.918179,-36.625168],[139.918554,-36.624994],[139.918867,-36.624825],[139.919139,-36.624668],[139.919504,-36.624439],[139.919941,-36.624127],[139.920274,-36.623856],[139.920615,-36.623505],[139.920907,-36.623202],[139.921059,-36.623036],[139.921674,-36.622249],[139.922166,-36.621658],[139.922428,-36.621388],[139.922672,-36.621164],[139.922971,-36.620921],[139.923257,-36.620706],[139.92358,-36.620496],[139.923986,-36.62025],[139.924334,-36.620071],[139.924667,-36.619919],[139.92517,-36.619717],[139.928314,-36.61853],[139.932243,-36.617055],[139.936564,-36.615429],[139.938851,-36.614573],[139.939299,-36.614388],[139.939591,-36.614258],[139.939907,-36.614109],[139.940207,-36.613957],[139.940472,-36.613814],[139.940977,-36.613535],[139.942632,-36.612615],[139.942918,-36.612466],[139.943327,-36.61227],[139.943709,-36.612104],[139.944091,-36.611955],[139.944872,-36.61169],[139.945869,-36.611348],[139.947345,-36.610834],[139.949124,-36.610229],[139.950586,-36.609771],[139.954039,-36.608678]]}},{"type":"Feature","properties":{"tier":"arterial"},"geometry":{"type":"LineString","coordinates":[[139.828258,-36.49998],[139.833335,-36.511525],[139.83415,-36.513594],[139.834406,-36.514386],[139.83447,-36.514704],[139.834587,-36.51529],[139.835824,-36.522596],[139.836683,-36.527693],[139.83704,-36.529834],[139.83753,-36.531813],[139.837651,-36.532277],[139.837726,-36.532745],[139.837769,-36.53332],[139.837798,-36.534183],[139.837871,-36.536228]]}},{"type":"Feature","properties":{"tier":"arterial"},"geometry":{"type":"LineString","coordinates":[[139.837871,-36.536228],[139.837885,-36.536666],[139.837924,-36.537499],[139.837996,-36.538062],[139.838074,-36.53839],[139.838238,-36.53882],[139.838473,-36.539312],[139.838864,-36.540177],[139.841149,-36.545325],[139.841478,-36.546166],[139.842347,-36.549044],[139.842954,-36.551055],[139.843255,-36.551921],[139.843542,-36.552669],[139.844772,-36.555456],[139.846622,-36.559689],[139.847669,-36.561936],[139.848374,-36.56366],[139.848753,-36.56453],[139.848906,-36.564917],[139.849037,-36.565332],[139.849313,-36.566621],[139.849796,-36.569277],[139.850562,-36.573621],[139.851059,-36.576102],[139.851204,-36.576864],[139.851356,-36.577423],[139.852174,-36.579578],[139.853763,-36.583787],[139.854835,-36.586717],[139.855506,-36.588284],[139.85638,-36.589921],[139.857367,-36.591506],[139.859051,-36.59437],[139.859381,-36.594943],[139.859896,-36.595609],[139.860418,-36.596097],[139.86153,-36.596847],[139.864078,-36.598516],[139.864668,-36.598913],[139.86731,-36.600655],[139.868629,-36.601523],[139.869281,-36.601972],[139.869848,-36.602392],[139.87014,-36.602646],[139.870483,-36.602981],[139.871012,-36.603602],[139.87131,-36.604138],[139.871542,-36.604667],[139.871895,-36.605764],[139.872946,-36.609049],[139.873465,-36.610682],[139.87399,-36.612314],[139.876004,-36.618633],[139.876551,-36.620245],[139.877015,-36.621716],[139.877235,-36.622413],[139.878046,-36.624919],[139.880048,-36.631152],[139.880315,-36.631971],[139.880558,-36.632873],[139.880968,-36.634593],[139.882499,-36.640847],[139.882616,-36.641531],[139.883247,-36.646722],[139.883875,-36.651922],[139.884485,-36.656626],[139.884641,-36.65789],[139.884726,-36.658741],[139.884726,-36.659201],[139.88469,-36.659618],[139.884561,-36.660172],[139.884376,-36.660688],[139.884208,-36.661105],[139.883907,-36.661574],[139.883638,-36.661938],[139.8834,-36.662226],[139.882896,-36.66272],[139.881845,-36.663729],[139.880586,-36.664922],[139.879426,-36.666035],[139.877833,-36.66752],[139.877347,-36.66804],[139.876945,-36.668526],[139.875392,-36.670372],[139.872015,-36.674395],[139.87159,-36.674903],[139.871355,-36.675202],[139.871076,-36.675635],[139.870852,-36.67608],[139.870585,-36.676843],[139.870475,-36.677477],[139.870444,-36.677829],[139.870442,-36.677958],[139.870473,-36.678433],[139.870542,-36.678869],[139.870677,-36.679371],[139.870897,-36.679958],[139.871123,-36.680365],[139.871891,-36.681523],[139.872381,-36.682223],[139.872686,-36.682755],[139.872866,-36.683137],[139.873007,-36.683499],[139.873113,-36.683851],[139.873193,-36.684341],[139.873233,-36.684775],[139.873246,-36.685998],[139.873282,-36.687267],[139.873298,-36.688343],[139.873245,-36.688765],[139.873123,-36.689214],[139.872847,-36.689912],[139.871806,-36.692435],[139.871499,-36.69317],[139.871287,-36.693838],[139.871166,-36.694374],[139.871135,-36.694708],[139.871134,-36.695],[139.871186,-36.695565],[139.872356,-36.705165],[139.872437,-36.705787],[139.872548,-36.706286],[139.872671,-36.706749],[139.872797,-36.707052],[139.872931,-36.707332],[139.873375,-36.708158],[139.875154,-36.711044],[139.876134,-36.712646],[139.876916,-36.713944],[139.877125,-36.714382],[139.877246,-36.714753],[139.877348,-36.71509],[139.877443,-36.715596],[139.877481,-36.716254],[139.877637,-36.720585],[139.877771,-36.724643],[139.878016,-36.731752],[139.878332,-36.741152],[139.878367,-36.742293],[139.87835,-36.742716],[139.878298,-36.743109],[139.878165,-36.743755],[139.877234,-36.747817],[139.876937,-36.749123],[139.87679,-36.749674],[139.876696,-36.750246],[139.876551,-36.751771],[139.875598,-36.761519],[139.875477,-36.762748],[139.875387,-36.763566],[139.875306,-36.764493],[139.8753,-36.764821],[139.875323,-36.765245],[139.875406,-36.765979],[139.87606,-36.772919],[139.876451,-36.777035],[139.87645,-36.77746],[139.876406,-36.777921],[139.876281,-36.778503],[139.876045,-36.779191],[139.874319,-36.784361],[139.874003,-36.785134],[139.87352,-36.785932],[139.871666,-36.788922],[139.869925,-36.791706],[139.869537,-36.792352]]}},{"type":"Feature","properties":{"tier":"regional"},"geometry":{"type":"LineString","coordinates":[[139.699835,-36.94565],[139.699841,-36.945619],[139.699859,-36.945592],[139.699886,-36.94557],[139.69992,-36.945556],[139.699959,-36.945552],[139.699997,-36.945557],[139.700031,-36.945572],[139.700058,-36.945595],[139.700074,-36.945623],[139.700079,-36.94565],[139.700073,-36.945678],[139.700058,-36.945703],[139.700035,-36.945724],[139.700005,-36.945738],[139.699966,-36.945746],[139.699926,-36.945743],[139.69989,-36.94573],[139.69986,-36.945708],[139.699841,-36.94568],[139.699835,-36.94565]]}},{"type":"Feature","properties":{"tier":"regional"},"geometry":{"type":"LineString","coordinates":[[139.700074,-36.945623],[139.702229,-36.945025],[139.702443,-36.944962],[139.702598,-36.944937],[139.702666,-36.944925],[139.702891,-36.944898],[139.703401,-36.944843],[139.708386,-36.944519],[139.710699,-36.944369],[139.711911,-36.944259],[139.713016,-36.944037],[139.713989,-36.94376],[139.724623,-36.940561],[139.725152,-36.940421],[139.725766,-36.94026],[139.727366,-36.939951],[139.752094,-36.93534],[139.753561,-36.935056],[139.754795,-36.934719],[139.755909,-36.934337],[139.756987,-36.93386],[139.766394,-36.929102],[139.767566,-36.928409],[139.768618,-36.927656],[139.775419,-36.922568],[139.779943,-36.919642],[139.783128,-36.917454],[139.786002,-36.915368],[139.787032,-36.914704],[139.788366,-36.914097],[139.789897,-36.913733],[139.792354,-36.9134],[139.793373,-36.913253],[139.794116,-36.913061],[139.79479,-36.912807],[139.795918,-36.912179],[139.803295,-36.907863],[139.804319,-36.907197],[139.805301,-36.906415],[139.808634,-36.903662],[139.809505,-36.903028],[139.810332,-36.902515],[139.811252,-36.902091],[139.812349,-36.901623],[139.813717,-36.900898],[139.81512,-36.900019]]}},{"type":"Feature","properties":{"tier":"arterial"},"geometry":{"type":"LineString","coordinates":[[139.861174,-36.826093],[139.861016,-36.826329],[139.86071,-36.826789],[139.860653,-36.826874],[139.86035,-36.82736],[139.860076,-36.827886],[139.859732,-36.828562],[139.859027,-36.829886],[139.858356,-36.831116],[139.858175,-36.831435],[139.857902,-36.831973],[139.857852,-36.832071],[139.857396,-36.832904],[139.856623,-36.834355],[139.855859,-36.835762],[139.855655,-36.836146],[139.855101,-36.837189],[139.855076,-36.837237],[139.854186,-36.838912],[139.85377,-36.839728],[139.853694,-36.839819],[139.85332,-36.840268]]}},{"type":"Feature","properties":{"tier":"arterial"},"geometry":{"type":"LineString","coordinates":[[139.867485,-36.828188],[139.874763,-36.830964],[139.881777,-36.83364],[139.88314,-36.834164],[139.883655,-36.834336],[139.884298,-36.834516],[139.893622,-36.836482],[139.899179,-36.837329],[139.902407,-36.837798],[139.906164,-36.838337],[139.908354,-36.838546],[139.912739,-36.838959],[139.914639,-36.83914],[139.916342,-36.839329],[139.917777,-36.839558],[139.923146,-36.840542],[139.9283,-36.841493],[139.935769,-36.842875],[139.948478,-36.84524],[139.954079,-36.846288],[139.96999,-36.849319],[139.970998,-36.849679],[139.97176,-36.850057],[139.971913,-36.850173],[139.973144,-36.851104],[139.973681,-36.851722],[139.978485,-36.85899],[139.985439,-36.869509],[139.986909,-36.872444],[139.993647,-36.892268],[139.994179,-36.893695],[139.994677,-36.895031],[139.996898,-36.900505],[139.999022,-36.905352],[140.00002,-36.907259]]}},{"type":"Feature","properties":{"tier":"arterial"},"geometry":{"type":"LineString","coordinates":[[139.864225,-36.826927],[139.865923,-36.827592],[139.867485,-36.828188]]}},{"type":"Feature","properties":{"tier":"arterial"},"geometry":{"type":"LineString","coordinates":[[139.861446,-36.82571],[139.862113,-36.826053],[139.862718,-36.826321],[139.863185,-36.82652],[139.864225,-36.826927]]}},{"type":"Feature","properties":{"tier":"regional"},"geometry":{"type":"LineString","coordinates":[[139.815304,-36.899898],[139.822997,-36.894771],[139.824085,-36.894149],[139.825207,-36.893661],[139.826428,-36.893333],[139.827859,-36.893155],[139.833844,-36.893173]]}},{"type":"Feature","properties":{"tier":"regional"},"geometry":{"type":"LineString","coordinates":[[139.81512,-36.900019],[139.815174,-36.899985],[139.815304,-36.899898]]}},{"type":"Feature","properties":{"tier":"arterial"},"geometry":{"type":"LineString","coordinates":[[139.849663,-36.849302],[139.849574,-36.84983],[139.849478,-36.8502],[139.849361,-36.850518],[139.849229,-36.850836],[139.849001,-36.851239],[139.848777,-36.851594],[139.845325,-36.856923],[139.842186,-36.862145],[139.838643,-36.868081],[139.838367,-36.86865],[139.838138,-36.869276],[139.838045,-36.869641],[139.837989,-36.869927],[139.837946,-36.870214],[139.837942,-36.870237],[139.837911,-36.87051],[139.83791,-36.870804],[139.837917,-36.871065],[139.837926,-36.871321],[139.837953,-36.871605],[139.837987,-36.871835],[139.838048,-36.872116],[139.838125,-36.872415],[139.838174,-36.872594],[139.838883,-36.875038],[139.839025,-36.875934],[139.839025,-36.876885],[139.83895,-36.877423],[139.838661,-36.878179],[139.838292,-36.878847],[139.836003,-36.881911],[139.834923,-36.883309],[139.834645,-36.883712],[139.834394,-36.884095],[139.834141,-36.884642],[139.833977,-36.885045],[139.833806,-36.885777],[139.833844,-36.893173],[139.833847,-36.893243],[139.833854,-36.893878],[139.834112,-36.898317],[139.834185,-36.89944],[139.834137,-36.900376],[139.834089,-36.901005],[139.833963,-36.901777],[139.832899,-36.908529],[139.832758,-36.909407],[139.832677,-36.909805],[139.832479,-36.910311],[139.832148,-36.910959],[139.831783,-36.911466],[139.831057,-36.912357],[139.83096,-36.912438]]}},{"type":"Feature","properties":{"tier":"arterial"},"geometry":{"type":"LineString","coordinates":[[139.83096,-36.912438],[139.830839,-36.912539]]}},{"type":"Feature","properties":{"tier":"regional"},"geometry":{"type":"LineString","coordinates":[[139.854478,-36.657956],[139.854526,-36.657949],[139.854668,-36.657939],[139.855187,-36.657924],[139.857784,-36.657933],[139.860848,-36.65794],[139.863145,-36.657946]]}},{"type":"Feature","properties":{"tier":"arterial"},"geometry":{"type":"LineString","coordinates":[[139.851795,-36.841713],[139.851371,-36.842154],[139.850896,-36.842795],[139.850476,-36.843499],[139.850211,-36.844189],[139.850079,-36.844636],[139.84999,-36.845085],[139.849788,-36.847561],[139.84974,-36.848376],[139.849663,-36.849302]]}},{"type":"Feature","properties":{"tier":"arterial"},"geometry":{"type":"LineString","coordinates":[[139.85332,-36.840268],[139.851852,-36.84166],[139.851795,-36.841713]]}},{"type":"Feature","properties":{"tier":"arterial"},"geometry":{"type":"LineString","coordinates":[[139.864019,-36.821577],[139.863967,-36.821674],[139.863439,-36.822676],[139.863389,-36.82277],[139.863218,-36.823109],[139.863129,-36.823266],[139.862985,-36.823498],[139.862845,-36.823715],[139.862763,-36.823834],[139.862651,-36.824005],[139.862437,-36.824309],[139.862161,-36.824706],[139.861917,-36.825057],[139.861446,-36.82571]]}},{"type":"Feature","properties":{"tier":"arterial"},"geometry":{"type":"LineString","coordinates":[[139.865486,-36.818743],[139.864019,-36.821577]]}}]}
