{"type":"FeatureCollection","features":[{"type":"Feature","properties":{"tier":"arterial"},"geometry":{"type":"LineString","coordinates":[[139.814438,-29.554161],[139.814458,-29.554577],[139.814489,-29.555169],[139.814459,-29.556889],[139.814829,-29.560379],[139.814618,-29.561739],[139.813248,-29.568089],[139.811959,-29.573919],[139.811278,-29.577109],[139.810639,-29.578879],[139.809569,-29.580169],[139.807229,-29.582239],[139.799719,-29.588939],[139.789339,-29.598139],[139.786109,-29.601029],[139.783489,-29.603089],[139.777458,-29.607149],[139.774968,-29.608749],[139.773299,-29.609319],[139.769478,-29.610419],[139.767588,-29.611359],[139.761849,-29.614669],[139.760499,-29.615809],[139.755459,-29.621249],[139.754469,-29.622539],[139.754399,-29.623559],[139.754818,-29.624729],[139.758709,-29.630159],[139.761209,-29.633679],[139.763128,-29.636419],[139.767138,-29.641919],[139.768778,-29.644239],[139.770008,-29.645559],[139.771589,-29.646399],[139.794828,-29.655399],[139.803078,-29.658619],[139.806419,-29.659949],[139.809029,-29.660929],[139.817599,-29.664279],[139.818368,-29.664979],[139.819088,-29.666389],[139.819908,-29.668889],[139.822328,-29.678609],[139.823329,-29.682409],[139.824169,-29.683889],[139.825158,-29.684429],[139.827739,-29.685359],[139.834258,-29.687588],[139.838279,-29.689009],[139.841908,-29.690379],[139.842689,-29.691279],[139.843728,-29.692789],[139.844669,-29.694429],[139.844579,-29.695539],[139.843939,-29.696659],[139.842648,-29.697669],[139.840938,-29.699309],[139.838939,-29.701589],[139.837689,-29.703709],[139.836888,-29.705959],[139.836538,-29.707659],[139.835799,-29.708649],[139.833878,-29.710909],[139.832248,-29.712799],[139.831659,-29.713919],[139.830789,-29.714759],[139.829609,-29.715999],[139.828668,-29.716489],[139.827848,-29.717179],[139.826888,-29.718409],[139.826459,-29.719309],[139.825779,-29.720379],[139.824108,-29.722289],[139.822969,-29.723969],[139.822609,-29.725289],[139.822719,-29.727269],[139.822768,-29.730929],[139.822388,-29.733829],[139.822019,-29.737199],[139.821598,-29.739459],[139.820978,-29.741769],[139.820589,-29.743549],[139.819788,-29.746519],[139.817678,-29.753549],[139.816858,-29.755829],[139.816328,-29.758179],[139.815639,-29.759779],[139.812538,-29.766049],[139.812239,-29.767629],[139.811629,-29.768729],[139.811038,-29.770389],[139.810318,-29.771589],[139.809318,-29.773759],[139.808299,-29.775179],[139.807358,-29.776949],[139.805908,-29.779079],[139.805619,-29.780139],[139.805018,-29.781879],[139.804269,-29.784379],[139.802649,-29.789589],[139.801898,-29.791509],[139.801049,-29.792179],[139.800378,-29.793179],[139.799908,-29.794699],[139.799468,-29.796339],[139.798658,-29.797779],[139.797719,-29.799609],[139.797528,-29.801029],[139.797549,-29.802499],[139.797238,-29.805149],[139.797438,-29.806699],[139.798228,-29.810339],[139.798588,-29.811189],[139.798529,-29.812769],[139.797739,-29.813839],[139.797688,-29.814809],[139.797518,-29.815869],[139.796808,-29.817689],[139.796368,-29.818719],[139.796199,-29.819919],[139.796868,-29.820669],[139.798639,-29.822239],[139.801059,-29.824649],[139.802659,-29.825699],[139.805449,-29.827059],[139.807309,-29.827669],[139.808328,-29.828059],[139.810598,-29.828339],[139.812448,-29.828749],[139.815128,-29.829469],[139.817329,-29.830119],[139.818679,-29.830779],[139.824879,-29.834559],[139.826798,-29.836269],[139.829018,-29.838289],[139.830838,-29.840159],[139.830378,-29.842319],[139.829149,-29.843609],[139.823529,-29.849099],[139.821649,-29.850969],[139.819988,-29.852719],[139.817638,-29.855109],[139.814729,-29.857989],[139.812198,-29.860149],[139.806388,-29.865479],[139.801769,-29.869909],[139.799498,-29.872059],[139.793249,-29.878069],[139.790978,-29.880349],[139.784798,-29.886129],[139.782198,-29.888619],[139.777538,-29.893179],[139.774649,-29.895969],[139.772489,-29.897999],[139.771867,-29.898598],[139.768279,-29.902049],[139.766618,-29.903209],[139.764699,-29.903849],[139.763298,-29.904019],[139.761199,-29.904369],[139.759411,-29.904632],[139.758208,-29.904809],[139.754749,-29.905229],[139.750247,-29.905619],[139.746108,-29.906141],[139.742459,-29.906454],[139.740551,-29.906702],[139.740308,-29.906773],[139.74013,-29.906901],[139.739935,-29.907222],[139.739315,-29.908407],[139.739269,-29.908669],[139.74042,-29.91068],[139.7416,-29.91269],[139.74291,-29.91475],[139.743492,-29.915498],[139.74352,-29.9158],[139.74353,-29.916372],[139.743341,-29.91722],[139.74289,-29.91832],[139.742359,-29.91916],[139.74228,-29.91949],[139.74229,-29.919779],[139.743027,-29.921371],[139.74387,-29.92255],[139.74465,-29.92334],[139.74539,-29.92433],[139.74792,-29.92745],[139.75,-29.92933],[139.75833,-29.9358],[139.76071,-29.93762],[139.7628,-29.93929],[139.76566,-29.94146],[139.76804,-29.94335],[139.77545,-29.94908],[139.77679,-29.9506],[139.77844,-29.95285],[139.77923,-29.95421],[139.78054,-29.95664],[139.78173,-29.9581],[139.78345,-29.9598],[139.78469,-29.96084],[139.79449,-29.97249],[139.80196,-29.98132],[139.80843,-29.989],[139.81163,-29.99276],[139.81444,-29.99611],[139.81641,-29.99876],[139.816669,-29.999749],[139.816765,-30.00002]]}},{"type":"Feature","properties":{"tier":"arterial"},"geometry":{"type":"LineString","coordinates":[[139.921242,-29.49998],[139.920741,-29.500613],[139.920002,-29.501559],[139.919253,-29.502519],[139.917978,-29.504089],[139.917514,-29.504625],[139.917192,-29.504966],[139.916679,-29.505452],[139.915979,-29.506063],[139.914713,-29.507108],[139.913454,-29.508181],[139.912702,-29.50878],[139.9121,-29.509195],[139.911674,-29.509455],[139.90918,-29.510891],[139.908789,-29.51113],[139.908423,-29.511391],[139.908082,-29.511677],[139.907599,-29.512126],[139.906519,-29.513273],[139.905651,-29.514041],[139.905282,-29.514329],[139.903884,-29.515292],[139.903277,-29.515682],[139.902646,-29.51602],[139.901972,-29.516287],[139.901257,-29.516509],[139.899783,-29.516887],[139.899054,-29.517105],[139.898343,-29.517354],[139.897194,-29.517807],[139.894315,-29.519042],[139.89343,-29.5194],[139.890815,-29.520517],[139.890375,-29.520688],[139.884966,-29.522992],[139.882989,-29.523812],[139.879585,-29.525254],[139.874882,-29.527185],[139.871267,-29.52864],[139.870034,-29.529163],[139.868462,-29.529911],[139.866722,-29.530803],[139.86598,-29.531219],[139.863753,-29.532389],[139.85672,-29.536161],[139.854479,-29.537342],[139.850503,-29.539493],[139.848172,-29.540716],[139.847521,-29.541016],[139.84707,-29.541202],[139.846157,-29.541542],[139.840191,-29.543598],[139.839574,-29.543827],[139.838597,-29.544235],[139.838031,-29.544514],[139.836731,-29.545205],[139.834184,-29.546593],[139.8309,-29.548413],[139.830041,-29.54884],[139.829361,-29.549127],[139.826786,-29.550104],[139.82541,-29.550587],[139.819915,-29.552435],[139.814438,-29.554161],[139.810414,-29.555566],[139.806658,-29.556782],[139.805091,-29.557324],[139.803977,-29.557682],[139.803082,-29.55799],[139.79859,-29.559448],[139.795199,-29.560584],[139.788209,-29.562881],[139.786826,-29.563352],[139.784694,-29.564027],[139.783969,-29.564228],[139.783257,-29.564401],[139.782286,-29.564578],[139.780313,-29.564821],[139.77593,-29.565262],[139.7694,-29.565957],[139.767981,-29.566128],[139.765406,-29.566401],[139.762867,-29.566658],[139.759731,-29.566951],[139.757494,-29.567262],[139.756044,-29.56754],[139.75221,-29.568329],[139.746907,-29.569386],[139.740667,-29.570567],[139.737958,-29.57106],[139.723929,-29.573782],[139.720402,-29.57441],[139.717252,-29.575011]]}},{"type":"Feature","properties":{"tier":"arterial"},"geometry":{"type":"LineString","coordinates":[[139.574473,-29.612978],[139.572975,-29.612828],[139.572683,-29.612799],[139.571965,-29.612739]]}},{"type":"Feature","properties":{"tier":"arterial"},"geometry":{"type":"LineString","coordinates":[[139.571965,-29.612739],[139.569682,-29.612547],[139.559858,-29.611641],[139.55895,-29.611569],[139.557593,-29.611433],[139.556469,-29.611293],[139.554906,-29.611045],[139.554007,-29.610837],[139.553348,-29.610646],[139.55292,-29.610493],[139.5521,-29.610145],[139.550166,-29.609242],[139.548371,-29.608369],[139.544575,-29.606564],[139.543279,-29.605925],[139.54005,-29.604387],[139.538162,-29.603467],[139.533773,-29.601389],[139.532726,-29.600876],[139.532068,-29.600516],[139.531591,-29.600228],[139.530968,-29.59981],[139.530347,-29.59935],[139.526313,-29.59649],[139.523115,-29.594259],[139.518229,-29.590803],[139.516555,-29.589659],[139.515148,-29.58877],[139.513027,-29.587516],[139.511291,-29.586545],[139.510021,-29.585872],[139.507411,-29.584542],[139.504114,-29.582892],[139.50344,-29.582574],[139.502763,-29.582278],[139.50183,-29.581905],[139.500646,-29.58146],[139.49998,-29.581217]]}},{"type":"Feature","properties":{"tier":"arterial"},"geometry":{"type":"LineString","coordinates":[[139.653123,-29.602865],[139.651802,-29.603291],[139.648671,-29.604228],[139.642569,-29.606097],[139.640791,-29.606618],[139.638788,-29.607248],[139.631398,-29.609521],[139.626999,-29.610853],[139.625765,-29.611241],[139.62148,-29.612528],[139.620216,-29.612936],[139.618518,-29.613449],[139.616999,-29.613838],[139.615874,-29.614042],[139.614758,-29.614187],[139.611462,-29.614525],[139.61034,-29.614661],[139.609659,-29.614721],[139.608732,-29.614774],[139.60645,-29.614785],[139.602394,-29.614735],[139.596891,-29.614696],[139.595932,-29.614674],[139.594967,-29.614675],[139.59113,-29.614624],[139.586669,-29.614598],[139.58509,-29.614562],[139.584425,-29.614499],[139.583108,-29.614291],[139.580832,-29.613836],[139.579931,-29.613637],[139.579477,-29.613551],[139.577877,-29.613299],[139.577169,-29.613224],[139.575985,-29.613129],[139.574473,-29.612978]]}},{"type":"Feature","properties":{"tier":"arterial"},"geometry":{"type":"LineString","coordinates":[[139.717252,-29.575011],[139.715683,-29.57531],[139.714266,-29.575618],[139.706363,-29.577524],[139.703005,-29.578309],[139.696807,-29.579827],[139.695943,-29.580068],[139.695131,-29.58035],[139.694193,-29.580789],[139.688662,-29.583873],[139.683616,-29.586624],[139.677963,-29.589766],[139.676013,-29.590817],[139.673155,-29.5924],[139.672407,-29.592793],[139.66924,-29.594537],[139.666685,-29.59592],[139.661045,-29.599039],[139.656609,-29.601463],[139.656027,-29.601753],[139.655434,-29.602024],[139.654619,-29.60236],[139.653983,-29.602587],[139.653123,-29.602865]]}}]}
