{"type":"FeatureCollection","features":[{"type":"Feature","properties":{"tier":"high"},"geometry":{"type":"LineString","coordinates":[[139.970489,-34.200745],[139.970817,-34.200497],[139.971045,-34.200299],[139.971209,-34.200091],[139.971332,-34.199868],[139.971453,-34.199592]]}},{"type":"Feature","properties":{"tier":"arterial"},"geometry":{"type":"LineString","coordinates":[[139.985438,-34.181715],[139.985371,-34.181667],[139.985326,-34.181604],[139.985305,-34.181533]]}},{"type":"Feature","properties":{"tier":"arterial"},"geometry":{"type":"LineString","coordinates":[[139.635649,-34.319728],[139.635499,-34.319405],[139.635406,-34.318956],[139.635404,-34.318739],[139.635414,-34.318563],[139.635464,-34.318359],[139.635588,-34.318026],[139.637022,-34.315046],[139.637892,-34.31327],[139.638337,-34.312328],[139.638566,-34.311894],[139.6388,-34.311518],[139.639942,-34.310006],[139.64176,-34.307621],[139.642663,-34.306404],[139.643107,-34.305783],[139.643509,-34.305192],[139.644013,-34.304426],[139.644522,-34.303598],[139.645097,-34.302683],[139.645439,-34.302153],[139.645764,-34.301564],[139.646047,-34.301025],[139.646161,-34.300746],[139.646254,-34.300446],[139.646374,-34.300049],[139.646477,-34.299605],[139.646617,-34.298986],[139.646854,-34.297895],[139.647028,-34.297104],[139.647218,-34.29622],[139.647273,-34.295828],[139.64727,-34.295245],[139.64729,-34.294833],[139.647251,-34.29437],[139.647201,-34.293977],[139.647147,-34.293549],[139.646971,-34.292537],[139.646829,-34.2916],[139.646742,-34.291123],[139.646645,-34.290596],[139.646533,-34.289663],[139.646481,-34.289291],[139.646434,-34.288874],[139.646423,-34.288548],[139.646441,-34.288286],[139.646471,-34.288067],[139.646584,-34.287573],[139.646697,-34.28716],[139.646797,-34.286921],[139.646881,-34.286734],[139.647203,-34.286053],[139.647868,-34.284617],[139.648814,-34.282628],[139.649431,-34.281357],[139.649946,-34.280119],[139.650004,-34.279916],[139.650072,-34.279645],[139.650097,-34.278773],[139.650079,-34.27847],[139.65001,-34.278088],[139.649929,-34.277804],[139.649813,-34.277476],[139.648898,-34.275338],[139.648353,-34.273988],[139.647435,-34.27179],[139.647287,-34.271374],[139.64719,-34.27102],[139.647122,-34.270671],[139.647087,-34.27037],[139.64706,-34.270032],[139.647207,-34.268329],[139.647393,-34.265969],[139.647496,-34.265018],[139.647568,-34.264097],[139.647773,-34.261532],[139.648055,-34.257942],[139.648276,-34.255705],[139.648328,-34.254993],[139.648463,-34.253757],[139.648557,-34.253071],[139.648551,-34.252752],[139.648759,-34.251002],[139.650753,-34.232322],[139.651738,-34.223011],[139.651877,-34.221607],[139.652027,-34.220237],[139.652196,-34.218674],[139.65237,-34.217107],[139.652508,-34.215827],[139.652586,-34.214903],[139.652683,-34.214024],[139.652905,-34.211998],[139.653011,-34.211089],[139.653102,-34.210665],[139.653221,-34.210334],[139.653364,-34.209988],[139.654779,-34.206832],[139.655474,-34.205201],[139.655911,-34.204229],[139.656096,-34.203819],[139.65687,-34.20203],[139.656931,-34.201841],[139.656995,-34.201668],[139.657326,-34.200525],[139.657382,-34.200333],[139.658516,-34.196497],[139.658973,-34.194948],[139.659243,-34.194036],[139.659468,-34.193211],[139.660293,-34.190461],[139.660862,-34.188496],[139.66136,-34.186777],[139.661579,-34.186041],[139.661766,-34.185527],[139.661985,-34.185087],[139.662441,-34.184041],[139.663229,-34.182231],[139.663387,-34.18181],[139.66349,-34.181567],[139.663736,-34.181018],[139.663826,-34.1808]]}},{"type":"Feature","properties":{"tier":"arterial"},"geometry":{"type":"LineString","coordinates":[[139.667282,-34.034344],[139.667686,-34.034618],[139.668115,-34.034908]]}},{"type":"Feature","properties":{"tier":"regional"},"geometry":{"type":"LineString","coordinates":[[139.627446,-34.329001],[139.627111,-34.329003],[139.626837,-34.329048],[139.626689,-34.329181],[139.626587,-34.329426],[139.626382,-34.329894],[139.626069,-34.330331],[139.624239,-34.332119],[139.623707,-34.332617],[139.623493,-34.332856],[139.623275,-34.333188],[139.62314,-34.333599],[139.623122,-34.333983],[139.623298,-34.33478],[139.623927,-34.337523],[139.624141,-34.33847],[139.624409,-34.339678],[139.624461,-34.339977],[139.624472,-34.340085],[139.624565,-34.340922],[139.624599,-34.341119],[139.62465,-34.341256],[139.624723,-34.341372],[139.624815,-34.341471],[139.624955,-34.341579]]}},{"type":"Feature","properties":{"tier":"arterial"},"geometry":{"type":"LineString","coordinates":[[139.624955,-34.341579],[139.627482,-34.343273],[139.627695,-34.343444],[139.627913,-34.343635],[139.628112,-34.343831],[139.628331,-34.34407],[139.628557,-34.344379],[139.628818,-34.344808],[139.628994,-34.345178],[139.629125,-34.345529],[139.629167,-34.345639],[139.629413,-34.346797],[139.629978,-34.34906],[139.630344,-34.350524],[139.630827,-34.352459],[139.630905,-34.352771],[139.631451,-34.358469],[139.631477,-34.361014],[139.631457,-34.361655],[139.631455,-34.363026],[139.631429,-34.363504],[139.631385,-34.36386],[139.631312,-34.364263],[139.631024,-34.365333],[139.628151,-34.375312],[139.624794,-34.387112],[139.624655,-34.387802],[139.624548,-34.388606],[139.624077,-34.393217],[139.623874,-34.394143],[139.619148,-34.407157],[139.61893,-34.407947],[139.618765,-34.408813],[139.617792,-34.414369],[139.616688,-34.420643],[139.616422,-34.422281],[139.616274,-34.423983],[139.615965,-34.428261],[139.615358,-34.436981],[139.614206,-34.453712],[139.614058,-34.455952],[139.613946,-34.458008],[139.613971,-34.458852],[139.614124,-34.459628],[139.614201,-34.459866],[139.614637,-34.461157],[139.619157,-34.473084],[139.62031,-34.475891],[139.620503,-34.476247],[139.621059,-34.477276],[139.621891,-34.478557],[139.623798,-34.481152],[139.627494,-34.486096],[139.630005,-34.489472],[139.630386,-34.49013],[139.630637,-34.490651],[139.630804,-34.491079],[139.630962,-34.491661],[139.631197,-34.492874],[139.632386,-34.499717],[139.632415,-34.50002]]}},{"type":"Feature","properties":{"tier":"arterial"},"geometry":{"type":"LineString","coordinates":[[139.8512,-34.50002],[139.861405,-34.49691],[139.889619,-34.488296],[139.890473,-34.488037],[139.891286,-34.48775],[139.892205,-34.487387],[139.892991,-34.487021],[139.895106,-34.485966],[139.911371,-34.477715],[139.912045,-34.477385],[139.912609,-34.477137],[139.913265,-34.476903],[139.914133,-34.476655]]}},{"type":"Feature","properties":{"tier":"arterial"},"geometry":{"type":"LineString","coordinates":[[139.764011,-34.021246],[139.763966,-34.022109],[139.763918,-34.023023],[139.763911,-34.023157],[139.763822,-34.023508],[139.763672,-34.023726],[139.76344,-34.023968],[139.76313,-34.024176],[139.762865,-34.024359],[139.762794,-34.024445],[139.762777,-34.024465],[139.762764,-34.024502]]}},{"type":"Feature","properties":{"tier":"arterial"},"geometry":{"type":"LineString","coordinates":[[139.672772,-34.028512],[139.674794,-34.02695]]}},{"type":"Feature","properties":{"tier":"arterial"},"geometry":{"type":"LineString","coordinates":[[139.764011,-34.021246],[139.764991,-34.021298],[139.765813,-34.021278],[139.766659,-34.021163],[139.767357,-34.021001],[139.768088,-34.020734],[139.775253,-34.017614],[139.781283,-34.014944],[139.781894,-34.014672],[139.782409,-34.014472],[139.782911,-34.014314],[139.783572,-34.014163],[139.784301,-34.014066],[139.784897,-34.014043],[139.785533,-34.014063],[139.792904,-34.01461],[139.793688,-34.014674],[139.794369,-34.014791],[139.794779,-34.014897],[139.795215,-34.015037],[139.795719,-34.015247],[139.796166,-34.015456],[139.796673,-34.015769],[139.797357,-34.016249],[139.802301,-34.019771],[139.803414,-34.020537],[139.80456,-34.021181],[139.805696,-34.021702],[139.806912,-34.0221],[139.8083,-34.022461],[139.809625,-34.022647],[139.81078,-34.022709],[139.813396,-34.022815],[139.814219,-34.022865],[139.815533,-34.023045],[139.817907,-34.023465],[139.821289,-34.024063],[139.832612,-34.025444],[139.83326,-34.02548],[139.833968,-34.025435],[139.836822,-34.024997],[139.837744,-34.024913],[139.838465,-34.02494],[139.839508,-34.025037],[139.840285,-34.025235],[139.841055,-34.025546],[139.841924,-34.026021],[139.842748,-34.026553],[139.842852,-34.02662],[139.846167,-34.028762],[139.852555,-34.03296],[139.853695,-34.033893],[139.857826,-34.037594],[139.859112,-34.038747],[139.860898,-34.040281],[139.861557,-34.040786],[139.862426,-34.041335],[139.863881,-34.042174],[139.864655,-34.04262],[139.879046,-34.050911],[139.87975,-34.051316],[139.880257,-34.051563],[139.880734,-34.05177],[139.890365,-34.055697],[139.890611,-34.055803],[139.892527,-34.056568],[139.893213,-34.056841],[139.895131,-34.057628],[139.897042,-34.058412],[139.898371,-34.058935],[139.900112,-34.059626],[139.90076,-34.059868],[139.901141,-34.059988],[139.901529,-34.06011],[139.902312,-34.060293],[139.903079,-34.060486],[139.903833,-34.060728],[139.911177,-34.06368],[139.920512,-34.067423],[139.92336,-34.068564],[139.924021,-34.068896],[139.924645,-34.069322],[139.925163,-34.0698],[139.925597,-34.070311],[139.926015,-34.070875],[139.926454,-34.071398],[139.927003,-34.071851],[139.927584,-34.07226],[139.928223,-34.072635],[139.928915,-34.072975],[139.929619,-34.073235],[139.930145,-34.073376],[139.93117,-34.073633],[139.932776,-34.074036],[139.933781,-34.074292],[139.935364,-34.074697],[139.935684,-34.074779],[139.935793,-34.074807],[139.936859,-34.075081],[139.938567,-34.07552],[139.94127,-34.076215],[139.943197,-34.076715],[139.944204,-34.076976],[139.945286,-34.077257],[139.946177,-34.077509],[139.947078,-34.07776],[139.947142,-34.077785],[139.949213,-34.078332],[139.949943,-34.078521],[139.951112,-34.078824],[139.951639,-34.078956],[139.95415,-34.079605],[139.954564,-34.079783],[139.954967,-34.079967],[139.955423,-34.080247],[139.955845,-34.080557],[139.956247,-34.080929],[139.956575,-34.081308],[139.958938,-34.084219],[139.961562,-34.087407],[139.961738,-34.087672],[139.961928,-34.088017],[139.962007,-34.088178],[139.96295,-34.091168],[139.963074,-34.091474],[139.9633,-34.091869],[139.963635,-34.092317],[139.963963,-34.092669],[139.964706,-34.093332],[139.9658,-34.094287],[139.967684,-34.095928],[139.970477,-34.09843]]}},{"type":"Feature","properties":{"tier":"regional"},"geometry":{"type":"LineString","coordinates":[[139.864084,-34.100315],[139.86427,-34.100202],[139.864381,-34.10016],[139.864523,-34.100141],[139.864675,-34.100155],[139.86828,-34.100736],[139.868657,-34.100832],[139.868992,-34.100944],[139.869373,-34.101109],[139.869698,-34.101277],[139.870362,-34.10166],[139.872837,-34.102731],[139.873336,-34.102893],[139.874228,-34.103091],[139.874618,-34.103212],[139.875068,-34.103407],[139.875547,-34.103627],[139.875922,-34.103744],[139.876245,-34.103828],[139.878385,-34.104234],[139.880147,-34.104466],[139.880623,-34.104508],[139.881025,-34.104516],[139.884694,-34.104391],[139.885164,-34.10439],[139.885544,-34.104417],[139.885967,-34.104471],[139.889219,-34.104968],[139.889603,-34.105004],[139.889983,-34.104993],[139.890323,-34.10496],[139.891582,-34.104759],[139.893313,-34.104579],[139.893729,-34.104528],[139.894127,-34.104444],[139.894453,-34.10435],[139.894852,-34.104187],[139.895223,-34.103997],[139.896827,-34.102858],[139.89728,-34.102564],[139.897688,-34.102395],[139.898159,-34.102269],[139.898576,-34.102222],[139.900108,-34.102213],[139.900622,-34.102165],[139.901062,-34.102062],[139.901464,-34.101918],[139.901869,-34.101712],[139.904125,-34.100302],[139.904581,-34.100049],[139.905035,-34.099888],[139.905502,-34.099782],[139.905935,-34.09974],[139.906334,-34.099739],[139.906764,-34.099775],[139.907204,-34.099867],[139.907601,-34.100005],[139.907965,-34.10018],[139.908235,-34.100343],[139.908516,-34.100554],[139.908894,-34.100908],[139.918782,-34.110319],[139.919087,-34.110571],[139.919455,-34.110825],[139.919969,-34.111147],[139.920379,-34.111455],[139.920691,-34.111729],[139.933103,-34.123524],[139.933375,-34.123778],[139.933527,-34.124005],[139.933669,-34.12427],[139.933768,-34.124596],[139.933809,-34.124842],[139.933806,-34.12509],[139.933753,-34.125394],[139.933653,-34.125664],[139.933498,-34.125933],[139.933264,-34.126203],[139.933005,-34.126446],[139.932482,-34.126786],[139.930336,-34.128124],[139.927875,-34.129461],[139.927394,-34.12984],[139.927018,-34.130242],[139.926757,-34.130568],[139.924965,-34.13348],[139.924623,-34.133921],[139.924249,-34.134346],[139.924065,-34.134594],[139.923905,-34.134891],[139.923022,-34.136865],[139.922836,-34.137215],[139.922568,-34.137635],[139.92195,-34.138484],[139.920495,-34.140443],[139.91935,-34.141872],[139.918896,-34.14229],[139.913661,-34.147146],[139.913127,-34.147624],[139.912937,-34.147771],[139.912778,-34.147886],[139.912609,-34.147993],[139.912338,-34.148138],[139.912178,-34.148204],[139.911917,-34.148311],[139.91175,-34.14838],[139.911675,-34.1484],[139.911496,-34.148414]]}},{"type":"Feature","properties":{"tier":"arterial"},"geometry":{"type":"LineString","coordinates":[[139.674748,-34.038846],[139.67477,-34.038849],[139.675222,-34.038928],[139.675331,-34.038944],[139.675393,-34.038949],[139.675583,-34.038958],[139.68253,-34.038814],[139.682637,-34.038804],[139.683306,-34.03874],[139.684003,-34.038518],[139.685076,-34.038055],[139.685925,-34.03769],[139.68623,-34.037599],[139.686478,-34.037548],[139.686755,-34.037524],[139.686998,-34.037528],[139.687277,-34.03755],[139.687616,-34.037622],[139.688773,-34.038084],[139.689408,-34.03832],[139.68976,-34.038416],[139.689793,-34.038421],[139.690061,-34.038461],[139.690452,-34.038499],[139.690774,-34.038493],[139.69367,-34.038364],[139.695324,-34.038291]]}},{"type":"Feature","properties":{"tier":"arterial"},"geometry":{"type":"LineString","coordinates":[[139.672072,-34.029053],[139.670644,-34.028086],[139.669767,-34.02749],[139.669694,-34.027442],[139.669034,-34.026978],[139.668893,-34.026877],[139.668249,-34.026416],[139.667764,-34.025985]]}},{"type":"Feature","properties":{"tier":"arterial"},"geometry":{"type":"LineString","coordinates":[[139.986879,-34.180112],[139.987108,-34.180214],[139.989175,-34.18149],[139.991496,-34.182878],[139.992108,-34.18322],[139.99326,-34.183726],[139.993929,-34.184069],[139.995589,-34.18506],[139.996322,-34.185499],[139.998672,-34.186933],[139.999387,-34.187374]]}},{"type":"Feature","properties":{"tier":"arterial"},"geometry":{"type":"LineString","coordinates":[[140.00002,-34.111677],[139.996396,-34.109928],[139.987009,-34.105863],[139.983522,-34.104531],[139.982498,-34.104282],[139.981397,-34.1041],[139.976673,-34.103375],[139.975976,-34.103257],[139.974369,-34.102796],[139.973731,-34.102454],[139.973399,-34.102226],[139.972675,-34.101593],[139.972324,-34.101149],[139.971587,-34.099833],[139.971274,-34.099341],[139.971017,-34.099012],[139.970633,-34.098598]]}},{"type":"Feature","properties":{"tier":"regional"},"geometry":{"type":"LineString","coordinates":[[139.603743,-34.345503],[139.604624,-34.344117],[139.608134,-34.338585],[139.60875,-34.337585],[139.609012,-34.337005],[139.609155,-34.336484],[139.609216,-34.335934],[139.609185,-34.335374],[139.609077,-34.334839],[139.608863,-34.334189],[139.607901,-34.331679],[139.606918,-34.329238],[139.606739,-34.328606],[139.606656,-34.328035],[139.606641,-34.3276],[139.606597,-34.318513],[139.606605,-34.31779],[139.60664,-34.31733],[139.606773,-34.316516],[139.609417,-34.305596],[139.609591,-34.30503],[139.6098,-34.304569],[139.610127,-34.304095],[139.610889,-34.303125],[139.61238,-34.301232],[139.616938,-34.29563],[139.618021,-34.294242],[139.619116,-34.292726],[139.619448,-34.291853],[139.61977,-34.290236],[139.619566,-34.283179],[139.619555,-34.28277]]}},{"type":"Feature","properties":{"tier":"regional"},"geometry":{"type":"LineString","coordinates":[[139.603758,-34.350417],[139.603493,-34.350278],[139.603369,-34.350211],[139.603191,-34.350107],[139.60311,-34.35006],[139.602939,-34.34995],[139.602814,-34.349859],[139.602663,-34.349748],[139.602528,-34.349608],[139.602424,-34.349472],[139.602333,-34.349327],[139.602247,-34.349179],[139.602199,-34.34905],[139.602151,-34.348887],[139.602128,-34.348741],[139.602115,-34.348574],[139.602124,-34.348405],[139.602142,-34.348259],[139.602177,-34.348127],[139.602231,-34.347987],[139.602296,-34.347841],[139.602369,-34.3477],[139.602456,-34.347544],[139.602682,-34.347178],[139.603323,-34.346169],[139.603663,-34.345629],[139.603743,-34.345503]]}},{"type":"Feature","properties":{"tier":"regional"},"geometry":{"type":"LineString","coordinates":[[139.990152,-34.168622],[139.990485,-34.168589],[139.991163,-34.168564],[139.991407,-34.168518],[139.991988,-34.168352],[140.00002,-34.166068]]}},{"type":"Feature","properties":{"tier":"arterial"},"geometry":{"type":"LineString","coordinates":[[139.988364,-34.170994],[139.988533,-34.170847],[139.98915,-34.170235],[139.989679,-34.169609],[139.989872,-34.169377],[139.989992,-34.169181],[139.990065,-34.169023],[139.990112,-34.168848],[139.990152,-34.168622],[139.990135,-34.168244],[139.990017,-34.167787],[139.989788,-34.167284],[139.988808,-34.165356],[139.987624,-34.161562],[139.987453,-34.161163],[139.987221,-34.160756],[139.986552,-34.159882],[139.986154,-34.159467],[139.984854,-34.158327],[139.98451,-34.158043],[139.984144,-34.157854],[139.983726,-34.157725],[139.981712,-34.157395],[139.981353,-34.157375],[139.981009,-34.157387],[139.979393,-34.157506],[139.978826,-34.157493],[139.978346,-34.157457],[139.972506,-34.156263],[139.97133,-34.155908],[139.970397,-34.155407],[139.969577,-34.154551],[139.9692,-34.153446],[139.968582,-34.150281],[139.967352,-34.143681],[139.967281,-34.143012],[139.967299,-34.142405],[139.967391,-34.141773],[139.968182,-34.137029],[139.968569,-34.134475],[139.96893,-34.130275],[139.968884,-34.129501],[139.968617,-34.128737],[139.968253,-34.128071],[139.966769,-34.126077],[139.964882,-34.122959],[139.964529,-34.122114],[139.964393,-34.121308],[139.964425,-34.120609],[139.964538,-34.119952],[139.965201,-34.116548],[139.965449,-34.115761],[139.965968,-34.114582],[139.96621,-34.113848],[139.966186,-34.113037],[139.965911,-34.112243],[139.965145,-34.110779],[139.964761,-34.110062],[139.964219,-34.10905],[139.96411,-34.108849],[139.9634,-34.107539],[139.963242,-34.107023],[139.963174,-34.106496],[139.963237,-34.10593],[139.963456,-34.105343],[139.963719,-34.104885],[139.964128,-34.104447],[139.970633,-34.098598]]}},{"type":"Feature","properties":{"tier":"arterial"},"geometry":{"type":"LineString","coordinates":[[139.984986,-34.17752],[139.985551,-34.177279]]}},{"type":"Feature","properties":{"tier":"arterial"},"geometry":{"type":"LineString","coordinates":[[139.672072,-34.029053],[139.671813,-34.029248],[139.671406,-34.029625],[139.671055,-34.030024],[139.670968,-34.030123],[139.670011,-34.031467]]}},{"type":"Feature","properties":{"tier":"arterial"},"geometry":{"type":"LineString","coordinates":[[139.667282,-34.034344],[139.666473,-34.033779],[139.665633,-34.033234],[139.664802,-34.032687],[139.664425,-34.032425],[139.664243,-34.032337],[139.664127,-34.032295],[139.664008,-34.032264],[139.663916,-34.032258]]}},{"type":"Feature","properties":{"tier":"arterial"},"geometry":{"type":"LineString","coordinates":[[139.670011,-34.031467],[139.66993,-34.031557],[139.669806,-34.031693],[139.669351,-34.032185],[139.668676,-34.032906],[139.668009,-34.033599],[139.667922,-34.033689],[139.667608,-34.03401],[139.66742,-34.034202],[139.667282,-34.034344]]}},{"type":"Feature","properties":{"tier":"regional"},"geometry":{"type":"LineString","coordinates":[[139.608413,-34.355533],[139.608613,-34.356836]]}},{"type":"Feature","properties":{"tier":"arterial"},"geometry":{"type":"LineString","coordinates":[[139.985797,-34.178893],[139.985784,-34.178914],[139.985767,-34.178933],[139.985745,-34.178948],[139.985721,-34.17896],[139.985694,-34.178968],[139.985662,-34.178971],[139.98563,-34.178968],[139.9856,-34.17896],[139.985561,-34.178939],[139.985533,-34.178909],[139.985516,-34.17887],[139.985517,-34.178829],[139.985534,-34.17879]]}},{"type":"Feature","properties":{"tier":"regional"},"geometry":{"type":"LineString","coordinates":[[139.985196,-34.178911],[139.985093,-34.178947],[139.985015,-34.178981],[139.984781,-34.179064],[139.984744,-34.179077],[139.984617,-34.179122],[139.984386,-34.179205],[139.984249,-34.179257],[139.983736,-34.179426],[139.983518,-34.17949],[139.983084,-34.179633],[139.982164,-34.17993],[139.9812,-34.180261],[139.981153,-34.180268],[139.980074,-34.180578]]}},{"type":"Feature","properties":{"tier":"arterial"},"geometry":{"type":"LineString","coordinates":[[139.971453,-34.199592],[139.971517,-34.196224],[139.971519,-34.195369],[139.971519,-34.194078],[139.971529,-34.193917],[139.971562,-34.193766],[139.971627,-34.193616],[139.971764,-34.193417],[139.972019,-34.193085],[139.972204,-34.192854],[139.972284,-34.192704],[139.972335,-34.192567],[139.972368,-34.192407],[139.972362,-34.192213],[139.972334,-34.191884],[139.972327,-34.191647],[139.972357,-34.191482],[139.972404,-34.191341],[139.972478,-34.191208],[139.972628,-34.19101],[139.972885,-34.190723],[139.973098,-34.190463],[139.973392,-34.190108],[139.973497,-34.190016],[139.973591,-34.189941],[139.973748,-34.189846],[139.973937,-34.189757],[139.974281,-34.189635],[139.974724,-34.189491],[139.974922,-34.189422],[139.975108,-34.189346],[139.975254,-34.189278],[139.975498,-34.18913],[139.976185,-34.18863],[139.976403,-34.188467],[139.97656,-34.188296],[139.97671,-34.188075],[139.976932,-34.187613]]}},{"type":"Feature","properties":{"tier":"arterial"},"geometry":{"type":"LineString","coordinates":[[139.91651,-34.168747],[139.917389,-34.169019],[139.917983,-34.169167],[139.918364,-34.169231],[139.918712,-34.169267],[139.919112,-34.169277],[139.91954,-34.169254],[139.920648,-34.169121],[139.920982,-34.169097],[139.92138,-34.169111],[139.921746,-34.169159],[139.926286,-34.169742],[139.927323,-34.169871],[139.92801,-34.169948],[139.928393,-34.169984],[139.92966,-34.170058],[139.931069,-34.170141],[139.931754,-34.170196]]}},{"type":"Feature","properties":{"tier":"arterial"},"geometry":{"type":"LineString","coordinates":[[139.987151,-34.17947],[139.987138,-34.179563],[139.986879,-34.180112],[139.986776,-34.180335],[139.986623,-34.180653],[139.986548,-34.180797],[139.986464,-34.18088],[139.98597,-34.181292],[139.985934,-34.181347],[139.985922,-34.181366],[139.985881,-34.181476]]}},{"type":"Feature","properties":{"tier":"arterial"},"geometry":{"type":"LineString","coordinates":[[139.971453,-34.199592],[139.971447,-34.199904],[139.971482,-34.20011],[139.971582,-34.200314]]}},{"type":"Feature","properties":{"tier":"arterial"},"geometry":{"type":"LineString","coordinates":[[139.672772,-34.028512],[139.672072,-34.029053]]}},{"type":"Feature","properties":{"tier":"arterial"},"geometry":{"type":"LineString","coordinates":[[139.667238,-34.02545],[139.666685,-34.024636],[139.666112,-34.023613],[139.664824,-34.02131],[139.661468,-34.015311],[139.659659,-34.012076],[139.659101,-34.011163],[139.652845,-33.99998]]}},{"type":"Feature","properties":{"tier":"arterial"},"geometry":{"type":"LineString","coordinates":[[139.663916,-34.032258],[139.663713,-34.032247],[139.663516,-34.032264],[139.663351,-34.032282],[139.663066,-34.032331],[139.662961,-34.032352],[139.662513,-34.032444],[139.662446,-34.032457],[139.662018,-34.032551]]}},{"type":"Feature","properties":{"tier":"arterial"},"geometry":{"type":"LineString","coordinates":[[139.663569,-34.15919],[139.663683,-34.15899],[139.663922,-34.1586],[139.664308,-34.158131],[139.665011,-34.157363],[139.665897,-34.156389],[139.666288,-34.155818],[139.666484,-34.155453],[139.66667,-34.155025],[139.667751,-34.151024],[139.668009,-34.150094],[139.66813,-34.149736],[139.668231,-34.149478],[139.668338,-34.149251],[139.668554,-34.148837],[139.668976,-34.148114],[139.67272,-34.141675],[139.673327,-34.140605],[139.673743,-34.13993],[139.673989,-34.139589],[139.674288,-34.139236],[139.674504,-34.139012],[139.674688,-34.138841],[139.675229,-34.13834],[139.675976,-34.137723],[139.68014,-34.134162],[139.682057,-34.132474],[139.6827,-34.131848],[139.68311,-34.131338],[139.683433,-34.13089],[139.683821,-34.130187],[139.684227,-34.129425],[139.684973,-34.127813],[139.685271,-34.127089],[139.685435,-34.126674],[139.685526,-34.126387],[139.685575,-34.126161],[139.685873,-34.124519],[139.686145,-34.122917],[139.686806,-34.118946],[139.687023,-34.117713],[139.687381,-34.115675],[139.687835,-34.113091],[139.687904,-34.112467],[139.687922,-34.112014],[139.687894,-34.111564],[139.687803,-34.111129],[139.687469,-34.11003],[139.686775,-34.107837],[139.685992,-34.105332],[139.685615,-34.104163],[139.685068,-34.102465],[139.68464,-34.101083],[139.684617,-34.100998],[139.684448,-34.10037],[139.684389,-34.100004],[139.684375,-34.09969],[139.6844,-34.099217],[139.684448,-34.098777],[139.684644,-34.097897],[139.684845,-34.097058],[139.685006,-34.096305],[139.68503,-34.096218],[139.685254,-34.0954],[139.68539,-34.095008],[139.685571,-34.094508],[139.685856,-34.093938],[139.686111,-34.093484],[139.686853,-34.092362],[139.688402,-34.089987],[139.689904,-34.08767],[139.691445,-34.085327],[139.692423,-34.083811],[139.692928,-34.083033],[139.693125,-34.082667],[139.693335,-34.082152],[139.693454,-34.081756],[139.693532,-34.081316],[139.693566,-34.080672],[139.693492,-34.07996],[139.693297,-34.078314],[139.693173,-34.076807],[139.693028,-34.075344],[139.692735,-34.072414],[139.69269,-34.072052],[139.692606,-34.071699],[139.692519,-34.071398],[139.69218,-34.070619],[139.69068,-34.067224],[139.690498,-34.066813],[139.69036,-34.066448],[139.690295,-34.06625],[139.690233,-34.065999],[139.690198,-34.065678],[139.690191,-34.065286],[139.690259,-34.06473],[139.690427,-34.06408],[139.691155,-34.061125],[139.691584,-34.059451],[139.691952,-34.057973],[139.692164,-34.05713],[139.692274,-34.056604],[139.692309,-34.056303],[139.692328,-34.055953],[139.692294,-34.052667],[139.692284,-34.048758],[139.692326,-34.048105],[139.692412,-34.04766],[139.69249,-34.047362],[139.692883,-34.046125],[139.693115,-34.045342],[139.693338,-34.044603],[139.69409,-34.042282],[139.694556,-34.04074],[139.69502,-34.039277],[139.695324,-34.038291]]}},{"type":"Feature","properties":{"tier":"high"},"geometry":{"type":"LineString","coordinates":[[139.614123,-34.345605],[139.618672,-34.344876]]}},{"type":"Feature","properties":{"tier":"high"},"geometry":{"type":"LineString","coordinates":[[139.635649,-34.319728],[139.636444,-34.319392],[139.637011,-34.319199],[139.637522,-34.319053],[139.638159,-34.318913],[139.638736,-34.318836],[139.639194,-34.318791],[139.641027,-34.318761],[139.658611,-34.318671],[139.67283,-34.318698],[139.673948,-34.318607],[139.674682,-34.318484],[139.675474,-34.318301],[139.67623,-34.318062],[139.676896,-34.317797],[139.677333,-34.317604],[139.677722,-34.317405],[139.678703,-34.31686],[139.691331,-34.309713],[139.692137,-34.309266],[139.692928,-34.308861],[139.69379,-34.308501],[139.695705,-34.307756],[139.714574,-34.300409],[139.718736,-34.298736],[139.748589,-34.287163],[139.752313,-34.285708],[139.754787,-34.28475],[139.75521,-34.284604],[139.756232,-34.284324],[139.756931,-34.284105],[139.777051,-34.276409],[139.782588,-34.274292],[139.786461,-34.272811],[139.788807,-34.271914],[139.790565,-34.271242],[139.791222,-34.270993],[139.791706,-34.270833],[139.792909,-34.270493],[139.793655,-34.270259],[139.794555,-34.269926],[139.822235,-34.25927],[139.843835,-34.250984],[139.874951,-34.238783],[139.881042,-34.236367],[139.882439,-34.235709],[139.884188,-34.235003],[139.894254,-34.231001],[139.915587,-34.222527],[139.915973,-34.222372],[139.932973,-34.215613],[139.947936,-34.20966],[139.959134,-34.205227],[139.966326,-34.202388]]}},{"type":"Feature","properties":{"tier":"regional"},"geometry":{"type":"LineString","coordinates":[[139.608413,-34.355533],[139.608281,-34.354484],[139.608126,-34.353455],[139.607974,-34.352398],[139.607949,-34.352316]]}},{"type":"Feature","properties":{"tier":"arterial"},"geometry":{"type":"LineString","coordinates":[[139.985747,-34.181309],[139.985818,-34.18129],[139.985875,-34.181257],[139.986392,-34.180822],[139.986479,-34.180718],[139.986527,-34.180611],[139.986688,-34.180272],[139.986775,-34.180076]]}},{"type":"Feature","properties":{"tier":"arterial"},"geometry":{"type":"LineString","coordinates":[[139.983774,-34.176463],[139.983821,-34.176457],[139.983881,-34.176449],[139.983921,-34.176454],[139.983971,-34.176462],[139.984042,-34.176474],[139.984108,-34.17649],[139.984164,-34.176504],[139.984197,-34.176521],[139.984235,-34.176545],[139.98426,-34.176564],[139.984314,-34.176615],[139.984348,-34.17666],[139.984396,-34.176726],[139.984986,-34.17752]]}},{"type":"Feature","properties":{"tier":"arterial"},"geometry":{"type":"LineString","coordinates":[[139.984905,-34.177556],[139.984323,-34.17674],[139.984295,-34.176705],[139.984232,-34.176647],[139.984206,-34.176628],[139.984165,-34.176602],[139.984118,-34.176577],[139.984071,-34.176557],[139.984012,-34.176538],[139.983947,-34.176523],[139.983881,-34.176515],[139.98385,-34.176505],[139.983824,-34.176496],[139.983774,-34.176463]]}},{"type":"Feature","properties":{"tier":"arterial"},"geometry":{"type":"LineString","coordinates":[[139.985864,-34.181903],[139.98594,-34.181968],[139.986342,-34.182421],[139.986421,-34.182552],[139.986476,-34.182668],[139.986518,-34.182816],[139.986525,-34.182872],[139.986543,-34.183046],[139.986556,-34.183228],[139.986542,-34.183355],[139.98652,-34.183505],[139.986479,-34.183682],[139.986396,-34.183893],[139.98637,-34.183972],[139.98612,-34.184674],[139.986025,-34.184931],[139.985982,-34.185257],[139.986127,-34.18593],[139.986122,-34.186079],[139.9861,-34.1862],[139.986072,-34.186315],[139.986023,-34.186411],[139.985944,-34.186538],[139.985693,-34.186946],[139.985589,-34.187128],[139.985541,-34.187251],[139.985509,-34.187407],[139.985506,-34.18754],[139.985518,-34.187662],[139.985569,-34.187808],[139.985935,-34.188438],[139.985995,-34.188599],[139.986016,-34.188737],[139.98601,-34.18884],[139.986007,-34.188892],[139.985938,-34.189163],[139.985927,-34.189248],[139.985941,-34.189372],[139.985979,-34.189476],[139.986043,-34.189561],[139.986143,-34.18965],[139.986309,-34.18974],[139.987207,-34.190063],[139.987376,-34.190145],[139.987558,-34.190264],[139.98766,-34.190374],[139.987738,-34.190493],[139.987818,-34.190647],[139.987864,-34.190843],[139.987861,-34.190984],[139.987726,-34.192081],[139.987713,-34.19226],[139.987785,-34.192731]]}},{"type":"Feature","properties":{"tier":"regional"},"geometry":{"type":"LineString","coordinates":[[139.980074,-34.180578],[139.980435,-34.181241],[139.980805,-34.182027],[139.981135,-34.182713]]}},{"type":"Feature","properties":{"tier":"regional"},"geometry":{"type":"LineString","coordinates":[[139.607949,-34.352316],[139.607734,-34.352322],[139.607623,-34.352313],[139.607512,-34.352297],[139.607411,-34.352275],[139.607304,-34.352242],[139.607094,-34.352145],[139.605439,-34.351295],[139.605143,-34.35114],[139.604932,-34.35103],[139.604688,-34.350902],[139.603758,-34.350417]]}},{"type":"Feature","properties":{"tier":"regional"},"geometry":{"type":"LineString","coordinates":[[139.985533,-34.178909],[139.985477,-34.178892],[139.985228,-34.178909],[139.985196,-34.178911]]}},{"type":"Feature","properties":{"tier":"regional"},"geometry":{"type":"LineString","coordinates":[[139.985196,-34.178911],[139.985278,-34.178881],[139.98547,-34.178813],[139.985534,-34.17879]]}},{"type":"Feature","properties":{"tier":"arterial"},"geometry":{"type":"LineString","coordinates":[[139.985054,-34.181662],[139.985305,-34.181533]]}},{"type":"Feature","properties":{"tier":"arterial"},"geometry":{"type":"LineString","coordinates":[[139.985438,-34.181715],[139.985054,-34.181662]]}},{"type":"Feature","properties":{"tier":"arterial"},"geometry":{"type":"LineString","coordinates":[[139.978521,-34.183819],[139.97956,-34.183799],[139.979789,-34.183772],[139.979994,-34.183724],[139.980165,-34.183652],[139.980329,-34.18356],[139.980452,-34.183463],[139.981135,-34.182713],[139.981447,-34.182456],[139.981678,-34.18229],[139.981944,-34.182144],[139.98256,-34.181876],[139.983126,-34.181742],[139.983639,-34.18166],[139.984051,-34.181633],[139.984301,-34.181642]]}},{"type":"Feature","properties":{"tier":"arterial"},"geometry":{"type":"LineString","coordinates":[[139.961095,-34.171243],[139.961905,-34.171416],[139.962284,-34.171502],[139.962678,-34.171596],[139.963152,-34.171737],[139.963907,-34.171983],[139.966089,-34.172695],[139.96829,-34.173401],[139.969467,-34.173784],[139.970295,-34.174014],[139.970709,-34.174106],[139.97237,-34.174404],[139.976446,-34.17514]]}},{"type":"Feature","properties":{"tier":"arterial"},"geometry":{"type":"LineString","coordinates":[[139.938709,-34.1701],[139.940919,-34.170592],[139.941202,-34.170642],[139.941575,-34.170686],[139.942872,-34.170815],[139.943162,-34.170835],[139.943424,-34.170826],[139.943686,-34.170794],[139.945742,-34.170457],[139.945973,-34.170398],[139.94612,-34.17034],[139.946303,-34.170237],[139.947342,-34.169394],[139.947485,-34.169295],[139.947617,-34.169208],[139.947774,-34.169157],[139.947985,-34.169115],[139.948183,-34.169093]]}},{"type":"Feature","properties":{"tier":"arterial"},"geometry":{"type":"LineString","coordinates":[[139.985551,-34.177279],[139.985645,-34.17719],[139.985697,-34.177115],[139.985809,-34.176767],[139.985848,-34.176646],[139.985857,-34.176561],[139.985847,-34.176383],[139.985847,-34.176268],[139.985868,-34.176187],[139.985908,-34.176101],[139.986012,-34.17599],[139.986041,-34.175966],[139.986412,-34.175647]]}},{"type":"Feature","properties":{"tier":"arterial"},"geometry":{"type":"LineString","coordinates":[[139.985864,-34.181903],[139.985733,-34.181828],[139.985661,-34.181746]]}},{"type":"Feature","properties":{"tier":"arterial"},"geometry":{"type":"LineString","coordinates":[[139.98586,-34.181607],[139.985845,-34.181702],[139.985845,-34.181776],[139.985864,-34.181903]]}},{"type":"Feature","properties":{"tier":"regional"},"geometry":{"type":"LineString","coordinates":[[139.980074,-34.180578],[139.978341,-34.180953],[139.978041,-34.181013],[139.97734,-34.18117],[139.976367,-34.181379],[139.976007,-34.181407],[139.975683,-34.181419],[139.971844,-34.181338],[139.971478,-34.181306],[139.97107,-34.181243],[139.970809,-34.181191],[139.968753,-34.180513],[139.968504,-34.180402],[139.968322,-34.180299],[139.968114,-34.180149],[139.967642,-34.179794],[139.965912,-34.178499],[139.964657,-34.177598],[139.963863,-34.177024],[139.96367,-34.176857],[139.963362,-34.176565],[139.963034,-34.176222],[139.962919,-34.176077],[139.962716,-34.175715],[139.96255,-34.175405],[139.962434,-34.175215],[139.962283,-34.175011],[139.962123,-34.174813],[139.961705,-34.174317],[139.961617,-34.174192],[139.961557,-34.174064],[139.961527,-34.173912],[139.961513,-34.17372],[139.961513,-34.173591],[139.961528,-34.173465],[139.961573,-34.173351],[139.961703,-34.173153],[139.961752,-34.173074],[139.961775,-34.172996],[139.961781,-34.172915],[139.961757,-34.172836],[139.961702,-34.17275],[139.960996,-34.172058],[139.96094,-34.171981],[139.96091,-34.171894],[139.960908,-34.171802],[139.960931,-34.171706],[139.961095,-34.171243]]}},{"type":"Feature","properties":{"tier":"regional"},"geometry":{"type":"LineString","coordinates":[[139.65078,-34.121549],[139.653413,-34.113139],[139.65347,-34.112957],[139.653906,-34.111593],[139.655899,-34.105322],[139.656473,-34.103564],[139.656847,-34.102079],[139.656864,-34.100581],[139.656842,-34.098782],[139.656845,-34.09797],[139.656851,-34.095811],[139.656859,-34.092237],[139.65686,-34.091881],[139.656876,-34.089817],[139.656878,-34.085769],[139.65688,-34.084367],[139.656885,-34.080967],[139.656905,-34.079851],[139.656912,-34.079253],[139.656922,-34.077969],[139.656921,-34.07698],[139.656938,-34.07663],[139.656964,-34.076345],[139.657003,-34.076064],[139.657043,-34.075815],[139.657297,-34.074674],[139.657423,-34.074035],[139.657744,-34.072668],[139.658128,-34.070728],[139.658459,-34.06927],[139.658594,-34.068592],[139.658713,-34.067983],[139.658754,-34.06771],[139.658791,-34.067364],[139.658804,-34.067006],[139.658747,-34.056686],[139.6587,-34.050077],[139.658695,-34.046126],[139.658692,-34.04384],[139.658691,-34.043073],[139.658705,-34.042848],[139.65873,-34.042674],[139.659169,-34.039655],[139.659385,-34.038161],[139.659509,-34.037613],[139.659717,-34.037021],[139.66002,-34.03638],[139.662018,-34.032551]]}},{"type":"Feature","properties":{"tier":"regional"},"geometry":{"type":"LineString","coordinates":[[139.742723,-34.050303],[139.743117,-34.050437],[139.746294,-34.051179],[139.747335,-34.05141],[139.748344,-34.051543],[139.749268,-34.051614],[139.751078,-34.051676],[139.751749,-34.051723],[139.752781,-34.051925],[139.756062,-34.05281],[139.758098,-34.05336],[139.759373,-34.053718]]}},{"type":"Feature","properties":{"tier":"regional"},"geometry":{"type":"LineString","coordinates":[[139.759373,-34.053718],[139.771233,-34.05672],[139.772042,-34.056906]]}},{"type":"Feature","properties":{"tier":"high"},"geometry":{"type":"LineString","coordinates":[[139.603758,-34.350417],[139.605485,-34.348298],[139.60583,-34.347972],[139.606215,-34.347662],[139.606611,-34.347386],[139.607028,-34.347127],[139.607383,-34.346954],[139.607728,-34.346807],[139.608468,-34.346555],[139.608838,-34.346453],[139.609218,-34.346369],[139.610445,-34.346175],[139.612014,-34.345914],[139.614123,-34.345605]]}},{"type":"Feature","properties":{"tier":"high"},"geometry":{"type":"LineString","coordinates":[[139.53483,-34.372557],[139.540581,-34.370921],[139.546838,-34.369146],[139.550597,-34.368087],[139.554393,-34.367004]]}},{"type":"Feature","properties":{"tier":"high"},"geometry":{"type":"LineString","coordinates":[[139.986166,-34.193257],[139.986447,-34.193137],[139.986799,-34.193009],[139.987171,-34.192883],[139.987785,-34.192731],[139.988445,-34.192624],[139.989077,-34.19255],[139.990051,-34.19244],[139.990521,-34.192355],[139.990903,-34.192276],[139.991467,-34.192121],[139.992197,-34.19186],[139.992952,-34.191545],[139.997729,-34.1897]]}},{"type":"Feature","properties":{"tier":"arterial"},"geometry":{"type":"LineString","coordinates":[[139.976446,-34.17514],[139.978811,-34.175547],[139.980454,-34.175846],[139.980507,-34.175857]]}},{"type":"Feature","properties":{"tier":"arterial"},"geometry":{"type":"LineString","coordinates":[[139.980507,-34.175857],[139.980732,-34.175896],[139.981441,-34.17602],[139.981808,-34.176085],[139.982446,-34.176211],[139.983148,-34.176319],[139.983708,-34.176455],[139.983774,-34.176463]]}},{"type":"Feature","properties":{"tier":"arterial"},"geometry":{"type":"LineString","coordinates":[[139.948183,-34.169093],[139.949412,-34.168983],[139.94964,-34.168973],[139.949783,-34.168973],[139.949927,-34.168992],[139.950134,-34.16906],[139.950312,-34.169144],[139.950779,-34.169488],[139.950992,-34.169629],[139.95136,-34.169834],[139.951779,-34.170038],[139.951987,-34.170118],[139.95223,-34.170185],[139.952447,-34.170217],[139.953126,-34.170281],[139.953473,-34.17032],[139.953912,-34.170392],[139.954622,-34.170509],[139.955258,-34.170601],[139.956266,-34.170708],[139.956585,-34.17072],[139.956852,-34.170701],[139.957136,-34.17065],[139.958202,-34.170387],[139.958459,-34.170357],[139.95865,-34.170363],[139.958847,-34.170402],[139.958985,-34.170451],[139.959096,-34.17049],[139.960579,-34.171069],[139.961095,-34.171243]]}},{"type":"Feature","properties":{"tier":"arterial"},"geometry":{"type":"LineString","coordinates":[[139.931754,-34.170196],[139.934866,-34.170633],[139.935152,-34.170666],[139.935417,-34.170676],[139.935664,-34.170662],[139.935914,-34.170629],[139.936231,-34.170565],[139.937313,-34.1702],[139.937652,-34.17009],[139.93787,-34.170045],[139.93812,-34.170026],[139.938294,-34.170033],[139.938489,-34.170056],[139.938709,-34.1701]]}},{"type":"Feature","properties":{"tier":"arterial"},"geometry":{"type":"LineString","coordinates":[[139.762118,-34.02708],[139.762098,-34.027149],[139.76203,-34.027386],[139.761883,-34.027903],[139.761897,-34.028301],[139.762087,-34.028774],[139.762259,-34.029058],[139.763206,-34.030613],[139.763957,-34.031774]]}},{"type":"Feature","properties":{"tier":"arterial"},"geometry":{"type":"LineString","coordinates":[[139.764951,-34.033446],[139.765387,-34.034107],[139.76552,-34.034737],[139.765656,-34.036218],[139.765806,-34.037541],[139.765898,-34.039495],[139.765905,-34.039553],[139.765931,-34.03977],[139.766042,-34.039965],[139.766153,-34.040197],[139.766689,-34.040778],[139.76688,-34.041067],[139.767427,-34.043464],[139.767508,-34.04371],[139.767588,-34.043898],[139.767798,-34.044278],[139.768711,-34.045861],[139.769147,-34.046526],[139.769254,-34.046929],[139.7695,-34.050118],[139.769536,-34.050556],[139.769605,-34.050917],[139.77177,-34.055854],[139.771996,-34.056364],[139.772042,-34.056906],[139.772086,-34.062597],[139.772001,-34.062864],[139.771832,-34.063143],[139.770437,-34.064216],[139.770197,-34.064441],[139.769912,-34.064695],[139.769837,-34.064962],[139.769865,-34.065329],[139.770092,-34.065643],[139.772261,-34.066989],[139.772647,-34.067231],[139.772837,-34.067485],[139.773133,-34.068179],[139.773269,-34.068529],[139.773545,-34.068854],[139.773953,-34.069049],[139.775373,-34.06942],[139.783612,-34.071705],[139.784248,-34.071811],[139.784559,-34.071838],[139.784967,-34.071866],[139.785624,-34.071833],[139.786115,-34.071752],[139.786599,-34.07165],[139.794724,-34.068996],[139.795654,-34.06873],[139.796401,-34.068606],[139.797306,-34.068516],[139.798079,-34.068516],[139.805863,-34.06879],[139.815091,-34.069122],[139.815931,-34.069156],[139.816518,-34.069227],[139.829457,-34.071597],[139.830218,-34.071669],[139.83097,-34.071651],[139.832807,-34.071438],[139.833587,-34.07142],[139.834421,-34.071455],[139.835179,-34.071562],[139.835875,-34.07174],[139.836591,-34.072007],[139.837325,-34.072344],[139.83797,-34.072737],[139.838515,-34.073215],[139.838927,-34.073641],[139.839256,-34.074085],[139.84011,-34.075396],[139.840458,-34.075898],[139.840937,-34.076444],[139.841362,-34.076835],[139.849999,-34.08341],[139.850693,-34.083926],[139.851204,-34.084389],[139.851787,-34.08498],[139.852148,-34.085532],[139.854469,-34.089204],[139.856336,-34.092236],[139.856726,-34.092818],[139.857212,-34.093487],[139.857745,-34.094061],[139.861701,-34.09794],[139.863627,-34.099882],[139.864084,-34.100315]]}},{"type":"Feature","properties":{"tier":"arterial"},"geometry":{"type":"LineString","coordinates":[[139.763957,-34.031774],[139.764951,-34.033446]]}},{"type":"Feature","properties":{"tier":"arterial"},"geometry":{"type":"LineString","coordinates":[[140.00002,-34.476477],[139.917737,-34.476364],[139.917374,-34.476369],[139.915727,-34.476394],[139.914133,-34.476655]]}},{"type":"Feature","properties":{"tier":"high"},"geometry":{"type":"LineString","coordinates":[[140.00002,-34.188847],[139.999467,-34.189061],[139.999025,-34.189199]]}},{"type":"Feature","properties":{"tier":"arterial"},"geometry":{"type":"LineString","coordinates":[[139.984986,-34.17752],[139.984905,-34.177556]]}},{"type":"Feature","properties":{"tier":"regional"},"geometry":{"type":"LineString","coordinates":[[139.702635,-33.99998],[139.702635,-33.999982],[139.702471,-34.000646],[139.700462,-34.006855]]}},{"type":"Feature","properties":{"tier":"regional"},"geometry":{"type":"LineString","coordinates":[[139.608613,-34.356836],[139.608877,-34.35878],[139.60893,-34.35914],[139.609291,-34.361581],[139.609435,-34.362434],[139.60952,-34.363332],[139.609562,-34.364085],[139.609561,-34.364112],[139.609545,-34.365208],[139.609472,-34.367131],[139.609472,-34.368073],[139.609674,-34.369312],[139.609809,-34.370747],[139.609824,-34.371782],[139.609568,-34.373933],[139.608985,-34.37782],[139.608404,-34.381709],[139.607822,-34.385493],[139.607127,-34.389366],[139.606504,-34.392132],[139.60619,-34.393138],[139.605578,-34.394366],[139.604559,-34.396061],[139.601952,-34.399815],[139.599262,-34.403537],[139.59861,-34.404588],[139.598363,-34.405313],[139.597962,-34.407875],[139.597442,-34.41139],[139.597109,-34.413585],[139.597138,-34.415732],[139.597426,-34.417767],[139.597607,-34.419419],[139.597502,-34.420531],[139.596429,-34.4264],[139.596322,-34.426958],[139.596104,-34.428105],[139.595201,-34.43285],[139.595044,-34.433676],[139.593399,-34.438533],[139.591666,-34.44365],[139.590792,-34.447536],[139.590141,-34.451515],[139.589334,-34.456695],[139.589001,-34.4588],[139.58856,-34.459941],[139.586707,-34.462843],[139.583834,-34.467285],[139.582406,-34.469583],[139.582073,-34.470644],[139.581574,-34.474137],[139.58118,-34.476759],[139.581144,-34.477002],[139.580941,-34.477543],[139.580245,-34.478721],[139.578031,-34.482196],[139.576127,-34.485229],[139.574657,-34.488074],[139.57454,-34.488299],[139.569829,-34.495735],[139.567842,-34.498382]]}},{"type":"Feature","properties":{"tier":"regional"},"geometry":{"type":"LineString","coordinates":[[139.91651,-34.168747],[139.916393,-34.169028],[139.916392,-34.169097],[139.91639,-34.169231],[139.916409,-34.169445],[139.916464,-34.16975],[139.916544,-34.169976],[139.917134,-34.171225],[139.917229,-34.171528],[139.917296,-34.171799],[139.917358,-34.172118],[139.917377,-34.172378],[139.917395,-34.172901],[139.91737,-34.174981],[139.917303,-34.177153],[139.917259,-34.178536],[139.917221,-34.179696],[139.917186,-34.1808],[139.917079,-34.184412],[139.917067,-34.184795],[139.916966,-34.188022],[139.916869,-34.190015],[139.916843,-34.190826],[139.916658,-34.19675],[139.916462,-34.20299],[139.916459,-34.203082],[139.916217,-34.210787],[139.91599,-34.218238],[139.91587,-34.222178],[139.915884,-34.222232],[139.915908,-34.222276],[139.915973,-34.222372]]}},{"type":"Feature","properties":{"tier":"high"},"geometry":{"type":"LineString","coordinates":[[139.595946,-34.3555],[139.596679,-34.355299],[139.596854,-34.355251],[139.598756,-34.35473],[139.600269,-34.354129],[139.601459,-34.353236]]}},{"type":"Feature","properties":{"tier":"high"},"geometry":{"type":"LineString","coordinates":[[139.593105,-34.356257],[139.595946,-34.3555]]}},{"type":"Feature","properties":{"tier":"high"},"geometry":{"type":"LineString","coordinates":[[139.554393,-34.367004],[139.556568,-34.366387],[139.573216,-34.361666],[139.575847,-34.36092],[139.593105,-34.356257]]}},{"type":"Feature","properties":{"tier":"high"},"geometry":{"type":"LineString","coordinates":[[139.999025,-34.189199],[139.999423,-34.188997],[140.00002,-34.188758]]}},{"type":"Feature","properties":{"tier":"arterial"},"geometry":{"type":"LineString","coordinates":[[139.668115,-34.034908],[139.669027,-34.035508],[139.669934,-34.036093],[139.670249,-34.03631],[139.67058,-34.036531],[139.670695,-34.036624],[139.670761,-34.036709],[139.670813,-34.036817],[139.670859,-34.036994],[139.670868,-34.03716],[139.670861,-34.037339],[139.670847,-34.037524],[139.670848,-34.037673],[139.670924,-34.037867],[139.671064,-34.037999],[139.671529,-34.038234],[139.671688,-34.038315],[139.671731,-34.038337]]}},{"type":"Feature","properties":{"tier":"arterial"},"geometry":{"type":"LineString","coordinates":[[139.671731,-34.038337],[139.67185,-34.038378],[139.672092,-34.038434],[139.672153,-34.038448]]}},{"type":"Feature","properties":{"tier":"arterial"},"geometry":{"type":"LineString","coordinates":[[139.987069,-34.179489],[139.987042,-34.179457],[139.986978,-34.179431],[139.986478,-34.17927],[139.986086,-34.179144],[139.985781,-34.179032],[139.985721,-34.17896]]}},{"type":"Feature","properties":{"tier":"arterial"},"geometry":{"type":"LineString","coordinates":[[139.985797,-34.178893],[139.985847,-34.178951],[139.985996,-34.179008],[139.98613,-34.179049],[139.986336,-34.179112],[139.986521,-34.179169],[139.987032,-34.179353],[139.987128,-34.179405],[139.987151,-34.17947]]}},{"type":"Feature","properties":{"tier":"arterial"},"geometry":{"type":"LineString","coordinates":[[139.49998,-34.087869],[139.502662,-34.08719],[139.555578,-34.073746],[139.571825,-34.069632],[139.572222,-34.069515],[139.572569,-34.069409],[139.575476,-34.068346],[139.575908,-34.068172],[139.576466,-34.067899],[139.576932,-34.067674],[139.578071,-34.067124],[139.578635,-34.066851],[139.579144,-34.066642],[139.579768,-34.06645],[139.584972,-34.065226],[139.585475,-34.065112],[139.587835,-34.064558],[139.591046,-34.063787],[139.6205,-34.056801],[139.626498,-34.05534],[139.628419,-34.05489],[139.628836,-34.054774],[139.629142,-34.054685],[139.629538,-34.054541],[139.629807,-34.054431],[139.6315,-34.053486],[139.634041,-34.051889],[139.635249,-34.05113],[139.639047,-34.048768],[139.643658,-34.045918],[139.643949,-34.045748],[139.644242,-34.045594],[139.64456,-34.045474],[139.64486,-34.04539],[139.646099,-34.045105],[139.646902,-34.04492],[139.647835,-34.044694],[139.648248,-34.044564],[139.6485,-34.044455],[139.648731,-34.044318],[139.648782,-34.044286],[139.648911,-34.044204],[139.649147,-34.044022],[139.651382,-34.041719],[139.653937,-34.039087],[139.654995,-34.037997],[139.655385,-34.037595],[139.655657,-34.037315],[139.659387,-34.033501],[139.659772,-34.033233],[139.660142,-34.033046],[139.660903,-34.032801],[139.662018,-34.032551]]}},{"type":"Feature","properties":{"tier":"arterial"},"geometry":{"type":"LineString","coordinates":[[139.864084,-34.100315],[139.875125,-34.110841],[139.882812,-34.118174],[139.884449,-34.119717],[139.884712,-34.119966],[139.895363,-34.130106],[139.901542,-34.135972],[139.907511,-34.141637],[139.91089,-34.144861],[139.911053,-34.145024],[139.911238,-34.145251],[139.911395,-34.145461],[139.911512,-34.145667],[139.911623,-34.145894],[139.911716,-34.146149],[139.9118,-34.146434],[139.911843,-34.146709],[139.911859,-34.14692],[139.911852,-34.147222],[139.911824,-34.14749],[139.911753,-34.147782],[139.911673,-34.148042],[139.911571,-34.148276],[139.911496,-34.148414],[139.911271,-34.14875],[139.910809,-34.149546],[139.910632,-34.149837],[139.910518,-34.15007],[139.910419,-34.150353],[139.910371,-34.150598],[139.910324,-34.150908],[139.910313,-34.151195],[139.91036,-34.153137],[139.910382,-34.153499],[139.910413,-34.153705],[139.910513,-34.154137],[139.91067,-34.154563],[139.9112,-34.155814],[139.911385,-34.156173],[139.911733,-34.156953],[139.911878,-34.157398],[139.911933,-34.157894],[139.9119,-34.158635],[139.911843,-34.159464],[139.911833,-34.160256],[139.911936,-34.160742],[139.912144,-34.161257],[139.913792,-34.164629],[139.915016,-34.166974],[139.915343,-34.167603],[139.915512,-34.167926],[139.91576,-34.168261],[139.915967,-34.168455],[139.916223,-34.16862],[139.91651,-34.168747]]}},{"type":"Feature","properties":{"tier":"high"},"geometry":{"type":"LineString","coordinates":[[139.997729,-34.1897],[139.999025,-34.189199]]}},{"type":"Feature","properties":{"tier":"high"},"geometry":{"type":"LineString","coordinates":[[139.970489,-34.200745],[139.971442,-34.200375],[139.971582,-34.200314],[139.973706,-34.199477],[139.978964,-34.197392],[139.979466,-34.197179],[139.979926,-34.196953],[139.980364,-34.196698],[139.98082,-34.196376],[139.981785,-34.195585],[139.982172,-34.195283],[139.982403,-34.195126],[139.982564,-34.195015],[139.982951,-34.194791],[139.983093,-34.194708],[139.983858,-34.194347],[139.986166,-34.193257]]}},{"type":"Feature","properties":{"tier":"high"},"geometry":{"type":"LineString","coordinates":[[139.966326,-34.202388],[139.970489,-34.200745]]}},{"type":"Feature","properties":{"tier":"high"},"geometry":{"type":"LineString","coordinates":[[139.618672,-34.344876],[139.619955,-34.344671],[139.62048,-34.344571],[139.620788,-34.344491],[139.621281,-34.344335],[139.621681,-34.344186],[139.622061,-34.344012],[139.622453,-34.343801],[139.622844,-34.343552],[139.623202,-34.343293],[139.623532,-34.343012],[139.62397,-34.342621],[139.624955,-34.341579]]}},{"type":"Feature","properties":{"tier":"arterial"},"geometry":{"type":"LineString","coordinates":[[139.985648,-34.181277],[139.9857,-34.181289],[139.985747,-34.181309]]}},{"type":"Feature","properties":{"tier":"high"},"geometry":{"type":"LineString","coordinates":[[139.49998,-34.38253],[139.533768,-34.372862],[139.53483,-34.372557]]}},{"type":"Feature","properties":{"tier":"arterial"},"geometry":{"type":"LineString","coordinates":[[139.985534,-34.17879],[139.985558,-34.178764]]}},{"type":"Feature","properties":{"tier":"arterial"},"geometry":{"type":"LineString","coordinates":[[139.999387,-34.187374],[139.999755,-34.187638],[139.99999,-34.187813],[140.00002,-34.187841]]}},{"type":"Feature","properties":{"tier":"high"},"geometry":{"type":"LineString","coordinates":[[139.627279,-34.333537],[139.627032,-34.331505],[139.627015,-34.331078],[139.627033,-34.330698],[139.6271,-34.33021],[139.627185,-34.329801],[139.627446,-34.329001]]}},{"type":"Feature","properties":{"tier":"high"},"geometry":{"type":"LineString","coordinates":[[139.602612,-34.351832],[139.603758,-34.350417]]}},{"type":"Feature","properties":{"tier":"high"},"geometry":{"type":"LineString","coordinates":[[139.627446,-34.329001],[139.627536,-34.32877],[139.627633,-34.328561],[139.627781,-34.328278],[139.627922,-34.328057],[139.628132,-34.327719],[139.628404,-34.327344],[139.629025,-34.326588],[139.630287,-34.325057],[139.632017,-34.322966]]}},{"type":"Feature","properties":{"tier":"high"},"geometry":{"type":"LineString","coordinates":[[139.632017,-34.322966],[139.632706,-34.322133],[139.63339,-34.32134],[139.63368,-34.321044],[139.633911,-34.320848],[139.63413,-34.320681],[139.63488,-34.32016],[139.635649,-34.319728]]}},{"type":"Feature","properties":{"tier":"arterial"},"geometry":{"type":"LineString","coordinates":[[139.985302,-34.178048],[139.985573,-34.178495],[139.985646,-34.178657],[139.985675,-34.17873]]}},{"type":"Feature","properties":{"tier":"arterial"},"geometry":{"type":"LineString","coordinates":[[139.985558,-34.178764],[139.985555,-34.178697],[139.985555,-34.178688],[139.985531,-34.178581],[139.985229,-34.178084]]}},{"type":"Feature","properties":{"tier":"regional"},"geometry":{"type":"LineString","coordinates":[[139.695324,-34.038291],[139.695373,-34.038288],[139.698586,-34.038149],[139.699945,-34.038077],[139.701288,-34.037765],[139.711377,-34.0347],[139.712192,-34.034525],[139.713042,-34.034448],[139.713875,-34.034521],[139.714071,-34.034538],[139.714851,-34.034692],[139.715618,-34.034963],[139.716347,-34.03533],[139.724602,-34.040118],[139.725716,-34.040751],[139.728726,-34.042463],[139.74167,-34.049825],[139.742378,-34.050165],[139.742723,-34.050303]]}},{"type":"Feature","properties":{"tier":"arterial"},"geometry":{"type":"LineString","coordinates":[[139.699772,-34.006859],[139.700462,-34.006855],[139.702204,-34.006833],[139.702985,-34.006863],[139.70368,-34.006947],[139.704916,-34.007196],[139.70547,-34.007331],[139.707664,-34.007865],[139.716396,-34.009962],[139.718359,-34.010489],[139.733701,-34.015754],[139.73398,-34.01584],[139.734335,-34.015932],[139.741474,-34.017524],[139.742782,-34.017849],[139.744393,-34.018422],[139.746997,-34.01941],[139.750898,-34.02081],[139.751494,-34.021],[139.751947,-34.0211],[139.752376,-34.021165],[139.752811,-34.021209],[139.753264,-34.021225],[139.757415,-34.021022],[139.757995,-34.021004],[139.758736,-34.021004],[139.760817,-34.02109],[139.764011,-34.021246]]}},{"type":"Feature","properties":{"tier":"arterial"},"geometry":{"type":"LineString","coordinates":[[139.970633,-34.098598],[139.970477,-34.09843]]}},{"type":"Feature","properties":{"tier":"arterial"},"geometry":{"type":"LineString","coordinates":[[139.986775,-34.180076],[139.986879,-34.180112]]}},{"type":"Feature","properties":{"tier":"arterial"},"geometry":{"type":"LineString","coordinates":[[139.986775,-34.180076],[139.987026,-34.179586],[139.987069,-34.179489]]}},{"type":"Feature","properties":{"tier":"arterial"},"geometry":{"type":"LineString","coordinates":[[139.984301,-34.181642],[139.984957,-34.181662]]}},{"type":"Feature","properties":{"tier":"arterial"},"geometry":{"type":"LineString","coordinates":[[139.985661,-34.181746],[139.985584,-34.181753],[139.985508,-34.181742],[139.985438,-34.181715]]}},{"type":"Feature","properties":{"tier":"arterial"},"geometry":{"type":"LineString","coordinates":[[139.985747,-34.181309],[139.985811,-34.181353],[139.985856,-34.18141],[139.985881,-34.181476],[139.985882,-34.181543],[139.98586,-34.181607]]}},{"type":"Feature","properties":{"tier":"arterial"},"geometry":{"type":"LineString","coordinates":[[139.985764,-34.178765],[139.985789,-34.178793],[139.985803,-34.178825],[139.985806,-34.178859],[139.985797,-34.178893]]}},{"type":"Feature","properties":{"tier":"arterial"},"geometry":{"type":"LineString","coordinates":[[139.985558,-34.178764],[139.985592,-34.178744],[139.985632,-34.178732],[139.985675,-34.17873],[139.985707,-34.178736],[139.985737,-34.178748],[139.985764,-34.178765]]}},{"type":"Feature","properties":{"tier":"arterial"},"geometry":{"type":"LineString","coordinates":[[139.985229,-34.178084],[139.984905,-34.177556]]}},{"type":"Feature","properties":{"tier":"arterial"},"geometry":{"type":"LineString","coordinates":[[139.984986,-34.17752],[139.985302,-34.178048]]}},{"type":"Feature","properties":{"tier":"high"},"geometry":{"type":"LineString","coordinates":[[139.601459,-34.353236],[139.602612,-34.351832]]}},{"type":"Feature","properties":{"tier":"high"},"geometry":{"type":"LineString","coordinates":[[139.624955,-34.341579],[139.626028,-34.340476],[139.626533,-34.339922],[139.627048,-34.339149],[139.627157,-34.338915],[139.627374,-34.338446],[139.627585,-34.337576],[139.627627,-34.336828],[139.627564,-34.335886],[139.627279,-34.333537]]}},{"type":"Feature","properties":{"tier":"regional"},"geometry":{"type":"LineString","coordinates":[[139.633948,-34.18318],[139.637204,-34.174302],[139.63799,-34.172084],[139.63843,-34.170966],[139.638709,-34.17042],[139.63898,-34.170046],[139.640031,-34.16894],[139.641375,-34.167498],[139.641823,-34.166923],[139.642418,-34.165922],[139.643263,-34.164471],[139.643387,-34.164091],[139.643411,-34.163742],[139.643411,-34.163543],[139.643387,-34.163334],[139.643269,-34.162859],[139.642898,-34.161674],[139.642805,-34.16122],[139.642732,-34.160649],[139.642733,-34.159312]]}},{"type":"Feature","properties":{"tier":"regional"},"geometry":{"type":"LineString","coordinates":[[139.567842,-34.498382],[139.566528,-34.50002]]}},{"type":"Feature","properties":{"tier":"regional"},"geometry":{"type":"LineString","coordinates":[[139.617491,-34.245357],[139.617616,-34.244796]]}},{"type":"Feature","properties":{"tier":"regional"},"geometry":{"type":"LineString","coordinates":[[139.617616,-34.244796],[139.617943,-34.243298],[139.618925,-34.23912],[139.620963,-34.23143],[139.625072,-34.215654]]}},{"type":"Feature","properties":{"tier":"regional"},"geometry":{"type":"LineString","coordinates":[[139.625072,-34.215654],[139.625129,-34.215373],[139.625198,-34.215096]]}},{"type":"Feature","properties":{"tier":"regional"},"geometry":{"type":"LineString","coordinates":[[139.619555,-34.28277],[139.619418,-34.273859],[139.619333,-34.270659],[139.619326,-34.270419],[139.6193,-34.269533],[139.619257,-34.268766],[139.619206,-34.268519],[139.619064,-34.26783],[139.618624,-34.266292],[139.618313,-34.265157],[139.615403,-34.254922],[139.615336,-34.254414],[139.615336,-34.254024],[139.615395,-34.253585],[139.615497,-34.253133],[139.61598,-34.251306],[139.617088,-34.246959],[139.617491,-34.245357]]}},{"type":"Feature","properties":{"tier":"regional"},"geometry":{"type":"LineString","coordinates":[[139.633746,-34.18373],[139.633948,-34.18318]]}},{"type":"Feature","properties":{"tier":"regional"},"geometry":{"type":"LineString","coordinates":[[139.625198,-34.215096],[139.625882,-34.21205],[139.626999,-34.207009],[139.629439,-34.197184],[139.629777,-34.195866],[139.62989,-34.195214],[139.629925,-34.194555],[139.630032,-34.193317],[139.630222,-34.192618],[139.630507,-34.191975],[139.631156,-34.190741],[139.631365,-34.190302],[139.632365,-34.187635],[139.633746,-34.18373]]}},{"type":"Feature","properties":{"tier":"regional"},"geometry":{"type":"LineString","coordinates":[[139.64273,-34.158738],[139.642682,-34.147923],[139.642711,-34.147337],[139.642748,-34.146969],[139.642816,-34.146661],[139.6449,-34.140133],[139.65078,-34.121549]]}},{"type":"Feature","properties":{"tier":"regional"},"geometry":{"type":"LineString","coordinates":[[139.642733,-34.159312],[139.64273,-34.158738]]}},{"type":"Feature","properties":{"tier":"arterial"},"geometry":{"type":"LineString","coordinates":[[139.762259,-34.026584],[139.762118,-34.02708]]}},{"type":"Feature","properties":{"tier":"arterial"},"geometry":{"type":"LineString","coordinates":[[139.762764,-34.024502],[139.762717,-34.024639],[139.762635,-34.02503]]}},{"type":"Feature","properties":{"tier":"arterial"},"geometry":{"type":"LineString","coordinates":[[139.674275,-34.038763],[139.674748,-34.038846]]}},{"type":"Feature","properties":{"tier":"arterial"},"geometry":{"type":"LineString","coordinates":[[139.672153,-34.038448],[139.672577,-34.038514]]}},{"type":"Feature","properties":{"tier":"arterial"},"geometry":{"type":"LineString","coordinates":[[139.674794,-34.02695],[139.675918,-34.026081],[139.676287,-34.025795],[139.677213,-34.02508],[139.680031,-34.022867],[139.680372,-34.0226],[139.680563,-34.02245],[139.682473,-34.02096],[139.68573,-34.018419],[139.687052,-34.017339],[139.688136,-34.016493],[139.688185,-34.016455],[139.689832,-34.015169],[139.690811,-34.014404],[139.692127,-34.01298],[139.696695,-34.007933],[139.696879,-34.00773],[139.697381,-34.007342],[139.697874,-34.007104],[139.69838,-34.006944],[139.698963,-34.006863],[139.699534,-34.00686]]}},{"type":"Feature","properties":{"tier":"arterial"},"geometry":{"type":"LineString","coordinates":[[139.699534,-34.00686],[139.699772,-34.006859]]}},{"type":"Feature","properties":{"tier":"arterial"},"geometry":{"type":"LineString","coordinates":[[139.987658,-34.17453],[139.987934,-34.174289],[139.98809,-34.174153],[139.988199,-34.174041],[139.988252,-34.173945],[139.988279,-34.173871],[139.988281,-34.173793],[139.988266,-34.173717],[139.98812,-34.173423],[139.987921,-34.173051],[139.987706,-34.172633],[139.987661,-34.172511],[139.987646,-34.172382],[139.987646,-34.172227],[139.987694,-34.172054],[139.987795,-34.171808],[139.987912,-34.171566],[139.988002,-34.171405],[139.988103,-34.171263],[139.988266,-34.17108]]}},{"type":"Feature","properties":{"tier":"arterial"},"geometry":{"type":"LineString","coordinates":[[139.988266,-34.17108],[139.988364,-34.170994]]}},{"type":"Feature","properties":{"tier":"arterial"},"geometry":{"type":"LineString","coordinates":[[139.98541,-34.181313],[139.985492,-34.181288]]}},{"type":"Feature","properties":{"tier":"arterial"},"geometry":{"type":"LineString","coordinates":[[139.985492,-34.181288],[139.985569,-34.181273],[139.985648,-34.181277]]}},{"type":"Feature","properties":{"tier":"arterial"},"geometry":{"type":"LineString","coordinates":[[139.98586,-34.181607],[139.985813,-34.18167],[139.985744,-34.181718],[139.985661,-34.181746]]}},{"type":"Feature","properties":{"tier":"arterial"},"geometry":{"type":"LineString","coordinates":[[139.984957,-34.181662],[139.985054,-34.181662]]}},{"type":"Feature","properties":{"tier":"arterial"},"geometry":{"type":"LineString","coordinates":[[139.985313,-34.181452],[139.985341,-34.181396],[139.985384,-34.181347],[139.98541,-34.181313]]}},{"type":"Feature","properties":{"tier":"arterial"},"geometry":{"type":"LineString","coordinates":[[139.985305,-34.181533],[139.985305,-34.181492],[139.985313,-34.181452]]}},{"type":"Feature","properties":{"tier":"arterial"},"geometry":{"type":"LineString","coordinates":[[139.663826,-34.1808],[139.664286,-34.179731],[139.664396,-34.179459],[139.664515,-34.179048],[139.664615,-34.178643],[139.664703,-34.178029],[139.66493,-34.175291],[139.665056,-34.173874],[139.665162,-34.172571],[139.665208,-34.171898],[139.665208,-34.1714],[139.665177,-34.170848],[139.664905,-34.169754],[139.664847,-34.169189],[139.664798,-34.168058],[139.664785,-34.167719],[139.66474,-34.167493],[139.664698,-34.167351],[139.664608,-34.167146],[139.664487,-34.166981],[139.663512,-34.165922],[139.663338,-34.165739],[139.663175,-34.165514],[139.663084,-34.165351],[139.663016,-34.165162],[139.662716,-34.163908],[139.662625,-34.16347],[139.662613,-34.163324],[139.662613,-34.163161],[139.662629,-34.162964],[139.662795,-34.162079],[139.663074,-34.160665],[139.66339,-34.159542],[139.663449,-34.159405],[139.663541,-34.159238],[139.663569,-34.15919]]}},{"type":"Feature","properties":{"tier":"arterial"},"geometry":{"type":"LineString","coordinates":[[139.667764,-34.025985],[139.66765,-34.025891],[139.667238,-34.02545]]}},{"type":"Feature","properties":{"tier":"arterial"},"geometry":{"type":"LineString","coordinates":[[139.977361,-34.186373],[139.977215,-34.185425],[139.977162,-34.185145],[139.977138,-34.184843],[139.977144,-34.184747],[139.977192,-34.184612],[139.977255,-34.184473],[139.977341,-34.184325],[139.97745,-34.184188],[139.977541,-34.184106],[139.977645,-34.184023],[139.977741,-34.183969],[139.977845,-34.183934],[139.978069,-34.18386],[139.9783,-34.183829],[139.978521,-34.183819]]}},{"type":"Feature","properties":{"tier":"arterial"},"geometry":{"type":"LineString","coordinates":[[139.976932,-34.187613],[139.977286,-34.186904],[139.97733,-34.186785],[139.977357,-34.186639],[139.977364,-34.186495],[139.977361,-34.186373]]}}]}
