{"type":"FeatureCollection","features":[{"type":"Feature","properties":{"tier":"arterial"},"geometry":{"type":"LineString","coordinates":[[139.570199,-31.602797],[139.57008,-31.602969],[139.56935,-31.603879],[139.568021,-31.605576],[139.561988,-31.613133],[139.559011,-31.616906],[139.5565,-31.620029],[139.548696,-31.629812],[139.547243,-31.631612],[139.54256,-31.637413],[139.542214,-31.637871],[139.541836,-31.638371],[139.541576,-31.638763],[139.541341,-31.639166],[139.540703,-31.640365],[139.538925,-31.643928],[139.538801,-31.644274],[139.538696,-31.644808],[139.538673,-31.645172],[139.538673,-31.645526],[139.538729,-31.646036],[139.538812,-31.646366],[139.538929,-31.646686],[139.53907,-31.646996],[139.539241,-31.647294],[139.539421,-31.647579],[139.542284,-31.651675],[139.5423,-31.651697],[139.543892,-31.653963],[139.544382,-31.654625],[139.546585,-31.657746],[139.546974,-31.658274],[139.547194,-31.658573],[139.547549,-31.659272],[139.547764,-31.659784],[139.54795,-31.660436],[139.548044,-31.660876],[139.548074,-31.661407],[139.548066,-31.661732],[139.548021,-31.662289],[139.547849,-31.663066],[139.547587,-31.663869],[139.546652,-31.666515],[139.54538,-31.670382],[139.544668,-31.672392],[139.543929,-31.674612],[139.541797,-31.680881],[139.541473,-31.681786],[139.540241,-31.685444],[139.539038,-31.688924],[139.53876,-31.689785],[139.53782,-31.692528],[139.536407,-31.69675],[139.534669,-31.701826],[139.534376,-31.702728],[139.533971,-31.703842],[139.533781,-31.704283],[139.533467,-31.704924],[139.531466,-31.708729],[139.52922,-31.712957],[139.528462,-31.714354],[139.527959,-31.715344],[139.527254,-31.716677],[139.526609,-31.717844],[139.525549,-31.71984],[139.525229,-31.720406],[139.524867,-31.721114],[139.523193,-31.724319],[139.520201,-31.729976],[139.519965,-31.730404],[139.519709,-31.730822],[139.519301,-31.731437],[139.518017,-31.733267],[139.516605,-31.735231],[139.512542,-31.740959],[139.508237,-31.747078],[139.507554,-31.748015],[139.502786,-31.75474],[139.501955,-31.755943],[139.49998,-31.758712]]}},{"type":"Feature","properties":{"tier":"arterial"},"geometry":{"type":"LineString","coordinates":[[139.570199,-31.602797],[139.570135,-31.602683],[139.569716,-31.602052],[139.568834,-31.600613],[139.564931,-31.594139],[139.563182,-31.591199],[139.561826,-31.588993],[139.556936,-31.580856],[139.556742,-31.580521],[139.556571,-31.580184],[139.556434,-31.579839],[139.556382,-31.579666],[139.556314,-31.579305],[139.55629,-31.578923],[139.556297,-31.578531],[139.556419,-31.577715],[139.55775,-31.570911],[139.558371,-31.567437],[139.558615,-31.566308],[139.559025,-31.564025],[139.559772,-31.560172],[139.559831,-31.559507],[139.559914,-31.55886],[139.55993,-31.558452],[139.559913,-31.558262],[139.559829,-31.557881],[139.559697,-31.557513],[139.558909,-31.55556],[139.55704,-31.550731],[139.553615,-31.541786],[139.551728,-31.536909],[139.551617,-31.536558],[139.551546,-31.536224],[139.551516,-31.535915],[139.551516,-31.535617],[139.551589,-31.535153],[139.551673,-31.534838],[139.551797,-31.534511],[139.553304,-31.531528],[139.554119,-31.529858],[139.555698,-31.526477],[139.556377,-31.525083],[139.557578,-31.522512],[139.559727,-31.517983],[139.559798,-31.517796],[139.559847,-31.517607],[139.55987,-31.517424],[139.559859,-31.517072],[139.559816,-31.516906],[139.559696,-31.516584],[139.559609,-31.516428],[139.55928,-31.515946],[139.558481,-31.515009],[139.558197,-31.514726],[139.557887,-31.514481],[139.557725,-31.514377],[139.557384,-31.514198],[139.556361,-31.513774],[139.555221,-31.513265],[139.554004,-31.512752],[139.552596,-31.512206],[139.551052,-31.51167],[139.550541,-31.511471],[139.550375,-31.511393],[139.550061,-31.511211],[139.549441,-31.510796],[139.548836,-31.510366],[139.54808,-31.509778],[139.547638,-31.509393],[139.547221,-31.508987],[139.547096,-31.508844],[139.546874,-31.508529],[139.546614,-31.508022],[139.546264,-31.507119],[139.546143,-31.506743],[139.545949,-31.505969],[139.54542,-31.503102],[139.544777,-31.49998]]}},{"type":"Feature","properties":{"tier":"arterial"},"geometry":{"type":"LineString","coordinates":[[139.656286,-31.49998],[139.648297,-31.507997],[139.647422,-31.508853],[139.6466,-31.509542],[139.622846,-31.52826],[139.62233,-31.528659],[139.62196,-31.528955],[139.621716,-31.529152],[139.621523,-31.529318],[139.621399,-31.529439],[139.621285,-31.52955],[139.621151,-31.529689],[139.621036,-31.529821],[139.620959,-31.529913],[139.620856,-31.530055],[139.620758,-31.530201],[139.62068,-31.530319],[139.620617,-31.530433],[139.620552,-31.530549],[139.620455,-31.530735],[139.620314,-31.531028],[139.620124,-31.531429],[139.61812,-31.535903],[139.615573,-31.541584],[139.612694,-31.547957],[139.612547,-31.548311],[139.61247,-31.548497],[139.612371,-31.548688],[139.61226,-31.548911],[139.612191,-31.549034],[139.612099,-31.549182],[139.611978,-31.54938],[139.611887,-31.549525],[139.611767,-31.549704],[139.61166,-31.549857],[139.611558,-31.549984],[139.611431,-31.55015],[139.611211,-31.550425],[139.610544,-31.551277],[139.594171,-31.572396],[139.570199,-31.602797]]}}]}
