{"type":"FeatureCollection","features":[{"type":"Feature","properties":{"tier":"arterial"},"geometry":{"type":"LineString","coordinates":[[139.49998,-30.973269],[139.506365,-30.976674],[139.506877,-30.976933],[139.507212,-30.977103],[139.507465,-30.977247],[139.507697,-30.977394],[139.507895,-30.977531],[139.508086,-30.977674],[139.508282,-30.977833],[139.508403,-30.977939],[139.508548,-30.978074],[139.508716,-30.978242],[139.508875,-30.978415],[139.509051,-30.978624],[139.509197,-30.978816],[139.509342,-30.979025],[139.509473,-30.979235],[139.509578,-30.97942],[139.509646,-30.979553],[139.509765,-30.979809],[139.509837,-30.979984],[139.509928,-30.980241],[139.510005,-30.980506],[139.51005,-30.980693],[139.51013,-30.981179],[139.510309,-30.982059],[139.513637,-31.00002]]}}]}
