{"type":"FeatureCollection","features":[{"type":"Feature","properties":{"tier":"arterial"},"geometry":{"type":"LineString","coordinates":[[139.683873,-33.428733],[139.686258,-33.429021],[139.688039,-33.429003],[139.689875,-33.428611],[139.691108,-33.428144],[139.692009,-33.42775],[139.693275,-33.426962],[139.69467,-33.425816],[139.695914,-33.423935],[139.698038,-33.420318],[139.699927,-33.417094],[139.700613,-33.41593],[139.701407,-33.414801],[139.702073,-33.414228],[139.702759,-33.413583],[139.704175,-33.412652],[139.705313,-33.411918],[139.706042,-33.411577],[139.706793,-33.411362],[139.707415,-33.411309],[139.708231,-33.411273],[139.709068,-33.411165],[139.709819,-33.410986],[139.712007,-33.410413],[139.71484,-33.409553],[139.716406,-33.409177],[139.718059,-33.408783],[139.718938,-33.408622],[139.71984,-33.408658],[139.721148,-33.408693],[139.721921,-33.408693],[139.722715,-33.408586],[139.723616,-33.408335],[139.724818,-33.407923],[139.725902,-33.407522],[139.726784,-33.407196],[139.727849,-33.406868],[139.728691,-33.406696],[139.729561,-33.406618],[139.730601,-33.406517],[139.73133,-33.406481],[139.732553,-33.406266],[139.735493,-33.405505],[139.738358,-33.404896],[139.739527,-33.404618],[139.740256,-33.404359],[139.74164,-33.403776],[139.743679,-33.402729],[139.74645,-33.401314],[139.747541,-33.400785],[139.748764,-33.400068],[139.750127,-33.399119],[139.751726,-33.398008],[139.752638,-33.397525],[139.753249,-33.397238],[139.754107,-33.396889],[139.755041,-33.396485],[139.756039,-33.396172],[139.757133,-33.396029],[139.758163,-33.395849],[139.759676,-33.395437],[139.762529,-33.394336],[139.763743,-33.39389],[139.764601,-33.393415],[139.765201,-33.392867],[139.765652,-33.392329],[139.766006,-33.391433],[139.766392,-33.390502],[139.767241,-33.389062],[139.767475,-33.38845],[139.767594,-33.387886],[139.767658,-33.387089],[139.767777,-33.386392],[139.76813,-33.385673],[139.768688,-33.384625],[139.769439,-33.383631],[139.770007,-33.382869],[139.770469,-33.38243],[139.770952,-33.382027],[139.77151,-33.381749],[139.772271,-33.381382],[139.773677,-33.380701],[139.774589,-33.3802],[139.775125,-33.379868],[139.775565,-33.379474],[139.776219,-33.378918],[139.776735,-33.378506],[139.777561,-33.378076],[139.779073,-33.377189],[139.780243,-33.376535],[139.781466,-33.375854],[139.782292,-33.375424],[139.783043,-33.37512],[139.788032,-33.373274],[139.789985,-33.372638],[139.79109,-33.372208],[139.792088,-33.37167],[139.79271,-33.371258],[139.793665,-33.37055],[139.794534,-33.369932],[139.795446,-33.369269],[139.796293,-33.36857],[139.797023,-33.367979],[139.798267,-33.366706],[139.799072,-33.365972],[139.799726,-33.365452],[139.800563,-33.36495],[139.801679,-33.364466],[139.802838,-33.363821],[139.803557,-33.363418],[139.804136,-33.363041],[139.804887,-33.362459],[139.805853,-33.36176],[139.806657,-33.361294],[139.807376,-33.361007],[139.808159,-33.360801],[139.809103,-33.360667],[139.810058,-33.360595],[139.810884,-33.360488],[139.811571,-33.360353],[139.812236,-33.360264],[139.812923,-33.360255],[139.813695,-33.360281],[139.814725,-33.360389],[139.815595,-33.360391],[139.817386,-33.360255],[139.819403,-33.360165],[139.820723,-33.360013],[139.822826,-33.359708],[139.824928,-33.359529],[139.8265,-33.359287],[139.827729,-33.35909],[139.828277,-33.358976],[139.828684,-33.358789],[139.829012,-33.358626],[139.829703,-33.358189],[139.830239,-33.357817],[139.830835,-33.357495],[139.831371,-33.357315],[139.831884,-33.357183],[139.832414,-33.357082],[139.833329,-33.356894],[139.836247,-33.356374],[139.838114,-33.35598],[139.839316,-33.355693],[139.840904,-33.355048],[139.842148,-33.3546],[139.842964,-33.354277],[139.843951,-33.353991],[139.844895,-33.353829],[139.848028,-33.353668],[139.848864,-33.35365],[139.849658,-33.353489],[139.851783,-33.353041],[139.852791,-33.352754],[139.854701,-33.351947],[139.857598,-33.351051],[139.859829,-33.350406],[139.861728,-33.34985],[139.862104,-33.349734],[139.862447,-33.34959],[139.862801,-33.349384],[139.863316,-33.349205],[139.863885,-33.349035],[139.864453,-33.348918],[139.865526,-33.348748],[139.86631,-33.348569],[139.867263,-33.348265],[139.867737,-33.348076],[139.86837,-33.347825],[139.869045,-33.347493],[139.869818,-33.347072],[139.870633,-33.346543],[139.871256,-33.346283],[139.871911,-33.346133],[139.875118,-33.345548],[139.877274,-33.345163],[139.878027,-33.344986],[139.879517,-33.344473],[139.880858,-33.344051],[139.882446,-33.343442],[139.883627,-33.343014],[139.884849,-33.342662],[139.8912,-33.341121],[139.896372,-33.33983],[139.898213,-33.339287],[139.898661,-33.339176],[139.899016,-33.339103],[139.899348,-33.339052],[139.899756,-33.339003],[139.900167,-33.338979],[139.900721,-33.338966],[139.902268,-33.338941],[139.903741,-33.338928],[139.906843,-33.338898],[139.90849,-33.338716],[139.908927,-33.3387],[139.910046,-33.338712],[139.911373,-33.338747],[139.91186,-33.338775],[139.91238,-33.33882],[139.912879,-33.338897],[139.913496,-33.338989],[139.913736,-33.339018],[139.914023,-33.339032],[139.914416,-33.339021],[139.914724,-33.338997],[139.915073,-33.338946],[139.915274,-33.338908],[139.915579,-33.33884],[139.915956,-33.338742],[139.916284,-33.338615],[139.916711,-33.338407],[139.917516,-33.337997],[139.918059,-33.337671],[139.918289,-33.337538],[139.91858,-33.337343],[139.918802,-33.337147],[139.919074,-33.33687],[139.919213,-33.336694],[139.919351,-33.336449],[139.919443,-33.336241],[139.920024,-33.334592],[139.920361,-33.333777],[139.92071,-33.333001],[139.921328,-33.331689],[139.921632,-33.331001],[139.921928,-33.330361],[139.922264,-33.329604],[139.922615,-33.328894],[139.922762,-33.328609],[139.922893,-33.328409],[139.923173,-33.328016],[139.923827,-33.327199],[139.924435,-33.326492],[139.924762,-33.326112],[139.925039,-33.325757],[139.925814,-33.324569],[139.926154,-33.324059],[139.926382,-33.323733],[139.926624,-33.323443],[139.92715,-33.32293],[139.927579,-33.322491],[139.927737,-33.322294],[139.927946,-33.321979],[139.928091,-33.321751],[139.928265,-33.321528],[139.928654,-33.321112],[139.929824,-33.320001],[139.930511,-33.319428],[139.931202,-33.318887],[139.931974,-33.31842],[139.932882,-33.318005],[139.934481,-33.317599],[139.935682,-33.317365],[139.936326,-33.317096],[139.937056,-33.316612],[139.939545,-33.314712],[139.940553,-33.313887],[139.94124,-33.313295],[139.941712,-33.312614],[139.942227,-33.311663],[139.942643,-33.310827],[139.942779,-33.310576],[139.942936,-33.310332],[139.943091,-33.310148],[139.943305,-33.309922],[139.943595,-33.309675],[139.944022,-33.309368],[139.9443,-33.309182],[139.944642,-33.309012],[139.945703,-33.308561],[139.947173,-33.307965],[139.947546,-33.307777],[139.948172,-33.307386],[139.950067,-33.306212],[139.951558,-33.30545],[139.952321,-33.305028],[139.953082,-33.304625],[139.95334,-33.304454],[139.954436,-33.303755],[139.957226,-33.302015],[139.959329,-33.300814],[139.960659,-33.300276],[139.961861,-33.299756],[139.963041,-33.299092],[139.963985,-33.298644],[139.965165,-33.298339],[139.966667,-33.298177],[139.967204,-33.298105],[139.968341,-33.298016],[139.96995,-33.297944],[139.970873,-33.297783],[139.971581,-33.297585],[139.972203,-33.297298],[139.973417,-33.29678],[139.977782,-33.294519],[139.979906,-33.293407],[139.982009,-33.292205],[139.985264,-33.290027],[139.989541,-33.287272],[139.992481,-33.285389],[139.993081,-33.284922],[139.993425,-33.284564],[139.996214,-33.281568],[139.998918,-33.278823],[139.999476,-33.278303],[140.00002,-33.277364]]}},{"type":"Feature","properties":{"tier":"arterial"},"geometry":{"type":"LineString","coordinates":[[139.49998,-33.470946],[139.503289,-33.469466],[139.506207,-33.468463],[139.509099,-33.467486],[139.511357,-33.466709],[139.513751,-33.465959],[139.514884,-33.465417],[139.516378,-33.464418],[139.520154,-33.461948],[139.524575,-33.459119],[139.528099,-33.456687],[139.533362,-33.452543],[139.545088,-33.443042],[139.551354,-33.437921],[139.558134,-33.43237],[139.560366,-33.430472],[139.564915,-33.425995],[139.567318,-33.423738],[139.570365,-33.421052],[139.572339,-33.419476],[139.577318,-33.416431],[139.581352,-33.413852],[139.582124,-33.413422],[139.582897,-33.413171],[139.583704,-33.41303],[139.585,-33.412813],[139.58633,-33.412956],[139.592638,-33.414031],[139.594613,-33.414353],[139.596587,-33.414425],[139.606371,-33.414962],[139.608174,-33.415142],[139.609805,-33.415321],[139.622765,-33.418186],[139.631726,-33.42023],[139.636026,-33.421124],[139.639888,-33.422019],[139.641648,-33.422377],[139.643965,-33.422771],[139.647971,-33.423339],[139.654866,-33.424383],[139.675658,-33.427535],[139.683873,-33.428733]]}},{"type":"Feature","properties":{"tier":"regional"},"geometry":{"type":"LineString","coordinates":[[139.936468,-32.99998],[139.918313,-33.00582],[139.908013,-33.009158],[139.90693,-33.0095],[139.905514,-33.009959],[139.904784,-33.010238],[139.904344,-33.01049],[139.903196,-33.011264],[139.902467,-33.011762]]}},{"type":"Feature","properties":{"tier":"regional"},"geometry":{"type":"LineString","coordinates":[[139.526578,-33.30828],[139.526464,-33.309003],[139.526399,-33.309442],[139.526292,-33.309783],[139.526163,-33.309971],[139.525992,-33.310159],[139.525638,-33.310393],[139.525241,-33.310653],[139.524571,-33.311067],[139.519844,-33.314185],[139.51611,-33.316624],[139.51581,-33.316848],[139.515573,-33.317072],[139.515381,-33.317305],[139.513224,-33.320596],[139.510542,-33.324657],[139.506744,-33.330403],[139.504909,-33.333146],[139.502635,-33.336552],[139.501487,-33.338301],[139.49998,-33.340596]]}},{"type":"Feature","properties":{"tier":"regional"},"geometry":{"type":"LineString","coordinates":[[139.820287,-33.075384],[139.819886,-33.075697],[139.819662,-33.075866],[139.808192,-33.084782],[139.799995,-33.091074],[139.799051,-33.091973],[139.798579,-33.092656],[139.793601,-33.100673],[139.7821,-33.118791],[139.778152,-33.125045],[139.777379,-33.126339],[139.776916,-33.12684],[139.776553,-33.127065],[139.776177,-33.127165],[139.775233,-33.127309],[139.77386,-33.127345],[139.773197,-33.127374],[139.772894,-33.127387],[139.771995,-33.12737],[139.771515,-33.127399],[139.771039,-33.127464],[139.770006,-33.127697],[139.769139,-33.127956],[139.767723,-33.128387],[139.765823,-33.129034],[139.764075,-33.129501],[139.761543,-33.130004],[139.756093,-33.131514],[139.752703,-33.132484],[139.751244,-33.133059],[139.746909,-33.134892],[139.738498,-33.138234],[139.711628,-33.149156],[139.707255,-33.15099],[139.705281,-33.151852],[139.704123,-33.152571],[139.701281,-33.154436],[139.688888,-33.162595],[139.687901,-33.163098],[139.687042,-33.163385],[139.676871,-33.166295],[139.66404,-33.170085],[139.659671,-33.171331],[139.659104,-33.171486],[139.658498,-33.171643],[139.657924,-33.171881],[139.656165,-33.172707],[139.647539,-33.177018],[139.646659,-33.177377],[139.646208,-33.177556],[139.645693,-33.177682],[139.642432,-33.17849],[139.638183,-33.179469],[139.632679,-33.180762],[139.630845,-33.181193],[139.630142,-33.181485],[139.629176,-33.181992],[139.628865,-33.182194],[139.62865,-33.182374],[139.6285,-33.182598],[139.628141,-33.183272],[139.627975,-33.183649],[139.627894,-33.183743],[139.627798,-33.183811],[139.627626,-33.183833],[139.627476,-33.183829],[139.627288,-33.183775],[139.627052,-33.183694],[139.626843,-33.183613],[139.626585,-33.183582],[139.626365,-33.183582],[139.626113,-33.183622],[139.625917,-33.183699],[139.625779,-33.183779],[139.625641,-33.183896],[139.62535,-33.184173],[139.62357,-33.185907],[139.621983,-33.187559],[139.621339,-33.188098],[139.620366,-33.188716],[139.618592,-33.18975],[139.617648,-33.190361],[139.617506,-33.190506],[139.61709,-33.190935],[139.610996,-33.199626],[139.610181,-33.200811],[139.609494,-33.201565],[139.60885,-33.20214],[139.593873,-33.215964],[139.588594,-33.220703],[139.587522,-33.221816],[139.586777,-33.22281],[139.586363,-33.223575],[139.585762,-33.224436],[139.58499,-33.225119],[139.567437,-33.239908],[139.546795,-33.257135],[139.545765,-33.257996],[139.545293,-33.258571],[139.544864,-33.259396],[139.542332,-33.263487],[139.537633,-33.271094],[139.537332,-33.271614],[139.537182,-33.272063],[139.537139,-33.272637],[139.537353,-33.275633],[139.537439,-33.276422],[139.537418,-33.27696],[139.537289,-33.277427],[139.53495,-33.284028],[139.534607,-33.284835],[139.534349,-33.285337],[139.529929,-33.291579],[139.529178,-33.292691],[139.528878,-33.293301],[139.528706,-33.293821],[139.528633,-33.294266],[139.527301,-33.303488],[139.526578,-33.30828]]}},{"type":"Feature","properties":{"tier":"regional"},"geometry":{"type":"LineString","coordinates":[[139.964326,-32.99998],[139.963223,-33.006269],[139.96125,-33.018002],[139.96097,-33.019441],[139.960971,-33.019783],[139.961078,-33.020089],[139.964532,-33.025019],[139.965347,-33.026296],[139.966271,-33.027591],[139.966804,-33.028382],[139.967321,-33.028958],[139.967945,-33.029714],[139.97496,-33.037665],[139.981848,-33.045489],[139.991784,-33.056785],[139.993586,-33.058853],[139.994187,-33.059518],[139.994594,-33.060112],[139.995904,-33.062378],[139.999207,-33.067701],[140.00002,-33.069096]]}},{"type":"Feature","properties":{"tier":"regional"},"geometry":{"type":"LineString","coordinates":[[139.902467,-33.011762],[139.896287,-33.016706],[139.891952,-33.020215],[139.889989,-33.021771],[139.884367,-33.026296],[139.882114,-33.028077],[139.881406,-33.028698],[139.88088,-33.029049],[139.880548,-33.029183],[139.880088,-33.029371],[139.879603,-33.02957],[139.878724,-33.029948],[139.878402,-33.030155],[139.877902,-33.030564],[139.860206,-33.044465],[139.847202,-33.054501],[139.829092,-33.068636],[139.820287,-33.075384]]}},{"type":"Feature","properties":{"tier":"regional"},"geometry":{"type":"LineString","coordinates":[[139.49998,-33.497992],[139.500564,-33.498076],[139.502903,-33.498452],[139.503502,-33.498534],[139.504274,-33.498687],[139.50536,-33.498935],[139.509265,-33.499865],[139.509905,-33.50002]]}},{"type":"Feature","properties":{"tier":"regional"},"geometry":{"type":"LineString","coordinates":[[139.49998,-33.152269],[139.500916,-33.152712],[139.503346,-33.153829],[139.505771,-33.154951],[139.508335,-33.15613],[139.510993,-33.157394],[139.513361,-33.158486],[139.516035,-33.159741],[139.519935,-33.161553],[139.522827,-33.162902],[139.523765,-33.163336],[139.524224,-33.163513],[139.526102,-33.164043],[139.529894,-33.165098],[139.5344,-33.166376],[139.537657,-33.167294],[139.538786,-33.167635],[139.53943,-33.16788],[139.542313,-33.169048],[139.544722,-33.169988],[139.548273,-33.171427],[139.551786,-33.172822],[139.555386,-33.174214],[139.560305,-33.176104],[139.563521,-33.177361],[139.564999,-33.177938],[139.568022,-33.179179],[139.570254,-33.180118],[139.572029,-33.180841],[139.572801,-33.181201],[139.573411,-33.181384],[139.573969,-33.181528],[139.579239,-33.182387],[139.593744,-33.184632],[139.594173,-33.184686],[139.594667,-33.184811],[139.595697,-33.185153],[139.610288,-33.189983],[139.610524,-33.190055],[139.610825,-33.190055],[139.611112,-33.190022],[139.611511,-33.189929],[139.614665,-33.188995],[139.614867,-33.188944],[139.615073,-33.18887],[139.615275,-33.188854],[139.615481,-33.188942],[139.615717,-33.189085],[139.61712,-33.190111],[139.617315,-33.190253],[139.617401,-33.190334],[139.617506,-33.190506]]}}]}
