{"type":"FeatureCollection","features":[{"type":"Feature","properties":{"tier":"regional"},"geometry":{"type":"LineString","coordinates":[[140.50002,-34.748754],[140.498067,-34.751077],[140.497758,-34.751465],[140.497557,-34.751774],[140.496834,-34.753026],[140.496633,-34.753505],[140.496512,-34.753896],[140.496458,-34.754312],[140.496453,-34.754818],[140.496527,-34.756898],[140.496563,-34.758406],[140.496525,-34.75881],[140.496424,-34.759244],[140.496204,-34.759753],[140.495956,-34.76016],[140.495601,-34.760552],[140.495236,-34.760889],[140.494219,-34.761561],[140.493764,-34.761975],[140.493355,-34.762417],[140.492952,-34.762998],[140.492696,-34.763542],[140.49253,-34.764072],[140.492458,-34.764784],[140.492492,-34.765477],[140.49261,-34.766027],[140.493648,-34.770484],[140.493835,-34.771276],[140.49389,-34.771827],[140.493886,-34.772404],[140.49364,-34.774213],[140.493199,-34.777542],[140.493082,-34.778534],[140.492862,-34.779162],[140.492652,-34.779563],[140.489947,-34.783755],[140.488727,-34.785774],[140.488578,-34.786314],[140.488505,-34.78685],[140.48851,-34.792841],[140.488597,-34.796954],[140.488607,-34.798423],[140.488619,-34.799198],[140.48851,-34.800068],[140.488075,-34.800897],[140.487468,-34.80156],[140.486844,-34.802077],[140.485745,-34.803061],[140.485102,-34.803803],[140.483197,-34.806887],[140.481357,-34.809668],[140.478275,-34.81462],[140.477905,-34.815291],[140.47785,-34.815863],[140.478177,-34.817329],[140.478341,-34.818089],[140.478428,-34.818544],[140.478264,-34.819867],[140.477665,-34.823219],[140.477415,-34.824551],[140.477393,-34.825454],[140.477415,-34.826133],[140.477557,-34.826803],[140.477687,-34.827241],[140.477753,-34.827733],[140.477567,-34.828502],[140.47723,-34.829735],[140.477001,-34.83062],[140.477273,-34.832211],[140.478776,-34.835616],[140.479777,-34.837972],[140.479943,-34.838374],[140.480063,-34.838782],[140.480108,-34.839268],[140.480068,-34.839765],[140.479912,-34.840412],[140.479527,-34.841059],[140.479008,-34.841624],[140.4784,-34.842021],[140.47767,-34.842339],[140.473942,-34.843212],[140.470697,-34.843945],[140.466668,-34.845196],[140.465514,-34.845679],[140.464937,-34.846027],[140.463674,-34.847323],[140.458752,-34.852407],[140.456041,-34.855883],[140.453036,-34.859519],[140.450172,-34.862852],[140.448452,-34.864933],[140.446677,-34.867292],[140.44537,-34.869847],[140.444309,-34.871949],[140.441157,-34.87819],[140.440895,-34.878896],[140.440569,-34.880575],[140.440547,-34.88129],[140.440634,-34.882388],[140.44132,-34.885282],[140.441919,-34.887954],[140.442452,-34.890409],[140.443581,-34.895401],[140.444596,-34.899931],[140.445126,-34.902297],[140.445489,-34.903885],[140.446294,-34.907447],[140.446779,-34.909609],[140.446858,-34.91005],[140.446893,-34.910451],[140.446896,-34.910842],[140.446868,-34.911216],[140.446802,-34.911613],[140.446687,-34.912096],[140.44652,-34.912562],[140.446339,-34.912926],[140.446174,-34.913197],[140.446007,-34.913451],[140.445806,-34.913716],[140.44557,-34.913994],[140.445177,-34.914379],[140.444599,-34.91492],[140.443962,-34.915538],[140.443447,-34.916048],[140.442784,-34.916695],[140.442344,-34.917123],[140.442064,-34.917422],[140.44177,-34.917796],[140.441537,-34.918132],[140.441332,-34.9185],[140.441149,-34.918861],[140.440975,-34.919301],[140.440825,-34.919773],[140.440719,-34.920207],[140.440664,-34.920567],[140.440634,-34.920895],[140.440628,-34.921279],[140.440642,-34.921645],[140.440699,-34.922156],[140.440773,-34.922531],[140.440862,-34.922877],[140.441019,-34.923343],[140.441184,-34.923733],[140.441385,-34.924141],[140.441628,-34.924549],[140.442376,-34.925716],[140.44302,-34.926699],[140.443286,-34.927212],[140.443562,-34.927858],[140.443707,-34.928313],[140.443806,-34.928852],[140.444112,-34.930638],[140.444446,-34.9326],[140.444698,-34.934196],[140.444862,-34.935062],[140.444962,-34.935595],[140.445041,-34.935949],[140.445143,-34.936312],[140.445264,-34.93664],[140.445405,-34.936968],[140.445531,-34.937225],[140.4457,-34.937513],[140.445898,-34.937798],[140.446097,-34.938037],[140.446317,-34.938279],[140.446567,-34.938535],[140.446931,-34.938853],[140.447298,-34.939119],[140.447714,-34.939385],[140.448131,-34.939606],[140.448642,-34.939839],[140.449516,-34.940169],[140.450359,-34.940471],[140.451517,-34.940908],[140.451959,-34.941088],[140.4524,-34.941305],[140.452846,-34.941565],[140.453309,-34.941873],[140.453626,-34.942128],[140.453953,-34.942426],[140.454239,-34.94273],[140.4545,-34.943056],[140.454741,-34.943404],[140.454932,-34.943736],[140.455094,-34.944055],[140.455258,-34.944473],[140.455373,-34.944876],[140.455467,-34.945294],[140.455801,-34.946894],[140.456246,-34.948971],[140.456501,-34.950176],[140.456885,-34.952049],[140.457044,-34.952835],[140.457307,-34.953938],[140.457409,-34.954398],[140.457745,-34.956014],[140.457834,-34.956474],[140.457864,-34.956837],[140.457874,-34.957246],[140.457834,-34.957685],[140.45777,-34.958064],[140.457644,-34.958525],[140.457488,-34.958969],[140.457193,-34.959582],[140.456559,-34.960773],[140.456266,-34.96135],[140.456005,-34.961919],[140.455865,-34.962266],[140.455755,-34.962634],[140.455643,-34.963117],[140.455535,-34.963785],[140.45553,-34.964212],[140.455568,-34.964737],[140.455643,-34.965243],[140.455747,-34.965658],[140.455871,-34.966043],[140.456064,-34.966493],[140.45693,-34.968401],[140.459781,-34.974621],[140.45998,-34.974997],[140.460227,-34.975393],[140.460548,-34.97585],[140.46216,-34.977942],[140.465124,-34.98176],[140.46583,-34.982683],[140.467391,-34.984656],[140.469105,-34.986832],[140.470727,-34.988882],[140.471599,-34.990002],[140.472036,-34.99053],[140.473427,-34.992278],[140.475428,-34.994793],[140.475972,-34.995472],[140.477635,-34.99755],[140.47874,-34.998923],[140.479622,-35.00002]]}},{"type":"Feature","properties":{"tier":"regional"},"geometry":{"type":"LineString","coordinates":[[140.040415,-35.00002],[140.036933,-34.996686],[140.029809,-34.989932],[140.029294,-34.989444],[140.027928,-34.98887],[140.023887,-34.987405],[140.021527,-34.98635],[140.018909,-34.986315],[140.013974,-34.985014],[140.007311,-34.983261]]}},{"type":"Feature","properties":{"tier":"regional"},"geometry":{"type":"LineString","coordinates":[[140.306741,-34.49998],[140.321864,-34.518345],[140.330446,-34.528765],[140.342023,-34.542871],[140.354241,-34.557649],[140.354712,-34.558148],[140.3622,-34.562696],[140.367862,-34.566091],[140.368223,-34.566325]]}},{"type":"Feature","properties":{"tier":"regional"},"geometry":{"type":"LineString","coordinates":[[140.216665,-34.810426],[140.216688,-34.808169],[140.216723,-34.807167],[140.216734,-34.806887],[140.216774,-34.806623],[140.216832,-34.806399],[140.216928,-34.806187],[140.217049,-34.805981],[140.217673,-34.805126],[140.217879,-34.804762],[140.217959,-34.804512],[140.218008,-34.804221],[140.218016,-34.803949],[140.217982,-34.803627],[140.217912,-34.80338],[140.217823,-34.803144],[140.217713,-34.80295],[140.217531,-34.802698],[140.217272,-34.802422],[140.216857,-34.802009],[140.21652,-34.801668],[140.215994,-34.801135]]}},{"type":"Feature","properties":{"tier":"regional"},"geometry":{"type":"LineString","coordinates":[[140.215994,-34.801135],[140.215536,-34.800632],[140.21402,-34.798465],[140.213306,-34.797175],[140.213211,-34.796471],[140.213181,-34.794198],[140.213159,-34.784642],[140.213157,-34.779575],[140.213093,-34.778984],[140.212485,-34.777302],[140.212519,-34.760123],[140.212265,-34.751453],[140.212314,-34.734899],[140.212914,-34.733096],[140.212914,-34.731235]]}},{"type":"Feature","properties":{"tier":"regional"},"geometry":{"type":"LineString","coordinates":[[140.207575,-34.810875],[140.207764,-34.810913],[140.207931,-34.810917],[140.215931,-34.81043],[140.216359,-34.810415],[140.216665,-34.810426],[140.21691,-34.810475],[140.217212,-34.810603],[140.217725,-34.81085],[140.21835,-34.811188]]}},{"type":"Feature","properties":{"tier":"arterial"},"geometry":{"type":"LineString","coordinates":[[140.485247,-34.739235],[140.485478,-34.73921],[140.485715,-34.739179],[140.486123,-34.739116],[140.486524,-34.739045],[140.486942,-34.738952],[140.48736,-34.73885],[140.487606,-34.738783],[140.487842,-34.738712],[140.488313,-34.738557],[140.489341,-34.738186],[140.489849,-34.737999],[140.490346,-34.737816],[140.491371,-34.737431],[140.492397,-34.737052],[140.495005,-34.736084],[140.495401,-34.735945],[140.495595,-34.735877],[140.495789,-34.735816],[140.496113,-34.735723],[140.496281,-34.735681],[140.496447,-34.735644],[140.496659,-34.7356],[140.496874,-34.735556],[140.497079,-34.735518],[140.497292,-34.735483],[140.497638,-34.735436],[140.49798,-34.735401],[140.498289,-34.735384],[140.498693,-34.735372],[140.499183,-34.735374],[140.499658,-34.735371],[140.50002,-34.735371]]}},{"type":"Feature","properties":{"tier":"arterial"},"geometry":{"type":"LineString","coordinates":[[140.070474,-35.00002],[140.073978,-34.996961],[140.081004,-34.990692],[140.081834,-34.989955],[140.08427,-34.987793],[140.085141,-34.986999],[140.085718,-34.986446],[140.086136,-34.985969],[140.086381,-34.985619],[140.086992,-34.984519],[140.089025,-34.980202],[140.092245,-34.973507],[140.092783,-34.972466],[140.092993,-34.97207],[140.093269,-34.971722],[140.093628,-34.97129],[140.094157,-34.970834],[140.094761,-34.970398],[140.095656,-34.969898],[140.099236,-34.968006],[140.10341,-34.965774],[140.103463,-34.965745],[140.105402,-34.964676],[140.108404,-34.962302],[140.111524,-34.959582],[140.114477,-34.957053],[140.114927,-34.956692],[140.115306,-34.956475],[140.116268,-34.956008],[140.120292,-34.954248],[140.12135,-34.953775],[140.121916,-34.95349],[140.122426,-34.953172],[140.122756,-34.952935],[140.123123,-34.952621],[140.123373,-34.952362],[140.123604,-34.952098],[140.124931,-34.950477],[140.126297,-34.948768],[140.126852,-34.948092],[140.128563,-34.945965],[140.128673,-34.945832],[140.130095,-34.944033],[140.130301,-34.94375],[140.130645,-34.943233],[140.131198,-34.942402],[140.131634,-34.941742],[140.132054,-34.941128],[140.132319,-34.940798],[140.132564,-34.940518],[140.132862,-34.940211],[140.13337,-34.93971],[140.133715,-34.939409],[140.133912,-34.939231],[140.134097,-34.93902],[140.134519,-34.938424],[140.134994,-34.937762],[140.135421,-34.937124],[140.135787,-34.936605],[140.137586,-34.933949],[140.137831,-34.933573],[140.137996,-34.933266],[140.138131,-34.932965],[140.138238,-34.932641],[140.13832,-34.932293],[140.138392,-34.931913],[140.138425,-34.931553],[140.138429,-34.931277],[140.138406,-34.930859],[140.138308,-34.930249],[140.13816,-34.929535],[140.137493,-34.925916],[140.137379,-34.924937],[140.137394,-34.924123],[140.137396,-34.923988],[140.137521,-34.923527],[140.137787,-34.922735],[140.138186,-34.921808],[140.140149,-34.917794],[140.14107,-34.915947],[140.141658,-34.914876],[140.142042,-34.914259],[140.145188,-34.909789],[140.148393,-34.905423],[140.153455,-34.898596],[140.15829,-34.891984],[140.162285,-34.886662],[140.163934,-34.884317],[140.164213,-34.883952],[140.164465,-34.883601],[140.165808,-34.8818],[140.166063,-34.881504],[140.166368,-34.881211],[140.16674,-34.880872],[140.166918,-34.880711],[140.16912,-34.878714],[140.170639,-34.877337],[140.171714,-34.876405],[140.172945,-34.875292],[140.17341,-34.874871],[140.174082,-34.874267],[140.174787,-34.873659],[140.175035,-34.873404],[140.175237,-34.873153],[140.175667,-34.872633],[140.176282,-34.871881],[140.176602,-34.871544],[140.177208,-34.87101],[140.178849,-34.869528],[140.183231,-34.865674],[140.18831,-34.861297],[140.194352,-34.855946],[140.194935,-34.855216],[140.195346,-34.854617],[140.195751,-34.853595],[140.196021,-34.852707],[140.198662,-34.844048],[140.200654,-34.837515],[140.202053,-34.832849],[140.202357,-34.831972],[140.202634,-34.831393],[140.203112,-34.830621],[140.2054,-34.827614],[140.208484,-34.823642],[140.211665,-34.819628],[140.212221,-34.818915],[140.21273,-34.818278],[140.213445,-34.817538],[140.213808,-34.817132],[140.21468,-34.816014],[140.215912,-34.814435],[140.216137,-34.81415],[140.216384,-34.813835],[140.216688,-34.813447],[140.216902,-34.813172],[140.217381,-34.812559],[140.217668,-34.812193],[140.217908,-34.811881],[140.218022,-34.811725],[140.218131,-34.811562],[140.218194,-34.81147],[140.21825,-34.811375],[140.21835,-34.811188],[140.218506,-34.810918],[140.218662,-34.810645],[140.218982,-34.810086],[140.219039,-34.809988],[140.219098,-34.809892],[140.219224,-34.809703],[140.219421,-34.809435],[140.219622,-34.80917],[140.219801,-34.80894],[140.219987,-34.808702],[140.220103,-34.808547],[140.220287,-34.808314],[140.220472,-34.808074],[140.220584,-34.807931],[140.220764,-34.807707],[140.220784,-34.807683],[140.220805,-34.807658],[140.220827,-34.807634],[140.22085,-34.807608],[140.220936,-34.807511],[140.221031,-34.80741],[140.221129,-34.807308],[140.221328,-34.807111],[140.221577,-34.806862],[140.221812,-34.806606],[140.221981,-34.806392],[140.222048,-34.806308],[140.22212,-34.806213],[140.22238,-34.805882],[140.222656,-34.805523],[140.222927,-34.805177],[140.223184,-34.804846],[140.223478,-34.804465],[140.223897,-34.803932],[140.2241,-34.803673],[140.224178,-34.803575],[140.224257,-34.803474],[140.224416,-34.803272],[140.224589,-34.803047],[140.224725,-34.802872],[140.224901,-34.802646],[140.225076,-34.802426],[140.225215,-34.802247],[140.225325,-34.802103],[140.225426,-34.80197],[140.225477,-34.801898],[140.225526,-34.801826],[140.225621,-34.80168],[140.225708,-34.801536],[140.225789,-34.801388],[140.225838,-34.801295],[140.225884,-34.8012],[140.225971,-34.801009],[140.226012,-34.800918],[140.226046,-34.800828],[140.226115,-34.80064],[140.22615,-34.800532],[140.226183,-34.800425],[140.226241,-34.800211],[140.226283,-34.800016],[140.226316,-34.79982],[140.226421,-34.79905],[140.226507,-34.798394],[140.226606,-34.797715],[140.226679,-34.797244],[140.226742,-34.796774],[140.226775,-34.796547],[140.226805,-34.796323],[140.226837,-34.796112],[140.226858,-34.795959],[140.226887,-34.795742],[140.226895,-34.795681],[140.226929,-34.795406],[140.227047,-34.794602],[140.227164,-34.793787],[140.227223,-34.793386],[140.227274,-34.792988],[140.227294,-34.792855],[140.227322,-34.792722],[140.227352,-34.792583],[140.227396,-34.792431],[140.227469,-34.792198],[140.227534,-34.792017],[140.227608,-34.791827],[140.227679,-34.791671],[140.227758,-34.791519],[140.227893,-34.791278],[140.22796,-34.791168],[140.228042,-34.791043],[140.228201,-34.790817],[140.228376,-34.790594],[140.228663,-34.790272],[140.228891,-34.790055],[140.229127,-34.789845],[140.229369,-34.789653],[140.229633,-34.789465],[140.230685,-34.788728],[140.231321,-34.788292],[140.231964,-34.787858],[140.232598,-34.787435],[140.233265,-34.787018],[140.234337,-34.786349],[140.235846,-34.785412],[140.237073,-34.784655],[140.237656,-34.784298],[140.238246,-34.783926],[140.238871,-34.783588],[140.239093,-34.783484],[140.239607,-34.78327],[140.24012,-34.783059],[140.240958,-34.782716],[140.241557,-34.782468],[140.242158,-34.78221],[140.243704,-34.781572],[140.245248,-34.780939],[140.246572,-34.780395],[140.246832,-34.780317],[140.247092,-34.780245],[140.247375,-34.780168],[140.247665,-34.780101],[140.248083,-34.780003],[140.248547,-34.779893],[140.249372,-34.779691],[140.250183,-34.779488],[140.250956,-34.779306],[140.251324,-34.779215],[140.251672,-34.779131],[140.252499,-34.778927],[140.253248,-34.778744],[140.25383,-34.778602],[140.254397,-34.778468],[140.25494,-34.778331],[140.255282,-34.778245],[140.255452,-34.778203],[140.255628,-34.778163],[140.255951,-34.77808],[140.256274,-34.778003],[140.256979,-34.777824],[140.25765,-34.777657],[140.257978,-34.777575],[140.258272,-34.777508],[140.258865,-34.777371],[140.259409,-34.777239],[140.259715,-34.777158],[140.260013,-34.777068],[140.260177,-34.777015],[140.260655,-34.776833],[140.261054,-34.776664],[140.261381,-34.776532],[140.261628,-34.776433],[140.261876,-34.776336],[140.262339,-34.776151],[140.262822,-34.775956],[140.26322,-34.775797],[140.263579,-34.775652],[140.263851,-34.775541],[140.264126,-34.775434],[140.264576,-34.775257],[140.264918,-34.77511],[140.265126,-34.775025],[140.265339,-34.774945],[140.265706,-34.774801],[140.266076,-34.774649],[140.26673,-34.77438],[140.267973,-34.773894],[140.268898,-34.773519],[140.270249,-34.77298],[140.271588,-34.772449],[140.273251,-34.771766],[140.276309,-34.770541],[140.276701,-34.770373],[140.276878,-34.770302],[140.277198,-34.770168],[140.277548,-34.770025],[140.278218,-34.769767],[140.278665,-34.769586],[140.278835,-34.769524],[140.279004,-34.76946],[140.27909,-34.769428],[140.279177,-34.769399],[140.279349,-34.769339],[140.279617,-34.769254],[140.279883,-34.769177],[140.280092,-34.769117],[140.28033,-34.769048],[140.280474,-34.769011],[140.280618,-34.768975],[140.280866,-34.768915],[140.280985,-34.768888],[140.28118,-34.768847],[140.281453,-34.768798],[140.281589,-34.768774],[140.281725,-34.768752],[140.281991,-34.768709],[140.28213,-34.768685],[140.28227,-34.768662],[140.282411,-34.768644],[140.282551,-34.768628],[140.282762,-34.768604],[140.282971,-34.768584],[140.283388,-34.768551],[140.283778,-34.768512],[140.284064,-34.768487],[140.284207,-34.768476],[140.284346,-34.768468],[140.284916,-34.768414],[140.285044,-34.768399],[140.285172,-34.768385],[140.285428,-34.768364],[140.285927,-34.768313],[140.286836,-34.768213],[140.287218,-34.768173],[140.287985,-34.7681],[140.28828,-34.768068],[140.288442,-34.768051],[140.289031,-34.767998],[140.289623,-34.767941],[140.28993,-34.767909],[140.290226,-34.767874],[140.290879,-34.76781],[140.291402,-34.767764],[140.291855,-34.767717],[140.292207,-34.767677],[140.292557,-34.76764],[140.292734,-34.767621],[140.292911,-34.767611],[140.293271,-34.767592],[140.293632,-34.767558],[140.293985,-34.76752],[140.294339,-34.767485],[140.294697,-34.767467],[140.295245,-34.767452],[140.295791,-34.767454],[140.297307,-34.767475],[140.298243,-34.767478],[140.298591,-34.767482],[140.298939,-34.767489],[140.299478,-34.767488],[140.299658,-34.767484],[140.30038,-34.767465],[140.301136,-34.767379],[140.301625,-34.76733],[140.3022,-34.76727],[140.302483,-34.76724],[140.302759,-34.767214],[140.303318,-34.767159],[140.303915,-34.7671],[140.304506,-34.767041],[140.304805,-34.767011],[140.305103,-34.766977],[140.305402,-34.766945],[140.305698,-34.766911],[140.305898,-34.766874],[140.306094,-34.766827],[140.306287,-34.76677],[140.306471,-34.7667],[140.306626,-34.766637],[140.306775,-34.76657],[140.307064,-34.766426],[140.30744,-34.766235],[140.307826,-34.766055],[140.308006,-34.765992],[140.308193,-34.765946],[140.308541,-34.765887],[140.30879,-34.765857],[140.309867,-34.765729],[140.310909,-34.765634],[140.312964,-34.765406],[140.313194,-34.765385],[140.313691,-34.76534],[140.31417,-34.765283],[140.314656,-34.765247],[140.315143,-34.765214],[140.315426,-34.765206],[140.316196,-34.765158],[140.31658,-34.765132],[140.316962,-34.7651],[140.318211,-34.764963],[140.319696,-34.764809],[140.321186,-34.764644],[140.322912,-34.764472],[140.324419,-34.764314],[140.324898,-34.764269],[140.325621,-34.764185],[140.326348,-34.764101],[140.327955,-34.76393],[140.328443,-34.763877],[140.329702,-34.763749],[140.330174,-34.763699],[140.330806,-34.763633],[140.332032,-34.763521],[140.332999,-34.763404],[140.334092,-34.763291],[140.334619,-34.763237],[140.334879,-34.763208],[140.33514,-34.763176],[140.335726,-34.763101],[140.33646,-34.763026],[140.336755,-34.762999],[140.337045,-34.762977],[140.337441,-34.762942],[140.337827,-34.762894],[140.338192,-34.76285],[140.338549,-34.76281],[140.339329,-34.762734],[140.339819,-34.762686],[140.340305,-34.762625],[140.340547,-34.762584],[140.34079,-34.762538],[140.341018,-34.762488],[140.341244,-34.76243],[140.341475,-34.762367],[140.3417,-34.762301],[140.342074,-34.762185],[140.342447,-34.762077],[140.343022,-34.761911],[140.343247,-34.761845],[140.343474,-34.76178],[140.343928,-34.761659],[140.344385,-34.761529],[140.344834,-34.761404],[140.345094,-34.761334],[140.345347,-34.761275],[140.345931,-34.761142],[140.346426,-34.761024],[140.346677,-34.760965],[140.346923,-34.760903],[140.347543,-34.760751],[140.347856,-34.760675],[140.348158,-34.760602],[140.348505,-34.760537],[140.348674,-34.760509],[140.348842,-34.760487],[140.349034,-34.760467],[140.349136,-34.760459],[140.349229,-34.760454],[140.349369,-34.760449],[140.349509,-34.760447],[140.349887,-34.760444],[140.350266,-34.760446],[140.351026,-34.760463],[140.35149,-34.760471],[140.35195,-34.760475],[140.352375,-34.760481],[140.352587,-34.76049],[140.352798,-34.760498],[140.353224,-34.760505],[140.353644,-34.760507],[140.354538,-34.760523],[140.355312,-34.760534],[140.356126,-34.760549],[140.356619,-34.760549],[140.356773,-34.760543],[140.356923,-34.760535],[140.357243,-34.760509],[140.357493,-34.760482],[140.357743,-34.760446],[140.357949,-34.760406],[140.35814,-34.760364],[140.35868,-34.760231],[140.35901,-34.760152],[140.359338,-34.760079],[140.359597,-34.76002],[140.359855,-34.759958],[140.360115,-34.759892],[140.360373,-34.759831],[140.360886,-34.759713],[140.361364,-34.759595],[140.361839,-34.759479],[140.362319,-34.759365],[140.362568,-34.759304],[140.362799,-34.759246],[140.363503,-34.759076],[140.363901,-34.758989],[140.365198,-34.758677],[140.365509,-34.758603],[140.365821,-34.758533],[140.36645,-34.758387],[140.367416,-34.758147],[140.368057,-34.757996],[140.368622,-34.757858],[140.36927,-34.757708],[140.369839,-34.757568],[140.370125,-34.757492],[140.370407,-34.757417],[140.370646,-34.757367],[140.370883,-34.757314],[140.371224,-34.757233],[140.371701,-34.757114],[140.372178,-34.757006],[140.372862,-34.756846],[140.373705,-34.756649],[140.375003,-34.756334],[140.375634,-34.756176],[140.376265,-34.756015],[140.37656,-34.755942],[140.376855,-34.755867],[140.378321,-34.755505],[140.380218,-34.75505],[140.381072,-34.754855],[140.383152,-34.754355],[140.384076,-34.754142],[140.384403,-34.754059],[140.384734,-34.753973],[140.384971,-34.753912],[140.385204,-34.753853],[140.385808,-34.75371],[140.386616,-34.753519],[140.387447,-34.753331],[140.38848,-34.753079],[140.389075,-34.752925],[140.389325,-34.752864],[140.389574,-34.752808],[140.39001,-34.75271],[140.390442,-34.752613],[140.391184,-34.752437],[140.391925,-34.752262],[140.392184,-34.7522],[140.392409,-34.752143],[140.392542,-34.752109],[140.392708,-34.752065],[140.392846,-34.752031],[140.392974,-34.752],[140.393102,-34.751971],[140.393235,-34.751941],[140.39336,-34.751914],[140.393452,-34.751895],[140.393544,-34.751878],[140.393636,-34.751862],[140.393731,-34.751847],[140.393862,-34.751831],[140.39399,-34.751817],[140.394367,-34.751782],[140.394683,-34.751752],[140.394996,-34.751728],[140.395391,-34.751689],[140.395624,-34.751668],[140.395835,-34.75165],[140.395972,-34.751638],[140.396236,-34.75162],[140.396474,-34.7516],[140.396713,-34.751582],[140.397228,-34.751532],[140.39736,-34.751519],[140.397491,-34.751506],[140.39775,-34.751481],[140.3979,-34.75147],[140.398257,-34.751439],[140.398515,-34.751415],[140.39877,-34.751391],[140.399248,-34.751348],[140.400318,-34.75127],[140.400505,-34.751258],[140.40069,-34.751243],[140.400947,-34.75122],[140.401326,-34.75119],[140.401729,-34.751156],[140.402667,-34.751065],[140.403255,-34.75102],[140.403586,-34.75099],[140.404019,-34.750947],[140.404837,-34.750883],[140.405245,-34.750846],[140.40545,-34.750825],[140.405653,-34.750803],[140.405969,-34.750766],[140.406275,-34.750718],[140.406403,-34.750693],[140.406533,-34.750668],[140.406704,-34.750628],[140.406872,-34.750588],[140.40706,-34.750535],[140.407238,-34.750478],[140.407413,-34.750415],[140.407584,-34.75035],[140.40849,-34.75],[140.409042,-34.749793],[140.409594,-34.749593],[140.410139,-34.749382],[140.410678,-34.749179],[140.411705,-34.748791],[140.412731,-34.748421],[140.413631,-34.748073],[140.414283,-34.747811],[140.414559,-34.747706],[140.414957,-34.747557],[140.415467,-34.747361],[140.415722,-34.747264],[140.415976,-34.74717],[140.416329,-34.74704],[140.416642,-34.746914],[140.41688,-34.7468],[140.417098,-34.746684],[140.4178,-34.746301],[140.418036,-34.746165],[140.418151,-34.746095],[140.418269,-34.746028],[140.418432,-34.745938],[140.418593,-34.745848],[140.418918,-34.745673],[140.41903,-34.74561],[140.419222,-34.745506],[140.419901,-34.745128],[140.42058,-34.744748],[140.421797,-34.74407],[140.422322,-34.743786],[140.422565,-34.743647],[140.422809,-34.743512],[140.422891,-34.743468],[140.422974,-34.743424],[140.423058,-34.743383],[140.423142,-34.743343],[140.42332,-34.743264],[140.423499,-34.743192],[140.423666,-34.743124],[140.423863,-34.74305],[140.424037,-34.742991],[140.42413,-34.742964],[140.424221,-34.742941],[140.424349,-34.742908],[140.424478,-34.74288],[140.424627,-34.742852],[140.424777,-34.742825],[140.424926,-34.742802],[140.425048,-34.742784],[140.425173,-34.74277],[140.425391,-34.742748],[140.425501,-34.742736],[140.425608,-34.742726],[140.42569,-34.742721],[140.425762,-34.742718],[140.425799,-34.742717],[140.425839,-34.742717],[140.42591,-34.742717],[140.425988,-34.742718],[140.426064,-34.742719],[140.426213,-34.742722],[140.426883,-34.742733],[140.427548,-34.742748],[140.429033,-34.742773],[140.43029,-34.742791],[140.430954,-34.742796],[140.431264,-34.742804],[140.431639,-34.742819],[140.432017,-34.742829],[140.432543,-34.742832],[140.432806,-34.742839],[140.43307,-34.742844],[140.43336,-34.742848],[140.433648,-34.742851],[140.434126,-34.742857],[140.434394,-34.742863],[140.434529,-34.742868],[140.434664,-34.74287],[140.434927,-34.742876],[140.435188,-34.742878],[140.43572,-34.742887],[140.43625,-34.742894],[140.436789,-34.742903],[140.437324,-34.742911],[140.437636,-34.742916],[140.437946,-34.742921],[140.438387,-34.742936],[140.438608,-34.742943],[140.438828,-34.742948],[140.439111,-34.742949],[140.439396,-34.74295],[140.440463,-34.742961],[140.440758,-34.742968],[140.441443,-34.742985],[140.44178,-34.742998],[140.441946,-34.743003],[140.442119,-34.743006],[140.442654,-34.743015],[140.443178,-34.74302],[140.444198,-34.743041],[140.445404,-34.743058],[140.445824,-34.743068],[140.446035,-34.743075],[140.446384,-34.743089],[140.446641,-34.743099],[140.44676,-34.743102],[140.44701,-34.743104],[140.447136,-34.743104],[140.447261,-34.7431],[140.447503,-34.743097],[140.448548,-34.743109],[140.449077,-34.74311],[140.449342,-34.743109],[140.449605,-34.743094],[140.449871,-34.743072],[140.450137,-34.743037],[140.450392,-34.742997],[140.450641,-34.742952],[140.450944,-34.742895],[140.451241,-34.742839],[140.451553,-34.742779],[140.452144,-34.742665],[140.452389,-34.742614],[140.452627,-34.742565],[140.453246,-34.742446],[140.453559,-34.742386],[140.453871,-34.742326],[140.454935,-34.742119],[140.455386,-34.742034],[140.455834,-34.741952],[140.45632,-34.741862],[140.456711,-34.741785],[140.457097,-34.741708],[140.457486,-34.741633],[140.457873,-34.741557],[140.458639,-34.741411],[140.458956,-34.741347],[140.459529,-34.741237],[140.460102,-34.741128],[140.460389,-34.741074],[140.460674,-34.74102],[140.461193,-34.740918],[140.461398,-34.740877],[140.461603,-34.740838],[140.462089,-34.740741],[140.462581,-34.740646],[140.463086,-34.740553],[140.463741,-34.740429],[140.464071,-34.740367],[140.467017,-34.739787],[140.467992,-34.739594],[140.468899,-34.739421],[140.469349,-34.739342],[140.469798,-34.739267],[140.470149,-34.739219],[140.470494,-34.739176],[140.470841,-34.739136],[140.471186,-34.7391],[140.471533,-34.739066],[140.471879,-34.739036],[140.472228,-34.739016],[140.472577,-34.738995],[140.472946,-34.738979],[140.473317,-34.738969],[140.473504,-34.738968],[140.473679,-34.738971],[140.474043,-34.73898],[140.474412,-34.738988],[140.474775,-34.739001],[140.475146,-34.739016],[140.475509,-34.739032],[140.476439,-34.739063],[140.477366,-34.739098],[140.479211,-34.739166],[140.480089,-34.739204],[140.480962,-34.739231],[140.481839,-34.739264],[140.482713,-34.739302],[140.483469,-34.739324],[140.483849,-34.739325],[140.484234,-34.739312],[140.484493,-34.739297],[140.48475,-34.73928],[140.484884,-34.739271],[140.484994,-34.739261],[140.485247,-34.739235]]}},{"type":"Feature","properties":{"tier":"regional"},"geometry":{"type":"LineString","coordinates":[[140.007311,-34.983261],[140.005131,-34.982608],[140.002272,-34.981751],[139.999997,-34.980964],[139.99998,-34.980958]]}}]}
