{"type":"FeatureCollection","features":[{"type":"Feature","properties":{"tier":"high"},"geometry":{"type":"LineString","coordinates":[[140.099211,-35.917384],[140.099301,-35.917737],[140.099317,-35.9178],[140.099496,-35.918543],[140.099649,-35.918957],[140.099879,-35.919423],[140.100171,-35.919888],[140.100597,-35.920423],[140.101119,-35.920942],[140.101755,-35.921469],[140.102174,-35.921744]]}},{"type":"Feature","properties":{"tier":"arterial"},"geometry":{"type":"LineString","coordinates":[[140.054659,-35.884078],[140.054624,-35.884202],[140.054612,-35.88427],[140.054613,-35.884346],[140.054628,-35.884402],[140.05465,-35.884451],[140.05469,-35.8845],[140.054782,-35.884597],[140.05517,-35.884965],[140.056168,-35.88591],[140.056769,-35.886516],[140.05689,-35.886672],[140.056916,-35.886705],[140.056997,-35.886862],[140.057018,-35.88696],[140.057026,-35.887075],[140.057015,-35.887207],[140.057002,-35.887281],[140.056967,-35.887366],[140.056884,-35.887496],[140.056773,-35.887651]]}},{"type":"Feature","properties":{"tier":"regional"},"geometry":{"type":"LineString","coordinates":[[140.055292,-35.883312],[140.055393,-35.883167],[140.056284,-35.882376],[140.057199,-35.88157]]}},{"type":"Feature","properties":{"tier":"regional"},"geometry":{"type":"LineString","coordinates":[[140.208543,-35.49998],[140.205386,-35.501053],[140.199955,-35.50298],[140.194797,-35.505694],[140.193913,-35.505939],[140.192597,-35.506151],[140.188889,-35.506192],[140.18343,-35.506215],[140.181947,-35.506595],[140.174321,-35.509383],[140.173381,-35.509855],[140.172393,-35.510457]]}},{"type":"Feature","properties":{"tier":"regional"},"geometry":{"type":"LineString","coordinates":[[140.057199,-35.88157],[140.057686,-35.881138],[140.058735,-35.880226],[140.058765,-35.880194],[140.059332,-35.879579],[140.059468,-35.879433],[140.060575,-35.878325],[140.061703,-35.877327],[140.063329,-35.875889],[140.063674,-35.875522],[140.063963,-35.875142],[140.064589,-35.874349],[140.065142,-35.873807],[140.065684,-35.873385],[140.067069,-35.872487]]}},{"type":"Feature","properties":{"tier":"arterial"},"geometry":{"type":"LineString","coordinates":[[140.054659,-35.884078],[140.054829,-35.883946],[140.054974,-35.883808],[140.055045,-35.883736],[140.055226,-35.883461],[140.055292,-35.883312]]}},{"type":"Feature","properties":{"tier":"high"},"geometry":{"type":"LineString","coordinates":[[140.098923,-35.916152],[140.099211,-35.917384]]}},{"type":"Feature","properties":{"tier":"regional"},"geometry":{"type":"LineString","coordinates":[[140.067069,-35.872487],[140.067348,-35.872248],[140.069261,-35.870553],[140.071858,-35.868263],[140.072321,-35.867822],[140.072462,-35.867649],[140.072603,-35.86745],[140.074005,-35.865262],[140.074635,-35.864268],[140.07483,-35.863931],[140.074955,-35.86368],[140.075032,-35.863494],[140.075118,-35.86328],[140.07587,-35.861331],[140.076467,-35.859791],[140.076749,-35.859064],[140.076842,-35.858735],[140.07689,-35.858488],[140.076911,-35.858284],[140.076927,-35.857952],[140.077068,-35.855598],[140.077214,-35.852731],[140.077411,-35.84933],[140.077543,-35.846961],[140.077591,-35.846284],[140.077634,-35.84592],[140.077706,-35.845597],[140.077845,-35.845092],[140.078536,-35.842538],[140.079278,-35.839853],[140.079624,-35.838604],[140.079772,-35.83821],[140.079935,-35.83785],[140.080142,-35.837516],[140.080621,-35.836737],[140.081257,-35.83573],[140.081408,-35.835503],[140.081604,-35.835263],[140.081764,-35.835073],[140.082235,-35.834491],[140.082559,-35.83404],[140.082752,-35.833736],[140.082875,-35.833502],[140.082999,-35.833263],[140.083103,-35.833019],[140.083575,-35.831488],[140.084001,-35.830231],[140.084387,-35.829001],[140.084647,-35.828096],[140.087051,-35.816539],[140.087705,-35.813227],[140.087768,-35.812859],[140.087799,-35.812527],[140.087793,-35.812208],[140.087765,-35.811844],[140.087725,-35.811546],[140.08768,-35.811289],[140.087211,-35.809367],[140.086808,-35.807689],[140.086695,-35.807242],[140.086587,-35.806919],[140.08647,-35.806632],[140.08621,-35.80614],[140.085432,-35.804696],[140.085292,-35.804339],[140.08517,-35.803913],[140.085102,-35.803532],[140.085074,-35.803215],[140.085098,-35.802784],[140.08517,-35.802217],[140.085235,-35.801779],[140.085331,-35.801443],[140.085416,-35.801169],[140.085549,-35.800843],[140.085794,-35.800402],[140.086035,-35.800048],[140.087437,-35.798066],[140.089444,-35.79529],[140.089624,-35.794989],[140.089821,-35.794593],[140.089934,-35.794261],[140.090014,-35.793931],[140.090047,-35.793641],[140.090075,-35.793311],[140.090083,-35.79304],[140.090059,-35.79274],[140.090019,-35.792114],[140.089983,-35.791483],[140.08998,-35.791245],[140.08999,-35.790978],[140.090019,-35.790746],[140.090067,-35.790443],[140.090155,-35.790058],[140.090664,-35.788387],[140.091849,-35.784297],[140.092298,-35.782785],[140.093044,-35.780215],[140.093097,-35.77996],[140.093148,-35.77967],[140.093173,-35.779431],[140.093183,-35.779225],[140.093185,-35.779075],[140.093177,-35.778869],[140.093149,-35.778605],[140.093077,-35.778179],[140.092519,-35.776229],[140.092452,-35.775994],[140.092383,-35.775715],[140.092041,-35.774596]]}},{"type":"Feature","properties":{"tier":"regional"},"geometry":{"type":"LineString","coordinates":[[140.092041,-35.774596],[140.091704,-35.773462],[140.091637,-35.773149],[140.091597,-35.772855],[140.091581,-35.77255],[140.091576,-35.772187],[140.091607,-35.771859],[140.091716,-35.771294],[140.091885,-35.770739],[140.092106,-35.770272],[140.092341,-35.769895],[140.092563,-35.76956],[140.093035,-35.768927],[140.093276,-35.768505],[140.093453,-35.768161],[140.093617,-35.76776],[140.09372,-35.76739],[140.094129,-35.7655],[140.094668,-35.762885],[140.095001,-35.761244],[140.095138,-35.760617],[140.095198,-35.76018],[140.09524,-35.759819],[140.095245,-35.75949],[140.09516,-35.758902],[140.095067,-35.758462],[140.094929,-35.758082],[140.094829,-35.757786],[140.094706,-35.757509],[140.094312,-35.756847],[140.093365,-35.755487],[140.093139,-35.755202],[140.092914,-35.754952],[140.092563,-35.754621],[140.091007,-35.753295],[140.090379,-35.752777],[140.09017,-35.752566],[140.089899,-35.752292],[140.089706,-35.752057],[140.089518,-35.751787],[140.089333,-35.751467],[140.089213,-35.751238],[140.08907,-35.750944],[140.088928,-35.75055],[140.088829,-35.750142],[140.088747,-35.74957],[140.088736,-35.749201],[140.088746,-35.748773],[140.088822,-35.748195],[140.08912,-35.745957],[140.089285,-35.744784],[140.089435,-35.743264],[140.089473,-35.742746],[140.089524,-35.741523],[140.089575,-35.740051],[140.089585,-35.73908],[140.089612,-35.738673],[140.089644,-35.738383],[140.089722,-35.73807],[140.089803,-35.737795],[140.089942,-35.737421],[140.090161,-35.736962],[140.090366,-35.736639],[140.090677,-35.736245],[140.090967,-35.735956],[140.091348,-35.73562],[140.091763,-35.735318],[140.092168,-35.73507],[140.092565,-35.734891],[140.095186,-35.733726],[140.096039,-35.733341],[140.096497,-35.733097],[140.096948,-35.732848],[140.097199,-35.732668],[140.09754,-35.732405],[140.097902,-35.732061],[140.098451,-35.731576],[140.099982,-35.730119],[140.10022,-35.729853],[140.10054,-35.729441],[140.100739,-35.729087],[140.100887,-35.728797],[140.100998,-35.728535],[140.101146,-35.72808],[140.101224,-35.727695],[140.101288,-35.72729],[140.101293,-35.726632],[140.101242,-35.725042],[140.10121,-35.723897],[140.101165,-35.722761],[140.101138,-35.7215],[140.101095,-35.719592],[140.101081,-35.719187],[140.101087,-35.718708],[140.101081,-35.718268],[140.10106,-35.717896],[140.101017,-35.717402],[140.100931,-35.716942],[140.100819,-35.716298],[140.100733,-35.715653],[140.100711,-35.715204],[140.100715,-35.714839],[140.100779,-35.714415],[140.100867,-35.714051],[140.100934,-35.71378],[140.101081,-35.713423],[140.101242,-35.713064],[140.101366,-35.712852],[140.101496,-35.712659],[140.101824,-35.712184],[140.10213,-35.711835],[140.102409,-35.711574],[140.102812,-35.711223],[140.103108,-35.71102],[140.104037,-35.710419],[140.104928,-35.70981],[140.105354,-35.709514],[140.105518,-35.709383],[140.105955,-35.708984],[140.10697,-35.707941],[140.108498,-35.706449],[140.110434,-35.704482],[140.112079,-35.702827],[140.112838,-35.702065],[140.113095,-35.701751],[140.113374,-35.701318],[140.11357,-35.700952],[140.113787,-35.700499],[140.113924,-35.700107],[140.113991,-35.699843],[140.114246,-35.698414],[140.114337,-35.697874],[140.114605,-35.69643],[140.114946,-35.69462],[140.115257,-35.692949],[140.115477,-35.691788],[140.115788,-35.690198],[140.115901,-35.689782],[140.116142,-35.689056],[140.116684,-35.687459],[140.116947,-35.686653],[140.117413,-35.685309],[140.118199,-35.682899],[140.118261,-35.682679],[140.118315,-35.682385],[140.118341,-35.682039],[140.118336,-35.681786],[140.118331,-35.68149],[140.118315,-35.6812],[140.118205,-35.680817],[140.118122,-35.680446],[140.117926,-35.679899],[140.117743,-35.679437],[140.117647,-35.679067],[140.117593,-35.678664],[140.117572,-35.678344],[140.117582,-35.677891],[140.117665,-35.677291],[140.117876,-35.676132],[140.118001,-35.675256],[140.118038,-35.675008],[140.118036,-35.674646],[140.118005,-35.674253],[140.117923,-35.673956],[140.117818,-35.673664],[140.117722,-35.673431],[140.117344,-35.672871],[140.116912,-35.672202],[140.114871,-35.669271],[140.11471,-35.668966],[140.114554,-35.668656],[140.114393,-35.668173],[140.114315,-35.667778],[140.114278,-35.667345],[140.114383,-35.666076],[140.114584,-35.663666],[140.114729,-35.661873],[140.114771,-35.661127],[140.1149,-35.65977],[140.114967,-35.658796],[140.115061,-35.657673],[140.115126,-35.657318],[140.115209,-35.656963],[140.115321,-35.65666],[140.115603,-35.656207],[140.116021,-35.65562],[140.117534,-35.653694],[140.117703,-35.653461],[140.117872,-35.653164],[140.117958,-35.652916],[140.118154,-35.652227],[140.118494,-35.650841],[140.118819,-35.649705],[140.118943,-35.649264]]}},{"type":"Feature","properties":{"tier":"arterial"},"geometry":{"type":"LineString","coordinates":[[139.99998,-35.915314],[140.001631,-35.914494],[140.007193,-35.911746],[140.010331,-35.910206],[140.014055,-35.908416],[140.015095,-35.908035],[140.015794,-35.907891],[140.016487,-35.9078],[140.01691,-35.907771],[140.01738,-35.907749],[140.017878,-35.907768],[140.01853,-35.907803],[140.019479,-35.907899],[140.022084,-35.90813],[140.023855,-35.908351],[140.024503,-35.908392],[140.025096,-35.908408],[140.025622,-35.908386],[140.026219,-35.908319],[140.026962,-35.908152],[140.027535,-35.90796],[140.028031,-35.907714],[140.028172,-35.907644],[140.029153,-35.907061],[140.031524,-35.90548],[140.034141,-35.903623],[140.036924,-35.901663],[140.039877,-35.899588],[140.042157,-35.897981],[140.045549,-35.895586],[140.048407,-35.893578],[140.051253,-35.89157],[140.051598,-35.891326],[140.053628,-35.889889],[140.055589,-35.888518],[140.056635,-35.887798],[140.056773,-35.887651]]}},{"type":"Feature","properties":{"tier":"high"},"geometry":{"type":"LineString","coordinates":[[140.046001,-35.87643],[140.048825,-35.878507]]}},{"type":"Feature","properties":{"tier":"high"},"geometry":{"type":"LineString","coordinates":[[140.050867,-35.880019],[140.050962,-35.88009],[140.052006,-35.880825],[140.052271,-35.881012],[140.052677,-35.881306]]}},{"type":"Feature","properties":{"tier":"high"},"geometry":{"type":"LineString","coordinates":[[140.0653,-35.890975],[140.067579,-35.892668],[140.07375,-35.89727]]}},{"type":"Feature","properties":{"tier":"high"},"geometry":{"type":"LineString","coordinates":[[140.061293,-35.887789],[140.06255,-35.888782],[140.062773,-35.888959],[140.064142,-35.890095],[140.064619,-35.890458],[140.0653,-35.890975]]}},{"type":"Feature","properties":{"tier":"high"},"geometry":{"type":"LineString","coordinates":[[139.99998,-35.841042],[140.020752,-35.857173]]}},{"type":"Feature","properties":{"tier":"high"},"geometry":{"type":"LineString","coordinates":[[140.189065,-35.950345],[140.204098,-35.954916],[140.220582,-35.959923],[140.231557,-35.963263],[140.232428,-35.963573],[140.232998,-35.963806],[140.233653,-35.96412],[140.234228,-35.964433],[140.234697,-35.964724],[140.235333,-35.965111],[140.235888,-35.965495],[140.236453,-35.965979],[140.236956,-35.966448],[140.237492,-35.967002],[140.23832,-35.967947],[140.238917,-35.968666],[140.239211,-35.969008],[140.252285,-35.984222],[140.263831,-35.99765],[140.265869,-36.00002]]}},{"type":"Feature","properties":{"tier":"high"},"geometry":{"type":"LineString","coordinates":[[140.175103,-35.94606],[140.179276,-35.947351],[140.182569,-35.948371],[140.189065,-35.950345]]}},{"type":"Feature","properties":{"tier":"high"},"geometry":{"type":"LineString","coordinates":[[140.102174,-35.921744],[140.10231,-35.921833],[140.102923,-35.922159],[140.103564,-35.922434],[140.105043,-35.923004],[140.105713,-35.923275],[140.106326,-35.92357],[140.106996,-35.923946],[140.107652,-35.924368],[140.108341,-35.924849],[140.108925,-35.925314],[140.113326,-35.92878]]}},{"type":"Feature","properties":{"tier":"high"},"geometry":{"type":"LineString","coordinates":[[140.125179,-35.938103],[140.125777,-35.938394],[140.12639,-35.938688],[140.126983,-35.938932],[140.127926,-35.939246],[140.129022,-35.939548],[140.130471,-35.939934],[140.135828,-35.941358],[140.13702,-35.94168],[140.138523,-35.942032],[140.139978,-35.942319],[140.141605,-35.942617],[140.14262,-35.942765],[140.144099,-35.942955],[140.145726,-35.94311],[140.160707,-35.943818],[140.164584,-35.943992],[140.165747,-35.944058],[140.166613,-35.944124],[140.167551,-35.944229],[140.168427,-35.944356],[140.169293,-35.944508],[140.170021,-35.944643],[140.170882,-35.944829],[140.171777,-35.945054],[140.172725,-35.945325],[140.175103,-35.94606]]}},{"type":"Feature","properties":{"tier":"high"},"geometry":{"type":"LineString","coordinates":[[140.084326,-35.905148],[140.089648,-35.909112],[140.090213,-35.909469],[140.090854,-35.909818],[140.091423,-35.910093],[140.091845,-35.910291],[140.092395,-35.910504],[140.094223,-35.911116],[140.095037,-35.911446],[140.095573,-35.911729],[140.09609,-35.912035],[140.096617,-35.912442],[140.097109,-35.912876],[140.097535,-35.913326],[140.097799,-35.913671],[140.098148,-35.914202],[140.098531,-35.914973],[140.098794,-35.915687],[140.098923,-35.916152]]}},{"type":"Feature","properties":{"tier":"high"},"geometry":{"type":"LineString","coordinates":[[140.07375,-35.89727],[140.084326,-35.905148]]}},{"type":"Feature","properties":{"tier":"high"},"geometry":{"type":"LineString","coordinates":[[140.031688,-35.865672],[140.046001,-35.87643]]}},{"type":"Feature","properties":{"tier":"high"},"geometry":{"type":"LineString","coordinates":[[140.020752,-35.857173],[140.031688,-35.865672]]}},{"type":"Feature","properties":{"tier":"high"},"geometry":{"type":"LineString","coordinates":[[140.048825,-35.878507],[140.049469,-35.878983],[140.049558,-35.87905],[140.050038,-35.879405]]}},{"type":"Feature","properties":{"tier":"high"},"geometry":{"type":"LineString","coordinates":[[140.050038,-35.879405],[140.05073,-35.879918],[140.050867,-35.880019]]}},{"type":"Feature","properties":{"tier":"regional"},"geometry":{"type":"LineString","coordinates":[[140.171478,-35.510968],[140.16823,-35.512762],[140.167112,-35.51342],[140.166471,-35.513872],[140.165902,-35.514413],[140.164475,-35.515976],[140.16341,-35.517044],[140.162431,-35.517765],[140.160943,-35.51886],[140.156748,-35.522187],[140.152649,-35.525427],[140.151129,-35.526289],[140.146124,-35.528865],[140.139861,-35.532089],[140.139153,-35.532578],[140.138597,-35.53307],[140.137837,-35.534008],[140.136141,-35.537043],[140.13574,-35.537708],[140.135298,-35.538295],[140.134763,-35.538787],[140.134208,-35.539151],[140.131879,-35.540162],[140.123749,-35.543803],[140.123159,-35.544065],[140.122619,-35.544217],[140.121838,-35.544361],[140.119507,-35.544543],[140.118882,-35.54463],[140.118259,-35.544852],[140.117522,-35.545242],[140.116277,-35.546216],[140.113369,-35.548341],[140.112634,-35.548736],[140.111841,-35.549032],[140.1096,-35.549698],[140.105612,-35.550908],[140.101368,-35.552762],[140.100539,-35.553202],[140.099987,-35.553641],[140.09911,-35.554507],[140.098689,-35.55496],[140.096973,-35.556087],[140.094985,-35.557271],[140.091211,-35.559353],[140.08289,-35.563713],[140.077928,-35.566338],[140.073583,-35.56883],[140.072977,-35.569178],[140.067935,-35.572078],[140.067254,-35.572439],[140.066493,-35.572691],[140.066009,-35.572795],[140.059332,-35.573112],[140.053349,-35.573397],[140.052344,-35.573511],[140.045431,-35.575283],[140.044698,-35.575392],[140.043983,-35.575426],[140.043086,-35.575399],[140.042365,-35.575304],[140.037504,-35.573874],[140.036623,-35.573619],[140.03561,-35.573386],[140.034837,-35.573297],[140.031544,-35.57318],[140.027082,-35.573022],[140.026218,-35.573011],[140.025646,-35.573102],[140.019709,-35.574618],[140.018767,-35.574855],[140.017898,-35.575008],[140.013753,-35.575505],[140.012798,-35.575584],[140.012252,-35.575605],[140.011843,-35.575584],[140.010823,-35.575447],[140.007024,-35.574903],[140.005627,-35.574771],[139.99998,-35.574398]]}},{"type":"Feature","properties":{"tier":"high"},"geometry":{"type":"LineString","coordinates":[[140.123506,-35.937043],[140.123762,-35.937235],[140.124169,-35.937506],[140.124542,-35.937747],[140.125179,-35.938103]]}},{"type":"Feature","properties":{"tier":"high"},"geometry":{"type":"LineString","coordinates":[[140.113326,-35.92878],[140.115184,-35.930242],[140.119828,-35.933898],[140.120723,-35.934654],[140.121455,-35.935321],[140.122834,-35.936522],[140.123312,-35.936898],[140.123506,-35.937043]]}},{"type":"Feature","properties":{"tier":"high"},"geometry":{"type":"LineString","coordinates":[[140.052677,-35.881306],[140.054393,-35.882615],[140.054949,-35.883039],[140.055292,-35.883312],[140.055754,-35.883656],[140.056336,-35.88409],[140.056928,-35.884532],[140.057365,-35.884857],[140.057484,-35.884946],[140.05955,-35.886486],[140.059593,-35.886518],[140.060778,-35.887403],[140.061293,-35.887789]]}},{"type":"Feature","properties":{"tier":"regional"},"geometry":{"type":"LineString","coordinates":[[140.172393,-35.510457],[140.171478,-35.510968]]}},{"type":"Feature","properties":{"tier":"regional"},"geometry":{"type":"LineString","coordinates":[[140.118943,-35.649264],[140.119125,-35.648748],[140.119725,-35.647397],[140.12067,-35.645209],[140.121139,-35.644151],[140.121348,-35.643681],[140.121557,-35.643273],[140.121917,-35.642508],[140.122491,-35.641396],[140.123303,-35.639666],[140.123942,-35.638404],[140.124714,-35.636806],[140.125406,-35.635437],[140.126332,-35.63356],[140.126946,-35.632267],[140.127324,-35.631521],[140.128174,-35.629749],[140.128971,-35.628136],[140.129684,-35.626716],[140.13065,-35.624769],[140.131101,-35.623854],[140.13138,-35.623246],[140.131747,-35.622528],[140.131903,-35.622306],[140.131999,-35.622197],[140.132286,-35.621924],[140.134606,-35.620158],[140.136124,-35.61897],[140.137997,-35.617535],[140.138874,-35.616877],[140.140344,-35.615738],[140.142822,-35.613841],[140.144332,-35.612688],[140.14529,-35.611988],[140.145689,-35.611646],[140.145912,-35.611404],[140.146105,-35.611181],[140.146253,-35.610922],[140.146432,-35.610525],[140.146507,-35.61025],[140.14655,-35.609947],[140.146542,-35.609698],[140.146521,-35.608798],[140.146427,-35.607287],[140.146306,-35.605725],[140.146169,-35.603693],[140.146065,-35.602635],[140.145869,-35.599769],[140.145805,-35.599211],[140.145754,-35.598982],[140.14567,-35.598753],[140.145493,-35.598506],[140.143205,-35.596011],[140.14092,-35.593486],[140.138115,-35.590417],[140.136041,-35.588131],[140.135481,-35.587536],[140.13503,-35.587004],[140.134882,-35.586759],[140.134765,-35.586556],[140.134714,-35.586325],[140.134657,-35.586092],[140.134625,-35.58578],[140.13451,-35.584091],[140.13436,-35.581775],[140.134226,-35.579519],[140.134035,-35.576037],[140.133885,-35.573101],[140.133769,-35.571528],[140.133619,-35.569143],[140.133603,-35.568655],[140.133536,-35.567642],[140.133475,-35.566647],[140.133364,-35.564616],[140.133257,-35.563019],[140.133029,-35.55915],[140.132978,-35.558345],[140.132895,-35.556805],[140.132804,-35.555251],[140.13279,-35.554598],[140.132686,-35.553254],[140.132592,-35.55193],[140.132474,-35.549885],[140.132402,-35.548172],[140.132259,-35.546011],[140.132208,-35.545027],[140.132077,-35.542495],[140.131975,-35.541271],[140.131879,-35.540162]]}}]}
