{"type":"FeatureCollection","features":[{"type":"Feature","properties":{"tier":"regional"},"geometry":{"type":"LineString","coordinates":[[140.50002,-31.750561],[140.499236,-31.750736],[140.498828,-31.750955],[140.498292,-31.751234],[140.497734,-31.751356],[140.49679,-31.751581],[140.495953,-31.751891],[140.495116,-31.752256],[140.493871,-31.752767],[140.492884,-31.753017],[140.492112,-31.753218],[140.491018,-31.753528],[140.487734,-31.75486],[140.486705,-31.755267],[140.485632,-31.755516],[140.484773,-31.755686],[140.483958,-31.755808],[140.483143,-31.756087],[140.48237,-31.756374],[140.481726,-31.756781],[140.477371,-31.758277],[140.471706,-31.760351],[140.46971,-31.761087],[140.468272,-31.761756],[140.467393,-31.762121],[140.466513,-31.762285],[140.465569,-31.762449],[140.463938,-31.763015],[140.461556,-31.763927],[140.450076,-31.76909],[140.445806,-31.77106],[140.443918,-31.771795],[140.442716,-31.772191],[140.4416,-31.772416],[140.440528,-31.772611],[140.439905,-31.772884],[140.433404,-31.775006],[140.430722,-31.775986],[140.429199,-31.776597],[140.428721,-31.776825],[140.428458,-31.777039],[140.428158,-31.777363],[140.427799,-31.77776],[140.427439,-31.778266],[140.427267,-31.778581],[140.427138,-31.779092],[140.426966,-31.780588],[140.426902,-31.781755],[140.426623,-31.782594],[140.426537,-31.783415],[140.426366,-31.784072],[140.426387,-31.784674],[140.42643,-31.785349],[140.426237,-31.786042],[140.425679,-31.786498],[140.424971,-31.786753],[140.424499,-31.786875],[140.423544,-31.786798],[140.422696,-31.786766],[140.421849,-31.786588],[140.42127,-31.786442],[140.420701,-31.786269],[140.420315,-31.786169],[140.420068,-31.786141],[140.419875,-31.786205],[140.419692,-31.786346],[140.419564,-31.786465],[140.419456,-31.786602],[140.419091,-31.786675],[140.418276,-31.786711],[140.416559,-31.786893],[140.414993,-31.787026],[140.413727,-31.787154],[140.413334,-31.787184]]}},{"type":"Feature","properties":{"tier":"regional"},"geometry":{"type":"LineString","coordinates":[[140.24511,-31.9414],[140.244985,-31.941538],[140.244866,-31.941688],[140.244748,-31.941925],[140.244136,-31.943099],[140.242473,-31.946186],[140.241069,-31.948831],[140.240381,-31.950209],[140.240092,-31.950637],[140.239988,-31.950751],[140.239931,-31.950819],[140.23976,-31.950943],[140.239556,-31.951006],[140.239287,-31.951065],[140.238848,-31.951097],[140.234138,-31.951079],[140.229739,-31.951043],[140.228752,-31.951034],[140.228398,-31.951034],[140.228075,-31.951074],[140.227799,-31.951126],[140.227293,-31.951243],[140.221939,-31.952563],[140.221253,-31.952745],[140.220974,-31.952845],[140.220715,-31.952959],[140.220566,-31.9531],[140.220405,-31.953319],[140.21916,-31.955944],[140.218859,-31.956591],[140.218678,-31.956923],[140.218398,-31.957201],[140.216842,-31.95852],[140.215383,-31.959913],[140.214289,-31.961042],[140.213131,-31.962503],[140.212573,-31.963104],[140.21209,-31.963559],[140.209783,-31.965502],[140.208012,-31.967195],[140.20737,-31.967955],[140.207079,-31.96836],[140.206618,-31.96876],[140.206007,-31.969293],[140.20547,-31.969716],[140.20489,-31.970326],[140.20443,-31.970995],[140.203206,-31.973002],[140.202713,-31.974108],[140.202229,-31.974831],[140.201897,-31.975259],[140.200073,-31.976915],[140.198442,-31.978426],[140.1981,-31.978713],[140.197242,-31.979177],[140.19664,-31.979691],[140.196319,-31.980096],[140.195535,-31.981265],[140.195256,-31.981693],[140.194795,-31.983072],[140.1942,-31.984695],[140.193851,-31.985985],[140.193707,-31.986634],[140.193568,-31.987165],[140.193275,-31.98767],[140.192799,-31.988291],[140.190633,-31.990207],[140.186234,-31.994393],[140.183616,-31.996777],[140.183058,-31.997432],[140.182908,-31.997595],[140.182736,-31.99785],[140.182672,-31.998287],[140.182457,-31.99927],[140.182353,-32.00002]]}},{"type":"Feature","properties":{"tier":"regional"},"geometry":{"type":"LineString","coordinates":[[140.326158,-31.811532],[140.326051,-31.812011],[140.325901,-31.813397],[140.325944,-31.815457],[140.325987,-31.817044],[140.326244,-31.81832],[140.326394,-31.819341],[140.326437,-31.820265],[140.32633,-31.825522],[140.326459,-31.830079],[140.326545,-31.833798],[140.326416,-31.83646],[140.32633,-31.83759],[140.326266,-31.838155],[140.325493,-31.840689],[140.325364,-31.8414],[140.325321,-31.841929],[140.325343,-31.84253],[140.325364,-31.843369],[140.325321,-31.843988],[140.32515,-31.84479],[140.324549,-31.84665],[140.32427,-31.847324],[140.323433,-31.848522],[140.321695,-31.851243],[140.318605,-31.856091],[140.315472,-31.860757],[140.315129,-31.86134],[140.315,-31.861814],[140.313927,-31.865768],[140.312511,-31.871272],[140.311438,-31.875372],[140.310837,-31.877777],[140.310172,-31.880201],[140.310108,-31.880765],[140.310129,-31.881239],[140.310408,-31.882278],[140.310752,-31.884045],[140.311138,-31.885503],[140.311331,-31.886468],[140.31146,-31.887033],[140.311825,-31.891752],[140.312275,-31.897831],[140.312661,-31.902373],[140.312983,-31.907377],[140.31309,-31.909061],[140.31308,-31.911147],[140.31308,-31.912354],[140.313015,-31.913615],[140.312844,-31.914558],[140.312694,-31.915127],[140.312576,-31.915482],[140.312437,-31.915642],[140.31219,-31.915687],[140.311761,-31.915733],[140.311546,-31.915778],[140.311428,-31.915883],[140.31132,-31.916129],[140.311299,-31.916356],[140.311235,-31.916575],[140.311267,-31.916803],[140.311245,-31.91714],[140.311321,-31.917399],[140.311331,-31.917645],[140.311192,-31.917828],[140.311042,-31.917919],[140.310816,-31.917959],[140.310216,-31.917873],[140.309744,-31.9178],[140.309143,-31.917837],[140.308831,-31.917886],[140.30852,-31.918023],[140.307705,-31.918524],[140.306321,-31.919512],[140.305506,-31.920031],[140.303167,-31.921343],[140.302169,-31.921911],[140.301,-31.922608],[140.300374,-31.923084],[140.300012,-31.923359],[140.299944,-31.923404],[140.299293,-31.923833],[140.296923,-31.924894],[140.295228,-31.925604],[140.294692,-31.925814],[140.294241,-31.92595],[140.291452,-31.926542],[140.290271,-31.926724],[140.289809,-31.926765],[140.28907,-31.926724],[140.288351,-31.926633],[140.287804,-31.926588],[140.287364,-31.926542],[140.286827,-31.926542],[140.28613,-31.926488],[140.284553,-31.926269],[140.283727,-31.926133],[140.283093,-31.926073],[140.282513,-31.926046],[140.281989,-31.926032],[140.281259,-31.925841],[140.279832,-31.925449],[140.278094,-31.925085],[140.273887,-31.924415],[140.272944,-31.924257],[140.27244,-31.92422],[140.27201,-31.924233],[140.270509,-31.924384],[140.269704,-31.924448],[140.267752,-31.924821],[140.266035,-31.925131],[140.265036,-31.925363],[140.264575,-31.925499],[140.264211,-31.925704],[140.263738,-31.926],[140.263074,-31.926524],[140.260692,-31.928454],[140.257837,-31.930653],[140.256153,-31.932137],[140.255731,-31.932478],[140.255364,-31.932696],[140.254997,-31.932913],[140.253663,-31.933931],[140.252794,-31.934605],[140.252398,-31.934969],[140.252076,-31.935315],[140.251272,-31.936103],[140.248803,-31.938219],[140.248343,-31.938661],[140.248149,-31.938793],[140.247914,-31.938898],[140.247559,-31.939093],[140.247258,-31.939266],[140.246883,-31.939576],[140.246218,-31.940268],[140.245371,-31.94112],[140.24511,-31.9414]]}},{"type":"Feature","properties":{"tier":"regional"},"geometry":{"type":"LineString","coordinates":[[140.413334,-31.787184],[140.412804,-31.787209],[140.411517,-31.787222],[140.410294,-31.787203],[140.408899,-31.787094],[140.407547,-31.786826],[140.406453,-31.786729],[140.40523,-31.78668],[140.404028,-31.786729],[140.402912,-31.786644],[140.401754,-31.786364],[140.400659,-31.786042],[140.399114,-31.785257],[140.394072,-31.782115],[140.392677,-31.781458],[140.391347,-31.780497],[140.388643,-31.77849],[140.386669,-31.776593],[140.385768,-31.775949],[140.38521,-31.775548],[140.384373,-31.775329],[140.383536,-31.775061],[140.382184,-31.774185],[140.380811,-31.77331],[140.380017,-31.772556],[140.378493,-31.770878],[140.372507,-31.763987],[140.371772,-31.763088],[140.370168,-31.761123],[140.369095,-31.759987],[140.367851,-31.75908],[140.366134,-31.758125],[140.364846,-31.757523],[140.364095,-31.757122],[140.363366,-31.756374],[140.361606,-31.755079],[140.359987,-31.754189],[140.358056,-31.752474],[140.356478,-31.751256],[140.355706,-31.750759],[140.355395,-31.750604],[140.355062,-31.750449],[140.354687,-31.750376],[140.354,-31.750175],[140.353689,-31.749911],[140.353421,-31.749747],[140.353056,-31.749537],[140.352595,-31.749336],[140.352101,-31.749172],[140.350975,-31.748898],[140.348668,-31.748232],[140.34693,-31.747657],[140.346037,-31.747383],[140.345684,-31.747308],[140.34537,-31.747328],[140.345052,-31.747402],[140.344611,-31.747524],[140.344269,-31.747648],[140.344096,-31.747707],[140.343977,-31.747752],[140.343762,-31.747833],[140.343559,-31.747935],[140.343367,-31.748081],[140.343207,-31.748232],[140.343065,-31.748413],[140.342865,-31.748733],[140.342654,-31.749283],[140.341136,-31.753424],[140.340277,-31.755522],[140.339805,-31.756817],[140.339612,-31.758332],[140.339698,-31.759828],[140.339655,-31.760831],[140.339312,-31.762455],[140.338689,-31.764663],[140.338325,-31.76645],[140.337896,-31.76957],[140.337595,-31.772434],[140.337467,-31.774641],[140.337273,-31.775754],[140.336758,-31.777231],[140.335786,-31.779911],[140.335396,-31.781354],[140.335085,-31.783264],[140.334902,-31.783756],[140.334655,-31.784148],[140.334431,-31.785011],[140.334151,-31.785881],[140.334108,-31.786355],[140.33414,-31.786802],[140.334313,-31.7873],[140.334517,-31.78782],[140.334581,-31.788294],[140.33458,-31.788799],[140.334602,-31.78972],[140.334495,-31.790933],[140.334323,-31.791955],[140.334313,-31.792762],[140.334312,-31.793605],[140.334313,-31.79423],[140.334226,-31.7948],[140.334055,-31.795292],[140.333605,-31.796328],[140.332885,-31.798073],[140.332553,-31.798753],[140.332274,-31.799286],[140.33089,-31.801657],[140.329538,-31.804023],[140.329119,-31.804821],[140.326695,-31.810388],[140.326158,-31.811532]]}}]}
