{"type":"FeatureCollection","features":[{"type":"Feature","properties":{"tier":"arterial"},"geometry":{"type":"LineString","coordinates":[[140.126206,-28.99998],[140.125012,-29.004601],[140.124872,-29.005221],[140.124734,-29.006055],[140.124673,-29.006909],[140.124699,-29.007982],[140.124985,-29.011573],[140.125057,-29.012664],[140.125286,-29.015313],[140.125319,-29.015956],[140.125297,-29.017025],[140.125188,-29.01788],[140.125,-29.018749],[140.124177,-29.021886],[140.123424,-29.024925],[140.122519,-29.028432],[140.122012,-29.030321],[140.121432,-29.032636],[140.121074,-29.033927],[140.118588,-29.043779],[140.117483,-29.047998],[140.116003,-29.053824],[140.115758,-29.054647],[140.115465,-29.055467],[140.114665,-29.057464],[140.114427,-29.057978],[140.113678,-29.059799],[140.113379,-29.060587],[140.113141,-29.061413],[140.112956,-29.062269],[140.112291,-29.066193],[140.111966,-29.067933],[140.111187,-29.071183],[140.110141,-29.076032],[140.109957,-29.077078],[140.10929,-29.08155],[140.108857,-29.084243],[140.108671,-29.085276],[140.108445,-29.08693],[140.108068,-29.08928],[140.107914,-29.09035],[140.107699,-29.091632],[140.107564,-29.092271],[140.107192,-29.093747],[140.106283,-29.096856],[140.105927,-29.098213],[140.10507,-29.101241],[140.104776,-29.102354],[140.103853,-29.105533],[140.103526,-29.106837],[140.10328,-29.107734],[140.103108,-29.108456],[140.102897,-29.109179],[140.102012,-29.112751],[140.101689,-29.114244],[140.101135,-29.11638],[140.10081,-29.117798],[140.100561,-29.118791],[140.100156,-29.120589],[140.099711,-29.122417],[140.099458,-29.123592],[140.098252,-29.128694],[140.098023,-29.129735],[140.097439,-29.132076],[140.096961,-29.134235],[140.096102,-29.137777],[140.095976,-29.138392],[140.095636,-29.140525],[140.095245,-29.143618],[140.09438,-29.149523],[140.093783,-29.153967],[140.09349,-29.155937],[140.093354,-29.156969],[140.093061,-29.158865],[140.092082,-29.166353],[140.091601,-29.170336],[140.091197,-29.173445],[140.09018,-29.18173],[140.090058,-29.182355],[140.089877,-29.182967],[140.089491,-29.183978],[140.087837,-29.187925],[140.087511,-29.188783],[140.086936,-29.190135],[140.086483,-29.191274],[140.085341,-29.194034],[140.082965,-29.199935],[140.082514,-29.200924],[140.082207,-29.201504],[140.081744,-29.202273],[140.080981,-29.203435],[140.07917,-29.206275],[140.075826,-29.211447],[140.075603,-29.211823],[140.075402,-29.212206],[140.075128,-29.212789],[140.074841,-29.213596],[140.074391,-29.215021],[140.073846,-29.216615],[140.073461,-29.217808],[140.071462,-29.223554],[140.071003,-29.224913],[140.070696,-29.225891],[140.070349,-29.22687],[140.069079,-29.230641],[140.06766,-29.235033],[140.066745,-29.237778],[140.066146,-29.23976],[140.06527,-29.242405],[140.064444,-29.244775],[140.06371,-29.246814],[140.062087,-29.251534],[140.05983,-29.257947],[140.058718,-29.261201],[140.057916,-29.263621],[140.057446,-29.264893],[140.05707,-29.265789],[140.05561,-29.268864],[140.05422,-29.271854],[140.05324,-29.273873],[140.05246,-29.275598],[140.050987,-29.278685],[140.050287,-29.280198],[140.049921,-29.280941],[140.048379,-29.284266],[140.047975,-29.285036],[140.047641,-29.285593],[140.047146,-29.286304],[140.04687,-29.28664],[140.046293,-29.287283],[140.045074,-29.288546]]}},{"type":"Feature","properties":{"tier":"arterial"},"geometry":{"type":"LineString","coordinates":[[140.023186,-29.347816],[140.022018,-29.351908],[140.020977,-29.355712],[140.020432,-29.357612],[140.019743,-29.360113],[140.019513,-29.360877],[140.019384,-29.361245],[140.019232,-29.3616],[140.019048,-29.361949],[140.01884,-29.36229],[140.018466,-29.362774],[140.018196,-29.363081],[140.016758,-29.364636],[140.014626,-29.36689],[140.013922,-29.367683],[140.013027,-29.368646],[140.01229,-29.369468],[140.010923,-29.370926],[140.009108,-29.372921],[140.008315,-29.373764],[140.006258,-29.376012],[140.00562,-29.376682],[140.001918,-29.380709],[139.99998,-29.382783]]}},{"type":"Feature","properties":{"tier":"arterial"},"geometry":{"type":"LineString","coordinates":[[140.045074,-29.288546],[140.04222,-29.291501],[140.039693,-29.2942],[140.039085,-29.294831],[140.038918,-29.294982],[140.037889,-29.296075],[140.037612,-29.296403],[140.03736,-29.29675],[140.037164,-29.297129],[140.036989,-29.297525],[140.036792,-29.298138],[140.036332,-29.299928],[140.035554,-29.302819],[140.035021,-29.304763],[140.034596,-29.306235],[140.034275,-29.307499],[140.03347,-29.310424],[140.033399,-29.310623],[140.032997,-29.31203],[140.032204,-29.314908],[140.031494,-29.317568],[140.03124,-29.318583],[140.030632,-29.320738],[140.030231,-29.32226],[140.029951,-29.323215],[140.029656,-29.324356],[140.029378,-29.32529],[140.027638,-29.331597],[140.027349,-29.332592],[140.026358,-29.33621],[140.026002,-29.337584],[140.025627,-29.338769],[140.025347,-29.339761],[140.024959,-29.341351],[140.02395,-29.345042],[140.023663,-29.346017],[140.023186,-29.347816]]}}]}
