{"type":"FeatureCollection","features":[{"type":"Feature","properties":{"tier":"regional"},"geometry":{"type":"LineString","coordinates":[[140.327178,-32.280335],[140.327082,-32.280082]]}},{"type":"Feature","properties":{"tier":"high"},"geometry":{"type":"LineString","coordinates":[[140.332049,-32.280339],[140.331558,-32.280461],[140.329651,-32.280908]]}},{"type":"Feature","properties":{"tier":"high"},"geometry":{"type":"LineString","coordinates":[[140.323225,-32.282511],[140.321047,-32.283189],[140.305315,-32.287062],[140.304433,-32.287293],[140.303662,-32.287471],[140.303007,-32.287617],[140.302312,-32.287732],[140.301507,-32.287807],[140.300737,-32.287827],[140.300061,-32.287822],[140.293361,-32.28766]]}},{"type":"Feature","properties":{"tier":"high"},"geometry":{"type":"LineString","coordinates":[[140.463621,-32.213854],[140.463344,-32.214038]]}},{"type":"Feature","properties":{"tier":"high"},"geometry":{"type":"LineString","coordinates":[[140.090744,-32.399766],[140.089965,-32.400272]]}},{"type":"Feature","properties":{"tier":"high"},"geometry":{"type":"LineString","coordinates":[[140.463344,-32.214038],[140.458266,-32.217463],[140.453546,-32.22061],[140.445937,-32.225678],[140.445433,-32.225984],[140.445025,-32.226188],[140.444549,-32.226353],[140.444051,-32.226466],[140.443513,-32.226568],[140.441243,-32.226968],[140.438703,-32.227371],[140.438202,-32.227467],[140.437727,-32.22758],[140.437335,-32.227698],[140.436965,-32.227838],[140.436642,-32.227973],[140.436313,-32.228135],[140.436028,-32.228301],[140.435744,-32.228478],[140.433359,-32.230072],[140.431512,-32.231257],[140.431271,-32.231408],[140.431017,-32.231549],[140.430715,-32.2317],[140.430387,-32.23185],[140.430071,-32.231976],[140.427773,-32.232795],[140.427663,-32.232832],[140.425896,-32.233438],[140.422304,-32.234668],[140.420147,-32.235405],[140.419592,-32.23559],[140.41918,-32.235737],[140.418757,-32.235887],[140.418389,-32.236029],[140.418063,-32.236167],[140.41775,-32.236317],[140.417422,-32.236487],[140.417084,-32.236684],[140.416742,-32.236905],[140.416218,-32.237292],[140.41565,-32.237757],[140.415221,-32.238124],[140.413405,-32.239689],[140.409829,-32.242766],[140.402987,-32.248755],[140.401967,-32.249668],[140.401206,-32.250267],[140.400718,-32.250634],[140.400147,-32.251037],[140.399739,-32.251331],[140.399354,-32.25159],[140.398947,-32.251828],[140.398908,-32.251851],[140.39843,-32.252077],[140.398071,-32.252211],[140.39797,-32.252249],[140.397509,-32.252391],[140.396962,-32.252513],[140.396337,-32.252626],[140.391819,-32.253361],[140.386468,-32.254223],[140.383078,-32.254843],[140.382006,-32.255053],[140.380919,-32.25526],[140.380124,-32.255457],[140.379419,-32.255676],[140.370328,-32.259074],[140.36848,-32.259811],[140.367076,-32.26042],[140.365927,-32.260923],[140.364533,-32.261552],[140.363082,-32.262157],[140.360558,-32.263128],[140.357356,-32.264341]]}},{"type":"Feature","properties":{"tier":"high"},"geometry":{"type":"LineString","coordinates":[[140.50002,-32.202652],[140.497757,-32.203177],[140.488578,-32.205274],[140.475508,-32.208283],[140.473985,-32.208628],[140.472724,-32.208911],[140.471623,-32.20919],[140.470949,-32.209366],[140.470331,-32.209586],[140.469691,-32.209872],[140.469026,-32.210262],[140.468232,-32.210789],[140.466931,-32.211653],[140.463621,-32.213854]]}},{"type":"Feature","properties":{"tier":"high"},"geometry":{"type":"LineString","coordinates":[[140.089965,-32.400272],[140.089625,-32.400492],[140.087986,-32.401547],[140.08767,-32.401748],[140.087382,-32.401905],[140.087205,-32.402007],[140.087131,-32.402039],[140.086829,-32.402173],[140.086285,-32.402389],[140.082002,-32.403981],[140.076163,-32.406143],[140.069347,-32.408676],[140.060432,-32.411977],[140.05354,-32.414558],[140.043335,-32.418309],[140.030797,-32.422928],[140.022452,-32.425955],[140.021902,-32.426139],[140.021275,-32.42632],[140.020653,-32.426496],[140.020114,-32.426633],[140.019531,-32.426767],[140.018679,-32.42691],[140.010811,-32.427955],[140.00237,-32.429076],[139.99998,-32.42938]]}},{"type":"Feature","properties":{"tier":"regional"},"geometry":{"type":"LineString","coordinates":[[140.032392,-32.293428],[140.032637,-32.293515],[140.033109,-32.293633],[140.033517,-32.293778],[140.033884,-32.293925],[140.034413,-32.29419],[140.034868,-32.294385],[140.035311,-32.294506],[140.035708,-32.294515],[140.036062,-32.294442],[140.037167,-32.294216],[140.046169,-32.292375],[140.051555,-32.291359],[140.052106,-32.291258],[140.052512,-32.291186],[140.052898,-32.291158],[140.053282,-32.291177],[140.055331,-32.291304],[140.06297,-32.291685],[140.063646,-32.291703],[140.06414,-32.291667],[140.064601,-32.291576],[140.064901,-32.291477],[140.065234,-32.291341],[140.06915,-32.289663],[140.072583,-32.288166],[140.073463,-32.287758],[140.07592,-32.286325],[140.084213,-32.281663],[140.091144,-32.277708],[140.097721,-32.274025],[140.100435,-32.272475],[140.101969,-32.271368],[140.102259,-32.271141],[140.102388,-32.270932],[140.102452,-32.27066],[140.102957,-32.269118],[140.103139,-32.268519],[140.103321,-32.268184],[140.103536,-32.267957],[140.103826,-32.267648],[140.109211,-32.262477],[140.113063,-32.258594],[140.116904,-32.255228],[140.118191,-32.254176],[140.119415,-32.252887],[140.120187,-32.252098],[140.120391,-32.25178],[140.120509,-32.251508],[140.122308,-32.246522],[140.124425,-32.240565],[140.125755,-32.236889],[140.126002,-32.2362],[140.126184,-32.235855],[140.126453,-32.235601],[140.127075,-32.235084],[140.130465,-32.232315],[140.132804,-32.230355],[140.133298,-32.230019],[140.13583,-32.228449],[140.138866,-32.226562],[140.140529,-32.225518],[140.140851,-32.225236],[140.141258,-32.224792],[140.144048,-32.220961],[140.146194,-32.217766],[140.146505,-32.217213],[140.146716,-32.216174],[140.146738,-32.215874],[140.146727,-32.215539],[140.146673,-32.215151],[140.146676,-32.214881],[140.146607,-32.214638],[140.146575,-32.214474],[140.146669,-32.214417],[140.146953,-32.214317],[140.147145,-32.214268],[140.147463,-32.214237],[140.147907,-32.214277],[140.1483,-32.214287],[140.14864,-32.21429],[140.149166,-32.214235],[140.1506,-32.214177],[140.151094,-32.214159],[140.151437,-32.214186],[140.151751,-32.214244],[140.152105,-32.214308],[140.152502,-32.214508],[140.156086,-32.217131],[140.156654,-32.217549],[140.157008,-32.21783],[140.157363,-32.218111],[140.158929,-32.219709],[140.16248,-32.22373],[140.163231,-32.224628],[140.163467,-32.22481],[140.163714,-32.224973],[140.164025,-32.225127],[140.167533,-32.226199],[140.172458,-32.22766],[140.178026,-32.229502],[140.178906,-32.229747],[140.179514,-32.230006],[140.183991,-32.232188],[140.184431,-32.23237],[140.185375,-32.232624],[140.188208,-32.233305],[140.188691,-32.233405],[140.189088,-32.233504],[140.19398,-32.235301],[140.194656,-32.235546],[140.195096,-32.235646],[140.195729,-32.235719],[140.196104,-32.235755],[140.196544,-32.235764],[140.19692,-32.235728],[140.197274,-32.235655],[140.197617,-32.235492],[140.198389,-32.235211],[140.199065,-32.235065],[140.199505,-32.235011],[140.199902,-32.234956],[140.200332,-32.234984],[140.203818,-32.235537],[140.205052,-32.2358],[140.205481,-32.235837],[140.205814,-32.235828],[140.206189,-32.235773],[140.206608,-32.235728],[140.207348,-32.235673],[140.208496,-32.235646],[140.210642,-32.235664],[140.211264,-32.235682],[140.211661,-32.23571],[140.212326,-32.235782],[140.212863,-32.23581],[140.214429,-32.235855],[140.215277,-32.235891],[140.215985,-32.235964],[140.216543,-32.236046],[140.217208,-32.236218],[140.217616,-32.236318],[140.223216,-32.237162],[140.223431,-32.237207],[140.223624,-32.237298],[140.224157,-32.237657],[140.230329,-32.241481],[140.230705,-32.241663],[140.231016,-32.241817],[140.231273,-32.241872],[140.231531,-32.241899],[140.231767,-32.241872],[140.232003,-32.241817],[140.232732,-32.241545],[140.236659,-32.240165],[140.237024,-32.240057],[140.237249,-32.240011],[140.237475,-32.240011],[140.237711,-32.24002],[140.237944,-32.240071],[140.24315,-32.241327],[140.249663,-32.242852],[140.250725,-32.243042],[140.251454,-32.24326],[140.255896,-32.24492],[140.256669,-32.24522],[140.257055,-32.24532],[140.257302,-32.245356],[140.26051,-32.245828],[140.260853,-32.24591],[140.263371,-32.246876],[140.265638,-32.247743],[140.26758,-32.248496],[140.269822,-32.249321],[140.270348,-32.249503],[140.273685,-32.251154],[140.274275,-32.251435],[140.274511,-32.251599],[140.277461,-32.254294],[140.279496,-32.256131],[140.280218,-32.256743],[140.28054,-32.256925],[140.280873,-32.25707],[140.281291,-32.25727],[140.28172,-32.25746],[140.286534,-32.259878],[140.286974,-32.260096],[140.287308,-32.260279],[140.28764,-32.260387],[140.289177,-32.260826],[140.291266,-32.26153],[140.294358,-32.26272],[140.294717,-32.262894],[140.294996,-32.263058],[140.296,-32.263775],[140.29629,-32.264001],[140.296666,-32.26421],[140.300689,-32.266442],[140.301097,-32.266687],[140.302599,-32.267313],[140.303103,-32.26753],[140.30336,-32.267657],[140.304927,-32.268728],[140.30526,-32.268955],[140.305496,-32.2691],[140.305911,-32.269259],[140.313045,-32.27218],[140.318917,-32.274533],[140.323633,-32.276433]]}},{"type":"Feature","properties":{"tier":"high"},"geometry":{"type":"LineString","coordinates":[[140.293361,-32.28766],[140.293148,-32.287655]]}},{"type":"Feature","properties":{"tier":"high"},"geometry":{"type":"LineString","coordinates":[[140.199842,-32.320039],[140.194231,-32.324435],[140.191072,-32.326904]]}},{"type":"Feature","properties":{"tier":"high"},"geometry":{"type":"LineString","coordinates":[[140.200058,-32.319869],[140.199842,-32.320039]]}},{"type":"Feature","properties":{"tier":"high"},"geometry":{"type":"LineString","coordinates":[[140.344411,-32.270214],[140.344167,-32.270498]]}},{"type":"Feature","properties":{"tier":"high"},"geometry":{"type":"LineString","coordinates":[[140.341197,-32.273941],[140.340865,-32.274326],[140.340459,-32.274791],[140.340143,-32.275139],[140.339791,-32.275485],[140.339378,-32.275843],[140.338987,-32.276168],[140.338534,-32.276517],[140.335867,-32.278573],[140.33542,-32.278882],[140.33505,-32.279112],[140.334612,-32.279365],[140.334215,-32.27956],[140.333848,-32.279733],[140.333469,-32.279884],[140.33304,-32.280037],[140.332629,-32.280174],[140.332049,-32.280339]]}},{"type":"Feature","properties":{"tier":"high"},"geometry":{"type":"LineString","coordinates":[[140.190923,-32.327016],[140.188444,-32.328987],[140.172813,-32.341075],[140.160329,-32.35095],[140.154194,-32.355753],[140.150982,-32.358225],[140.149284,-32.359561],[140.148748,-32.359974],[140.148291,-32.360298],[140.147781,-32.360647],[140.147108,-32.361097],[140.146539,-32.361468],[140.146073,-32.361774],[140.145708,-32.362021],[140.145327,-32.362308],[140.143707,-32.363548],[140.143323,-32.363853],[140.141617,-32.365204],[140.1415,-32.365297],[140.138543,-32.367598],[140.136193,-32.36938],[140.135484,-32.369901],[140.132806,-32.371714],[140.124799,-32.377086],[140.121877,-32.379038],[140.116599,-32.382585],[140.108231,-32.388174],[140.105564,-32.389969],[140.095487,-32.396711],[140.094929,-32.397063],[140.092798,-32.398432],[140.092103,-32.398878],[140.090744,-32.399766]]}},{"type":"Feature","properties":{"tier":"high"},"geometry":{"type":"LineString","coordinates":[[140.293148,-32.287655],[140.292762,-32.287641],[140.292286,-32.287624],[140.291887,-32.287616],[140.29149,-32.287633],[140.291108,-32.287661],[140.290685,-32.287714],[140.286461,-32.288361],[140.281946,-32.289085],[140.281375,-32.289174],[140.280957,-32.289257],[140.280618,-32.289348],[140.280286,-32.289468],[140.279785,-32.289674],[140.279308,-32.28992],[140.278858,-32.290196],[140.278569,-32.290372]]}},{"type":"Feature","properties":{"tier":"high"},"geometry":{"type":"LineString","coordinates":[[140.191072,-32.326904],[140.190923,-32.327016]]}},{"type":"Feature","properties":{"tier":"regional"},"geometry":{"type":"LineString","coordinates":[[140.325044,-32.275548],[140.325172,-32.276442],[140.325215,-32.276964],[140.325258,-32.277236],[140.325333,-32.277426],[140.325478,-32.277698],[140.325709,-32.277993],[140.326036,-32.278388],[140.326363,-32.278787],[140.326621,-32.279141],[140.326768,-32.279343],[140.326856,-32.279486],[140.326946,-32.279702],[140.327082,-32.280082]]}},{"type":"Feature","properties":{"tier":"regional"},"geometry":{"type":"LineString","coordinates":[[140.162909,-32.044806],[140.162957,-32.044965],[140.162957,-32.045069],[140.162931,-32.045156],[140.162877,-32.045279]]}},{"type":"Feature","properties":{"tier":"regional"},"geometry":{"type":"LineString","coordinates":[[140.163504,-32.045337],[140.163671,-32.045479],[140.163918,-32.045716],[140.166492,-32.049002],[140.16686,-32.04939],[140.167201,-32.049644],[140.167566,-32.049935],[140.16969,-32.051626],[140.170441,-32.052263],[140.171084,-32.052858],[140.171535,-32.053336],[140.17175,-32.053718],[140.172586,-32.055786],[140.172823,-32.0563],[140.172973,-32.056555],[140.179239,-32.06292],[140.18589,-32.069702],[140.191384,-32.075412],[140.191963,-32.076066],[140.192392,-32.076412],[140.192735,-32.076606],[140.193015,-32.076703],[140.193444,-32.076921],[140.193808,-32.077121],[140.19413,-32.07743],[140.194559,-32.078139],[140.197027,-32.081703],[140.201984,-32.088175],[140.208677,-32.097113],[140.209022,-32.097573],[140.209322,-32.097828],[140.215202,-32.10299],[140.218699,-32.106153],[140.221703,-32.10877],[140.222798,-32.109752],[140.2246,-32.111151],[140.229235,-32.114695],[140.231467,-32.116494],[140.232282,-32.11713],[140.234342,-32.118294],[140.235694,-32.119148],[140.236574,-32.119838],[140.237732,-32.120656],[140.239084,-32.121692],[140.240157,-32.12251],[140.2405,-32.122819],[140.240801,-32.123146],[140.240994,-32.123618],[140.241101,-32.124127],[140.24108,-32.12469],[140.241057,-32.125139],[140.240865,-32.125472],[140.24065,-32.125781],[140.240629,-32.125823],[140.240522,-32.126035],[140.24035,-32.126289],[140.240307,-32.126544],[140.240328,-32.126775],[140.240479,-32.127071],[140.240822,-32.127452],[140.241272,-32.128083],[140.242754,-32.129906],[140.243675,-32.130882],[140.247286,-32.134197],[140.248424,-32.135243],[140.249242,-32.135818],[140.25829,-32.142189],[140.259664,-32.14308],[140.260736,-32.143751],[140.267087,-32.146912],[140.268094,-32.147488],[140.268804,-32.148002],[140.278803,-32.154688],[140.280239,-32.155627],[140.281226,-32.156499],[140.284683,-32.159338],[140.286013,-32.160392],[140.286743,-32.160937],[140.287472,-32.161264],[140.294037,-32.164933],[140.294737,-32.165355],[140.295283,-32.165746]]}},{"type":"Feature","properties":{"tier":"regional"},"geometry":{"type":"LineString","coordinates":[[140.162909,-32.044806],[140.163504,-32.045337]]}},{"type":"Feature","properties":{"tier":"regional"},"geometry":{"type":"LineString","coordinates":[[140.052021,-32.043069],[140.052642,-32.042969],[140.053968,-32.042773],[140.054366,-32.0427],[140.054962,-32.04258],[140.056176,-32.042407],[140.058089,-32.042123],[140.058872,-32.041977],[140.05928,-32.041886],[140.059385,-32.041859],[140.059591,-32.041805],[140.05988,-32.041641],[140.060159,-32.041514],[140.06047,-32.041314],[140.060828,-32.041016],[140.060996,-32.040841],[140.061189,-32.040595],[140.061283,-32.040489],[140.061445,-32.04043],[140.061903,-32.04032],[140.062095,-32.040273],[140.062509,-32.040168],[140.063539,-32.039913],[140.064623,-32.039576],[140.066168,-32.038976],[140.06723,-32.038485],[140.06826,-32.03793],[140.069375,-32.037485],[140.072358,-32.036448],[140.074321,-32.035711],[140.075931,-32.035156],[140.07754,-32.034729],[140.079739,-32.034019],[140.081478,-32.033492],[140.082143,-32.033319],[140.085179,-32.032873],[140.086756,-32.032601],[140.087625,-32.032519],[140.088172,-32.032473],[140.089921,-32.032437],[140.091091,-32.03241],[140.091938,-32.032373],[140.094084,-32.03221],[140.096036,-32.0321],[140.098998,-32.031982],[140.099963,-32.031955],[140.100586,-32.031973],[140.102227,-32.032191],[140.102849,-32.0323],[140.103321,-32.032355],[140.103847,-32.032382],[140.104341,-32.032482],[140.104866,-32.032628],[140.105242,-32.032737],[140.105585,-32.032892],[140.105971,-32.033101],[140.106604,-32.033419],[140.108418,-32.034256],[140.108782,-32.03441],[140.109061,-32.034483],[140.109297,-32.034511],[140.10948,-32.034492],[140.109619,-32.034483],[140.109759,-32.034492],[140.109973,-32.034538],[140.11022,-32.034665],[140.11066,-32.034948],[140.11141,-32.035324],[140.112119,-32.035803],[140.112956,-32.036184],[140.113578,-32.036421],[140.114651,-32.036866],[140.11507,-32.03703],[140.11552,-32.037257],[140.11611,-32.037366],[140.116604,-32.037494],[140.117205,-32.037576],[140.117762,-32.037748],[140.118728,-32.038167],[140.121184,-32.039226],[140.122494,-32.039704],[140.123459,-32.039958],[140.124157,-32.040149],[140.124962,-32.040331],[140.12523,-32.040413],[140.125476,-32.040431],[140.126045,-32.040477],[140.127365,-32.040559],[140.128877,-32.040577],[140.129768,-32.040568],[140.130465,-32.040531],[140.13097,-32.040495],[140.131431,-32.040495],[140.131807,-32.040495],[140.13216,-32.040522],[140.132397,-32.04054],[140.132686,-32.040559],[140.132976,-32.040531],[140.133191,-32.040495],[140.133341,-32.040422],[140.13348,-32.040277],[140.133598,-32.040177],[140.133759,-32.040095],[140.133974,-32.040067],[140.134199,-32.04004],[140.134467,-32.040113],[140.135315,-32.040331],[140.138662,-32.041077],[140.141924,-32.041805],[140.143737,-32.042214],[140.144477,-32.042378],[140.146881,-32.04306],[140.148436,-32.043496],[140.14879,-32.043596],[140.149048,-32.043623],[140.149305,-32.043623],[140.151108,-32.043596],[140.151623,-32.043587],[140.151794,-32.043597],[140.152084,-32.043614],[140.152964,-32.043742],[140.153876,-32.043851],[140.154627,-32.043969],[140.155689,-32.044142],[140.156397,-32.044242],[140.157481,-32.044424],[140.157878,-32.044524],[140.158328,-32.044697],[140.158779,-32.044778],[140.159143,-32.04486],[140.15954,-32.044878],[140.159916,-32.044888],[140.160192,-32.044875],[140.160453,-32.04492],[140.160764,-32.045051],[140.161021,-32.045188],[140.161161,-32.045237],[140.161354,-32.045306],[140.161815,-32.045351],[140.162319,-32.045397],[140.16262,-32.045351],[140.162877,-32.045279],[140.163081,-32.045288],[140.163504,-32.045337]]}},{"type":"Feature","properties":{"tier":"regional"},"geometry":{"type":"LineString","coordinates":[[140.295283,-32.165746],[140.29614,-32.166332],[140.296568,-32.16669],[140.299402,-32.169347],[140.299917,-32.169928],[140.30026,-32.170183],[140.300516,-32.170413],[140.300689,-32.170782],[140.301096,-32.172447],[140.301182,-32.173034],[140.301418,-32.173416],[140.301632,-32.173737],[140.301997,-32.174264],[140.303478,-32.176503],[140.303713,-32.176939],[140.303799,-32.177211],[140.303885,-32.177484],[140.304314,-32.179572],[140.305967,-32.187031],[140.307082,-32.191958],[140.307512,-32.193665],[140.307683,-32.194355],[140.307962,-32.194803],[140.3088,-32.196097],[140.31279,-32.201921],[140.313584,-32.20301],[140.313949,-32.20361],[140.314249,-32.204178],[140.314485,-32.204795],[140.31558,-32.208808],[140.316867,-32.21374],[140.318155,-32.218502],[140.319459,-32.223509],[140.320531,-32.227419],[140.320772,-32.228263],[140.320823,-32.228652],[140.320794,-32.229049],[140.320536,-32.231445],[140.320214,-32.233423],[140.320214,-32.233913],[140.320236,-32.234313],[140.320558,-32.236164],[140.320665,-32.236745],[140.320858,-32.237211],[140.322918,-32.242099],[140.323176,-32.242843],[140.323326,-32.24326],[140.323455,-32.243787],[140.323476,-32.244186],[140.323476,-32.244562],[140.323176,-32.246509],[140.322682,-32.249268],[140.32251,-32.25012],[140.322446,-32.250901],[140.322382,-32.254657],[140.322296,-32.257174],[140.322274,-32.258722],[140.322231,-32.25923],[140.322124,-32.259642],[140.321868,-32.259973],[140.321609,-32.260155],[140.321523,-32.260355],[140.321481,-32.260622],[140.321545,-32.260936],[140.321695,-32.261353],[140.322403,-32.262581],[140.323455,-32.26451],[140.32397,-32.265435],[140.32427,-32.266016],[140.324399,-32.266433],[140.324549,-32.266832],[140.324656,-32.267304],[140.324721,-32.267812],[140.324699,-32.268375],[140.324678,-32.268791],[140.32457,-32.269385],[140.324506,-32.269898],[140.324485,-32.270406],[140.324442,-32.270986],[140.324527,-32.27173],[140.324635,-32.272529],[140.324721,-32.273508],[140.324871,-32.274447],[140.325044,-32.275548]]}},{"type":"Feature","properties":{"tier":"regional"},"geometry":{"type":"LineString","coordinates":[[140.182359,-31.99998],[140.182329,-32.000198],[140.182178,-32.000835],[140.181642,-32.001763],[140.181084,-32.002964],[140.180762,-32.003528],[140.180332,-32.003995],[140.177715,-32.006548],[140.176513,-32.007762],[140.175826,-32.008362],[140.175355,-32.008714],[140.173316,-32.00966],[140.171992,-32.010331]]}},{"type":"Feature","properties":{"tier":"regional"},"geometry":{"type":"LineString","coordinates":[[140.171992,-32.010331],[140.171137,-32.010728],[140.170504,-32.011046],[140.169371,-32.011526],[140.168885,-32.011743],[140.168167,-32.011979],[140.167833,-32.012129],[140.167653,-32.012212],[140.167479,-32.012329],[140.167211,-32.012538],[140.166525,-32.013116],[140.166063,-32.013639],[140.165549,-32.014035],[140.165248,-32.01429],[140.165023,-32.014454],[140.164884,-32.014599],[140.164807,-32.014803],[140.164765,-32.01499],[140.164689,-32.015204],[140.164519,-32.015482],[140.163596,-32.017047],[140.161407,-32.020976],[140.160249,-32.022978],[140.159948,-32.023705],[140.159219,-32.025506],[140.158554,-32.027125],[140.157931,-32.028981],[140.157545,-32.030291],[140.157352,-32.031128],[140.157309,-32.03151],[140.157373,-32.031873],[140.157479,-32.032286],[140.159336,-32.03687],[140.160592,-32.039904],[140.161748,-32.042793],[140.161889,-32.043203],[140.161985,-32.04347],[140.162072,-32.043686],[140.162212,-32.043951],[140.162362,-32.044178],[140.162545,-32.044442],[140.162909,-32.044806]]}},{"type":"Feature","properties":{"tier":"regional"},"geometry":{"type":"LineString","coordinates":[[140.022708,-32.287126],[140.022962,-32.287187],[140.023346,-32.287322],[140.025352,-32.288109],[140.027307,-32.288837],[140.028113,-32.289239],[140.028431,-32.289397],[140.029325,-32.289817],[140.029968,-32.290016],[140.030577,-32.290096],[140.031073,-32.290143],[140.031663,-32.290143],[140.032264,-32.290098],[140.032736,-32.290071],[140.03323,-32.290125],[140.033774,-32.290277],[140.034364,-32.290531],[140.034893,-32.290969],[140.035212,-32.291365],[140.035472,-32.291966],[140.035534,-32.29259],[140.035416,-32.293025],[140.035138,-32.293471],[140.03484,-32.293778],[140.034504,-32.293896],[140.03416,-32.293948],[140.033884,-32.293925]]}},{"type":"Feature","properties":{"tier":"regional"},"geometry":{"type":"LineString","coordinates":[[139.99998,-32.050052],[140.001012,-32.049916],[140.002299,-32.049752],[140.003093,-32.049698],[140.004488,-32.049843],[140.006719,-32.049971],[140.008093,-32.049971],[140.009445,-32.049953],[140.01071,-32.049807],[140.015278,-32.049077],[140.017684,-32.048516],[140.018392,-32.048297],[140.019229,-32.048134],[140.019894,-32.048116],[140.020581,-32.048206],[140.021568,-32.048352],[140.02219,-32.048334],[140.022705,-32.048352],[140.023177,-32.048516],[140.023893,-32.048954],[140.024379,-32.049343],[140.024901,-32.049591],[140.025343,-32.049749],[140.025752,-32.049789],[140.026348,-32.049795],[140.026696,-32.049734],[140.027076,-32.0496],[140.027258,-32.049518],[140.027705,-32.049316],[140.02842,-32.049159],[140.029099,-32.049091],[140.030366,-32.049043],[140.031095,-32.049025],[140.031589,-32.049098],[140.033088,-32.049422],[140.033713,-32.049534],[140.034203,-32.049513],[140.034593,-32.049352],[140.036846,-32.048352],[140.040258,-32.046842],[140.042296,-32.045951],[140.04461,-32.045185],[140.047596,-32.044205],[140.049205,-32.043723],[140.050535,-32.043378],[140.05163,-32.043132],[140.052021,-32.043069]]}},{"type":"Feature","properties":{"tier":"regional"},"geometry":{"type":"LineString","coordinates":[[140.032392,-32.293428],[140.03206,-32.293354],[140.031663,-32.293218],[140.03146,-32.293173],[140.031266,-32.293154],[140.031092,-32.293207],[140.030969,-32.293285],[140.030916,-32.293437],[140.03073,-32.29408],[140.030322,-32.295513],[140.029614,-32.297435]]}},{"type":"Feature","properties":{"tier":"regional"},"geometry":{"type":"LineString","coordinates":[[140.018974,-32.331158],[140.019078,-32.330993],[140.019164,-32.330794],[140.019548,-32.329459],[140.021232,-32.3242],[140.023421,-32.317409],[140.024947,-32.312488],[140.026232,-32.308351],[140.027297,-32.305062],[140.028799,-32.300297],[140.029217,-32.299013],[140.029459,-32.298211],[140.029582,-32.297721],[140.029614,-32.297435],[140.029614,-32.296973],[140.029582,-32.296651],[140.029534,-32.296397],[140.02941,-32.296016],[140.029271,-32.29564],[140.029048,-32.29527],[140.027812,-32.293454],[140.026433,-32.291441],[140.025178,-32.289622],[140.024888,-32.289187],[140.024443,-32.288602],[140.024126,-32.288207],[140.02359,-32.287708],[140.023027,-32.287305],[140.022708,-32.287126],[140.022565,-32.287046],[140.021895,-32.286724],[140.018553,-32.285414],[140.015801,-32.284357],[140.013929,-32.28364],[140.012443,-32.283051],[140.0116,-32.282711],[140.011059,-32.282507],[140.008157,-32.281591],[140.004686,-32.280502],[140.004279,-32.280373],[140.003657,-32.280171],[140.003083,-32.27997],[140.002758,-32.279834],[140.002395,-32.279654],[140.000652,-32.278692],[139.99998,-32.278309]]}},{"type":"Feature","properties":{"tier":"regional"},"geometry":{"type":"LineString","coordinates":[[139.99998,-32.38601],[140.00276,-32.384274],[140.006998,-32.38151],[140.007706,-32.381066],[140.008049,-32.380758],[140.008403,-32.380314],[140.008693,-32.379725],[140.008875,-32.379281],[140.008969,-32.378754],[140.009066,-32.377875],[140.009455,-32.374796],[140.01001,-32.370263],[140.010495,-32.366722],[140.010667,-32.365318],[140.010718,-32.364391],[140.010699,-32.36336],[140.010903,-32.361557],[140.011329,-32.357812],[140.011576,-32.354649],[140.011665,-32.353844],[140.011898,-32.352093],[140.012467,-32.349256],[140.013081,-32.345878],[140.013263,-32.344744],[140.013371,-32.344037],[140.013389,-32.343428],[140.013314,-32.342739],[140.013296,-32.341744],[140.013789,-32.338988],[140.014114,-32.337644],[140.014444,-32.336351],[140.014623,-32.335803],[140.01482,-32.335462],[140.015092,-32.335115],[140.016469,-32.333647],[140.018435,-32.331755],[140.018873,-32.331266],[140.018974,-32.331158]]}},{"type":"Feature","properties":{"tier":"regional"},"geometry":{"type":"LineString","coordinates":[[140.323633,-32.276433],[140.324295,-32.276689],[140.324644,-32.27683],[140.324859,-32.276932],[140.325025,-32.277016],[140.325145,-32.277102],[140.325205,-32.277161],[140.325258,-32.277236]]}},{"type":"Feature","properties":{"tier":"regional"},"geometry":{"type":"LineString","coordinates":[[140.327561,-32.281407],[140.3274,-32.280929],[140.327271,-32.280561],[140.327178,-32.280335]]}},{"type":"Feature","properties":{"tier":"high"},"geometry":{"type":"LineString","coordinates":[[140.329651,-32.280908],[140.328839,-32.2811],[140.327561,-32.281407],[140.327342,-32.281462],[140.32668,-32.281629],[140.32645,-32.281687],[140.326187,-32.281751],[140.325272,-32.281975],[140.324953,-32.282053],[140.324844,-32.28208],[140.324153,-32.282249],[140.323225,-32.282511]]}},{"type":"Feature","properties":{"tier":"high"},"geometry":{"type":"LineString","coordinates":[[140.278569,-32.290372],[140.278247,-32.290583]]}},{"type":"Feature","properties":{"tier":"high"},"geometry":{"type":"LineString","coordinates":[[140.278247,-32.290583],[140.277524,-32.291057],[140.271625,-32.294728],[140.2709,-32.295108],[140.270041,-32.295482],[140.269353,-32.295703],[140.263648,-32.297136],[140.254544,-32.299334],[140.252092,-32.300007],[140.239031,-32.303746],[140.23843,-32.303918],[140.237169,-32.304279],[140.232395,-32.30557],[140.220465,-32.309101],[140.21819,-32.309774],[140.216,-32.310422],[140.214338,-32.310929],[140.212776,-32.311398],[140.211603,-32.311764],[140.210538,-32.312096],[140.210041,-32.312309],[140.209584,-32.312558],[140.208867,-32.313034],[140.206042,-32.315181],[140.200058,-32.319869]]}},{"type":"Feature","properties":{"tier":"high"},"geometry":{"type":"LineString","coordinates":[[140.357191,-32.264403],[140.355489,-32.265047],[140.348875,-32.267542],[140.347818,-32.26794],[140.347163,-32.26819],[140.346895,-32.268297],[140.346649,-32.268395],[140.346313,-32.268552],[140.345903,-32.268794],[140.345583,-32.269025],[140.345257,-32.269292],[140.344955,-32.269582],[140.344411,-32.270214]]}},{"type":"Feature","properties":{"tier":"high"},"geometry":{"type":"LineString","coordinates":[[140.357356,-32.264341],[140.357191,-32.264403]]}},{"type":"Feature","properties":{"tier":"high"},"geometry":{"type":"LineString","coordinates":[[140.344167,-32.270498],[140.343772,-32.270956],[140.341467,-32.273629]]}},{"type":"Feature","properties":{"tier":"high"},"geometry":{"type":"LineString","coordinates":[[140.341467,-32.273629],[140.341197,-32.273941]]}}]}
