{"type":"FeatureCollection","features":[{"type":"Feature","properties":{"tier":"arterial"},"geometry":{"type":"LineString","coordinates":[[140.486509,-34.264918],[140.487028,-34.264926],[140.489764,-34.264787],[140.491696,-34.26469],[140.492019,-34.264674],[140.492589,-34.264727],[140.493204,-34.264886],[140.493716,-34.265048],[140.494612,-34.265331],[140.495253,-34.265483],[140.496627,-34.265683],[140.497315,-34.26575],[140.497977,-34.265714],[140.500006,-34.265292],[140.50002,-34.265292]]}},{"type":"Feature","properties":{"tier":"arterial"},"geometry":{"type":"LineString","coordinates":[[140.349262,-34.234468],[140.349307,-34.234792],[140.350045,-34.241455],[140.350039,-34.241839],[140.349521,-34.245799],[140.349499,-34.246174],[140.349532,-34.246586],[140.349598,-34.247002],[140.349863,-34.247684],[140.350266,-34.248425],[140.350433,-34.248798],[140.350567,-34.249203],[140.350632,-34.249563],[140.350744,-34.250477],[140.35089,-34.252085],[140.351034,-34.253612],[140.351179,-34.25421],[140.351465,-34.25491],[140.35186,-34.255762],[140.352062,-34.256349],[140.35278,-34.259548],[140.353233,-34.261089],[140.354085,-34.262611],[140.356468,-34.266604],[140.356573,-34.266751],[140.357604,-34.268481],[140.360002,-34.27257],[140.360786,-34.273877],[140.361275,-34.274757],[140.362143,-34.276532]]}},{"type":"Feature","properties":{"tier":"arterial"},"geometry":{"type":"LineString","coordinates":[[140.470976,-34.474024],[140.470602,-34.474258],[140.470202,-34.474472],[140.469701,-34.474717],[140.469346,-34.474858],[140.468896,-34.475005],[140.468386,-34.475142],[140.46787,-34.475237],[140.467439,-34.475292],[140.467096,-34.475299],[140.45595,-34.475553],[140.442578,-34.475817],[140.437817,-34.475918],[140.437608,-34.475928],[140.437361,-34.475958],[140.436828,-34.476028],[140.432306,-34.476727],[140.431824,-34.47681],[140.431387,-34.476858],[140.430826,-34.476884],[140.430345,-34.476879],[140.418055,-34.476588],[140.414309,-34.476509],[140.413846,-34.47652],[140.413195,-34.476586],[140.412656,-34.476682],[140.411156,-34.477094],[140.410629,-34.477224],[140.409957,-34.477328],[140.409468,-34.477382],[140.408934,-34.477401],[140.394162,-34.477002],[140.382918,-34.476735],[140.375346,-34.476554],[140.367945,-34.476549],[140.358678,-34.476538],[140.351021,-34.476529],[140.348463,-34.476535],[140.34796,-34.476568],[140.344479,-34.476982],[140.335384,-34.47804],[140.334263,-34.478178],[140.333505,-34.478268],[140.333136,-34.478293],[140.332768,-34.478301],[140.320976,-34.47812],[140.316794,-34.47807],[140.316072,-34.478081],[140.315475,-34.478117],[140.314928,-34.478217],[140.314241,-34.478384],[140.313596,-34.478578],[140.31294,-34.478778],[140.311951,-34.479126],[140.309133,-34.480054],[140.308243,-34.480363],[140.30779,-34.480559],[140.307249,-34.480838],[140.306759,-34.481167],[140.300907,-34.48542],[140.2998,-34.486241],[140.296828,-34.48843],[140.294533,-34.490094],[140.29306,-34.491155],[140.292733,-34.491342],[140.292339,-34.491541],[140.291928,-34.491711],[140.291544,-34.491847],[140.291134,-34.491968],[140.288554,-34.492628],[140.282584,-34.494146],[140.282054,-34.494249],[140.28147,-34.494325],[140.280847,-34.494354],[140.260209,-34.49435],[140.250542,-34.494356],[140.235095,-34.494369],[140.227435,-34.494373],[140.22516,-34.494383],[140.223621,-34.494414],[140.221946,-34.494478],[140.215471,-34.494879],[140.207401,-34.495416],[140.204624,-34.495612],[140.2026,-34.495736],[140.20185,-34.495737],[140.201243,-34.495708],[140.20066,-34.495624],[140.200158,-34.495509],[140.199502,-34.495307],[140.198993,-34.495108],[140.198389,-34.494797],[140.197929,-34.494504],[140.197405,-34.494088],[140.197155,-34.493869],[140.196826,-34.493509],[140.196501,-34.4931],[140.194655,-34.490058],[140.188548,-34.479815],[140.188255,-34.479359],[140.188103,-34.479148],[140.187962,-34.478963],[140.18784,-34.47882],[140.187663,-34.478618],[140.187549,-34.47851],[140.187383,-34.478345],[140.187247,-34.478225],[140.187046,-34.478059],[140.186858,-34.477916],[140.18671,-34.477813],[140.186499,-34.477679],[140.18624,-34.47752],[140.186066,-34.477424],[140.185817,-34.477303],[140.185634,-34.477214],[140.185355,-34.477105],[140.18499,-34.47698],[140.184765,-34.476913],[140.184474,-34.476837],[140.184328,-34.476803],[140.184097,-34.476755],[140.183775,-34.476699],[140.183507,-34.476662],[140.183164,-34.476628],[140.182953,-34.476614],[140.182747,-34.476606],[140.182574,-34.476602],[140.182387,-34.476603],[140.182119,-34.476596],[140.181751,-34.476595],[140.181241,-34.476595],[140.147523,-34.476552],[140.146065,-34.47661],[140.1441,-34.476699],[140.14141,-34.47671],[140.13595,-34.476704],[140.130585,-34.476562],[140.079959,-34.476502],[140.078765,-34.476525],[140.07757,-34.476582],[140.07626,-34.476675],[140.073599,-34.476979],[140.071868,-34.477156],[140.070376,-34.477243],[140.069217,-34.477266]]}},{"type":"Feature","properties":{"tier":"arterial"},"geometry":{"type":"LineString","coordinates":[[140.420623,-34.178701],[140.420186,-34.178389],[140.415157,-34.175164],[140.411802,-34.173102],[140.411164,-34.172814],[140.410338,-34.172533],[140.397147,-34.169614],[140.39649,-34.169379],[140.39552,-34.168881],[140.39544,-34.16884],[140.391653,-34.166662],[140.390984,-34.166326],[140.374344,-34.160508],[140.373726,-34.160248],[140.373183,-34.159996],[140.372309,-34.159529],[140.367835,-34.156779],[140.367158,-34.156493],[140.366437,-34.156261],[140.363101,-34.155263],[140.362538,-34.155011],[140.362031,-34.154722],[140.361314,-34.154239],[140.355221,-34.149958],[140.35411,-34.149313],[140.352893,-34.148967],[140.351449,-34.148887],[140.343095,-34.148927],[140.343015,-34.148928],[140.342638,-34.14893],[140.341748,-34.148934],[140.339269,-34.148946],[140.33858,-34.148882],[140.337755,-34.148747],[140.333858,-34.147528],[140.332796,-34.147255],[140.331881,-34.147154],[140.331076,-34.147194],[140.330019,-34.1474],[140.326832,-34.148291],[140.320944,-34.149916],[140.320035,-34.150167],[140.31952,-34.150309],[140.319052,-34.150434],[140.317919,-34.150624],[140.317199,-34.150663],[140.316445,-34.150633],[140.305398,-34.149796],[140.295891,-34.14907],[140.289942,-34.148634],[140.289459,-34.148606],[140.288776,-34.148588],[140.288004,-34.148594],[140.265394,-34.149147],[140.262164,-34.149235],[140.23735,-34.149906],[140.225287,-34.150232],[140.224446,-34.150249],[140.2239,-34.150269],[140.223329,-34.15028],[140.222819,-34.150296],[140.222492,-34.150302],[140.221777,-34.150325],[140.221172,-34.15034],[140.220235,-34.150362],[140.219812,-34.150374],[140.219521,-34.150388],[140.219288,-34.150399],[140.219069,-34.150414],[140.218777,-34.15044],[140.218474,-34.15047],[140.217588,-34.150577],[140.216567,-34.150699],[140.215968,-34.150773],[140.205332,-34.152059],[140.201966,-34.152466],[140.200271,-34.152625],[140.199032,-34.15274],[140.197796,-34.152678],[140.196158,-34.152536],[140.1951,-34.152443],[140.194047,-34.152417],[140.193503,-34.152456],[140.191959,-34.152566],[140.188864,-34.152824],[140.188362,-34.152811],[140.187601,-34.152731],[140.18712,-34.152654],[140.185749,-34.152293],[140.182825,-34.151347],[140.181686,-34.150979],[140.179613,-34.150322],[140.176118,-34.149213],[140.170677,-34.147475],[140.170187,-34.147322],[140.16988,-34.147232],[140.169661,-34.147178],[140.169502,-34.147142],[140.169328,-34.147111],[140.1692,-34.14709],[140.168945,-34.147049],[140.168815,-34.147032],[140.168463,-34.146979],[140.167922,-34.14692],[140.16239,-34.146097],[140.142609,-34.14372],[140.141922,-34.143636],[140.14152,-34.143582],[140.141175,-34.143527],[140.140942,-34.143477],[140.14072,-34.143427],[140.139982,-34.143198],[140.139396,-34.142997],[140.138836,-34.14278],[140.136579,-34.141974],[140.135907,-34.141734],[140.135579,-34.141615],[140.135349,-34.141536],[140.135199,-34.141483],[140.135011,-34.141422],[140.134824,-34.141369],[140.134667,-34.141327],[140.134357,-34.141248],[140.133657,-34.141085],[140.133123,-34.140973],[140.130073,-34.14027],[140.128787,-34.139971],[140.128204,-34.139839],[140.127854,-34.139762],[140.127631,-34.13972],[140.127358,-34.139671],[140.127103,-34.139636],[140.126691,-34.139576],[140.125527,-34.139417],[140.12462,-34.139294],[140.124036,-34.139214],[140.123796,-34.139189],[140.123671,-34.139179],[140.123511,-34.139168],[140.123334,-34.139159],[140.123177,-34.139156],[140.122974,-34.139153],[140.122667,-34.13915],[140.121215,-34.139137],[140.119982,-34.139122],[140.119133,-34.139116],[140.118692,-34.139112],[140.117278,-34.1391],[140.116918,-34.139089],[140.116744,-34.139085],[140.116493,-34.139067],[140.116274,-34.139044],[140.116033,-34.139015],[140.11583,-34.138982],[140.115639,-34.138945],[140.115502,-34.138912],[140.115336,-34.138876],[140.115139,-34.138826],[140.114948,-34.138775],[140.114836,-34.138737],[140.114666,-34.138679],[140.11448,-34.138614],[140.114302,-34.138542],[140.114164,-34.138482],[140.114008,-34.138417],[140.113798,-34.138318],[140.113538,-34.138186],[140.113135,-34.137987],[140.111947,-34.137372],[140.111134,-34.136875],[140.104753,-34.132476],[140.104238,-34.132126],[140.103999,-34.131968],[140.103771,-34.131828],[140.103611,-34.131737],[140.103416,-34.131633],[140.103207,-34.131524],[140.102999,-34.131425],[140.102715,-34.131296],[140.102468,-34.131189],[140.102018,-34.131006],[140.101862,-34.130945],[140.101605,-34.130853],[140.10145,-34.130801],[140.101276,-34.130747],[140.101126,-34.130704],[140.100929,-34.130649],[140.100667,-34.130585],[140.100298,-34.1305],[140.098083,-34.130007],[140.096689,-34.1297],[140.087638,-34.127701],[140.08741,-34.127649],[140.087241,-34.127605],[140.087037,-34.127549],[140.086847,-34.127493],[140.086706,-34.127449],[140.086544,-34.127397],[140.086351,-34.127328],[140.086111,-34.127238],[140.085869,-34.127145],[140.085657,-34.127056],[140.085487,-34.126978],[140.085269,-34.126875],[140.085101,-34.126794],[140.084825,-34.126645],[140.084605,-34.126522],[140.084424,-34.126416],[140.084306,-34.126345],[140.084137,-34.126236],[140.083942,-34.126098],[140.083761,-34.125972],[140.083614,-34.125863],[140.080252,-34.12343],[140.079749,-34.123149],[140.079171,-34.122891],[140.078585,-34.122663],[140.078106,-34.122519],[140.077422,-34.122371],[140.076526,-34.122283],[140.068367,-34.12216],[140.055424,-34.121981],[140.051311,-34.121911],[140.050262,-34.12185],[140.049117,-34.121744],[140.037515,-34.120567],[140.032279,-34.119815],[140.027088,-34.11907],[140.026013,-34.118959],[140.025575,-34.118955],[140.024958,-34.118959],[140.024451,-34.118988],[140.023676,-34.119053],[140.022597,-34.119129],[140.021577,-34.119135],[140.020646,-34.119074],[140.019724,-34.118968],[140.017881,-34.118524],[140.016817,-34.118249],[140.013321,-34.116855],[140.010494,-34.115711],[140.009475,-34.115384],[140.007951,-34.114974],[140.007354,-34.114775],[140.001729,-34.112502],[139.99998,-34.111658]]}},{"type":"Feature","properties":{"tier":"arterial"},"geometry":{"type":"LineString","coordinates":[[140.420623,-34.178701],[140.421072,-34.179147],[140.421462,-34.179641],[140.421746,-34.180083],[140.421948,-34.18047],[140.422094,-34.180845],[140.422226,-34.181276],[140.422316,-34.181689],[140.42288,-34.185521],[140.423442,-34.189271],[140.423654,-34.190719],[140.423899,-34.192453],[140.424051,-34.193481],[140.424423,-34.195371]]}},{"type":"Feature","properties":{"tier":"regional"},"geometry":{"type":"LineString","coordinates":[[139.99998,-34.16608],[140.009393,-34.163404],[140.009775,-34.163255],[140.010133,-34.16299],[140.010323,-34.162706],[140.011509,-34.159858],[140.011782,-34.159344],[140.012193,-34.158857],[140.013515,-34.15751],[140.013955,-34.157107],[140.015201,-34.156136],[140.016073,-34.155512],[140.017314,-34.154746],[140.018081,-34.154232],[140.019826,-34.153534],[140.021332,-34.152985],[140.023031,-34.152651],[140.024134,-34.152587],[140.029457,-34.152064],[140.02986,-34.152056],[140.030247,-34.152112],[140.034936,-34.152933],[140.036526,-34.15319],[140.037387,-34.153385],[140.0384,-34.153541],[140.039894,-34.153833],[140.041257,-34.15419],[140.04312,-34.154712],[140.04779,-34.156652],[140.050833,-34.158258],[140.051709,-34.158885],[140.052469,-34.159692],[140.05528,-34.16294],[140.056162,-34.163564],[140.056732,-34.163831],[140.057561,-34.164166],[140.059868,-34.165062],[140.060978,-34.16564],[140.063004,-34.166847],[140.063625,-34.167138],[140.06426,-34.16728],[140.069157,-34.167851],[140.069784,-34.168014],[140.070191,-34.168236],[140.071131,-34.16889],[140.071626,-34.169124],[140.072077,-34.169233],[140.081733,-34.170784],[140.082598,-34.170796],[140.083392,-34.170685],[140.084141,-34.170437],[140.08712,-34.169168],[140.08793,-34.168936],[140.088987,-34.16876],[140.089518,-34.168723],[140.090453,-34.168701],[140.092142,-34.16871],[140.093841,-34.168444],[140.095053,-34.168253],[140.095253,-34.168222],[140.096363,-34.168149],[140.09772,-34.16805],[140.098793,-34.168014],[140.099465,-34.16805],[140.099996,-34.16822],[140.100625,-34.168456],[140.101719,-34.168948],[140.102198,-34.16918],[140.10257,-34.16947],[140.103229,-34.169995],[140.103672,-34.170285],[140.104165,-34.170439],[140.104637,-34.17048],[140.105162,-34.170437],[140.106129,-34.17033],[140.107718,-34.170038],[140.117556,-34.167092],[140.118351,-34.166917],[140.119206,-34.166805],[140.123618,-34.166281],[140.125877,-34.166028],[140.126771,-34.165853],[140.127605,-34.165567],[140.129044,-34.16495],[140.130217,-34.164254],[140.13465,-34.161094],[140.135378,-34.160651],[140.136172,-34.160328],[140.1397,-34.159301],[140.14085,-34.158733],[140.144432,-34.15633],[140.145079,-34.155969],[140.145789,-34.155683],[140.147218,-34.155216],[140.14814,-34.154992],[140.149086,-34.154871],[140.15022,-34.154944],[140.153093,-34.154726],[140.153893,-34.15465],[140.154875,-34.154397],[140.156816,-34.153975],[140.157601,-34.153735],[140.158293,-34.153433],[140.159298,-34.153028],[140.160216,-34.152821],[140.164457,-34.152205],[140.167059,-34.151827],[140.167985,-34.151702],[140.169091,-34.151754],[140.170466,-34.152075],[140.171564,-34.152157],[140.172661,-34.151955],[140.17462,-34.151425],[140.17569,-34.151316],[140.176596,-34.151411],[140.177436,-34.151679],[140.178527,-34.152186],[140.179229,-34.152425],[140.180945,-34.152892],[140.182697,-34.153329],[140.183743,-34.153471],[140.186618,-34.153516],[140.186969,-34.153431],[140.187252,-34.153311],[140.187469,-34.15313],[140.187563,-34.152906],[140.187601,-34.152731]]}},{"type":"Feature","properties":{"tier":"arterial"},"geometry":{"type":"LineString","coordinates":[[140.424423,-34.195371],[140.42445,-34.195507],[140.424565,-34.196132],[140.424675,-34.196874],[140.424696,-34.19735],[140.424662,-34.197919],[140.424611,-34.198412]]}},{"type":"Feature","properties":{"tier":"high"},"geometry":{"type":"LineString","coordinates":[[140.479473,-34.261791],[140.480313,-34.262139],[140.480638,-34.262236],[140.48093,-34.262294],[140.481201,-34.262324],[140.481497,-34.262334],[140.481771,-34.262322],[140.482054,-34.262285],[140.482398,-34.2622],[140.482822,-34.262036],[140.483207,-34.26182],[140.483649,-34.261503]]}},{"type":"Feature","properties":{"tier":"regional"},"geometry":{"type":"LineString","coordinates":[[140.448405,-34.253168],[140.448615,-34.253157],[140.449143,-34.253128],[140.450379,-34.252995],[140.450975,-34.252949],[140.451578,-34.252907]]}},{"type":"Feature","properties":{"tier":"regional"},"geometry":{"type":"LineString","coordinates":[[140.451578,-34.252907],[140.451884,-34.252876],[140.452058,-34.252847],[140.452179,-34.252827],[140.452619,-34.252677],[140.45365,-34.25232],[140.453834,-34.25227],[140.454934,-34.25197],[140.455987,-34.251722],[140.456167,-34.251676],[140.456211,-34.251665],[140.456434,-34.251611],[140.457252,-34.251312],[140.458561,-34.250783],[140.458692,-34.250741],[140.458832,-34.250708],[140.45903,-34.250683],[140.461522,-34.25053],[140.461678,-34.250517],[140.462095,-34.250476],[140.462309,-34.250433],[140.462521,-34.250366],[140.462723,-34.250295],[140.462857,-34.250235],[140.463071,-34.250123],[140.463374,-34.249844],[140.463649,-34.249558],[140.46392,-34.24927],[140.464749,-34.248798],[140.464776,-34.248783]]}},{"type":"Feature","properties":{"tier":"regional"},"geometry":{"type":"LineString","coordinates":[[140.451578,-34.252907],[140.450983,-34.252986],[140.450664,-34.253017],[140.450337,-34.253057],[140.45017,-34.253088],[140.450012,-34.253126],[140.449894,-34.253186],[140.449827,-34.253264],[140.449795,-34.253346]]}},{"type":"Feature","properties":{"tier":"high"},"geometry":{"type":"LineString","coordinates":[[140.186499,-34.188627],[140.188557,-34.188587],[140.204303,-34.188587],[140.207455,-34.188591],[140.217677,-34.188573],[140.241196,-34.188634],[140.258391,-34.188656],[140.259852,-34.188658],[140.265916,-34.188643],[140.266243,-34.188648],[140.267068,-34.188664],[140.26782,-34.18875],[140.268489,-34.188877],[140.273928,-34.190502],[140.276707,-34.19125],[140.279451,-34.1915],[140.280544,-34.191591],[140.281338,-34.191686],[140.282085,-34.191833],[140.282794,-34.192015],[140.283449,-34.19223],[140.284108,-34.192493],[140.285052,-34.1929],[140.288049,-34.194193],[140.288149,-34.194236],[140.288266,-34.194287],[140.288601,-34.19443],[140.289337,-34.194745],[140.29012,-34.19508],[140.291621,-34.195722],[140.292253,-34.195939],[140.292869,-34.196106],[140.293497,-34.196238],[140.297015,-34.196867],[140.30292,-34.197922],[140.305623,-34.198405],[140.306651,-34.198589],[140.307275,-34.198733],[140.307794,-34.198878],[140.308412,-34.19909],[140.308931,-34.199295],[140.309497,-34.199572],[140.310066,-34.199883],[140.310696,-34.200291],[140.311308,-34.20077],[140.3117,-34.201109],[140.312124,-34.201529],[140.312454,-34.201909],[140.312812,-34.20236]]}},{"type":"Feature","properties":{"tier":"regional"},"geometry":{"type":"LineString","coordinates":[[140.301226,-34.485725],[140.301341,-34.485886],[140.30142,-34.486045],[140.301468,-34.486195],[140.301479,-34.487969],[140.301456,-34.491579],[140.301453,-34.492063],[140.301457,-34.492238],[140.301481,-34.493205],[140.301625,-34.493708],[140.30181,-34.493993],[140.30336,-34.495873],[140.306774,-34.50002]]}},{"type":"Feature","properties":{"tier":"high"},"geometry":{"type":"LineString","coordinates":[[140.000312,-34.18811],[140.000469,-34.188245],[140.00063,-34.188346],[140.000823,-34.188411],[140.001043,-34.188438]]}},{"type":"Feature","properties":{"tier":"regional"},"geometry":{"type":"LineString","coordinates":[[140.002726,-34.188386],[140.002713,-34.188635]]}},{"type":"Feature","properties":{"tier":"high"},"geometry":{"type":"LineString","coordinates":[[140.473156,-34.259806],[140.474045,-34.259963],[140.476605,-34.260433],[140.477239,-34.260643]]}},{"type":"Feature","properties":{"tier":"arterial"},"geometry":{"type":"LineString","coordinates":[[140.366485,-34.285439],[140.366737,-34.285948],[140.366993,-34.286478],[140.367114,-34.286728],[140.367241,-34.28702],[140.367295,-34.28714],[140.36806,-34.289562],[140.368113,-34.289713],[140.368244,-34.290105],[140.368447,-34.290745],[140.36886,-34.291786]]}},{"type":"Feature","properties":{"tier":"arterial"},"geometry":{"type":"LineString","coordinates":[[140.36886,-34.291786],[140.369157,-34.292467],[140.369333,-34.292913],[140.369431,-34.293204],[140.369469,-34.293336],[140.369543,-34.29362],[140.369593,-34.29393]]}},{"type":"Feature","properties":{"tier":"arterial"},"geometry":{"type":"LineString","coordinates":[[140.369536,-34.296009],[140.369507,-34.296391],[140.369478,-34.296844],[140.369435,-34.297227],[140.369333,-34.29783],[140.369014,-34.299276],[140.368746,-34.300471],[140.368598,-34.301178],[140.368507,-34.301735],[140.368448,-34.302328],[140.368432,-34.302747],[140.368439,-34.303178],[140.368469,-34.303703],[140.368531,-34.304322],[140.368745,-34.306388],[140.368774,-34.306823],[140.368776,-34.307029],[140.368748,-34.30731],[140.368699,-34.307746],[140.368599,-34.308125],[140.368497,-34.308433],[140.368306,-34.308898],[140.368097,-34.309283],[140.367636,-34.309959],[140.366533,-34.311351],[140.366176,-34.311844],[140.365558,-34.312997],[140.365166,-34.313635],[140.364786,-34.314129],[140.364398,-34.31453],[140.363818,-34.315014],[140.363221,-34.315478],[140.36235,-34.316197],[140.362068,-34.316486],[140.361742,-34.316907],[140.361471,-34.317318],[140.361042,-34.318005],[140.360007,-34.319863],[140.35952,-34.320798],[140.35936,-34.321273],[140.359238,-34.321751],[140.359095,-34.322566],[140.358918,-34.323539],[140.358858,-34.324015],[140.358841,-34.324463],[140.35887,-34.324803],[140.358908,-34.325111],[140.358982,-34.325451],[140.3591,-34.325882],[140.359927,-34.328237],[140.360278,-34.329229],[140.361132,-34.331702],[140.36142,-34.332503],[140.361939,-34.333996],[140.362153,-34.334604],[140.362262,-34.334973],[140.362346,-34.335475],[140.362359,-34.335873],[140.362339,-34.336188],[140.362255,-34.336578],[140.361845,-34.338219],[140.361412,-34.340004],[140.36103,-34.341476],[140.360924,-34.341961],[140.36093,-34.342225],[140.360925,-34.342542],[140.360958,-34.342946],[140.361045,-34.343334],[140.36114,-34.343646],[140.361328,-34.344054],[140.36145,-34.344296],[140.361616,-34.344534],[140.361859,-34.344837],[140.362117,-34.345117],[140.362542,-34.345476],[140.362834,-34.345712],[140.365432,-34.347825],[140.367403,-34.349409],[140.367913,-34.349865],[140.36816,-34.350125],[140.370636,-34.35322],[140.370947,-34.353615],[140.371269,-34.353909],[140.371539,-34.354122],[140.372373,-34.354672],[140.383117,-34.361344],[140.390385,-34.365772],[140.391611,-34.366532],[140.392623,-34.367159],[140.393056,-34.367462],[140.393309,-34.367671],[140.393458,-34.36781],[140.393666,-34.368039],[140.393925,-34.368329],[140.394754,-34.369354],[140.399398,-34.374966],[140.413652,-34.3923],[140.415855,-34.394985],[140.418043,-34.397648],[140.42244,-34.402979],[140.427289,-34.408906],[140.431108,-34.41354],[140.431452,-34.413924],[140.431729,-34.414174],[140.432013,-34.414402],[140.432365,-34.414639],[140.432646,-34.414806],[140.433106,-34.415037],[140.433486,-34.415183],[140.433833,-34.415287],[140.443553,-34.417402],[140.444926,-34.417703],[140.450119,-34.418818],[140.450761,-34.418996],[140.451236,-34.419219],[140.451932,-34.419625],[140.45971,-34.424385],[140.464824,-34.427562],[140.465119,-34.427744],[140.47029,-34.430952],[140.471247,-34.431547],[140.474302,-34.433438],[140.477317,-34.435287],[140.481892,-34.438122],[140.482145,-34.438278],[140.48576,-34.440525],[140.495904,-34.446772],[140.498856,-34.44859],[140.499119,-34.448751]]}},{"type":"Feature","properties":{"tier":"high"},"geometry":{"type":"LineString","coordinates":[[140.371144,-34.228206],[140.371689,-34.228085],[140.372244,-34.228006],[140.372819,-34.227956],[140.37347,-34.227942],[140.374068,-34.227957],[140.374783,-34.228026],[140.375609,-34.228177],[140.376437,-34.228384],[140.377613,-34.228862],[140.378463,-34.229351],[140.379361,-34.229983]]}},{"type":"Feature","properties":{"tier":"high"},"geometry":{"type":"LineString","coordinates":[[140.379976,-34.230448],[140.381625,-34.231577],[140.382451,-34.232009],[140.383292,-34.232394],[140.384536,-34.232852],[140.385717,-34.233161],[140.387053,-34.23341],[140.388698,-34.233705],[140.390669,-34.234014],[140.391947,-34.234229],[140.392517,-34.234341],[140.394196,-34.23476]]}},{"type":"Feature","properties":{"tier":"high"},"geometry":{"type":"LineString","coordinates":[[140.379361,-34.229983],[140.379976,-34.230448]]}},{"type":"Feature","properties":{"tier":"high"},"geometry":{"type":"LineString","coordinates":[[140.365309,-34.230482],[140.367668,-34.22952]]}},{"type":"Feature","properties":{"tier":"arterial"},"geometry":{"type":"LineString","coordinates":[[140.499119,-34.448751],[140.50002,-34.449321]]}},{"type":"Feature","properties":{"tier":"arterial"},"geometry":{"type":"LineString","coordinates":[[140.000474,-34.188575],[140.000319,-34.188245],[140.000114,-34.187924]]}},{"type":"Feature","properties":{"tier":"arterial"},"geometry":{"type":"LineString","coordinates":[[140.499119,-34.448751],[140.495449,-34.452051],[140.483282,-34.462994],[140.479753,-34.466169],[140.470976,-34.474024]]}},{"type":"Feature","properties":{"tier":"regional"},"geometry":{"type":"LineString","coordinates":[[140.422798,-34.247274],[140.422723,-34.247917],[140.422819,-34.25018],[140.423001,-34.255441],[140.423001,-34.256042],[140.42298,-34.256184],[140.422499,-34.257687],[140.42222,-34.25789],[140.419792,-34.25888],[140.419439,-34.259207],[140.41884,-34.261064],[140.418049,-34.262098],[140.418008,-34.26222],[140.417991,-34.262271],[140.417963,-34.262354],[140.417974,-34.265112],[140.417921,-34.266067],[140.41761,-34.266589],[140.417257,-34.267128],[140.415205,-34.270276],[140.415082,-34.270505],[140.415082,-34.27067],[140.41519,-34.271052],[140.416007,-34.272427],[140.417359,-34.274701],[140.417451,-34.274993],[140.417482,-34.275336],[140.417489,-34.275474],[140.417591,-34.277505],[140.417652,-34.277981],[140.417667,-34.278095],[140.417651,-34.278451],[140.417236,-34.280803],[140.417201,-34.280966],[140.417169,-34.281181],[140.417185,-34.281299],[140.417387,-34.281684],[140.417405,-34.281718],[140.417602,-34.282025]]}},{"type":"Feature","properties":{"tier":"high"},"geometry":{"type":"LineString","coordinates":[[140.018691,-34.188417],[140.034469,-34.188513],[140.039825,-34.188552],[140.046391,-34.188607],[140.046786,-34.188628],[140.047281,-34.18868],[140.047837,-34.188761],[140.048335,-34.188865],[140.048564,-34.188918],[140.052726,-34.189881],[140.057225,-34.190921],[140.062358,-34.192132],[140.062896,-34.192227],[140.063627,-34.192328],[140.064069,-34.19239],[140.064562,-34.192424],[140.065125,-34.192434],[140.072112,-34.192177],[140.073414,-34.192124],[140.074452,-34.192095],[140.07646,-34.192043],[140.076631,-34.192025],[140.077112,-34.191977],[140.082229,-34.19109],[140.084595,-34.190681],[140.085849,-34.190397],[140.087467,-34.189826],[140.08831,-34.189528],[140.089794,-34.189058],[140.091333,-34.188913],[140.092491,-34.188877],[140.093896,-34.188888],[140.09926,-34.188931],[140.102101,-34.18866],[140.105576,-34.18863],[140.110535,-34.188587],[140.12451,-34.188587],[140.125882,-34.188587],[140.140485,-34.188561],[140.152025,-34.188566],[140.157609,-34.188569],[140.173246,-34.188587],[140.175565,-34.188594],[140.186499,-34.188627]]}},{"type":"Feature","properties":{"tier":"arterial"},"geometry":{"type":"LineString","coordinates":[[140.069217,-34.477266],[140.068333,-34.477273],[140.066462,-34.477225],[140.064669,-34.477113],[140.063018,-34.476954],[140.062544,-34.476897],[140.060536,-34.47666],[140.060012,-34.476617],[140.058332,-34.476515],[140.057198,-34.476479],[140.0191,-34.476503],[139.99998,-34.476477]]}},{"type":"Feature","properties":{"tier":"regional"},"geometry":{"type":"LineString","coordinates":[[140.064644,-34.476436],[140.065518,-34.476526]]}},{"type":"Feature","properties":{"tier":"regional"},"geometry":{"type":"LineString","coordinates":[[140.002596,-34.445286],[140.002688,-34.445622],[140.00296,-34.446613],[140.003454,-34.447728],[140.00369,-34.448135],[140.004527,-34.449126],[140.006458,-34.450347],[140.006994,-34.450577],[140.028747,-34.460322],[140.034709,-34.463049],[140.050137,-34.470087],[140.063437,-34.476152],[140.063769,-34.476287],[140.064107,-34.476369],[140.064644,-34.476436]]}},{"type":"Feature","properties":{"tier":"arterial"},"geometry":{"type":"LineString","coordinates":[[140.000312,-34.18811],[140.000529,-34.188554]]}},{"type":"Feature","properties":{"tier":"high"},"geometry":{"type":"LineString","coordinates":[[140.000547,-34.188654],[140.000326,-34.188728],[139.99998,-34.188862]]}},{"type":"Feature","properties":{"tier":"high"},"geometry":{"type":"LineString","coordinates":[[140.002726,-34.188386],[140.003222,-34.188386],[140.003276,-34.188386],[140.00494,-34.188386],[140.005169,-34.188386],[140.008446,-34.188386],[140.013113,-34.188386]]}},{"type":"Feature","properties":{"tier":"high"},"geometry":{"type":"LineString","coordinates":[[140.001043,-34.188438],[140.00148,-34.18839],[140.00188,-34.188386],[140.002022,-34.188386]]}},{"type":"Feature","properties":{"tier":"regional"},"geometry":{"type":"LineString","coordinates":[[140.00269,-34.189046],[140.002599,-34.188386]]}},{"type":"Feature","properties":{"tier":"regional"},"geometry":{"type":"LineString","coordinates":[[140.00269,-34.189046],[140.002695,-34.189609],[140.002686,-34.192759],[140.00268,-34.194156],[140.002673,-34.203075],[140.002666,-34.210439],[140.002705,-34.213816],[140.002724,-34.214092],[140.002742,-34.214263],[140.002756,-34.214382],[140.002804,-34.214666],[140.002891,-34.215073],[140.002961,-34.215375],[140.003032,-34.215699],[140.003067,-34.215918],[140.003086,-34.216024],[140.003101,-34.216144],[140.003116,-34.21632],[140.003122,-34.216423],[140.003129,-34.216541],[140.003127,-34.216717],[140.003012,-34.247911],[140.003009,-34.258879],[140.003007,-34.27605],[140.003779,-34.278284],[140.003886,-34.279692],[140.003071,-34.28378],[140.002895,-34.318868],[140.002835,-34.352197],[140.002802,-34.366661],[140.002728,-34.419356],[140.002706,-34.420044],[140.002645,-34.433537],[140.002596,-34.444631],[140.002596,-34.445286]]}},{"type":"Feature","properties":{"tier":"regional"},"geometry":{"type":"LineString","coordinates":[[140.065518,-34.476526],[140.066789,-34.476674],[140.067191,-34.476729],[140.067527,-34.476831],[140.067832,-34.476955],[140.068333,-34.477273]]}},{"type":"Feature","properties":{"tier":"arterial"},"geometry":{"type":"LineString","coordinates":[[140.000547,-34.188654],[140.000474,-34.188575]]}},{"type":"Feature","properties":{"tier":"high"},"geometry":{"type":"LineString","coordinates":[[140.000474,-34.188575],[140.000529,-34.188554]]}},{"type":"Feature","properties":{"tier":"high"},"geometry":{"type":"LineString","coordinates":[[139.99998,-34.188774],[140.000238,-34.188671],[140.000474,-34.188575]]}},{"type":"Feature","properties":{"tier":"high"},"geometry":{"type":"LineString","coordinates":[[140.000864,-34.188571],[140.000547,-34.188654]]}},{"type":"Feature","properties":{"tier":"high"},"geometry":{"type":"LineString","coordinates":[[140.002022,-34.188386],[140.000864,-34.188571]]}},{"type":"Feature","properties":{"tier":"high"},"geometry":{"type":"LineString","coordinates":[[140.440571,-34.251247],[140.44321,-34.252213],[140.444273,-34.252602],[140.444829,-34.252735],[140.448405,-34.253168]]}},{"type":"Feature","properties":{"tier":"high"},"geometry":{"type":"LineString","coordinates":[[140.422798,-34.247274],[140.423484,-34.247369],[140.4238,-34.247403],[140.424118,-34.247422],[140.424476,-34.247418],[140.424774,-34.247397],[140.425216,-34.247337],[140.425843,-34.247256],[140.426437,-34.247193],[140.426936,-34.247167],[140.427382,-34.24718],[140.427825,-34.247228],[140.42866,-34.247401],[140.431825,-34.248301],[140.433876,-34.248883],[140.434062,-34.248949],[140.4373,-34.250092]]}},{"type":"Feature","properties":{"tier":"high"},"geometry":{"type":"LineString","coordinates":[[140.394196,-34.23476],[140.394977,-34.235004]]}},{"type":"Feature","properties":{"tier":"high"},"geometry":{"type":"LineString","coordinates":[[140.448405,-34.253168],[140.449795,-34.253346],[140.451284,-34.253564]]}},{"type":"Feature","properties":{"tier":"high"},"geometry":{"type":"LineString","coordinates":[[140.452183,-34.253695],[140.452771,-34.253781],[140.453884,-34.25395],[140.455363,-34.254189],[140.45691,-34.254479],[140.457619,-34.254611],[140.458851,-34.255065],[140.461291,-34.255964],[140.462712,-34.256487],[140.462976,-34.256585],[140.463361,-34.256727],[140.463719,-34.256858],[140.464031,-34.256973],[140.464305,-34.257075],[140.46507,-34.257273],[140.465834,-34.25747],[140.466033,-34.257526],[140.466116,-34.257551],[140.466572,-34.257688],[140.46679,-34.257754]]}},{"type":"Feature","properties":{"tier":"arterial"},"geometry":{"type":"LineString","coordinates":[[140.424563,-34.198785],[140.424516,-34.199259],[140.424476,-34.199803],[140.424467,-34.200254],[140.424475,-34.20075],[140.424447,-34.202469],[140.42425,-34.205887],[140.424049,-34.209317],[140.424019,-34.210112],[140.423924,-34.211017],[140.42375,-34.212689],[140.423503,-34.215528],[140.423456,-34.21641],[140.423437,-34.216582],[140.423429,-34.217014],[140.423452,-34.217205],[140.423487,-34.217387],[140.423553,-34.217639],[140.423613,-34.21781],[140.423704,-34.218035],[140.42381,-34.218253],[140.423936,-34.218471],[140.424488,-34.219299],[140.425327,-34.22053],[140.42628,-34.221893],[140.427041,-34.223013],[140.428156,-34.224652],[140.428312,-34.224873],[140.428411,-34.225034],[140.428477,-34.225155],[140.428522,-34.225273],[140.428553,-34.225403],[140.428568,-34.225546],[140.428561,-34.225715],[140.428538,-34.225844],[140.428451,-34.22614],[140.428424,-34.226231],[140.428221,-34.226918],[140.428163,-34.227094],[140.428013,-34.227548],[140.427277,-34.22978],[140.426795,-34.231484],[140.42675,-34.231642],[140.426206,-34.233388],[140.425857,-34.234475],[140.425372,-34.23599],[140.425175,-34.236353],[140.425169,-34.236372],[140.423073,-34.243068],[140.422362,-34.245341],[140.422236,-34.245637],[140.422134,-34.245836],[140.422003,-34.246056],[140.421609,-34.246613],[140.421362,-34.246968]]}},{"type":"Feature","properties":{"tier":"arterial"},"geometry":{"type":"LineString","coordinates":[[140.424611,-34.198412],[140.424563,-34.198785]]}},{"type":"Feature","properties":{"tier":"arterial"},"geometry":{"type":"LineString","coordinates":[[140.365737,-34.283914],[140.366485,-34.285439]]}},{"type":"Feature","properties":{"tier":"arterial"},"geometry":{"type":"LineString","coordinates":[[140.362143,-34.276532],[140.363446,-34.279223],[140.363668,-34.279693],[140.364171,-34.280725],[140.36446,-34.281327],[140.364591,-34.281593],[140.365737,-34.283914]]}},{"type":"Feature","properties":{"tier":"arterial"},"geometry":{"type":"LineString","coordinates":[[140.369593,-34.29393],[140.369628,-34.294212],[140.369628,-34.294916],[140.369561,-34.295709],[140.369536,-34.296009]]}},{"type":"Feature","properties":{"tier":"high"},"geometry":{"type":"LineString","coordinates":[[140.340324,-34.231499],[140.342968,-34.232316],[140.344518,-34.232739],[140.346503,-34.233256]]}},{"type":"Feature","properties":{"tier":"high"},"geometry":{"type":"LineString","coordinates":[[140.349138,-34.233942],[140.350713,-34.234302],[140.351376,-34.234406]]}},{"type":"Feature","properties":{"tier":"high"},"geometry":{"type":"LineString","coordinates":[[140.013113,-34.188386],[140.017021,-34.188404]]}},{"type":"Feature","properties":{"tier":"high"},"geometry":{"type":"LineString","coordinates":[[140.017021,-34.188404],[140.017447,-34.188407],[140.018691,-34.188417]]}},{"type":"Feature","properties":{"tier":"arterial"},"geometry":{"type":"LineString","coordinates":[[140.000114,-34.187924],[140.000312,-34.18811]]}},{"type":"Feature","properties":{"tier":"high"},"geometry":{"type":"LineString","coordinates":[[140.398895,-34.236952],[140.402366,-34.239134]]}},{"type":"Feature","properties":{"tier":"high"},"geometry":{"type":"LineString","coordinates":[[140.312812,-34.20236],[140.313098,-34.202795],[140.313325,-34.203189],[140.313527,-34.203589],[140.313725,-34.204035],[140.313863,-34.204392],[140.313978,-34.204773],[140.314091,-34.205225],[140.31416,-34.205671],[140.31421,-34.206207],[140.314222,-34.206691],[140.314238,-34.209665],[140.314234,-34.210902],[140.314219,-34.215172],[140.314255,-34.215592],[140.314321,-34.216036],[140.314425,-34.216519],[140.314554,-34.216996],[140.314746,-34.217529],[140.31492,-34.217923],[140.315122,-34.218308],[140.315347,-34.218688],[140.315587,-34.219057],[140.315882,-34.219449],[140.316151,-34.219787],[140.316514,-34.220185],[140.316888,-34.220543],[140.317221,-34.220814],[140.317667,-34.221152],[140.318089,-34.221444],[140.318463,-34.221674],[140.318537,-34.221714],[140.319015,-34.221972],[140.319505,-34.222207],[140.331642,-34.227809],[140.336703,-34.230111],[140.338815,-34.230958],[140.339852,-34.231343],[140.340324,-34.231499]]}},{"type":"Feature","properties":{"tier":"high"},"geometry":{"type":"LineString","coordinates":[[140.493758,-34.249035],[140.49304,-34.250265],[140.49238,-34.251269],[140.491171,-34.252874],[140.489138,-34.255165],[140.487714,-34.256855]]}},{"type":"Feature","properties":{"tier":"high"},"geometry":{"type":"LineString","coordinates":[[140.497434,-34.243744],[140.496231,-34.245238],[140.495328,-34.246558],[140.493758,-34.249035]]}},{"type":"Feature","properties":{"tier":"high"},"geometry":{"type":"LineString","coordinates":[[140.421362,-34.246968],[140.422798,-34.247274]]}},{"type":"Feature","properties":{"tier":"high"},"geometry":{"type":"LineString","coordinates":[[140.406997,-34.242044],[140.40736,-34.242273],[140.407897,-34.24261],[140.410761,-34.244458]]}},{"type":"Feature","properties":{"tier":"high"},"geometry":{"type":"LineString","coordinates":[[140.367668,-34.22952],[140.369882,-34.228604],[140.37029,-34.228452],[140.370771,-34.228306],[140.371144,-34.228206]]}},{"type":"Feature","properties":{"tier":"arterial"},"geometry":{"type":"LineString","coordinates":[[139.99998,-34.187805],[139.99999,-34.187813],[140.000066,-34.187884],[140.000114,-34.187924]]}},{"type":"Feature","properties":{"tier":"regional"},"geometry":{"type":"LineString","coordinates":[[140.002713,-34.188635],[140.00269,-34.189046]]}},{"type":"Feature","properties":{"tier":"high"},"geometry":{"type":"LineString","coordinates":[[140.002022,-34.188386],[140.002599,-34.188386],[140.002726,-34.188386]]}},{"type":"Feature","properties":{"tier":"arterial"},"geometry":{"type":"LineString","coordinates":[[140.484309,-34.264444],[140.484908,-34.264672],[140.485624,-34.264829],[140.486509,-34.264918]]}},{"type":"Feature","properties":{"tier":"high"},"geometry":{"type":"LineString","coordinates":[[140.485382,-34.259461],[140.484747,-34.260209]]}},{"type":"Feature","properties":{"tier":"high"},"geometry":{"type":"LineString","coordinates":[[140.477239,-34.260643],[140.479473,-34.261791]]}},{"type":"Feature","properties":{"tier":"high"},"geometry":{"type":"LineString","coordinates":[[140.351376,-34.234406],[140.351939,-34.23447],[140.352527,-34.234514],[140.353105,-34.234525],[140.353616,-34.234518],[140.35417,-34.234485],[140.354744,-34.23442],[140.355289,-34.234332],[140.355708,-34.234246],[140.356223,-34.234118],[140.356713,-34.233968],[140.357114,-34.23382],[140.357734,-34.233581],[140.359544,-34.232812],[140.360309,-34.232522],[140.360407,-34.23248],[140.360989,-34.23227],[140.362548,-34.23161],[140.364734,-34.230726],[140.365309,-34.230482]]}},{"type":"Feature","properties":{"tier":"arterial"},"geometry":{"type":"LineString","coordinates":[[140.349138,-34.233942],[140.349262,-34.234468]]}},{"type":"Feature","properties":{"tier":"high"},"geometry":{"type":"LineString","coordinates":[[140.346503,-34.233256],[140.348952,-34.233894],[140.349138,-34.233942]]}},{"type":"Feature","properties":{"tier":"high"},"geometry":{"type":"LineString","coordinates":[[140.000529,-34.188554],[140.001043,-34.188438]]}},{"type":"Feature","properties":{"tier":"high"},"geometry":{"type":"LineString","coordinates":[[140.50002,-34.241298],[140.499012,-34.242118],[140.49803,-34.243125],[140.497434,-34.243744]]}},{"type":"Feature","properties":{"tier":"arterial"},"geometry":{"type":"LineString","coordinates":[[140.50002,-34.203781],[140.49844,-34.202061],[140.496201,-34.199644],[140.495162,-34.198496],[140.49241,-34.194513],[140.492125,-34.19418],[140.491779,-34.193824],[140.491383,-34.193474],[140.491049,-34.193216],[140.49053,-34.1929],[140.485311,-34.190004],[140.484762,-34.18973],[140.484105,-34.189474],[140.48364,-34.189336],[140.483052,-34.189201],[140.479933,-34.188708],[140.479129,-34.188504],[140.478629,-34.188336],[140.473274,-34.18653],[140.471789,-34.18603],[140.468309,-34.184867],[140.463105,-34.183135],[140.461077,-34.182461],[140.460708,-34.182344],[140.460351,-34.182259],[140.459796,-34.182164],[140.455218,-34.181713],[140.454917,-34.181683],[140.454669,-34.181673],[140.454229,-34.181681],[140.45361,-34.181727],[140.447404,-34.182361],[140.446512,-34.18243],[140.440586,-34.182582],[140.43507,-34.182717],[140.434182,-34.182698],[140.433614,-34.182644],[140.424889,-34.181008],[140.424272,-34.180811],[140.423543,-34.180492],[140.420623,-34.178701]]}},{"type":"Feature","properties":{"tier":"high"},"geometry":{"type":"LineString","coordinates":[[140.394977,-34.235004],[140.395916,-34.235356],[140.397374,-34.236073],[140.398895,-34.236952]]}},{"type":"Feature","properties":{"tier":"high"},"geometry":{"type":"LineString","coordinates":[[140.46679,-34.257754],[140.467144,-34.257879],[140.467669,-34.258067],[140.471904,-34.259585]]}},{"type":"Feature","properties":{"tier":"high"},"geometry":{"type":"LineString","coordinates":[[140.420842,-34.246868],[140.421362,-34.246968]]}},{"type":"Feature","properties":{"tier":"high"},"geometry":{"type":"LineString","coordinates":[[140.413933,-34.245542],[140.41634,-34.246003],[140.420842,-34.246868]]}},{"type":"Feature","properties":{"tier":"high"},"geometry":{"type":"LineString","coordinates":[[140.4373,-34.250092],[140.437672,-34.250223],[140.440571,-34.251247]]}},{"type":"Feature","properties":{"tier":"high"},"geometry":{"type":"LineString","coordinates":[[140.410761,-34.244458],[140.410812,-34.244491],[140.411006,-34.244598],[140.411296,-34.244748],[140.41141,-34.244802],[140.411708,-34.244933],[140.411958,-34.245029],[140.412275,-34.245142],[140.412626,-34.245251],[140.412962,-34.245336],[140.413933,-34.245542]]}},{"type":"Feature","properties":{"tier":"high"},"geometry":{"type":"LineString","coordinates":[[140.402366,-34.239134],[140.406997,-34.242044]]}},{"type":"Feature","properties":{"tier":"high"},"geometry":{"type":"LineString","coordinates":[[140.471904,-34.259585],[140.473156,-34.259806]]}},{"type":"Feature","properties":{"tier":"high"},"geometry":{"type":"LineString","coordinates":[[140.484747,-34.260209],[140.483649,-34.261503]]}},{"type":"Feature","properties":{"tier":"high"},"geometry":{"type":"LineString","coordinates":[[140.487714,-34.256855],[140.487236,-34.257422],[140.486255,-34.258542],[140.485382,-34.259461]]}},{"type":"Feature","properties":{"tier":"high"},"geometry":{"type":"LineString","coordinates":[[140.482082,-34.262657],[140.482183,-34.262676],[140.482271,-34.262721],[140.482335,-34.262788],[140.482367,-34.26287],[140.482364,-34.262955],[140.482326,-34.263034],[140.482257,-34.263098],[140.482166,-34.263139],[140.482064,-34.263152],[140.481963,-34.263136],[140.481884,-34.263099],[140.481823,-34.263044],[140.481784,-34.262977],[140.481771,-34.262903],[140.481785,-34.262829],[140.481826,-34.262762],[140.481888,-34.262708],[140.48198,-34.262669],[140.482082,-34.262657]]}},{"type":"Feature","properties":{"tier":"high"},"geometry":{"type":"LineString","coordinates":[[140.482183,-34.262676],[140.482304,-34.262687],[140.482406,-34.262669],[140.482551,-34.262605],[140.482747,-34.262479],[140.482899,-34.262362],[140.483024,-34.26224],[140.483649,-34.261503]]}},{"type":"Feature","properties":{"tier":"high"},"geometry":{"type":"LineString","coordinates":[[140.483649,-34.261503],[140.483039,-34.262286],[140.482867,-34.262467],[140.48264,-34.262639],[140.482445,-34.262776],[140.482367,-34.26287]]}},{"type":"Feature","properties":{"tier":"high"},"geometry":{"type":"LineString","coordinates":[[140.481784,-34.262977],[140.48171,-34.262961],[140.481595,-34.262904],[140.48136,-34.262818],[140.481159,-34.262721],[140.480362,-34.262294],[140.479473,-34.261791]]}},{"type":"Feature","properties":{"tier":"high"},"geometry":{"type":"LineString","coordinates":[[140.479473,-34.261791],[140.480914,-34.262482],[140.481386,-34.262734],[140.481517,-34.262775],[140.481654,-34.262784],[140.481739,-34.262768],[140.481826,-34.262762]]}},{"type":"Feature","properties":{"tier":"arterial"},"geometry":{"type":"LineString","coordinates":[[140.484309,-34.264444],[140.483163,-34.263873],[140.482627,-34.263576],[140.482361,-34.263405],[140.48226,-34.263308],[140.482207,-34.263241],[140.482152,-34.263197],[140.482064,-34.263152]]}},{"type":"Feature","properties":{"tier":"arterial"},"geometry":{"type":"LineString","coordinates":[[140.482326,-34.263034],[140.482316,-34.263146],[140.482384,-34.263292],[140.482497,-34.263405],[140.483103,-34.263776],[140.484309,-34.264444]]}},{"type":"Feature","properties":{"tier":"arterial"},"geometry":{"type":"LineString","coordinates":[[140.484309,-34.264444],[140.48378,-34.264231],[140.48242,-34.263488],[140.481025,-34.26272],[140.480314,-34.262291],[140.479473,-34.261791]]}},{"type":"Feature","properties":{"tier":"regional"},"geometry":{"type":"LineString","coordinates":[[140.300907,-34.48542],[140.301226,-34.485725]]}},{"type":"Feature","properties":{"tier":"arterial"},"geometry":{"type":"LineString","coordinates":[[140.000529,-34.188554],[140.000547,-34.188654]]}},{"type":"Feature","properties":{"tier":"high"},"geometry":{"type":"LineString","coordinates":[[140.451284,-34.253564],[140.452183,-34.253695]]}}]}
