{"type":"FeatureCollection","features":[{"type":"Feature","properties":{"tier":"arterial"},"geometry":{"type":"LineString","coordinates":[[140.133883,-28.762614],[140.133657,-28.764531],[140.132829,-28.769901],[140.132518,-28.772165],[140.132113,-28.77478],[140.131335,-28.780252],[140.130606,-28.78495],[140.13009,-28.788531],[140.130008,-28.788958],[140.129657,-28.791237],[140.129413,-28.79266],[140.129282,-28.793962],[140.129297,-28.794387],[140.129401,-28.795637],[140.129416,-28.796402],[140.129515,-28.797204],[140.129645,-28.799062],[140.129766,-28.801187],[140.129792,-28.801981],[140.129766,-28.803189],[140.129696,-28.804347],[140.129614,-28.805104],[140.129351,-28.808055],[140.129274,-28.809243],[140.129045,-28.811807],[140.128507,-28.818538],[140.12838,-28.819932],[140.128303,-28.820519],[140.128241,-28.820904],[140.128118,-28.82148],[140.127823,-28.82263],[140.127416,-28.823971],[140.125563,-28.830335],[140.12525,-28.831325],[140.124794,-28.832897],[140.124597,-28.833648],[140.124198,-28.834923],[140.123847,-28.83623],[140.123765,-28.836606],[140.123553,-28.837935],[140.123327,-28.839091],[140.12318,-28.840277],[140.122484,-28.844478],[140.122263,-28.845681],[140.122134,-28.846276],[140.121472,-28.848738],[140.120938,-28.850637],[140.120332,-28.852938],[140.120081,-28.853966],[140.119378,-28.856569],[140.117495,-28.863394],[140.117179,-28.864608],[140.116992,-28.865418],[140.116805,-28.866433],[140.116203,-28.87087],[140.115636,-28.874719],[140.11548,-28.875936],[140.115033,-28.879004],[140.11477,-28.880955],[140.114516,-28.882623],[140.11433,-28.884051],[140.114293,-28.884415],[140.114281,-28.884781],[140.114278,-28.886047],[140.114313,-28.88697],[140.114386,-28.888051],[140.114428,-28.889337],[140.114509,-28.890614],[140.114516,-28.891557],[140.114459,-28.892292],[140.114298,-28.893603],[140.114098,-28.894971],[140.1139,-28.896126],[140.113586,-28.898152],[140.113378,-28.899796],[140.113296,-28.900856],[140.113301,-28.901038],[140.113248,-28.901923],[140.113215,-28.902989],[140.113143,-28.904066],[140.11313,-28.90482],[140.113058,-28.906511],[140.113062,-28.907249],[140.113,-28.908187],[140.112971,-28.909618],[140.112977,-28.910108],[140.112946,-28.910948],[140.113081,-28.917927],[140.113155,-28.921012],[140.113206,-28.922332],[140.113216,-28.923098],[140.113201,-28.923709],[140.11312,-28.92453],[140.112788,-28.926516],[140.112155,-28.929704],[140.112059,-28.930115],[140.11195,-28.930727],[140.111813,-28.93176],[140.111773,-28.932181],[140.11173,-28.933038],[140.111746,-28.934108],[140.111782,-28.934747],[140.111844,-28.935383],[140.112015,-28.936446],[140.112313,-28.937733],[140.112779,-28.939385],[140.113078,-28.940192],[140.113259,-28.940568],[140.113576,-28.941111],[140.113819,-28.941457],[140.114082,-28.941776],[140.114356,-28.942058],[140.114638,-28.94231],[140.115067,-28.942632],[140.115508,-28.9429],[140.116062,-28.94317],[140.116411,-28.943302],[140.116995,-28.943465],[140.117184,-28.943519],[140.117296,-28.943552],[140.117453,-28.94359],[140.118731,-28.943867],[140.11904,-28.943927],[140.121129,-28.944298],[140.121677,-28.944449],[140.122197,-28.944661],[140.122543,-28.944839],[140.122862,-28.945044],[140.12316,-28.945279],[140.123436,-28.945533],[140.123818,-28.945944],[140.124294,-28.946537],[140.125576,-28.948272],[140.125903,-28.948772],[140.12629,-28.94944],[140.126461,-28.949787],[140.126605,-28.950145],[140.126833,-28.950882],[140.127103,-28.952045],[140.127408,-28.953655],[140.127712,-28.955549],[140.127932,-28.957191],[140.128475,-28.962255],[140.12855,-28.963115],[140.128739,-28.964785],[140.128998,-28.967846],[140.129159,-28.969742],[140.129208,-28.970147],[140.12951,-28.973645],[140.129547,-28.97448],[140.129518,-28.975533],[140.129482,-28.975946],[140.129355,-28.97674],[140.128536,-28.980974],[140.127611,-28.986005],[140.127424,-28.987089],[140.127279,-28.988179],[140.127172,-28.989488],[140.127109,-28.990809],[140.127108,-28.992547],[140.127148,-28.994527],[140.127142,-28.99541],[140.127106,-28.996075],[140.127055,-28.996506],[140.126825,-28.997587],[140.126196,-29.00002]]}},{"type":"Feature","properties":{"tier":"arterial"},"geometry":{"type":"LineString","coordinates":[[140.50002,-28.995838],[140.499153,-28.995721],[140.497767,-28.995531],[140.495511,-28.995238],[140.493247,-28.994926],[140.490039,-28.994471],[140.48942,-28.994377],[140.488865,-28.99426],[140.488505,-28.994166],[140.488135,-28.994023],[140.487665,-28.993798],[140.486821,-28.99335],[140.484881,-28.992381],[140.483371,-28.991602],[140.482848,-28.991287],[140.482475,-28.991046],[140.482159,-28.99078],[140.481893,-28.990504],[140.481593,-28.990196],[140.481336,-28.989999],[140.481011,-28.98988],[140.480593,-28.98976],[140.479689,-28.989572],[140.478771,-28.98937],[140.47793,-28.989204],[140.477647,-28.98915],[140.477216,-28.989096],[140.476481,-28.989044],[140.475837,-28.988995],[140.475496,-28.988951],[140.475086,-28.988852],[140.473917,-28.988565],[140.471879,-28.988059],[140.468317,-28.987158],[140.466506,-28.986717],[140.466074,-28.986616],[140.465741,-28.986569],[140.465277,-28.98655],[140.464604,-28.98658],[140.463555,-28.986654],[140.462976,-28.98667],[140.462485,-28.986664],[140.461522,-28.986557],[140.46101,-28.986515],[140.460471,-28.986482],[140.460178,-28.986442],[140.459854,-28.986358],[140.459618,-28.986257],[140.459336,-28.986053],[140.459079,-28.985821],[140.458585,-28.985363],[140.457995,-28.984767],[140.456319,-28.983113],[140.454948,-28.981738],[140.454256,-28.981027],[140.453709,-28.980391],[140.453087,-28.979596],[140.451947,-28.97813],[140.451598,-28.977684],[140.451061,-28.977041],[140.450222,-28.976055],[140.449052,-28.974563],[140.448417,-28.973674],[140.447548,-28.97243],[140.447051,-28.971712],[140.446781,-28.971336],[140.446647,-28.971052],[140.446598,-28.970839],[140.446598,-28.97059],[140.446655,-28.970257],[140.44674,-28.969903],[140.446748,-28.969588],[140.446735,-28.969309],[140.446649,-28.968962],[140.446512,-28.968661],[140.446271,-28.968159],[140.445861,-28.967378],[140.44548,-28.966594],[140.445257,-28.966073],[140.445088,-28.965545],[140.44489,-28.964949],[140.44467,-28.964414],[140.44456,-28.964076],[140.444493,-28.963785],[140.444455,-28.963271],[140.444385,-28.962907],[140.444254,-28.962556],[140.444063,-28.962229],[140.443838,-28.96194],[140.443468,-28.961544],[140.443227,-28.961243],[140.443093,-28.961065],[140.442977,-28.960828],[140.442916,-28.960579],[140.44284,-28.960183],[140.442765,-28.95996],[140.442631,-28.959704],[140.442489,-28.959483],[140.442285,-28.959263],[140.441698,-28.95873],[140.440437,-28.957601],[140.440177,-28.957376],[140.439016,-28.956404],[140.43845,-28.955951],[140.43765,-28.955348],[140.436378,-28.95447],[140.435236,-28.953745],[140.434418,-28.953238],[140.433818,-28.952898],[140.433332,-28.952635],[140.43271,-28.95237],[140.432053,-28.95209],[140.431479,-28.951814],[140.431092,-28.951593],[140.430703,-28.951314],[140.430205,-28.950955],[140.429386,-28.950356],[140.42822,-28.949574],[140.427477,-28.949089],[140.426876,-28.948701],[140.426546,-28.948502],[140.426109,-28.948274],[140.425634,-28.94807],[140.42366,-28.94723],[140.423368,-28.947089],[140.423086,-28.946913],[140.42281,-28.946676],[140.422598,-28.946436],[140.422356,-28.946152],[140.422214,-28.94595],[140.422091,-28.945742],[140.421984,-28.945371],[140.421793,-28.944699],[140.421587,-28.943915],[140.421426,-28.94324],[140.421021,-28.941981],[140.420793,-28.941348],[140.420637,-28.940721],[140.42046,-28.940186],[140.420224,-28.939714],[140.420055,-28.939263],[140.4199,-28.938799],[140.419749,-28.938517],[140.419604,-28.938291],[140.419411,-28.938085],[140.419165,-28.937904],[140.418805,-28.937702],[140.41817,-28.937331],[140.417518,-28.93693],[140.417008,-28.936651],[140.416563,-28.936461],[140.416134,-28.936268],[140.415868,-28.936108],[140.415654,-28.935921],[140.41531,-28.935609],[140.414382,-28.934646],[140.414114,-28.934414],[140.413865,-28.934259],[140.413564,-28.934153],[140.413331,-28.934106],[140.413006,-28.934066],[140.41259,-28.934036],[140.412252,-28.933989],[140.41203,-28.933916],[140.411778,-28.933785],[140.411534,-28.93362],[140.411268,-28.933397],[140.411013,-28.933139],[140.410616,-28.932594],[140.409581,-28.931176],[140.408996,-28.930388],[140.40846,-28.929669],[140.408176,-28.929317],[140.407779,-28.928951],[140.407371,-28.928622],[140.40692,-28.928327],[140.405214,-28.927228],[140.402575,-28.925608],[140.402119,-28.92535],[140.401642,-28.92511],[140.401025,-28.924862],[140.400682,-28.924674],[140.400349,-28.924477],[140.400048,-28.924181],[140.399791,-28.923857],[140.399437,-28.923312],[140.399056,-28.922847],[140.398825,-28.92234],[140.398632,-28.921782],[140.398412,-28.920988],[140.398259,-28.920581],[140.398129,-28.920387],[140.39788,-28.920172],[140.397602,-28.920005],[140.397206,-28.919884],[140.396224,-28.919659],[140.394653,-28.919189],[140.391584,-28.918232],[140.389835,-28.917574],[140.38931,-28.917443],[140.38866,-28.917321],[140.388011,-28.917227],[140.387276,-28.917147],[140.386692,-28.917086],[140.385833,-28.916842],[140.384997,-28.916485],[140.384148,-28.916128],[140.383709,-28.915884],[140.38307,-28.915785],[140.382249,-28.915738],[140.381413,-28.915733],[140.381085,-28.915598],[140.380779,-28.915358],[140.379964,-28.914334],[140.379299,-28.913376],[140.378709,-28.912672],[140.378307,-28.912278],[140.37785,-28.911972],[140.376949,-28.911489],[140.374403,-28.910148],[140.37416,-28.910023],[140.371606,-28.908652],[140.371346,-28.908481],[140.371132,-28.908289],[140.370955,-28.908101],[140.37074,-28.90784],[140.370442,-28.907549],[140.370078,-28.90726],[140.369528,-28.906821],[140.369289,-28.906664],[140.369037,-28.906525],[140.368667,-28.906424],[140.368326,-28.906349],[140.368012,-28.906286],[140.367417,-28.906102],[140.366298,-28.905774],[140.365451,-28.905584],[140.365266,-28.905527],[140.364507,-28.905349],[140.364032,-28.905196],[140.363069,-28.904691],[140.361891,-28.904029],[140.359488,-28.902609],[140.358887,-28.902228],[140.358598,-28.901951],[140.35826,-28.901608],[140.357487,-28.90088],[140.356988,-28.900425],[140.35562,-28.899091],[140.355105,-28.898617],[140.354204,-28.897626],[140.353196,-28.896499],[140.352694,-28.895872],[140.352447,-28.895611],[140.352222,-28.89543],[140.351763,-28.895127],[140.350583,-28.894383],[140.349298,-28.893554],[140.348864,-28.893279],[140.346643,-28.891868],[140.346375,-28.891687],[140.346184,-28.891478],[140.345871,-28.891018],[140.345165,-28.889897],[140.344645,-28.888862],[140.34443,-28.888392],[140.344146,-28.88772],[140.343872,-28.887241],[140.343304,-28.88633],[140.342966,-28.885926],[140.342177,-28.885269],[140.341512,-28.884775],[140.340519,-28.884155],[140.339978,-28.883831],[140.338884,-28.88346],[140.337542,-28.882981],[140.336545,-28.882521],[140.335117,-28.881775],[140.333809,-28.881055],[140.332848,-28.880468],[140.33191,-28.879773],[140.331427,-28.879416],[140.330901,-28.879036],[140.330499,-28.878768],[140.33008,-28.878387],[140.329635,-28.877847],[140.329276,-28.87742],[140.328197,-28.876241],[140.327532,-28.875508],[140.326046,-28.873835],[140.324544,-28.87213],[140.323477,-28.870899],[140.323064,-28.87043],[140.322838,-28.870082],[140.322232,-28.868964],[140.321862,-28.868245],[140.321637,-28.867658],[140.321497,-28.867165],[140.321326,-28.866474],[140.321256,-28.865835],[140.321293,-28.864628],[140.321331,-28.8635],[140.321476,-28.86257],[140.321664,-28.861363],[140.32176,-28.860644],[140.321986,-28.859972],[140.322109,-28.859483],[140.322216,-28.858934],[140.322254,-28.858201],[140.322323,-28.856411],[140.322297,-28.85565],[140.322192,-28.855173],[140.322058,-28.854755],[140.321918,-28.854475],[140.321567,-28.854064],[140.321151,-28.853629],[140.320459,-28.852798],[140.319759,-28.851987],[140.319113,-28.851193],[140.31822,-28.85004],[140.317933,-28.849546],[140.317753,-28.849147],[140.317431,-28.848235],[140.317208,-28.847643],[140.316315,-28.845364],[140.31587,-28.84442],[140.315511,-28.843771],[140.315065,-28.84293],[140.314363,-28.84143],[140.314215,-28.841121],[140.314073,-28.84085],[140.313595,-28.839881],[140.313212,-28.839087],[140.312861,-28.838494],[140.312418,-28.837907],[140.312102,-28.837526],[140.311487,-28.836833],[140.311112,-28.836486],[140.310583,-28.836065],[140.310184,-28.835788],[140.309819,-28.835471],[140.309637,-28.835276],[140.308929,-28.834599],[140.30822,-28.834112],[140.307523,-28.833666],[140.306887,-28.833173],[140.306362,-28.832656],[140.306032,-28.832242],[140.305439,-28.831265],[140.304704,-28.829902],[140.304232,-28.82887],[140.303363,-28.82738],[140.302851,-28.826363],[140.302309,-28.825268],[140.302003,-28.824532],[140.301821,-28.823778],[140.301716,-28.823313],[140.301587,-28.823005],[140.30144,-28.822791],[140.301166,-28.822613],[140.300815,-28.822457],[140.300434,-28.822338],[140.298068,-28.821865],[140.297006,-28.821663],[140.296502,-28.821539],[140.29482,-28.821118],[140.29426,-28.821038],[140.293471,-28.820984],[140.292621,-28.820942],[140.291229,-28.820869],[140.290939,-28.820822],[140.290652,-28.820721],[140.290416,-28.820552],[140.290182,-28.820255],[140.289922,-28.819804],[140.289783,-28.819572],[140.289617,-28.819395],[140.289442,-28.819285],[140.28908,-28.81917],[140.288313,-28.818977],[140.286417,-28.818505],[140.285947,-28.818373],[140.285481,-28.818195],[140.285068,-28.817964],[140.284451,-28.817562],[140.284064,-28.817294],[140.283847,-28.817191],[140.283558,-28.817078],[140.283262,-28.817024],[140.282747,-28.816965],[140.282267,-28.816933],[140.281758,-28.816954],[140.281111,-28.817013],[140.280655,-28.81709],[140.280003,-28.817252],[140.278153,-28.817741],[140.277203,-28.817957],[140.276678,-28.818032],[140.276232,-28.818061],[140.275594,-28.818075],[140.275084,-28.818032],[140.274419,-28.81792],[140.273588,-28.817741],[140.271764,-28.817399],[140.270753,-28.81729],[140.270085,-28.817215],[140.269795,-28.817132],[140.269535,-28.817006],[140.269253,-28.816813],[140.268932,-28.816571],[140.268615,-28.816474],[140.268301,-28.816453],[140.268046,-28.816503],[140.267639,-28.816589],[140.267309,-28.81663],[140.266992,-28.816615],[140.266681,-28.816495],[140.266458,-28.816275],[140.266271,-28.815971],[140.265649,-28.814804],[140.264578,-28.813396],[140.264469,-28.813244],[140.263181,-28.812134],[140.262762,-28.811386],[140.262538,-28.810931],[140.262263,-28.810498],[140.262038,-28.810127],[140.261952,-28.809793],[140.26199,-28.809346],[140.26206,-28.808848],[140.262151,-28.80804],[140.262119,-28.807236],[140.262167,-28.804928],[140.262338,-28.80411],[140.262494,-28.803292],[140.26266,-28.802723],[140.262693,-28.802154],[140.26266,-28.800951],[140.262623,-28.797007],[140.262559,-28.79264],[140.262494,-28.788399],[140.262451,-28.784017],[140.262435,-28.782522],[140.262478,-28.781704],[140.262612,-28.781008],[140.262998,-28.779767],[140.26368,-28.777454],[140.26472,-28.774106],[140.265809,-28.770537],[140.266684,-28.767636],[140.26759,-28.76472],[140.268357,-28.762674],[140.269602,-28.759401],[140.269886,-28.758668],[140.269999,-28.758249],[140.270015,-28.757723],[140.269956,-28.757243],[140.269715,-28.756796],[140.268878,-28.755733],[140.268738,-28.755622],[140.268475,-28.755464],[140.268131,-28.755317],[140.26779,-28.755195],[140.267632,-28.755094],[140.267513,-28.754959],[140.267435,-28.75478],[140.26736,-28.754367],[140.267344,-28.754019],[140.267403,-28.753751],[140.267566,-28.753304],[140.267832,-28.752058],[140.267968,-28.751141],[140.268151,-28.750059],[140.268231,-28.749645],[140.268478,-28.749147],[140.26865,-28.748799],[140.268862,-28.748526],[140.269084,-28.748086],[140.269275,-28.747588],[140.269361,-28.747037],[140.269419,-28.746384],[140.269382,-28.745836],[140.269385,-28.745081],[140.269318,-28.74466],[140.269162,-28.744253],[140.268601,-28.743039],[140.268247,-28.742071],[140.268159,-28.741645],[140.268191,-28.741255],[140.268304,-28.740888],[140.268805,-28.73931],[140.269127,-28.73827],[140.269194,-28.737936],[140.269221,-28.737459],[140.26921,-28.736866],[140.269066,-28.736066],[140.268897,-28.735175],[140.268843,-28.734486],[140.268864,-28.734018],[140.268921,-28.732999],[140.268953,-28.731407],[140.269039,-28.729168],[140.269044,-28.728613],[140.269066,-28.728241],[140.269162,-28.727889],[140.269409,-28.727308],[140.26946,-28.727143],[140.269491,-28.726977],[140.269469,-28.72681],[140.269422,-28.726642],[140.26928,-28.726446],[140.269141,-28.726355],[140.268923,-28.726203],[140.268655,-28.726094],[140.268361,-28.726028],[140.268035,-28.725997],[140.267435,-28.726002],[140.266904,-28.726016],[140.265938,-28.726082],[140.265702,-28.726087],[140.265445,-28.726054],[140.265177,-28.72597],[140.264994,-28.725833],[140.264806,-28.72564],[140.264688,-28.725386],[140.264602,-28.725075],[140.264468,-28.724168],[140.264275,-28.722403],[140.264243,-28.721133],[140.264339,-28.720141],[140.264286,-28.719703],[140.264238,-28.719393],[140.264291,-28.719115],[140.264581,-28.718358],[140.264833,-28.717849],[140.26515,-28.717214],[140.265246,-28.716871],[140.265225,-28.716518],[140.265101,-28.716161],[140.264795,-28.715671],[140.264506,-28.715036],[140.264372,-28.714613],[140.263943,-28.713065],[140.263395,-28.711413],[140.263132,-28.710491],[140.26309,-28.709931],[140.263041,-28.709343],[140.263132,-28.708717],[140.263283,-28.707998],[140.26369,-28.706549],[140.264334,-28.704158],[140.264726,-28.702804],[140.264941,-28.70047],[140.264726,-28.69855],[140.264834,-28.697045],[140.265756,-28.694616],[140.266057,-28.693318],[140.2661,-28.692207],[140.266336,-28.690664],[140.266529,-28.689816],[140.267795,-28.687784],[140.268074,-28.686767],[140.267838,-28.684169],[140.267816,-28.682946],[140.268289,-28.681445],[140.268449,-28.680498],[140.26845,-28.678142],[140.268525,-28.676485],[140.268717,-28.675218],[140.268856,-28.67437],[140.268942,-28.672723],[140.269051,-28.671778],[140.269264,-28.670511],[140.269223,-28.669858],[140.268706,-28.668016],[140.268427,-28.666454],[140.268438,-28.665446],[140.268815,-28.664539],[140.269071,-28.664006],[140.269373,-28.662402],[140.269833,-28.659836],[140.270285,-28.65746],[140.270326,-28.656889],[140.269961,-28.655891],[140.269931,-28.655257],[140.270219,-28.653226],[140.270188,-28.652715],[140.269588,-28.649815],[140.269489,-28.64883],[140.26964,-28.648011],[140.269673,-28.646284],[140.26994,-28.64463],[140.27038,-28.642945],[140.270627,-28.642465],[140.271174,-28.641269],[140.271989,-28.638896],[140.273309,-28.634932],[140.274157,-28.632851],[140.274963,-28.629645],[140.275488,-28.627433],[140.275916,-28.626051],[140.276508,-28.624852],[140.277568,-28.622878],[140.278364,-28.621989],[140.279018,-28.620915],[140.27963,-28.619946],[140.280542,-28.619098],[140.281141,-28.617547],[140.281581,-28.61636],[140.281722,-28.615246],[140.282214,-28.612263],[140.282139,-28.611717],[140.282267,-28.610483],[140.282461,-28.606735],[140.282364,-28.605812],[140.282151,-28.602992],[140.281946,-28.602373],[140.280864,-28.601117],[140.278696,-28.598659],[140.276712,-28.596567],[140.275903,-28.596033],[140.27494,-28.59562],[140.273925,-28.59513],[140.27351,-28.59493],[140.27074,-28.59392],[140.269577,-28.593735],[140.26826,-28.59324],[140.26616,-28.5928],[140.265198,-28.592662],[140.26323,-28.59238],[140.26037,-28.59197],[140.25729,-28.59152],[140.2548,-28.59095],[140.25008,-28.58946],[140.24613,-28.58821],[140.24328,-28.58729],[140.24052,-28.58642],[140.23665,-28.58523],[140.23261,-28.58403],[140.22968,-28.58314],[140.2274,-28.58278],[140.22407,-28.58232],[140.22089,-28.58189],[140.21826,-28.58154],[140.21614,-28.58124],[140.21462,-28.58087],[140.21302,-28.58026],[140.21188,-28.57931],[140.20994,-28.57726],[140.20739,-28.57465],[140.2051,-28.57181],[140.20309,-28.56974],[140.20119,-28.56849],[140.19904,-28.56726],[140.19728,-28.56674],[140.19366,-28.56612],[140.19058,-28.56563],[140.18826,-28.5651],[140.186828,-28.564451],[140.186559,-28.564425]]}},{"type":"Feature","properties":{"tier":"arterial"},"geometry":{"type":"LineString","coordinates":[[140.324158,-28.49998],[140.32389,-28.50099],[140.323627,-28.502003],[140.32334,-28.50343],[140.32257,-28.50734],[140.32172,-28.51182],[140.321503,-28.512765],[140.321283,-28.513321],[140.32098,-28.51389],[140.320204,-28.515291],[140.319561,-28.516399],[140.31904,-28.5171],[140.316435,-28.520151],[140.3163,-28.52031],[140.31347,-28.5238],[140.312748,-28.52477],[140.31171,-28.52596],[140.31121,-28.526506],[140.310836,-28.526951],[140.309791,-28.528313],[140.30831,-28.53009],[140.307244,-28.53134],[140.306659,-28.532033],[140.306139,-28.532844],[140.305565,-28.533824],[140.305109,-28.534733],[140.304621,-28.535898],[140.304176,-28.53709],[140.303944,-28.537745],[140.303779,-28.538211],[140.303559,-28.538947],[140.3035,-28.539144],[140.30329,-28.54016],[140.303049,-28.541411],[140.30261,-28.543],[140.302575,-28.543104],[140.302126,-28.544432],[140.302003,-28.545177],[140.301987,-28.54547],[140.301955,-28.546043],[140.301837,-28.5479],[140.301836,-28.548036],[140.30183,-28.5489],[140.30186,-28.55026],[140.30188,-28.55118],[140.30185,-28.5524],[140.301756,-28.553196],[140.30152,-28.554177],[140.30126,-28.55496],[140.301134,-28.555218],[140.30086,-28.55575],[140.300211,-28.556792],[140.299777,-28.557442],[140.299289,-28.558384],[140.29883,-28.55951],[140.297502,-28.562582],[140.29658,-28.56487],[140.296049,-28.566173],[140.295458,-28.567534],[140.295056,-28.56834],[140.29481,-28.56877],[140.294267,-28.56956],[140.293656,-28.570493],[140.29311,-28.57142],[140.29261,-28.572184],[140.29153,-28.57367],[140.290204,-28.575414],[140.289702,-28.57608],[140.289118,-28.576782],[140.288072,-28.57795],[140.286806,-28.579354],[140.286441,-28.579816],[140.286022,-28.580541],[140.285513,-28.581469],[140.285137,-28.582294],[140.284563,-28.583796],[140.284161,-28.584931],[140.283909,-28.585591],[140.2837,-28.586001],[140.283415,-28.586349],[140.281484,-28.588069],[140.280266,-28.589081],[140.27958,-28.589689],[140.27907,-28.590254],[140.278496,-28.591017],[140.277396,-28.592449],[140.277016,-28.592963],[140.276753,-28.593476],[140.27659,-28.59404],[140.275903,-28.596033]]}},{"type":"Feature","properties":{"tier":"arterial"},"geometry":{"type":"LineString","coordinates":[[140.185967,-28.49998],[140.185849,-28.501016],[140.185747,-28.502273],[140.185575,-28.505735],[140.185575,-28.506025],[140.185657,-28.507207],[140.185833,-28.508883],[140.186132,-28.511401],[140.186352,-28.513845],[140.186357,-28.51492],[140.186323,-28.515837],[140.186338,-28.516775],[140.186212,-28.519409],[140.186227,-28.520003],[140.18627,-28.520501],[140.186448,-28.521567],[140.1866,-28.522283],[140.186865,-28.523253],[140.18718,-28.524404],[140.187369,-28.525344],[140.187466,-28.525728],[140.18775,-28.526679],[140.188248,-28.528488],[140.189492,-28.533365],[140.189622,-28.534185],[140.189661,-28.534605],[140.189669,-28.535027],[140.189647,-28.53567],[140.189586,-28.536293],[140.189482,-28.536902],[140.189025,-28.539074],[140.188857,-28.540653],[140.18856,-28.542506],[140.188182,-28.544661],[140.187919,-28.54651],[140.187839,-28.547441],[140.187836,-28.548174],[140.187917,-28.549472],[140.188055,-28.551238],[140.188071,-28.55185],[140.188048,-28.552671],[140.18797,-28.553476],[140.187775,-28.554707],[140.187468,-28.557004],[140.186875,-28.561761],[140.186779,-28.562736],[140.186559,-28.564425],[140.186313,-28.565715],[140.186022,-28.567047],[140.185159,-28.571432],[140.184931,-28.57288],[140.184497,-28.57513],[140.184337,-28.575918],[140.184139,-28.576767],[140.183443,-28.58023],[140.183306,-28.580801],[140.183085,-28.5819],[140.182929,-28.582953],[140.182706,-28.584159],[140.182427,-28.585406],[140.181494,-28.590335],[140.180296,-28.596347],[140.179694,-28.599659],[140.179343,-28.601829],[140.179203,-28.602599],[140.178959,-28.603764],[140.178749,-28.604543],[140.178504,-28.605296],[140.17829,-28.605857],[140.177962,-28.606802],[140.177212,-28.608713],[140.174651,-28.615622],[140.173779,-28.617942],[140.172975,-28.620021],[140.171048,-28.625162],[140.170776,-28.625945],[140.170248,-28.627319],[140.169011,-28.630707],[140.168204,-28.632854],[140.167894,-28.633631],[140.166214,-28.638223],[140.164184,-28.643631],[140.163745,-28.644844],[140.16353,-28.645559],[140.163316,-28.646044],[140.162437,-28.648443],[140.162375,-28.648578],[140.162268,-28.64891],[140.160979,-28.652296],[140.15947,-28.656429],[140.157858,-28.660624],[140.156661,-28.663839],[140.156431,-28.664403],[140.156038,-28.665576],[140.154678,-28.669187],[140.153544,-28.672285]]}},{"type":"Feature","properties":{"tier":"arterial"},"geometry":{"type":"LineString","coordinates":[[140.153544,-28.672285],[140.152997,-28.673697],[140.151861,-28.676797],[140.149476,-28.683156],[140.149309,-28.683649],[140.148858,-28.685529],[140.148718,-28.686403],[140.148511,-28.687788],[140.148435,-28.688471],[140.148222,-28.689652],[140.147864,-28.691835],[140.147278,-28.695726],[140.147004,-28.697361],[140.146584,-28.700518],[140.146505,-28.700944],[140.146451,-28.701408],[140.146188,-28.703082],[140.146104,-28.703769],[140.145923,-28.704843],[140.145648,-28.706819],[140.145499,-28.7077],[140.145251,-28.708548],[140.144948,-28.709253],[140.144749,-28.709812],[140.144375,-28.710622],[140.143673,-28.712035],[140.143008,-28.713477],[140.142282,-28.71495],[140.142083,-28.715443],[140.141615,-28.716414],[140.141375,-28.717011],[140.14081,-28.718111],[140.138829,-28.722271],[140.138406,-28.723235],[140.138202,-28.72388],[140.138025,-28.724361],[140.13789,-28.724868],[140.137758,-28.725711],[140.137742,-28.726004],[140.137767,-28.726604],[140.137734,-28.727136],[140.137722,-28.727919],[140.137652,-28.728766],[140.13758,-28.729302],[140.137083,-28.731687],[140.135975,-28.736442],[140.135591,-28.738256],[140.135324,-28.739401],[140.13519,-28.740165],[140.135112,-28.740748],[140.135055,-28.741724],[140.135034,-28.742506],[140.135044,-28.743306],[140.13503,-28.743902],[140.13497,-28.745091],[140.13491,-28.747074],[140.134836,-28.748445],[140.134709,-28.752617],[140.134648,-28.753209],[140.134538,-28.754829],[140.134381,-28.756502],[140.134256,-28.758188],[140.134082,-28.760094],[140.133883,-28.762614]]}}]}
