{"type":"FeatureCollection","features":[{"type":"Feature","properties":{"tier":"arterial"},"geometry":{"type":"LineString","coordinates":[[140.007309,-36.922526],[140.007413,-36.922971],[140.007488,-36.923291],[140.007512,-36.923393],[140.007601,-36.923907],[140.007637,-36.92419],[140.007665,-36.924537],[140.00767,-36.939875],[140.007642,-36.945109],[140.007588,-36.986942],[140.007571,-37.00002]]}},{"type":"Feature","properties":{"tier":"arterial"},"geometry":{"type":"LineString","coordinates":[[140.007309,-36.922526],[140.007706,-36.922592],[140.008074,-36.922652],[140.013116,-36.924042],[140.025939,-36.927467],[140.028219,-36.928076],[140.028645,-36.92819],[140.029072,-36.928304],[140.029875,-36.928519],[140.03338,-36.929421],[140.03588,-36.930064],[140.048736,-36.933373],[140.058156,-36.935791],[140.060924,-36.936512],[140.062244,-36.93675],[140.062726,-36.936837],[140.064829,-36.937129],[140.06769,-36.937378],[140.069357,-36.937523],[140.070945,-36.93754],[140.072103,-36.937369],[140.07691,-36.936443],[140.093111,-36.933356],[140.098491,-36.932349],[140.105578,-36.931023],[140.107659,-36.930766],[140.108539,-36.930697],[140.109547,-36.930714],[140.111972,-36.931006],[140.114182,-36.931435],[140.122581,-36.933147],[140.123859,-36.933407],[140.127228,-36.934213],[140.13094,-36.93538],[140.133236,-36.936048],[140.134417,-36.936323],[140.13521,-36.936409],[140.139008,-36.936597],[140.144366,-36.936857]]}},{"type":"Feature","properties":{"tier":"arterial"},"geometry":{"type":"LineString","coordinates":[[140.369895,-37.00002],[140.36986,-36.996705],[140.369837,-36.992641],[140.369822,-36.99009],[140.369807,-36.986416],[140.369808,-36.981598]]}},{"type":"Feature","properties":{"tier":"arterial"},"geometry":{"type":"LineString","coordinates":[[140.337566,-36.49998],[140.336995,-36.500669],[140.329066,-36.510917],[140.328455,-36.5115],[140.316481,-36.520707],[140.314955,-36.522151],[140.303778,-36.53226],[140.303017,-36.533852],[140.302759,-36.535403],[140.302813,-36.535921],[140.302908,-36.536418],[140.303025,-36.536798],[140.30365,-36.538536],[140.304079,-36.540294],[140.303478,-36.542467],[140.302276,-36.543846],[140.298294,-36.547679],[140.29803,-36.547945],[140.297307,-36.548675],[140.296817,-36.549271],[140.296424,-36.549976],[140.296078,-36.550864],[140.295625,-36.551877],[140.295306,-36.552442],[140.294726,-36.553198],[140.294082,-36.553877],[140.293246,-36.554594],[140.292537,-36.555073],[140.291102,-36.555848],[140.290158,-36.55621],[140.287621,-36.556839],[140.286795,-36.557063],[140.284644,-36.557748],[140.281838,-36.558614],[140.278952,-36.559351],[140.274661,-36.560454],[140.273647,-36.560868],[140.272611,-36.561484],[140.271769,-36.562183],[140.269843,-36.563781],[140.266496,-36.566629],[140.264828,-36.56802],[140.264355,-36.568373],[140.263701,-36.56874],[140.262854,-36.569231],[140.260696,-36.570457],[140.26001,-36.570838],[140.259146,-36.571226],[140.25831,-36.571588],[140.256502,-36.572282],[140.253859,-36.573359],[140.253144,-36.573651],[140.247726,-36.575827],[140.246556,-36.57643],[140.246442,-36.576517],[140.245854,-36.576964],[140.245242,-36.577545],[140.244721,-36.578085],[140.243992,-36.578838],[140.241728,-36.581104],[140.23873,-36.584115],[140.236305,-36.586574],[140.234953,-36.58794],[140.232743,-36.590171],[140.230968,-36.591976],[140.229562,-36.593345],[140.226225,-36.596735],[140.224815,-36.598158],[140.22445,-36.59847]]}},{"type":"Feature","properties":{"tier":"arterial"},"geometry":{"type":"LineString","coordinates":[[140.496993,-36.603345],[140.497595,-36.60282],[140.498174,-36.602433],[140.499623,-36.601593],[140.50002,-36.601381]]}},{"type":"Feature","properties":{"tier":"arterial"},"geometry":{"type":"LineString","coordinates":[[140.007205,-36.922052],[140.007368,-36.922391],[140.007412,-36.922436],[140.007456,-36.922471],[140.007706,-36.922592]]}},{"type":"Feature","properties":{"tier":"arterial"},"geometry":{"type":"LineString","coordinates":[[140.007706,-36.922592],[140.007597,-36.922657],[140.007525,-36.922715],[140.00748,-36.92278],[140.007456,-36.922857],[140.007413,-36.922971]]}},{"type":"Feature","properties":{"tier":"arterial"},"geometry":{"type":"LineString","coordinates":[[140.212459,-36.644841],[140.212793,-36.646127],[140.212825,-36.646488],[140.212782,-36.646854],[140.212631,-36.647397],[140.212428,-36.647823],[140.212149,-36.648249],[140.21165,-36.648752],[140.211275,-36.649036],[140.210835,-36.649282],[140.210046,-36.649652],[140.207917,-36.650719],[140.202531,-36.653383],[140.198963,-36.655135],[140.197923,-36.655677],[140.19722,-36.656185],[140.19634,-36.656969],[140.194592,-36.658586],[140.192102,-36.660872],[140.191561,-36.661233],[140.191008,-36.661504],[140.186454,-36.663845],[140.184586,-36.664839],[140.184136,-36.665217],[140.183772,-36.665609],[140.182999,-36.666538],[140.182312,-36.66758],[140.181663,-36.668497],[140.181318,-36.668969],[140.180451,-36.670153],[140.179426,-36.671525],[140.179002,-36.671891],[140.178433,-36.67227],[140.177731,-36.672619],[140.177066,-36.672846],[140.175779,-36.673104],[140.174636,-36.6731],[140.171498,-36.673061],[140.171036,-36.673091],[140.1705,-36.673165],[140.170028,-36.673277],[140.169459,-36.673453],[140.168633,-36.673711],[140.166085,-36.674473],[140.165602,-36.674692],[140.165119,-36.674954],[140.164712,-36.675277],[140.164363,-36.675578],[140.164025,-36.675935],[140.163784,-36.676237],[140.163526,-36.676645],[140.163301,-36.677106],[140.163097,-36.677738],[140.163033,-36.678366],[140.163092,-36.678973],[140.164014,-36.683899],[140.164406,-36.685912],[140.164395,-36.686527],[140.164325,-36.687],[140.164186,-36.687499],[140.163966,-36.68796],[140.163601,-36.688489],[140.162931,-36.689229],[140.161643,-36.690459],[140.160688,-36.691401],[140.160286,-36.691896],[140.160012,-36.692472],[140.158972,-36.695014],[140.158639,-36.695991],[140.158548,-36.696657],[140.158586,-36.697118],[140.158709,-36.697728],[140.159068,-36.698743],[140.159202,-36.699234],[140.159321,-36.699741],[140.159256,-36.700373],[140.159184,-36.700757],[140.159077,-36.701091],[140.158946,-36.701444],[140.158784,-36.701779],[140.158605,-36.702064],[140.158411,-36.702328],[140.158054,-36.702696],[140.157582,-36.70313],[140.157443,-36.703258],[140.156053,-36.704533],[140.152303,-36.707944],[140.149788,-36.710257],[140.145614,-36.714088],[140.142664,-36.716759],[140.142369,-36.717017],[140.140952,-36.717925],[140.137342,-36.720203],[140.132396,-36.723325],[140.127085,-36.72667],[140.124066,-36.727818],[140.119463,-36.729598],[140.113975,-36.731705],[140.113306,-36.731963],[140.109629,-36.733378],[140.103879,-36.735587],[140.098847,-36.737525],[140.094555,-36.739198],[140.09396,-36.739507],[140.092871,-36.740139],[140.091578,-36.740888],[140.086702,-36.743677],[140.082588,-36.746007],[140.081542,-36.746428],[140.080485,-36.746682],[140.078436,-36.747056],[140.074477,-36.747799],[140.07379,-36.748024],[140.072921,-36.748371],[140.071725,-36.749157],[140.064879,-36.753899],[140.063914,-36.754264],[140.062734,-36.75459],[140.061425,-36.754728],[140.060417,-36.754676],[140.059376,-36.754547],[140.05104,-36.753327],[140.048791,-36.753023],[140.048477,-36.75298],[140.048235,-36.75297],[140.047977,-36.752958],[140.047715,-36.752956],[140.04732,-36.752966],[140.046948,-36.752998],[140.046631,-36.753037],[140.046073,-36.753148],[140.044848,-36.753425],[140.034635,-36.755914],[140.030612,-36.757358],[140.028837,-36.758029],[140.028152,-36.758278],[140.027444,-36.758564],[140.027038,-36.758766],[140.026645,-36.758978],[140.026223,-36.759265],[140.025758,-36.759632],[140.025428,-36.759959],[140.025121,-36.760292],[140.024832,-36.760673],[140.024579,-36.761098],[140.024423,-36.761389],[140.024318,-36.761654],[140.024265,-36.761786],[140.024051,-36.762444],[140.023879,-36.762957]]}},{"type":"Feature","properties":{"tier":"regional"},"geometry":{"type":"LineString","coordinates":[[140.373498,-36.971109],[140.370998,-36.971197],[140.369913,-36.971235],[140.369744,-36.971241]]}},{"type":"Feature","properties":{"tier":"regional"},"geometry":{"type":"LineString","coordinates":[[140.229635,-36.942421],[140.229587,-36.942758],[140.229511,-36.943318],[140.229375,-36.944312],[140.229273,-36.945197],[140.229282,-36.945879],[140.229365,-36.946311],[140.229425,-36.946628],[140.229611,-36.947169],[140.229924,-36.947682],[140.230405,-36.948377],[140.231174,-36.949282],[140.231622,-36.949687],[140.233219,-36.951152],[140.233591,-36.95153],[140.233886,-36.951949],[140.234191,-36.952422],[140.23441,-36.952888],[140.234638,-36.953462],[140.235737,-36.956081],[140.236049,-36.956628],[140.239133,-36.960902],[140.241119,-36.96369],[140.241431,-36.964298],[140.24166,-36.964865],[140.241752,-36.965432],[140.241803,-36.966168],[140.241752,-36.966613],[140.241431,-36.968821],[140.240958,-36.972101],[140.240071,-36.978473],[140.240054,-36.979087],[140.24008,-36.979614],[140.240232,-36.980309],[140.240747,-36.982692],[140.240899,-36.983157],[140.240999,-36.983344],[140.241178,-36.983677],[140.241693,-36.984406],[140.243611,-36.987159],[140.244735,-36.988746],[140.245031,-36.989326],[140.2452,-36.989832],[140.245267,-36.990217],[140.245369,-36.99077],[140.245681,-36.993733],[140.246188,-36.998767],[140.246302,-37.00002]]}},{"type":"Feature","properties":{"tier":"regional"},"geometry":{"type":"LineString","coordinates":[[140.349043,-36.894273],[140.347612,-36.894971],[140.345687,-36.895939],[140.345217,-36.896258],[140.344955,-36.896461],[140.344637,-36.896788],[140.344274,-36.897246],[140.343223,-36.898873],[140.341629,-36.901678],[140.341084,-36.902776],[140.34082,-36.903307],[140.340562,-36.903828],[140.339399,-36.906161],[140.339049,-36.906979],[140.33899,-36.907146],[140.338906,-36.907993],[140.33891,-36.908375],[140.338914,-36.908742],[140.338941,-36.909109],[140.33902,-36.909406],[140.339249,-36.909936],[140.339581,-36.910474],[140.340712,-36.912555],[140.341041,-36.913285],[140.341305,-36.913674],[140.342392,-36.914996],[140.343261,-36.916007],[140.344229,-36.917081],[140.34455,-36.91765],[140.34502,-36.918658],[140.345313,-36.919258],[140.345536,-36.91963],[140.34585,-36.920012],[140.346483,-36.920726],[140.34756,-36.92185],[140.348857,-36.923846],[140.349406,-36.924492],[140.350747,-36.925814],[140.351179,-36.926208],[140.351527,-36.926605],[140.351749,-36.926908],[140.352101,-36.927644],[140.352418,-36.928463],[140.352677,-36.929136],[140.352943,-36.929751],[140.353097,-36.930111],[140.354565,-36.932322],[140.356144,-36.934536],[140.35652,-36.935052],[140.356929,-36.935519],[140.359906,-36.937539],[140.363004,-36.939517],[140.363488,-36.93988],[140.363976,-36.940407],[140.364429,-36.941212],[140.365402,-36.943072],[140.366006,-36.944308],[140.366158,-36.944778],[140.366353,-36.945817],[140.366657,-36.947369],[140.367496,-36.949901],[140.367822,-36.950768],[140.36824,-36.951604],[140.368369,-36.951795],[140.370301,-36.954053],[140.374123,-36.958546],[140.374309,-36.959007],[140.374351,-36.959171],[140.374407,-36.959388],[140.374431,-36.959483],[140.374503,-36.959847],[140.374546,-36.960287]]}},{"type":"Feature","properties":{"tier":"arterial"},"geometry":{"type":"LineString","coordinates":[[140.36831,-36.972518],[140.369816,-36.97247]]}},{"type":"Feature","properties":{"tier":"arterial"},"geometry":{"type":"LineString","coordinates":[[140.363999,-36.972514],[140.36444,-36.972507],[140.365099,-36.972543],[140.365912,-36.972573],[140.367124,-36.97255],[140.367996,-36.972539],[140.36831,-36.972518]]}},{"type":"Feature","properties":{"tier":"regional"},"geometry":{"type":"LineString","coordinates":[[140.426083,-36.869659],[140.42586,-36.869633],[140.425574,-36.869603],[140.424885,-36.86957],[140.424358,-36.869562],[140.423814,-36.869606],[140.423024,-36.869716],[140.418863,-36.870311],[140.412417,-36.871276],[140.411853,-36.871375],[140.411263,-36.871533],[140.410625,-36.871777],[140.410076,-36.872017],[140.409659,-36.872228],[140.409326,-36.872402],[140.408733,-36.87278],[140.408375,-36.873004],[140.407626,-36.873475],[140.406296,-36.874311],[140.40228,-36.876786],[140.399732,-36.878384],[140.3993,-36.878631],[140.39891,-36.878845],[140.398501,-36.879059],[140.398152,-36.879211],[140.397772,-36.879371],[140.397341,-36.87953],[140.396026,-36.879941],[140.392776,-36.881008],[140.387066,-36.882863],[140.383035,-36.884164]]}},{"type":"Feature","properties":{"tier":"regional"},"geometry":{"type":"LineString","coordinates":[[140.50002,-36.855787],[140.499868,-36.855853],[140.499571,-36.855967],[140.499196,-36.856087],[140.498695,-36.856214],[140.497934,-36.856375],[140.497055,-36.856557],[140.496277,-36.856713],[140.49553,-36.856829],[140.494275,-36.856999],[140.492664,-36.857199],[140.492034,-36.857304],[140.49202,-36.857307],[140.489912,-36.857722],[140.486714,-36.85837],[140.483532,-36.859019],[140.482158,-36.859263],[140.480797,-36.859553],[140.480428,-36.85965],[140.480042,-36.85977],[140.476444,-36.861126],[140.472694,-36.86253],[140.471708,-36.862883],[140.471343,-36.863008],[140.471117,-36.863087],[140.470809,-36.863158],[140.470279,-36.863239],[140.470166,-36.863253],[140.46985,-36.86329],[140.469221,-36.863327],[140.468605,-36.863327],[140.467512,-36.863279],[140.466151,-36.863282],[140.464183,-36.863338],[140.462377,-36.863424],[140.461512,-36.863476],[140.461091,-36.863503],[140.460733,-36.863564],[140.460326,-36.863645],[140.459812,-36.863775],[140.458011,-36.864323],[140.454836,-36.865272],[140.44994,-36.866731],[140.447929,-36.867329],[140.447566,-36.86741],[140.447124,-36.867483],[140.445666,-36.867624],[140.443274,-36.867853],[140.442505,-36.867922],[140.441748,-36.868052],[140.439696,-36.868631],[140.437184,-36.869352],[140.433569,-36.870375],[140.433232,-36.870454],[140.43282,-36.870524],[140.432376,-36.870569],[140.431848,-36.870595],[140.431387,-36.870593],[140.430741,-36.870532],[140.430232,-36.870458],[140.42919,-36.870269],[140.427119,-36.86985],[140.426536,-36.869735],[140.426083,-36.869659]]}},{"type":"Feature","properties":{"tier":"regional"},"geometry":{"type":"LineString","coordinates":[[140.157981,-36.704216],[140.15899,-36.706012],[140.160503,-36.708804],[140.161987,-36.711398],[140.163373,-36.713949],[140.163558,-36.714264],[140.163743,-36.714619],[140.163904,-36.715021],[140.164215,-36.715719],[140.164653,-36.716785],[140.164842,-36.717124],[140.165007,-36.717411],[140.166101,-36.719143],[140.16672,-36.720169],[140.16714,-36.720891],[140.167322,-36.721244],[140.167532,-36.721683],[140.167855,-36.722405],[140.168557,-36.723889],[140.169517,-36.725918],[140.169617,-36.726194],[140.169692,-36.726423],[140.169754,-36.726629],[140.169782,-36.726825],[140.169895,-36.727514],[140.169975,-36.72789],[140.170023,-36.728093],[140.170092,-36.728322],[140.170215,-36.728634],[140.170776,-36.73017],[140.17122,-36.731333],[140.171316,-36.731579],[140.171437,-36.731838],[140.171585,-36.732094],[140.171843,-36.732502],[140.173112,-36.734462],[140.173397,-36.734978],[140.173865,-36.735651],[140.174584,-36.736765],[140.175207,-36.737749],[140.175383,-36.738049],[140.175503,-36.738281],[140.175592,-36.738479],[140.175692,-36.738774],[140.175864,-36.739287],[140.175974,-36.73956],[140.176074,-36.739833],[140.176181,-36.740156],[140.17649,-36.741134],[140.17679,-36.741986],[140.176872,-36.742273],[140.17692,-36.742582],[140.177013,-36.743265],[140.177244,-36.745209],[140.177395,-36.74659],[140.177464,-36.747163],[140.177526,-36.747698],[140.177605,-36.748334],[140.17765,-36.748682],[140.177694,-36.748905],[140.17777,-36.749156],[140.177877,-36.749534],[140.178169,-36.750261],[140.178572,-36.751256],[140.179146,-36.752698],[140.179621,-36.753905],[140.180013,-36.754914],[140.180357,-36.755804],[140.180797,-36.756904],[140.180894,-36.75721],[140.180962,-36.757513],[140.181196,-36.758778],[140.181482,-36.760264],[140.181788,-36.761791],[140.182108,-36.763486],[140.182253,-36.764219],[140.182332,-36.764472],[140.182817,-36.765737],[140.182996,-36.76617],[140.183711,-36.767967],[140.183918,-36.768496],[140.184647,-36.770359],[140.185039,-36.771337],[140.185593,-36.77272],[140.186196,-36.774242],[140.18644,-36.774834],[140.186727,-36.775579],[140.18724,-36.776878],[140.187478,-36.77749],[140.187533,-36.777661],[140.187606,-36.778014],[140.188032,-36.780568],[140.188486,-36.783252],[140.188899,-36.785753],[140.189054,-36.786517],[140.189102,-36.786729],[140.189178,-36.786949],[140.189642,-36.788112],[140.190557,-36.790451],[140.191424,-36.792627],[140.192057,-36.794214],[140.192415,-36.795112],[140.193303,-36.797341],[140.194338,-36.799941],[140.195181,-36.802101],[140.195418,-36.802693],[140.195917,-36.803919],[140.19634,-36.805015],[140.196812,-36.806235],[140.196908,-36.806555],[140.196977,-36.806858],[140.197028,-36.807106],[140.197052,-36.807373],[140.197056,-36.80772],[140.196973,-36.809386],[140.196935,-36.810584],[140.196949,-36.810843],[140.196997,-36.811155],[140.197101,-36.811884],[140.197324,-36.813212],[140.197496,-36.814259],[140.197861,-36.816349],[140.19795,-36.816688],[140.198016,-36.816859],[140.198473,-36.81804],[140.198642,-36.818492],[140.199519,-36.820659],[140.200561,-36.82327],[140.200682,-36.823597],[140.200819,-36.823889],[140.201019,-36.824231],[140.201212,-36.824517],[140.201487,-36.824867],[140.201697,-36.825115],[140.201869,-36.825291],[140.202254,-36.825654],[140.202715,-36.826081],[140.204408,-36.827654],[140.205095,-36.828392],[140.205821,-36.829209],[140.206224,-36.829647],[140.207779,-36.831365],[140.208212,-36.831864],[140.208343,-36.832029],[140.208481,-36.832216],[140.208574,-36.83236],[140.208715,-36.832607],[140.208852,-36.832891],[140.208955,-36.833125],[140.209066,-36.833406],[140.209134,-36.833673],[140.209802,-36.836013],[140.210565,-36.83867],[140.211336,-36.841228],[140.212083,-36.843978],[140.21286,-36.846701],[140.213582,-36.849322],[140.214202,-36.851601],[140.214484,-36.852578],[140.214549,-36.852821],[140.214573,-36.853024],[140.214601,-36.853278],[140.214615,-36.853506],[140.214604,-36.853751],[140.214584,-36.854109],[140.214353,-36.856735],[140.214284,-36.858362],[140.21426,-36.859413],[140.214188,-36.862056],[140.214184,-36.86259],[140.214181,-36.862898],[140.214202,-36.863195],[140.214246,-36.86355],[140.214315,-36.863861],[140.214387,-36.864156],[140.214456,-36.864403],[140.214546,-36.864723],[140.215055,-36.866534],[140.215653,-36.868568],[140.216699,-36.872417],[140.217594,-36.875573],[140.218205,-36.877665],[140.218541,-36.879005],[140.219025,-36.880653],[140.219458,-36.882151],[140.219724,-36.883222],[140.219846,-36.883624],[140.219981,-36.883952],[140.220022,-36.884035],[140.220108,-36.884214],[140.220776,-36.885261],[140.221308,-36.88605],[140.221644,-36.886539],[140.22205,-36.886992],[140.223194,-36.888343],[140.225524,-36.890881],[140.226358,-36.891785],[140.226943,-36.892424],[140.227178,-36.892724],[140.22737,-36.893007],[140.227589,-36.893373],[140.22772,-36.893632],[140.227842,-36.893915],[140.22796,-36.894253],[140.229086,-36.897471],[140.229487,-36.898644],[140.229588,-36.898958],[140.229675,-36.899286],[140.229745,-36.899583],[140.229793,-36.899855],[140.229808,-36.899985]]}},{"type":"Feature","properties":{"tier":"regional"},"geometry":{"type":"LineString","coordinates":[[140.157901,-36.704074],[140.157981,-36.704216]]}},{"type":"Feature","properties":{"tier":"regional"},"geometry":{"type":"LineString","coordinates":[[140.157443,-36.703258],[140.157901,-36.704074]]}},{"type":"Feature","properties":{"tier":"arterial"},"geometry":{"type":"LineString","coordinates":[[140.253967,-36.949766],[140.265716,-36.955204],[140.27829,-36.961016],[140.291143,-36.966949],[140.3011,-36.971578],[140.304748,-36.97324],[140.30528,-36.973427],[140.305546,-36.973509],[140.305842,-36.9736],[140.306932,-36.973851],[140.30793,-36.97401],[140.309919,-36.974166],[140.310799,-36.974149],[140.316728,-36.973977],[140.32142,-36.97384],[140.342728,-36.973189],[140.342816,-36.973189],[140.352077,-36.97289]]}},{"type":"Feature","properties":{"tier":"arterial"},"geometry":{"type":"LineString","coordinates":[[140.25381,-36.949689],[140.253967,-36.949766]]}},{"type":"Feature","properties":{"tier":"regional"},"geometry":{"type":"LineString","coordinates":[[140.225475,-36.916854],[140.225481,-36.917001]]}},{"type":"Feature","properties":{"tier":"regional"},"geometry":{"type":"LineString","coordinates":[[140.229808,-36.899985],[140.229845,-36.900305],[140.229902,-36.900892],[140.229924,-36.901502],[140.229902,-36.902131],[140.229797,-36.902933],[140.229653,-36.903621],[140.229513,-36.904075],[140.229251,-36.904755],[140.22902,-36.905293],[140.22844,-36.906409],[140.226637,-36.909711],[140.226,-36.910855],[140.225764,-36.911316],[140.225612,-36.911693],[140.225494,-36.912066],[140.225419,-36.912408],[140.225376,-36.912775],[140.225358,-36.913075],[140.225358,-36.913364],[140.225433,-36.915859],[140.225475,-36.916854]]}},{"type":"Feature","properties":{"tier":"regional"},"geometry":{"type":"LineString","coordinates":[[140.225481,-36.917001],[140.225489,-36.917196],[140.225511,-36.91766],[140.225555,-36.917915],[140.225642,-36.918347],[140.225747,-36.918682],[140.225834,-36.918954],[140.225991,-36.91931],[140.227008,-36.921292],[140.227846,-36.922953],[140.228571,-36.924398],[140.22909,-36.925416],[140.229876,-36.92699],[140.230007,-36.927332],[140.230133,-36.927681],[140.230242,-36.928075],[140.230299,-36.928403],[140.230308,-36.928623],[140.230334,-36.929363],[140.230425,-36.931498],[140.230539,-36.934093],[140.230556,-36.934564],[140.230543,-36.934795],[140.230526,-36.935007],[140.230425,-36.935754],[140.230264,-36.937055],[140.229845,-36.940393],[140.229635,-36.942421]]}},{"type":"Feature","properties":{"tier":"arterial"},"geometry":{"type":"LineString","coordinates":[[140.023879,-36.762957],[140.023773,-36.763306]]}},{"type":"Feature","properties":{"tier":"arterial"},"geometry":{"type":"LineString","coordinates":[[140.023773,-36.763306],[140.023144,-36.765243],[140.021566,-36.769333],[140.021388,-36.769795],[140.021181,-36.770328],[140.020975,-36.770858],[140.020868,-36.771127],[140.020772,-36.771455],[140.020725,-36.771624],[140.020688,-36.771822],[140.020663,-36.772059],[140.020647,-36.772331],[140.020639,-36.772577],[140.020642,-36.772816],[140.020659,-36.773089],[140.020829,-36.774166],[140.021279,-36.776715],[140.021603,-36.77859],[140.021763,-36.779529],[140.021922,-36.780511],[140.021994,-36.780918],[140.022016,-36.78114],[140.022024,-36.781379],[140.022011,-36.781643],[140.021967,-36.781925],[140.021904,-36.782268],[140.021829,-36.782498],[140.021657,-36.782953],[140.021503,-36.783228],[140.021318,-36.783525],[140.021155,-36.783731],[140.020892,-36.784026],[140.020712,-36.784214],[140.020503,-36.784403],[140.020309,-36.784567],[140.020076,-36.784744],[140.019737,-36.784942],[140.018091,-36.785801],[140.012329,-36.788688],[140.003929,-36.792873],[139.99998,-36.794855]]}},{"type":"Feature","properties":{"tier":"regional"},"geometry":{"type":"LineString","coordinates":[[140.374546,-36.960287],[140.373778,-36.963672],[140.373383,-36.965378],[140.373353,-36.965642],[140.373339,-36.965802],[140.373333,-36.96587],[140.37333,-36.9659],[140.373338,-36.967321],[140.37344,-36.969747],[140.373498,-36.971109]]}},{"type":"Feature","properties":{"tier":"arterial"},"geometry":{"type":"LineString","coordinates":[[140.352077,-36.97289],[140.361781,-36.972614],[140.363999,-36.972514]]}},{"type":"Feature","properties":{"tier":"regional"},"geometry":{"type":"LineString","coordinates":[[140.494173,-36.603413],[140.4942,-36.603668],[140.494243,-36.603946],[140.494332,-36.604238],[140.494514,-36.604758],[140.494671,-36.605184],[140.494915,-36.605809],[140.49511,-36.606339],[140.49556,-36.60752],[140.495979,-36.608686],[140.496947,-36.611269],[140.497305,-36.61223],[140.498638,-36.615915],[140.499751,-36.619012],[140.50002,-36.619692]]}},{"type":"Feature","properties":{"tier":"regional"},"geometry":{"type":"LineString","coordinates":[[140.49372,-36.603412],[140.493047,-36.601552],[140.493023,-36.601483],[140.492843,-36.600962],[140.492649,-36.600515],[140.492373,-36.599706],[140.492383,-36.5997],[140.492786,-36.599495]]}},{"type":"Feature","properties":{"tier":"arterial"},"geometry":{"type":"LineString","coordinates":[[140.37002,-36.975569],[140.369989,-36.974714],[140.369968,-36.974521],[140.369897,-36.973432],[140.369816,-36.97247]]}},{"type":"Feature","properties":{"tier":"regional"},"geometry":{"type":"LineString","coordinates":[[140.383035,-36.884164],[140.3746,-36.886888],[140.373477,-36.887248],[140.372134,-36.887693],[140.369721,-36.888482],[140.368523,-36.88886],[140.368193,-36.888984],[140.367559,-36.889233],[140.366937,-36.889563],[140.364037,-36.891262],[140.362313,-36.892265],[140.361311,-36.89284],[140.360692,-36.893121],[140.360062,-36.893319],[140.35956,-36.893464],[140.359014,-36.893568],[140.358356,-36.89366],[140.357741,-36.893687],[140.355442,-36.893708],[140.354689,-36.893697],[140.354261,-36.89371],[140.353813,-36.893681],[140.353355,-36.893642],[140.351948,-36.893703],[140.351428,-36.893715],[140.350843,-36.893758],[140.350212,-36.893874],[140.349639,-36.894051],[140.349043,-36.894273]]}},{"type":"Feature","properties":{"tier":"arterial"},"geometry":{"type":"LineString","coordinates":[[140.234494,-36.942832],[140.237542,-36.943131],[140.238508,-36.943286],[140.241512,-36.944023],[140.243314,-36.944658],[140.244494,-36.945138],[140.251812,-36.948705],[140.25381,-36.949689]]}},{"type":"Feature","properties":{"tier":"high"},"geometry":{"type":"LineString","coordinates":[[140.488802,-36.594788],[140.490997,-36.597378],[140.491579,-36.598066],[140.492786,-36.599495],[140.493567,-36.600401],[140.494278,-36.601223],[140.494957,-36.601946],[140.495387,-36.602302],[140.495964,-36.60278],[140.496136,-36.602873],[140.496993,-36.603345],[140.497299,-36.603502],[140.498768,-36.604115]]}},{"type":"Feature","properties":{"tier":"high"},"geometry":{"type":"LineString","coordinates":[[140.383659,-36.49998],[140.385175,-36.501233],[140.385448,-36.501459],[140.386401,-36.502247],[140.388722,-36.504165],[140.390084,-36.504957],[140.391095,-36.505348],[140.396301,-36.507339],[140.397831,-36.508095],[140.398889,-36.508952],[140.400271,-36.51037],[140.412176,-36.52214],[140.426997,-36.536862],[140.429286,-36.539062],[140.429888,-36.539585],[140.430646,-36.540095],[140.432584,-36.541345],[140.432653,-36.541389],[140.433631,-36.54202],[140.434282,-36.542491],[140.435251,-36.543451],[140.452952,-36.560951],[140.471379,-36.579067],[140.471595,-36.579279],[140.472376,-36.580037],[140.473202,-36.580662],[140.474243,-36.581254],[140.479238,-36.583804],[140.480109,-36.584444],[140.481091,-36.585518],[140.488802,-36.594788]]}},{"type":"Feature","properties":{"tier":"arterial"},"geometry":{"type":"LineString","coordinates":[[140.490997,-36.597378],[140.50002,-36.592453]]}},{"type":"Feature","properties":{"tier":"arterial"},"geometry":{"type":"LineString","coordinates":[[140.229635,-36.942421],[140.233873,-36.942771],[140.234494,-36.942832]]}},{"type":"Feature","properties":{"tier":"arterial"},"geometry":{"type":"LineString","coordinates":[[140.22784,-36.942285],[140.229635,-36.942421]]}},{"type":"Feature","properties":{"tier":"arterial"},"geometry":{"type":"LineString","coordinates":[[140.005427,-36.917593],[140.006074,-36.918776],[140.006354,-36.919376],[140.00658,-36.919976],[140.006809,-36.920598],[140.006984,-36.921241],[140.007171,-36.921897],[140.007205,-36.922052],[140.007309,-36.922526]]}},{"type":"Feature","properties":{"tier":"arterial"},"geometry":{"type":"LineString","coordinates":[[139.99998,-36.907183],[140.005427,-36.917593]]}},{"type":"Feature","properties":{"tier":"arterial"},"geometry":{"type":"LineString","coordinates":[[140.369808,-36.981598],[140.369811,-36.978552]]}},{"type":"Feature","properties":{"tier":"arterial"},"geometry":{"type":"LineString","coordinates":[[140.369811,-36.978552],[140.369812,-36.977649],[140.369803,-36.97684],[140.369875,-36.97631],[140.370005,-36.975665],[140.37002,-36.975569]]}},{"type":"Feature","properties":{"tier":"high"},"geometry":{"type":"LineString","coordinates":[[140.498768,-36.604115],[140.50002,-36.604638]]}},{"type":"Feature","properties":{"tier":"arterial"},"geometry":{"type":"LineString","coordinates":[[140.22445,-36.59847],[140.224252,-36.598621],[140.224039,-36.598775],[140.223326,-36.599257],[140.221864,-36.600245],[140.219643,-36.601787],[140.219193,-36.602191],[140.218753,-36.602742],[140.218436,-36.603242],[140.217669,-36.604788],[140.21569,-36.608819],[140.214279,-36.611687],[140.213002,-36.614429],[140.212133,-36.616281],[140.21179,-36.617336],[140.210926,-36.619846],[140.210481,-36.621379],[140.210411,-36.622162],[140.210561,-36.623334],[140.211039,-36.626093],[140.211253,-36.627359],[140.21091,-36.630359],[140.21062,-36.632185],[140.210143,-36.634991],[140.210095,-36.635594],[140.210132,-36.636438],[140.210266,-36.637028],[140.210738,-36.638719],[140.211699,-36.642107],[140.21231,-36.644267],[140.212414,-36.644667],[140.212426,-36.644713]]}},{"type":"Feature","properties":{"tier":"arterial"},"geometry":{"type":"LineString","coordinates":[[140.212426,-36.644713],[140.212459,-36.644841]]}},{"type":"Feature","properties":{"tier":"arterial"},"geometry":{"type":"LineString","coordinates":[[140.144491,-36.936864],[140.15805,-36.937522],[140.159136,-36.937575],[140.167099,-36.93797],[140.167928,-36.938011],[140.169553,-36.938092],[140.180572,-36.938638],[140.193361,-36.939307],[140.211836,-36.940816],[140.218101,-36.941399],[140.224753,-36.942051],[140.22784,-36.942285]]}},{"type":"Feature","properties":{"tier":"arterial"},"geometry":{"type":"LineString","coordinates":[[140.144366,-36.936857],[140.144491,-36.936864]]}}]}
