{"type":"FeatureCollection","features":[{"type":"Feature","properties":{"tier":"arterial"},"geometry":{"type":"LineString","coordinates":[[140.012492,-37.480587],[140.013357,-37.479915],[140.013668,-37.479675],[140.014732,-37.479039],[140.015032,-37.478866],[140.017831,-37.477275],[140.018696,-37.476781],[140.019078,-37.476571]]}},{"type":"Feature","properties":{"tier":"arterial"},"geometry":{"type":"LineString","coordinates":[[140.007571,-36.99998],[140.00756,-37.008148],[140.007579,-37.009163],[140.007705,-37.01001],[140.00788,-37.010671],[140.008158,-37.011417],[140.008518,-37.012113],[140.009172,-37.013164],[140.009887,-37.014313],[140.011632,-37.01713],[140.013241,-37.019749],[140.015169,-37.022881],[140.017459,-37.026589],[140.019591,-37.030004],[140.020255,-37.031129],[140.020619,-37.031659],[140.021001,-37.032134],[140.0215,-37.032671],[140.022082,-37.033203],[140.023244,-37.034023],[140.024501,-37.034894],[140.027842,-37.037123],[140.031721,-37.03969],[140.035195,-37.042025],[140.039433,-37.044867],[140.045501,-37.04892],[140.049363,-37.051495],[140.052877,-37.053845],[140.056327,-37.056158],[140.059356,-37.058172],[140.062162,-37.060049],[140.063292,-37.060805],[140.066432,-37.062914],[140.070387,-37.065538],[140.074323,-37.068171],[140.077693,-37.070425],[140.077823,-37.070511],[140.080775,-37.072491],[140.081256,-37.072853],[140.081719,-37.073259],[140.082228,-37.073767],[140.082754,-37.074402],[140.083143,-37.074984],[140.083274,-37.07522],[140.083501,-37.07563],[140.083761,-37.076231],[140.08395,-37.076801],[140.084086,-37.077386],[140.084176,-37.07801],[140.084212,-37.07873],[140.084206,-37.079369],[140.084207,-37.080348],[140.084204,-37.081606],[140.08419,-37.082972],[140.084187,-37.084121],[140.084186,-37.085515],[140.084181,-37.086919],[140.084168,-37.0884],[140.08417,-37.089928],[140.08418,-37.09049],[140.084276,-37.091184],[140.084342,-37.091477],[140.084352,-37.091529],[140.084356,-37.091546],[140.084466,-37.091961],[140.084697,-37.092587],[140.084959,-37.093138],[140.085797,-37.094876],[140.087655,-37.098022],[140.088116,-37.09851],[140.10359,-37.114795],[140.104483,-37.115735],[140.107827,-37.119253],[140.110338,-37.121896],[140.11076,-37.122468],[140.111134,-37.123092],[140.111634,-37.124266],[140.111817,-37.124921],[140.111948,-37.125694],[140.111948,-37.126451],[140.111986,-37.128016],[140.111974,-37.130326],[140.111968,-37.133184],[140.111953,-37.133753],[140.111907,-37.134274],[140.111549,-37.135953],[140.11148,-37.136311],[140.111409,-37.136741],[140.111367,-37.137359],[140.111355,-37.138172],[140.111399,-37.13936],[140.111366,-37.141436],[140.11136,-37.14313],[140.111357,-37.144652],[140.111395,-37.145481],[140.111434,-37.145839],[140.1115,-37.146187],[140.111627,-37.146786],[140.111884,-37.147989],[140.112157,-37.14926],[140.112277,-37.149828],[140.112311,-37.150159],[140.112349,-37.150401],[140.112358,-37.150655],[140.112371,-37.15099],[140.112368,-37.152732],[140.112375,-37.153925],[140.112367,-37.155175],[140.11237,-37.156952],[140.11236,-37.158625],[140.112359,-37.160834],[140.112359,-37.160866]]}},{"type":"Feature","properties":{"tier":"regional"},"geometry":{"type":"LineString","coordinates":[[140.137163,-37.416668],[140.137648,-37.416488],[140.138123,-37.416246],[140.138441,-37.416009],[140.139934,-37.414777],[140.140333,-37.414493],[140.140963,-37.414129],[140.141657,-37.413834],[140.147022,-37.411549],[140.147491,-37.41132],[140.147944,-37.411056],[140.152526,-37.40818],[140.165402,-37.400149],[140.16715,-37.398929],[140.174802,-37.394089],[140.180012,-37.390831],[140.185291,-37.387512],[140.201372,-37.377449],[140.20597,-37.374675],[140.20949,-37.372578],[140.210022,-37.372192],[140.210493,-37.371888]]}},{"type":"Feature","properties":{"tier":"arterial"},"geometry":{"type":"LineString","coordinates":[[140.50002,-37.35641],[140.469992,-37.355862],[140.469356,-37.355848],[140.469139,-37.355843],[140.468673,-37.355869],[140.468189,-37.355913],[140.467654,-37.355993],[140.465597,-37.356334],[140.465092,-37.356407],[140.464685,-37.356442],[140.464128,-37.356459],[140.46361,-37.356429],[140.463117,-37.356378],[140.458684,-37.355772],[140.4579,-37.355674],[140.457213,-37.35561],[140.456261,-37.355536],[140.445789,-37.354849],[140.44479,-37.354783],[140.443962,-37.354736],[140.443221,-37.35476],[140.442482,-37.354862],[140.441516,-37.355071],[140.440165,-37.355446],[140.4393,-37.355624],[140.438568,-37.355699],[140.437841,-37.355706],[140.436983,-37.355702],[140.434766,-37.355707],[140.425463,-37.355723],[140.425442,-37.355723],[140.399522,-37.355785],[140.377138,-37.355825],[140.363629,-37.355579],[140.361577,-37.355527],[140.360701,-37.355439],[140.360242,-37.35537],[140.359698,-37.355296],[140.328749,-37.3513],[140.319864,-37.350156],[140.317533,-37.349848],[140.316728,-37.349751],[140.316035,-37.349674],[140.315348,-37.349616],[140.314736,-37.349566],[140.307744,-37.348939],[140.307092,-37.348879],[140.306624,-37.348827],[140.306147,-37.348763],[140.305651,-37.348667],[140.305119,-37.348522],[140.297815,-37.34631],[140.284167,-37.342606],[140.283239,-37.342381],[140.282394,-37.342234],[140.276797,-37.341414],[140.259779,-37.338935],[140.25928,-37.338848]]}},{"type":"Feature","properties":{"tier":"arterial"},"geometry":{"type":"LineString","coordinates":[[140.088732,-37.294764],[140.088099,-37.294579],[140.087552,-37.294394],[140.087018,-37.294185],[140.086436,-37.293924],[140.083512,-37.292663],[140.080939,-37.291554],[140.07667,-37.289694],[140.076003,-37.28945],[140.07543,-37.289302],[140.07498,-37.28921],[140.074492,-37.289164],[140.074135,-37.289149],[140.073646,-37.28916],[140.07277,-37.289197],[140.068363,-37.289385],[140.06762,-37.289381],[140.067068,-37.289341],[140.066304,-37.289256],[140.065797,-37.289186],[140.062465,-37.288727],[140.062092,-37.288677],[140.061739,-37.288647],[140.061262,-37.288628],[140.055132,-37.28842],[140.04742,-37.288003],[140.047169,-37.28799],[140.046617,-37.287946],[140.046045,-37.287878],[140.045579,-37.287776],[140.045137,-37.287665],[140.036985,-37.285351],[140.03651,-37.285229],[140.03601,-37.285108],[140.035598,-37.285029],[140.035288,-37.284969],[140.03062,-37.284114],[140.023707,-37.283259],[140.022994,-37.283173],[140.022271,-37.283054],[140.01437,-37.281673],[140.014173,-37.281638],[140.004229,-37.279903],[139.99998,-37.279149]]}},{"type":"Feature","properties":{"tier":"arterial"},"geometry":{"type":"LineString","coordinates":[[140.435293,-37.255106],[140.433135,-37.24801],[140.432685,-37.246552],[140.432598,-37.246268],[140.432579,-37.246207],[140.429934,-37.237538],[140.429801,-37.237111],[140.429713,-37.236744],[140.42618,-37.222589],[140.426121,-37.222366],[140.42605,-37.222126],[140.425949,-37.22186],[140.425151,-37.220112],[140.425013,-37.219814],[140.424896,-37.219588],[140.424754,-37.219335],[140.424599,-37.219094],[140.420486,-37.213023],[140.420174,-37.21257],[140.419975,-37.212261],[140.419824,-37.211948],[140.419728,-37.211674],[140.419653,-37.21141],[140.419165,-37.209502],[140.414592,-37.191613],[140.411688,-37.181635],[140.410381,-37.17729],[140.410278,-37.176948],[140.410221,-37.176705],[140.410178,-37.176462],[140.410122,-37.175788],[140.410104,-37.175609],[140.409202,-37.163363],[140.408952,-37.160006],[140.407725,-37.143338],[140.407708,-37.143154],[140.407691,-37.143047],[140.407651,-37.142876],[140.403417,-37.129982],[140.399232,-37.116848],[140.395028,-37.103851],[140.390785,-37.090843],[140.388314,-37.083348],[140.384152,-37.070423],[140.381856,-37.063266],[140.379646,-37.056434],[140.378848,-37.053991],[140.377006,-37.048351],[140.376919,-37.048081],[140.37441,-37.040284],[140.372758,-37.035146],[140.371041,-37.02999],[140.370311,-37.027763],[140.370113,-37.026621]]}},{"type":"Feature","properties":{"tier":"arterial"},"geometry":{"type":"LineString","coordinates":[[140.370113,-37.026621],[140.370115,-37.024274],[140.370062,-37.016274],[140.370003,-37.010568],[140.369928,-37.003217],[140.369894,-36.99998]]}},{"type":"Feature","properties":{"tier":"regional"},"geometry":{"type":"LineString","coordinates":[[140.014381,-37.4821],[140.014402,-37.482092],[140.01444,-37.482083],[140.014509,-37.482084],[140.014546,-37.482095],[140.014567,-37.482118],[140.014577,-37.482138],[140.014578,-37.482158],[140.014572,-37.482188],[140.014532,-37.48223],[140.014498,-37.482255],[140.014464,-37.482276],[140.014403,-37.482291],[140.014361,-37.482282],[140.014333,-37.48227],[140.014308,-37.482247],[140.014306,-37.482172],[140.01433,-37.482133],[140.014355,-37.482112],[140.014381,-37.4821]]}},{"type":"Feature","properties":{"tier":"regional"},"geometry":{"type":"LineString","coordinates":[[140.014196,-37.481957],[140.014303,-37.482017],[140.01444,-37.482083]]}},{"type":"Feature","properties":{"tier":"regional"},"geometry":{"type":"LineString","coordinates":[[140.317533,-37.349848],[140.317477,-37.349635],[140.31334,-37.343507],[140.309993,-37.339549],[140.306731,-37.335181],[140.30304,-37.331155],[140.301731,-37.330234],[140.300551,-37.328357],[140.299736,-37.327094],[140.297054,-37.324244],[140.296496,-37.323425],[140.295375,-37.321557],[140.293899,-37.319176],[140.292955,-37.318135],[140.290659,-37.315661],[140.289093,-37.313187],[140.28832,-37.311821],[140.287985,-37.310887]]}},{"type":"Feature","properties":{"tier":"arterial"},"geometry":{"type":"LineString","coordinates":[[140.019311,-37.47644],[140.020665,-37.475681],[140.021233,-37.475429],[140.021724,-37.47526],[140.022234,-37.475129],[140.024973,-37.474671],[140.030568,-37.473749],[140.031047,-37.473674],[140.031692,-37.473583],[140.032098,-37.473544],[140.03259,-37.473525],[140.033234,-37.473541],[140.03361,-37.473588],[140.035876,-37.473893],[140.036875,-37.474007]]}},{"type":"Feature","properties":{"tier":"arterial"},"geometry":{"type":"LineString","coordinates":[[140.019078,-37.476571],[140.019311,-37.47644]]}},{"type":"Feature","properties":{"tier":"regional"},"geometry":{"type":"LineString","coordinates":[[140.014196,-37.481957],[140.01376,-37.481585],[140.013206,-37.481166],[140.012928,-37.480933],[140.012492,-37.480587],[140.011958,-37.480142],[140.010652,-37.479084],[140.009186,-37.477858],[140.008512,-37.47722],[140.007899,-37.476665],[140.007705,-37.47652],[140.006756,-37.475808],[140.006232,-37.475393],[140.005643,-37.475074],[140.005212,-37.474846],[140.005064,-37.474698]]}},{"type":"Feature","properties":{"tier":"regional"},"geometry":{"type":"LineString","coordinates":[[140.014306,-37.482172],[140.014272,-37.482079],[140.014196,-37.481957]]}},{"type":"Feature","properties":{"tier":"arterial"},"geometry":{"type":"LineString","coordinates":[[140.244155,-37.459564],[140.243904,-37.459606],[140.243695,-37.459641]]}},{"type":"Feature","properties":{"tier":"arterial"},"geometry":{"type":"LineString","coordinates":[[140.115867,-37.262782],[140.117275,-37.2648],[140.117435,-37.265013],[140.117837,-37.265427],[140.11859,-37.266102],[140.119223,-37.266715],[140.119811,-37.267327],[140.120224,-37.267833],[140.120752,-37.268589],[140.121114,-37.269182],[140.121385,-37.269746],[140.121704,-37.270407],[140.122111,-37.271253],[140.122406,-37.271842],[140.122653,-37.272239],[140.122872,-37.272563]]}},{"type":"Feature","properties":{"tier":"arterial"},"geometry":{"type":"LineString","coordinates":[[140.112351,-37.176094],[140.11235,-37.178602],[140.112329,-37.181867],[140.112345,-37.184634],[140.11234,-37.188059],[140.112324,-37.191142],[140.112317,-37.194421],[140.112324,-37.197412],[140.112304,-37.200228],[140.112311,-37.203243],[140.11231,-37.20371],[140.112308,-37.206001],[140.112301,-37.20866],[140.112294,-37.211479],[140.112282,-37.214157],[140.112276,-37.216714],[140.112281,-37.219002],[140.112276,-37.221025],[140.112278,-37.223108]]}},{"type":"Feature","properties":{"tier":"arterial"},"geometry":{"type":"LineString","coordinates":[[140.20986,-37.371251],[140.210184,-37.371582]]}},{"type":"Feature","properties":{"tier":"arterial"},"geometry":{"type":"LineString","coordinates":[[140.112027,-37.241212],[140.112026,-37.241286]]}},{"type":"Feature","properties":{"tier":"arterial"},"geometry":{"type":"LineString","coordinates":[[140.156779,-37.317219],[140.156914,-37.317357]]}},{"type":"Feature","properties":{"tier":"arterial"},"geometry":{"type":"LineString","coordinates":[[140.112278,-37.223108],[140.112273,-37.223239]]}},{"type":"Feature","properties":{"tier":"arterial"},"geometry":{"type":"LineString","coordinates":[[140.115762,-37.262622],[140.115867,-37.262782]]}},{"type":"Feature","properties":{"tier":"arterial"},"geometry":{"type":"LineString","coordinates":[[140.244107,-37.45037],[140.244108,-37.450681]]}},{"type":"Feature","properties":{"tier":"arterial"},"geometry":{"type":"LineString","coordinates":[[140.112359,-37.160866],[140.112362,-37.161141]]}},{"type":"Feature","properties":{"tier":"arterial"},"geometry":{"type":"LineString","coordinates":[[140.112233,-37.232298],[140.112221,-37.232431]]}},{"type":"Feature","properties":{"tier":"arterial"},"geometry":{"type":"LineString","coordinates":[[140.122872,-37.272563],[140.122959,-37.272673]]}},{"type":"Feature","properties":{"tier":"arterial"},"geometry":{"type":"LineString","coordinates":[[140.112345,-37.175988],[140.112351,-37.176094]]}},{"type":"Feature","properties":{"tier":"arterial"},"geometry":{"type":"LineString","coordinates":[[140.210184,-37.371582],[140.210493,-37.371888],[140.210569,-37.371961],[140.226756,-37.388436],[140.227255,-37.388898],[140.227878,-37.389338],[140.228367,-37.389697],[140.229385,-37.390255],[140.230126,-37.390568],[140.231006,-37.39086],[140.231822,-37.391076],[140.232847,-37.391295],[140.234393,-37.39169],[140.235489,-37.392097],[140.236404,-37.392555],[140.237182,-37.393033],[140.238377,-37.394002],[140.238909,-37.394616],[140.239163,-37.394934],[140.24263,-37.399267],[140.243274,-37.400412],[140.243712,-37.401493],[140.243839,-37.402065],[140.243945,-37.40285],[140.243958,-37.403752],[140.244106,-37.450045],[140.244107,-37.45037]]}},{"type":"Feature","properties":{"tier":"arterial"},"geometry":{"type":"LineString","coordinates":[[140.156914,-37.317357],[140.194795,-37.355926],[140.199758,-37.360973],[140.20986,-37.371251]]}},{"type":"Feature","properties":{"tier":"arterial"},"geometry":{"type":"LineString","coordinates":[[140.112026,-37.241286],[140.112017,-37.242982],[140.11202,-37.243977],[140.11203,-37.244318],[140.112079,-37.244705],[140.11217,-37.245074],[140.112282,-37.245409],[140.112414,-37.245721],[140.112568,-37.246032],[140.112728,-37.246289],[140.113047,-37.24674],[140.113575,-37.247327],[140.11392,-37.247812],[140.114192,-37.248253],[140.114319,-37.248546],[140.114499,-37.24901],[140.11463,-37.24949],[140.114686,-37.249866],[140.114716,-37.250259],[140.114808,-37.251716],[140.114905,-37.253497],[140.115008,-37.255285],[140.115031,-37.25597],[140.115005,-37.256618],[140.11488,-37.258069],[140.114761,-37.259515],[140.114778,-37.260075],[140.114838,-37.26063],[140.114979,-37.261137],[140.115138,-37.261567],[140.11531,-37.261906],[140.115762,-37.262622]]}},{"type":"Feature","properties":{"tier":"arterial"},"geometry":{"type":"LineString","coordinates":[[140.112273,-37.223239],[140.112271,-37.225942],[140.112274,-37.228819],[140.112255,-37.231839],[140.112233,-37.232298]]}},{"type":"Feature","properties":{"tier":"arterial"},"geometry":{"type":"LineString","coordinates":[[140.122959,-37.272673],[140.123656,-37.27345],[140.124268,-37.274162],[140.124553,-37.2745],[140.124805,-37.274887],[140.126094,-37.277047],[140.127436,-37.2793],[140.128628,-37.281648],[140.129733,-37.28386],[140.130389,-37.285178],[140.130618,-37.285553],[140.130815,-37.285837],[140.130968,-37.286023],[140.131146,-37.286225],[140.131345,-37.286431],[140.131728,-37.286796],[140.132132,-37.287119],[140.132534,-37.28738],[140.134048,-37.28825],[140.135698,-37.289197],[140.136095,-37.289458],[140.136444,-37.289728],[140.136763,-37.290003],[140.137103,-37.290363],[140.137336,-37.290639],[140.137512,-37.290881],[140.137756,-37.291243],[140.138668,-37.29283],[140.139824,-37.294824],[140.140322,-37.295631],[140.140736,-37.296205],[140.141947,-37.297717],[140.144299,-37.30066],[140.145428,-37.302027],[140.146697,-37.303289],[140.147882,-37.304432],[140.148388,-37.304932],[140.148723,-37.305306],[140.148975,-37.30564],[140.14919,-37.305963],[140.149335,-37.306228],[140.149368,-37.306301],[140.149516,-37.306631],[140.149708,-37.307146],[140.149949,-37.307866],[140.150407,-37.309258],[140.150576,-37.309794],[140.150765,-37.310288],[140.151038,-37.310875],[140.151271,-37.311307],[140.151506,-37.311656],[140.152385,-37.312738],[140.154821,-37.315262],[140.155891,-37.316329],[140.156414,-37.316849],[140.156779,-37.317219]]}},{"type":"Feature","properties":{"tier":"arterial"},"geometry":{"type":"LineString","coordinates":[[140.112221,-37.232431],[140.112194,-37.232703],[140.112152,-37.233151],[140.112132,-37.23335],[140.112057,-37.233958],[140.11204,-37.234124],[140.112014,-37.234623],[140.11203,-37.23632],[140.112026,-37.238063],[140.112029,-37.23966],[140.112027,-37.241212]]}},{"type":"Feature","properties":{"tier":"arterial"},"geometry":{"type":"LineString","coordinates":[[140.112362,-37.161141],[140.112359,-37.161799],[140.112354,-37.164331],[140.11235,-37.166629],[140.112352,-37.168342],[140.11235,-37.170087],[140.112343,-37.171686],[140.112349,-37.173939],[140.112345,-37.175988]]}},{"type":"Feature","properties":{"tier":"arterial"},"geometry":{"type":"LineString","coordinates":[[140.274789,-37.490093],[140.275209,-37.4903],[140.275835,-37.490566],[140.27708,-37.490988],[140.282812,-37.492923],[140.2857,-37.493899],[140.290105,-37.495431],[140.290884,-37.495752],[140.29166,-37.496091],[140.292212,-37.496371],[140.292749,-37.496696],[140.293298,-37.497114],[140.293827,-37.497584],[140.294216,-37.498019],[140.29471,-37.498686],[140.295698,-37.50002]]}},{"type":"Feature","properties":{"tier":"arterial"},"geometry":{"type":"LineString","coordinates":[[140.04334,-37.444827],[140.0431,-37.443537],[140.04296,-37.443026],[140.042756,-37.442524],[140.042483,-37.441999],[140.042119,-37.44146],[140.041485,-37.440726],[140.038959,-37.437808],[140.036592,-37.435081],[140.03606,-37.43437],[140.035613,-37.433497],[140.035405,-37.432785],[140.035287,-37.432097],[140.035284,-37.431474],[140.035306,-37.43096],[140.035441,-37.430346],[140.035673,-37.429647],[140.037388,-37.425499],[140.038489,-37.422832],[140.038818,-37.421906],[140.039019,-37.421152],[140.03918,-37.4202],[140.03922,-37.419378],[140.039186,-37.418733],[140.039101,-37.417602],[140.038454,-37.409774],[140.037962,-37.404022],[140.037806,-37.402931],[140.037554,-37.402142],[140.037176,-37.401408],[140.036842,-37.400907],[140.036441,-37.400405],[140.035898,-37.39988],[140.034889,-37.398991],[140.032293,-37.396632],[140.029236,-37.393937],[140.028283,-37.392929],[140.027434,-37.391926],[140.022755,-37.385652],[140.022139,-37.384905],[140.02168,-37.38449],[140.021248,-37.384114],[140.020679,-37.383733],[140.019981,-37.383333],[140.018166,-37.382458],[140.0147,-37.380723],[140.011513,-37.379162],[140.008383,-37.377641],[140.007385,-37.377076],[140.006621,-37.376502],[140.006122,-37.376042],[140.003381,-37.372904],[140.002794,-37.372167],[140.002234,-37.371394],[140.001845,-37.37083],[139.99998,-37.367588]]}},{"type":"Feature","properties":{"tier":"arterial"},"geometry":{"type":"LineString","coordinates":[[140.036875,-37.474007],[140.037571,-37.474096],[140.040905,-37.474522],[140.044729,-37.475011],[140.045716,-37.475171],[140.046515,-37.475328],[140.047332,-37.47551],[140.048388,-37.475786],[140.049582,-37.476114],[140.050712,-37.476452],[140.051873,-37.476869],[140.052489,-37.477101],[140.0533,-37.477455],[140.057905,-37.479683],[140.058183,-37.479814],[140.059592,-37.480478],[140.067369,-37.484188],[140.068782,-37.484786],[140.070145,-37.485337],[140.072523,-37.48622],[140.074567,-37.486981],[140.075276,-37.487257],[140.076166,-37.487621],[140.077473,-37.488261],[140.078995,-37.489027],[140.08049,-37.48985],[140.082131,-37.490876],[140.085315,-37.492884],[140.086041,-37.493374],[140.087081,-37.494076],[140.089755,-37.496009],[140.09135,-37.497076],[140.093359,-37.498306],[140.09556,-37.499639],[140.096182,-37.50002]]}},{"type":"Feature","properties":{"tier":"regional"},"geometry":{"type":"LineString","coordinates":[[140.246299,-36.99998],[140.246416,-37.00127],[140.246552,-37.001938],[140.246737,-37.002512],[140.247101,-37.003193],[140.248047,-37.004698],[140.248385,-37.005359],[140.248512,-37.005676],[140.248664,-37.006155],[140.248841,-37.006736],[140.249374,-37.009151],[140.249881,-37.01102],[140.250058,-37.011438],[140.250345,-37.011897],[140.251934,-37.014056],[140.252534,-37.014845],[140.25277,-37.015257],[140.252998,-37.01579],[140.253159,-37.016397],[140.253226,-37.016984],[140.253328,-37.017841],[140.253438,-37.019089],[140.25354,-37.019433],[140.253683,-37.019891],[140.253928,-37.020368],[140.254849,-37.021852],[140.255399,-37.022709],[140.255752,-37.023075],[140.255849,-37.023176],[140.256225,-37.023516],[140.256593,-37.023805],[140.256835,-37.023956],[140.257975,-37.024739],[140.258525,-37.025204],[140.258896,-37.025629],[140.259327,-37.026162],[140.259615,-37.026749],[140.260274,-37.028071],[140.260595,-37.028516],[140.261093,-37.029069],[140.261541,-37.029474],[140.263924,-37.031295],[140.264321,-37.031673],[140.264693,-37.032091],[140.264997,-37.032523],[140.265368,-37.033056],[140.265842,-37.033764],[140.267123,-37.035709]]}},{"type":"Feature","properties":{"tier":"arterial"},"geometry":{"type":"LineString","coordinates":[[140.083893,-37.250271],[140.084051,-37.250188],[140.084617,-37.249908],[140.085024,-37.249661],[140.089182,-37.247024],[140.09514,-37.243553],[140.095667,-37.243181],[140.096419,-37.242388],[140.098546,-37.240403],[140.099048,-37.239998],[140.099485,-37.239644],[140.100175,-37.239205],[140.107352,-37.235579],[140.109091,-37.234689],[140.11003,-37.234425],[140.111037,-37.234227],[140.11204,-37.234124]]}},{"type":"Feature","properties":{"tier":"arterial"},"geometry":{"type":"LineString","coordinates":[[140.216205,-37.168738],[140.21596,-37.168917]]}},{"type":"Feature","properties":{"tier":"arterial"},"geometry":{"type":"LineString","coordinates":[[140.172065,-37.200725],[140.171875,-37.200783]]}},{"type":"Feature","properties":{"tier":"arterial"},"geometry":{"type":"LineString","coordinates":[[140.0837,-37.250372],[140.083893,-37.250271]]}},{"type":"Feature","properties":{"tier":"arterial"},"geometry":{"type":"LineString","coordinates":[[140.04742,-37.288003],[140.047449,-37.28725],[140.047476,-37.280708],[140.047495,-37.274853],[140.047573,-37.271876],[140.047637,-37.271329],[140.047729,-37.270855],[140.04791,-37.27035],[140.0481,-37.269838],[140.04831,-37.269414],[140.048574,-37.269014],[140.049042,-37.268517],[140.049369,-37.268187],[140.049784,-37.267861],[140.050472,-37.267426],[140.052887,-37.266183],[140.058078,-37.263539]]}},{"type":"Feature","properties":{"tier":"arterial"},"geometry":{"type":"LineString","coordinates":[[140.21596,-37.168917],[140.215325,-37.169389],[140.212999,-37.171127],[140.210684,-37.172854],[140.209576,-37.173668],[140.208017,-37.174814],[140.206761,-37.17573],[140.204935,-37.177126],[140.202444,-37.178968],[140.200464,-37.180439],[140.199435,-37.181201],[140.19879,-37.181663],[140.198252,-37.182152],[140.197852,-37.182537],[140.196075,-37.184645],[140.194284,-37.186745],[140.193376,-37.187793],[140.192379,-37.188969],[140.191378,-37.19016],[140.191063,-37.190529],[140.190863,-37.190762],[140.190378,-37.19133],[140.18886,-37.193147],[140.188501,-37.193565],[140.187783,-37.194387],[140.187031,-37.195258],[140.186734,-37.195539],[140.186237,-37.195957],[140.185757,-37.196303],[140.185247,-37.196594],[140.184615,-37.196872],[140.183939,-37.197116],[140.182611,-37.197526],[140.179688,-37.198408],[140.177431,-37.199082],[140.17416,-37.200093],[140.172065,-37.200725]]}},{"type":"Feature","properties":{"tier":"arterial"},"geometry":{"type":"LineString","coordinates":[[140.287352,-37.132542],[140.282618,-37.134131],[140.281876,-37.13438],[140.281071,-37.134594],[140.280486,-37.134734],[140.279851,-37.134835],[140.27442,-37.135267],[140.269467,-37.135652],[140.260937,-37.136356],[140.254769,-37.136908],[140.249319,-37.137331],[140.248649,-37.137383],[140.248143,-37.137445],[140.247671,-37.137534],[140.247153,-37.137672],[140.246669,-37.137834],[140.246268,-37.137995],[140.2458,-37.138216],[140.245219,-37.138558],[140.244522,-37.139087],[140.244082,-37.139499],[140.243629,-37.140036],[140.243316,-37.140468],[140.241304,-37.143347],[140.23986,-37.145327],[140.239478,-37.145865],[140.238229,-37.147676],[140.236435,-37.150231],[140.235514,-37.151559],[140.235224,-37.151947],[140.234903,-37.152327],[140.234644,-37.15261],[140.232999,-37.154078],[140.230362,-37.156446],[140.226915,-37.15951],[140.224196,-37.161971],[140.223323,-37.162741],[140.222978,-37.163007],[140.222116,-37.163527],[140.22136,-37.164017],[140.220925,-37.164319],[140.220539,-37.164688],[140.219517,-37.165906],[140.218948,-37.166585],[140.218691,-37.166814],[140.218575,-37.166918],[140.218078,-37.16733],[140.216205,-37.168738]]}},{"type":"Feature","properties":{"tier":"arterial"},"geometry":{"type":"LineString","coordinates":[[140.171875,-37.200783],[140.170779,-37.201113],[140.170669,-37.201147],[140.170444,-37.201214],[140.168631,-37.201765],[140.167711,-37.202044],[140.166569,-37.202391],[140.162366,-37.203677],[140.161311,-37.204015],[140.160569,-37.204323],[140.160361,-37.204431],[140.159975,-37.204653],[140.159309,-37.205098],[140.158961,-37.205373],[140.15864,-37.205595],[140.158326,-37.205914],[140.158001,-37.206257],[140.15689,-37.207706],[140.156445,-37.208253],[140.156017,-37.208676],[140.155527,-37.209055],[140.155103,-37.209333],[140.154475,-37.209668],[140.153861,-37.209924],[140.15169,-37.210698],[140.151087,-37.210938],[140.150597,-37.211155],[140.150179,-37.211385],[140.149796,-37.211644],[140.149275,-37.212021],[140.149224,-37.212067],[140.149115,-37.212167],[140.14893,-37.212336],[140.147408,-37.214029],[140.145431,-37.216222],[140.143861,-37.217997],[140.14344,-37.218426],[140.14293,-37.218868],[140.142484,-37.219212],[140.141926,-37.219563],[140.14137,-37.219879],[140.140828,-37.220124],[140.140083,-37.220401],[140.139479,-37.22058],[140.138875,-37.220726],[140.136916,-37.221024],[140.134956,-37.221315],[140.130774,-37.221997],[140.129905,-37.222255],[140.129229,-37.222558],[140.129043,-37.222649],[140.12729,-37.223723],[140.125957,-37.224552],[140.122472,-37.226722],[140.119281,-37.228744],[140.11334,-37.232445],[140.112672,-37.232842],[140.112152,-37.233151]]}},{"type":"Feature","properties":{"tier":"regional"},"geometry":{"type":"LineString","coordinates":[[140.270856,-37.256794],[140.27118,-37.256603]]}},{"type":"Feature","properties":{"tier":"regional"},"geometry":{"type":"LineString","coordinates":[[140.27118,-37.256603],[140.272957,-37.255533],[140.273794,-37.254798],[140.274502,-37.25403],[140.27651,-37.251338],[140.276678,-37.251021],[140.276785,-37.250802],[140.276853,-37.250662],[140.277119,-37.249947],[140.277291,-37.249076],[140.277973,-37.232327],[140.277985,-37.232031],[140.278171,-37.220837],[140.2783,-37.219829],[140.2786,-37.218359],[140.279651,-37.213711],[140.279737,-37.213113],[140.27963,-37.206397],[140.279651,-37.205628],[140.279802,-37.204996],[140.288943,-37.18759],[140.293985,-37.177988],[140.2942,-37.177304],[140.294307,-37.176346],[140.294307,-37.175663],[140.294301,-37.175586],[140.294221,-37.174483],[140.294124,-37.173858],[140.292407,-37.164933],[140.290762,-37.154581],[140.289103,-37.144137],[140.287352,-37.132542]]}},{"type":"Feature","properties":{"tier":"regional"},"geometry":{"type":"LineString","coordinates":[[140.470641,-37.01678],[140.471278,-37.01885],[140.472881,-37.023974],[140.474267,-37.028285],[140.475122,-37.031069],[140.476025,-37.033721],[140.477006,-37.037141],[140.477238,-37.037831],[140.477986,-37.040306],[140.478981,-37.043266],[140.479517,-37.044619],[140.479928,-37.045571],[140.480203,-37.046296],[140.480469,-37.047121],[140.480739,-37.047984],[140.480855,-37.048324],[140.481212,-37.049469],[140.482159,-37.052502],[140.483159,-37.055589],[140.483762,-37.057501],[140.484255,-37.058923],[140.484815,-37.060781],[140.485602,-37.063182],[140.486076,-37.064608],[140.486704,-37.066612],[140.48751,-37.069178],[140.488375,-37.072087],[140.489232,-37.074751],[140.489342,-37.075016],[140.489524,-37.075609],[140.49073,-37.079476],[140.492377,-37.084589],[140.493517,-37.088106],[140.494565,-37.091435],[140.495738,-37.095013],[140.496588,-37.097714],[140.496786,-37.098234],[140.497004,-37.098607],[140.497274,-37.099074],[140.497583,-37.099443],[140.497921,-37.099778],[140.498259,-37.100102],[140.498597,-37.100379],[140.499076,-37.100676],[140.50002,-37.101231]]}},{"type":"Feature","properties":{"tier":"arterial"},"geometry":{"type":"LineString","coordinates":[[140.287352,-37.132542],[140.287343,-37.125285],[140.287258,-37.106601],[140.287363,-37.105217],[140.287385,-37.105138],[140.287654,-37.104282],[140.288995,-37.101322],[140.292401,-37.093642],[140.293438,-37.091198],[140.293646,-37.089773],[140.293216,-37.087583],[140.291807,-37.085412],[140.288928,-37.081529],[140.287172,-37.079181],[140.286485,-37.07651],[140.287423,-37.074264],[140.289225,-37.072073],[140.290272,-37.071009]]}},{"type":"Feature","properties":{"tier":"regional"},"geometry":{"type":"LineString","coordinates":[[140.336006,-37.408588],[140.336304,-37.408778],[140.336397,-37.40882],[140.336483,-37.408847],[140.336576,-37.408875],[140.336706,-37.408895],[140.337129,-37.408929],[140.338552,-37.409033],[140.340889,-37.409172],[140.342922,-37.409314],[140.343372,-37.409339],[140.343687,-37.409339],[140.344096,-37.409327],[140.344479,-37.409288],[140.344918,-37.409238],[140.345168,-37.409209],[140.345335,-37.409197]]}},{"type":"Feature","properties":{"tier":"regional"},"geometry":{"type":"LineString","coordinates":[[140.316728,-37.349751],[140.316728,-37.349908],[140.316759,-37.350039],[140.319529,-37.35571],[140.320312,-37.357104],[140.320934,-37.358057],[140.321588,-37.359055],[140.323235,-37.361338],[140.324888,-37.363619],[140.324981,-37.363759],[140.329158,-37.370033],[140.330467,-37.372101],[140.330729,-37.372649],[140.33111,-37.373736],[140.331931,-37.376735],[140.331985,-37.377027],[140.332012,-37.377417],[140.332022,-37.377731],[140.332006,-37.37818],[140.331888,-37.378802],[140.331529,-37.379681],[140.33066,-37.381492],[140.330563,-37.381844]]}},{"type":"Feature","properties":{"tier":"regional"},"geometry":{"type":"LineString","coordinates":[[140.345335,-37.409197],[140.346152,-37.409192],[140.346968,-37.409278],[140.352514,-37.409772],[140.352933,-37.409866],[140.356328,-37.410843],[140.357283,-37.41092],[140.35768,-37.410928],[140.366376,-37.409874],[140.368055,-37.409846],[140.369584,-37.40984],[140.370024,-37.40984],[140.370373,-37.409872],[140.372883,-37.410415],[140.373495,-37.410451],[140.374176,-37.410377],[140.375077,-37.410147],[140.375994,-37.409693],[140.376638,-37.409181],[140.379776,-37.405998],[140.379862,-37.405909],[140.379985,-37.40578],[140.380243,-37.405508],[140.38104,-37.404767],[140.381589,-37.404373],[140.38233,-37.404055],[140.383025,-37.403885],[140.383582,-37.403817],[140.385519,-37.403657],[140.386482,-37.403589],[140.39102,-37.40325],[140.392892,-37.403103],[140.393764,-37.403028],[140.394596,-37.402943],[140.395349,-37.402785],[140.398238,-37.401867],[140.401408,-37.40084],[140.402151,-37.400642],[140.402699,-37.400529],[140.403417,-37.400444],[140.404321,-37.400414],[140.405064,-37.400471],[140.405947,-37.400606],[140.406451,-37.400731],[140.407199,-37.400993],[140.407433,-37.4011],[140.40942,-37.40204],[140.410684,-37.40263],[140.411555,-37.402937],[140.412521,-37.403122],[140.413352,-37.403152],[140.414055,-37.403111],[140.414642,-37.403024],[140.416828,-37.402485],[140.418242,-37.402127],[140.419149,-37.401899],[140.421867,-37.401235],[140.422067,-37.401186]]}},{"type":"Feature","properties":{"tier":"arterial"},"geometry":{"type":"LineString","coordinates":[[140.308587,-37.046648],[140.31266,-37.044937],[140.319187,-37.042298]]}},{"type":"Feature","properties":{"tier":"arterial"},"geometry":{"type":"LineString","coordinates":[[140.32343,-37.039299],[140.323858,-37.038983],[140.326438,-37.037103],[140.326853,-37.03684],[140.327316,-37.036585],[140.335295,-37.032431],[140.33838,-37.030882],[140.339279,-37.03055],[140.339973,-37.030379],[140.341346,-37.030161],[140.370113,-37.026621]]}},{"type":"Feature","properties":{"tier":"arterial"},"geometry":{"type":"LineString","coordinates":[[140.50002,-37.011803],[140.499969,-37.011785],[140.499519,-37.011614],[140.498767,-37.011529],[140.498146,-37.011511],[140.496515,-37.011751],[140.491923,-37.013276],[140.488854,-37.014098],[140.478543,-37.016528],[140.477859,-37.016627],[140.477589,-37.01665],[140.477293,-37.016664],[140.47668,-37.016643],[140.475482,-37.016589],[140.475029,-37.016559],[140.474725,-37.016553],[140.473904,-37.016593],[140.472105,-37.016697],[140.470641,-37.01678],[140.470498,-37.016788],[140.469468,-37.016847],[140.468914,-37.01688],[140.468336,-37.016994],[140.46781,-37.01715],[140.467311,-37.017388],[140.466453,-37.017953],[140.465938,-37.018518],[140.4645,-37.020746],[140.463878,-37.021568],[140.463255,-37.022116],[140.462268,-37.022476],[140.461045,-37.022682],[140.459908,-37.02251],[140.458362,-37.02228]]}},{"type":"Feature","properties":{"tier":"regional"},"geometry":{"type":"LineString","coordinates":[[140.425859,-37.442885],[140.425768,-37.421891],[140.425735,-37.414831],[140.425681,-37.405909]]}},{"type":"Feature","properties":{"tier":"regional"},"geometry":{"type":"LineString","coordinates":[[140.333773,-37.410227],[140.334613,-37.411212],[140.335191,-37.411838],[140.34051,-37.417881],[140.340909,-37.418259],[140.341439,-37.418674],[140.342142,-37.419125],[140.343135,-37.419573],[140.343655,-37.419769],[140.348216,-37.421442],[140.349447,-37.421895],[140.349535,-37.421927],[140.349917,-37.422068],[140.350746,-37.422463],[140.351317,-37.422842],[140.352015,-37.423388],[140.35617,-37.427947],[140.356515,-37.428338],[140.358203,-37.430245],[140.360161,-37.432338],[140.360929,-37.433174],[140.362169,-37.434547],[140.362385,-37.434781],[140.363325,-37.435819],[140.365725,-37.438458],[140.36629,-37.439017],[140.366355,-37.439065],[140.366941,-37.439493],[140.367648,-37.439928],[140.368743,-37.44036],[140.370176,-37.440759],[140.371053,-37.441008],[140.371715,-37.441265],[140.372434,-37.441633],[140.373014,-37.442033],[140.37368,-37.442627],[140.374278,-37.443317],[140.374622,-37.443911],[140.375421,-37.445708],[140.375877,-37.446767],[140.376102,-37.447405],[140.376141,-37.447536],[140.376208,-37.4481],[140.376251,-37.44856],[140.376263,-37.448965],[140.37624,-37.44937],[140.376161,-37.449761],[140.376066,-37.450125],[140.375813,-37.450769],[140.375687,-37.451107],[140.375532,-37.451494],[140.375151,-37.45241],[140.372348,-37.459149],[140.370621,-37.464252],[140.370333,-37.465077],[140.3702,-37.46547],[140.368917,-37.468242],[140.367677,-37.471064],[140.367004,-37.472661],[140.366193,-37.474217],[140.363502,-37.478576],[140.36317,-37.479103],[140.362932,-37.479416],[140.362631,-37.479765],[140.362381,-37.480014],[140.361729,-37.480591],[140.359427,-37.482612],[140.35935,-37.482681],[140.357194,-37.484567],[140.356958,-37.484772],[140.356702,-37.484993],[140.352915,-37.488317],[140.349966,-37.490982],[140.349697,-37.491319],[140.349425,-37.491689],[140.349127,-37.4923],[140.348268,-37.494535],[140.348262,-37.494553],[140.347348,-37.497099],[140.346332,-37.50002]]}},{"type":"Feature","properties":{"tier":"arterial"},"geometry":{"type":"LineString","coordinates":[[140.290272,-37.071009],[140.295068,-37.066135],[140.302621,-37.054628],[140.306482,-37.048257],[140.306997,-37.047744],[140.307533,-37.047316],[140.308006,-37.046986],[140.308587,-37.046648]]}},{"type":"Feature","properties":{"tier":"regional"},"geometry":{"type":"LineString","coordinates":[[140.425681,-37.405909],[140.425314,-37.405542],[140.424699,-37.404735],[140.424027,-37.403853],[140.422385,-37.40161],[140.422294,-37.401471],[140.422165,-37.401319],[140.422067,-37.401186]]}},{"type":"Feature","properties":{"tier":"arterial"},"geometry":{"type":"LineString","coordinates":[[140.112194,-37.232703],[140.112278,-37.232805],[140.112368,-37.232869],[140.112559,-37.232873],[140.112672,-37.232842]]}},{"type":"Feature","properties":{"tier":"arterial"},"geometry":{"type":"LineString","coordinates":[[140.043427,-37.445353],[140.04334,-37.444827]]}},{"type":"Feature","properties":{"tier":"arterial"},"geometry":{"type":"LineString","coordinates":[[140.036875,-37.474007],[140.03706,-37.473242],[140.037158,-37.473006],[140.03727,-37.472792],[140.037594,-37.472379],[140.040715,-37.468764],[140.040923,-37.468519],[140.04319,-37.465915],[140.044389,-37.464492],[140.044765,-37.463903],[140.044987,-37.463373],[140.045102,-37.46289],[140.045827,-37.459697],[140.045871,-37.459397],[140.045878,-37.45886],[140.045842,-37.458339],[140.045741,-37.457874],[140.045596,-37.457423],[140.045311,-37.456858],[140.044937,-37.456263],[140.042453,-37.45236],[140.042241,-37.452009],[140.042085,-37.451644],[140.04199,-37.451313],[140.041948,-37.450989],[140.04197,-37.450484],[140.04207,-37.450058],[140.042183,-37.449781],[140.042308,-37.449536],[140.042755,-37.448964],[140.043085,-37.448626],[140.043886,-37.447782],[140.043796,-37.447652],[140.043757,-37.447505],[140.043427,-37.445353]]}},{"type":"Feature","properties":{"tier":"arterial"},"geometry":{"type":"LineString","coordinates":[[140.435392,-37.255509],[140.435293,-37.255106]]}},{"type":"Feature","properties":{"tier":"arterial"},"geometry":{"type":"LineString","coordinates":[[140.50002,-37.346499],[140.498221,-37.343215],[140.494637,-37.336596],[140.490839,-37.329788],[140.486462,-37.321905],[140.484423,-37.318492],[140.481398,-37.31426],[140.477922,-37.310454],[140.471677,-37.304071],[140.463931,-37.296202],[140.459474,-37.291672],[140.455198,-37.287326],[140.45376,-37.285123],[140.453395,-37.284287],[140.450241,-37.277748],[140.447066,-37.27114],[140.44537,-37.268903],[140.443503,-37.266905],[140.437882,-37.260979],[140.436723,-37.259527],[140.435886,-37.257222],[140.435556,-37.256216],[140.435392,-37.255509]]}},{"type":"Feature","properties":{"tier":"regional"},"geometry":{"type":"LineString","coordinates":[[140.272839,-37.278808],[140.271433,-37.276947],[140.269609,-37.274277],[140.269566,-37.274215],[140.268558,-37.271858],[140.267485,-37.269195],[140.267013,-37.267487],[140.266884,-37.266138],[140.267056,-37.26455],[140.267828,-37.261066],[140.268022,-37.260092],[140.268133,-37.259674],[140.268258,-37.259341],[140.268419,-37.258966],[140.268601,-37.258658],[140.268819,-37.258373],[140.26903,-37.258111],[140.26953,-37.257662],[140.270034,-37.257302],[140.270856,-37.256794]]}},{"type":"Feature","properties":{"tier":"regional"},"geometry":{"type":"LineString","coordinates":[[140.273132,-37.279218],[140.272839,-37.278808]]}},{"type":"Feature","properties":{"tier":"arterial"},"geometry":{"type":"LineString","coordinates":[[140.254444,-37.338137],[140.253078,-37.337958],[140.251727,-37.337735],[140.251574,-37.337709],[140.250975,-37.337599],[140.250335,-37.3375],[140.249738,-37.33736],[140.248861,-37.337158],[140.247232,-37.336762],[140.243645,-37.335938],[140.235333,-37.33399],[140.221187,-37.330641],[140.210446,-37.32814],[140.204905,-37.326879],[140.202497,-37.32629],[140.200063,-37.325736],[140.19959,-37.325625],[140.199172,-37.325527],[140.198886,-37.325467],[140.198674,-37.325435],[140.198321,-37.325389],[140.198002,-37.325358],[140.184891,-37.324098],[140.184287,-37.324023],[140.183795,-37.323945],[140.183288,-37.323843],[140.182756,-37.323705],[140.157931,-37.317018],[140.157312,-37.316887],[140.156964,-37.316839],[140.156754,-37.316823],[140.156615,-37.316828],[140.156414,-37.316849]]}},{"type":"Feature","properties":{"tier":"arterial"},"geometry":{"type":"LineString","coordinates":[[140.25928,-37.338848],[140.258822,-37.338776]]}},{"type":"Feature","properties":{"tier":"regional"},"geometry":{"type":"LineString","coordinates":[[140.2364,-37.354876],[140.23657,-37.35426],[140.239958,-37.342087],[140.240086,-37.341742],[140.240245,-37.341442],[140.24042,-37.341192],[140.240633,-37.340952],[140.240924,-37.340685],[140.24126,-37.340466],[140.241612,-37.340275],[140.242043,-37.340091],[140.248545,-37.337379],[140.248689,-37.337307],[140.248815,-37.337218],[140.248861,-37.337158]]}},{"type":"Feature","properties":{"tier":"regional"},"geometry":{"type":"LineString","coordinates":[[140.236273,-37.355345],[140.2364,-37.354876]]}},{"type":"Feature","properties":{"tier":"regional"},"geometry":{"type":"LineString","coordinates":[[140.334214,-37.409914],[140.333773,-37.410227]]}},{"type":"Feature","properties":{"tier":"regional"},"geometry":{"type":"LineString","coordinates":[[140.334418,-37.409765],[140.334214,-37.409914]]}},{"type":"Feature","properties":{"tier":"arterial"},"geometry":{"type":"LineString","coordinates":[[140.088899,-37.294812],[140.088732,-37.294764]]}},{"type":"Feature","properties":{"tier":"arterial"},"geometry":{"type":"LineString","coordinates":[[140.154821,-37.315262],[140.154234,-37.315346],[140.153737,-37.315384],[140.153254,-37.315399],[140.152693,-37.315393],[140.152097,-37.315343],[140.151589,-37.315257],[140.150968,-37.315116],[140.150278,-37.314926],[140.148534,-37.314453],[140.125983,-37.308345],[140.121505,-37.306956],[140.120149,-37.30653],[140.119594,-37.306344],[140.119212,-37.306204],[140.118807,-37.306041],[140.117282,-37.305434],[140.097689,-37.297713],[140.096859,-37.297392],[140.096346,-37.297221],[140.095653,-37.297009],[140.088899,-37.294812]]}},{"type":"Feature","properties":{"tier":"arterial"},"geometry":{"type":"LineString","coordinates":[[140.058264,-37.263442],[140.060885,-37.262125],[140.064576,-37.260218],[140.079779,-37.252429],[140.0837,-37.250372]]}},{"type":"Feature","properties":{"tier":"arterial"},"geometry":{"type":"LineString","coordinates":[[140.058078,-37.263539],[140.058264,-37.263442]]}},{"type":"Feature","properties":{"tier":"arterial"},"geometry":{"type":"LineString","coordinates":[[140.319187,-37.042298],[140.319778,-37.041984],[140.320172,-37.04171],[140.323329,-37.039374]]}},{"type":"Feature","properties":{"tier":"arterial"},"geometry":{"type":"LineString","coordinates":[[140.323329,-37.039374],[140.32343,-37.039299]]}},{"type":"Feature","properties":{"tier":"regional"},"geometry":{"type":"LineString","coordinates":[[140.287957,-37.310809],[140.287419,-37.309312],[140.285917,-37.302997],[140.284866,-37.298372],[140.284587,-37.296375],[140.284394,-37.295146],[140.283664,-37.293814],[140.278729,-37.287054],[140.273132,-37.279218]]}},{"type":"Feature","properties":{"tier":"regional"},"geometry":{"type":"LineString","coordinates":[[140.287985,-37.310887],[140.287957,-37.310809]]}},{"type":"Feature","properties":{"tier":"regional"},"geometry":{"type":"LineString","coordinates":[[140.267168,-37.035778],[140.267481,-37.036253],[140.267844,-37.03661],[140.268317,-37.036941],[140.269027,-37.037325],[140.269754,-37.037986],[140.270184,-37.038485],[140.270539,-37.039079],[140.271105,-37.039982],[140.271663,-37.040583],[140.273066,-37.041979],[140.274832,-37.04382],[140.276682,-37.045755],[140.277121,-37.046349],[140.277476,-37.046969],[140.277696,-37.047576],[140.278067,-37.048898],[140.278929,-37.051716],[140.27925,-37.052404],[140.279867,-37.053517],[140.28132,-37.05589],[140.281616,-37.056517],[140.282006,-37.057622],[140.282359,-37.058995],[140.282884,-37.061484],[140.283213,-37.062656],[140.283542,-37.0635],[140.284623,-37.066041],[140.285065,-37.066952],[140.2854,-37.067438],[140.285812,-37.067938],[140.286588,-37.068568],[140.288166,-37.069636],[140.290272,-37.071009]]}},{"type":"Feature","properties":{"tier":"regional"},"geometry":{"type":"LineString","coordinates":[[140.267123,-37.035709],[140.267168,-37.035778]]}},{"type":"Feature","properties":{"tier":"regional"},"geometry":{"type":"LineString","coordinates":[[140.425944,-37.50002],[140.425926,-37.498143],[140.425866,-37.488308],[140.42582,-37.479393],[140.425808,-37.477806]]}},{"type":"Feature","properties":{"tier":"regional"},"geometry":{"type":"LineString","coordinates":[[140.425808,-37.477806],[140.425807,-37.477664]]}},{"type":"Feature","properties":{"tier":"regional"},"geometry":{"type":"LineString","coordinates":[[140.043886,-37.447782],[140.04471,-37.446946],[140.045158,-37.446585],[140.045529,-37.446364],[140.045945,-37.446177],[140.046375,-37.44603],[140.046822,-37.445945],[140.048177,-37.445699],[140.048775,-37.445544],[140.049467,-37.445285],[140.04989,-37.445078],[140.050293,-37.444843],[140.050681,-37.444575],[140.051031,-37.444282],[140.051565,-37.443724],[140.053374,-37.441467],[140.053836,-37.441007],[140.054225,-37.440722],[140.054656,-37.440453],[140.055119,-37.440237],[140.055598,-37.440047],[140.05623,-37.439885],[140.056868,-37.43979],[140.05753,-37.439758],[140.058181,-37.439793],[140.066683,-37.440699],[140.076009,-37.441718],[140.078402,-37.441963],[140.079288,-37.441985],[140.080338,-37.44196],[140.086846,-37.441742],[140.087733,-37.441626],[140.088128,-37.441525],[140.088529,-37.44138],[140.089217,-37.441026],[140.09004,-37.44045],[140.091029,-37.439789],[140.091575,-37.439517],[140.092163,-37.439281],[140.094181,-37.4386],[140.100696,-37.436437],[140.101428,-37.436215],[140.102197,-37.43606],[140.102833,-37.43599],[140.103472,-37.435961],[140.104219,-37.435984],[140.105043,-37.43609],[140.106746,-37.436436],[140.107881,-37.436648],[140.108287,-37.436716],[140.108694,-37.436758],[140.109562,-37.436748],[140.109966,-37.436709],[140.110414,-37.436633],[140.111014,-37.436468],[140.111343,-37.436349],[140.111785,-37.436155],[140.112191,-37.435932],[140.112665,-37.435603],[140.113014,-37.435297],[140.113331,-37.434972],[140.113693,-37.43449],[140.117975,-37.426715],[140.118359,-37.426111],[140.118687,-37.425702],[140.119002,-37.425382],[140.119354,-37.425084],[140.122612,-37.422689],[140.123356,-37.422137],[140.124011,-37.42176],[140.124458,-37.421542],[140.124952,-37.42134],[140.126036,-37.420927],[140.129783,-37.419492],[140.135732,-37.417221],[140.136756,-37.416827],[140.137061,-37.416706]]}},{"type":"Feature","properties":{"tier":"regional"},"geometry":{"type":"LineString","coordinates":[[140.137061,-37.416706],[140.137163,-37.416668]]}},{"type":"Feature","properties":{"tier":"regional"},"geometry":{"type":"LineString","coordinates":[[140.334269,-37.396669],[140.335735,-37.399172],[140.337773,-37.402304],[140.337912,-37.402521],[140.338057,-37.402747],[140.338181,-37.403086],[140.33828,-37.403409],[140.338358,-37.403693],[140.338401,-37.404059],[140.338422,-37.404426],[140.338379,-37.404733],[140.338304,-37.405056],[140.338232,-37.40527],[140.338138,-37.405474],[140.337964,-37.405853],[140.337843,-37.406118],[140.337687,-37.406437],[140.337625,-37.406551],[140.337414,-37.406923],[140.337231,-37.407196],[140.337104,-37.407369],[140.336947,-37.407566],[140.336587,-37.408031],[140.336006,-37.408588],[140.334418,-37.409765]]}},{"type":"Feature","properties":{"tier":"regional"},"geometry":{"type":"LineString","coordinates":[[140.334222,-37.396588],[140.334269,-37.396669]]}},{"type":"Feature","properties":{"tier":"arterial"},"geometry":{"type":"LineString","coordinates":[[140.244108,-37.450681],[140.244136,-37.459387],[140.244155,-37.459564],[140.244193,-37.45979],[140.24429,-37.460111],[140.24442,-37.460418],[140.244923,-37.461134],[140.245746,-37.462047],[140.250998,-37.467871],[140.256384,-37.473684],[140.25726,-37.474536],[140.257649,-37.474847],[140.258145,-37.475109],[140.25999,-37.476072],[140.260302,-37.476269],[140.260683,-37.476538],[140.263606,-37.478716],[140.263771,-37.478841],[140.264333,-37.479287],[140.264598,-37.479516],[140.264847,-37.479764],[140.265118,-37.480066],[140.26677,-37.482217],[140.267179,-37.482746],[140.268469,-37.484412],[140.268799,-37.484804],[140.270095,-37.486049],[140.273511,-37.48933],[140.27405,-37.489682],[140.274218,-37.489778],[140.274472,-37.489924],[140.274624,-37.490012],[140.274695,-37.490047]]}},{"type":"Feature","properties":{"tier":"arterial"},"geometry":{"type":"LineString","coordinates":[[140.274695,-37.490047],[140.274789,-37.490093]]}},{"type":"Feature","properties":{"tier":"arterial"},"geometry":{"type":"LineString","coordinates":[[140.458191,-37.022254],[140.455659,-37.021876],[140.454866,-37.021756],[140.451797,-37.021808],[140.45008,-37.021499],[140.449329,-37.021174],[140.448557,-37.020746],[140.446347,-37.019375],[140.445767,-37.019135],[140.445124,-37.018981],[140.444416,-37.01893],[140.437141,-37.019409],[140.436004,-37.019444],[140.435146,-37.019427],[140.433837,-37.019306],[140.431391,-37.019101],[140.430554,-37.01905],[140.429202,-37.019152],[140.412293,-37.021311],[140.403806,-37.022382],[140.39369,-37.023658],[140.373798,-37.026142],[140.372839,-37.026275],[140.370113,-37.026621]]}},{"type":"Feature","properties":{"tier":"arterial"},"geometry":{"type":"LineString","coordinates":[[140.458362,-37.02228],[140.458191,-37.022254]]}},{"type":"Feature","properties":{"tier":"arterial"},"geometry":{"type":"LineString","coordinates":[[140.258822,-37.338776],[140.254755,-37.338182]]}},{"type":"Feature","properties":{"tier":"arterial"},"geometry":{"type":"LineString","coordinates":[[140.254755,-37.338182],[140.254444,-37.338137]]}},{"type":"Feature","properties":{"tier":"regional"},"geometry":{"type":"LineString","coordinates":[[140.425807,-37.477664],[140.425805,-37.477439],[140.425776,-37.472006],[140.425747,-37.466256],[140.425734,-37.465195],[140.425759,-37.464703],[140.425811,-37.46426],[140.425869,-37.46389],[140.425912,-37.463516],[140.425925,-37.463225],[140.425938,-37.459625],[140.425874,-37.446331],[140.42586,-37.442989]]}},{"type":"Feature","properties":{"tier":"regional"},"geometry":{"type":"LineString","coordinates":[[140.42586,-37.442989],[140.425859,-37.442885]]}},{"type":"Feature","properties":{"tier":"regional"},"geometry":{"type":"LineString","coordinates":[[140.330488,-37.382242],[140.330397,-37.382643],[140.330408,-37.383515],[140.330526,-37.384197],[140.330735,-37.384877],[140.333256,-37.38964],[140.333642,-37.390575],[140.333739,-37.3911],[140.33376,-37.391475],[140.333728,-37.391888],[140.333444,-37.393942],[140.333422,-37.394249],[140.333433,-37.394667],[140.333465,-37.394931],[140.333562,-37.395221],[140.33376,-37.3958],[140.334222,-37.396588]]}},{"type":"Feature","properties":{"tier":"regional"},"geometry":{"type":"LineString","coordinates":[[140.330563,-37.381844],[140.330516,-37.382093],[140.330488,-37.382242]]}},{"type":"Feature","properties":{"tier":"regional"},"geometry":{"type":"LineString","coordinates":[[140.210569,-37.371961],[140.214484,-37.369652],[140.217498,-37.367779],[140.224038,-37.36368],[140.235377,-37.356577],[140.235555,-37.356451],[140.235661,-37.356369],[140.235766,-37.35628],[140.23585,-37.356189],[140.235916,-37.35611],[140.235982,-37.356011],[140.236059,-37.355897],[140.236127,-37.35577],[140.236179,-37.355661],[140.236217,-37.355555],[140.236249,-37.355439],[140.236273,-37.355345]]}}]}
