{"type":"FeatureCollection","features":[{"type":"Feature","properties":{"tier":"arterial"},"geometry":{"type":"LineString","coordinates":[[140.50002,-36.069637],[140.498751,-36.069596],[140.498054,-36.06957],[140.497504,-36.069585],[140.496753,-36.069657],[140.496326,-36.069739],[140.495589,-36.069915],[140.494851,-36.070194],[140.493717,-36.070737],[140.492263,-36.071454],[140.490891,-36.072138],[140.490388,-36.072313],[140.489688,-36.07254],[140.488822,-36.072727],[140.48454,-36.073803],[140.480076,-36.074635],[140.47914,-36.07466],[140.478438,-36.074622],[140.478083,-36.07458],[140.47782,-36.074543],[140.477659,-36.074516],[140.47751,-36.07448],[140.475948,-36.074087],[140.475169,-36.073886],[140.47418,-36.073637],[140.471275,-36.072852],[140.470258,-36.072692],[140.469665,-36.072644],[140.46892,-36.072651],[140.467723,-36.072818],[140.466074,-36.073169],[140.464939,-36.073418],[140.464438,-36.073577],[140.463751,-36.073854],[140.463223,-36.074116],[140.462195,-36.074509],[140.461259,-36.074739],[140.460082,-36.074975],[140.459473,-36.075103],[140.458996,-36.075203],[140.45877,-36.07525],[140.457074,-36.075607],[140.454671,-36.076023],[140.438468,-36.074357],[140.436546,-36.074487],[140.433925,-36.075038],[140.432375,-36.075363],[140.420344,-36.077811],[140.418933,-36.078392],[140.417661,-36.079291],[140.413644,-36.083515]]}},{"type":"Feature","properties":{"tier":"arterial"},"geometry":{"type":"LineString","coordinates":[[140.354744,-36.098254],[140.354172,-36.098638]]}},{"type":"Feature","properties":{"tier":"regional"},"geometry":{"type":"LineString","coordinates":[[140.341303,-36.097712],[140.343991,-36.097701],[140.344613,-36.097695],[140.346335,-36.097691],[140.348529,-36.09769],[140.349773,-36.097685]]}},{"type":"Feature","properties":{"tier":"regional"},"geometry":{"type":"LineString","coordinates":[[140.352955,-36.09648],[140.352359,-36.096868],[140.351716,-36.097299],[140.351585,-36.097391],[140.35145,-36.097452],[140.351335,-36.097482],[140.351261,-36.097501]]}},{"type":"Feature","properties":{"tier":"regional"},"geometry":{"type":"LineString","coordinates":[[140.352036,-36.33437],[140.358738,-36.334384],[140.36544,-36.334399],[140.372141,-36.334414],[140.378843,-36.334428],[140.385544,-36.334443],[140.392246,-36.334457],[140.398947,-36.334472],[140.405649,-36.334487],[140.41235,-36.334501],[140.419052,-36.334516],[140.425753,-36.334531],[140.4261,-36.334441],[140.426365,-36.33427],[140.426629,-36.333986],[140.427223,-36.333058],[140.427635,-36.332532],[140.428006,-36.332124],[140.428482,-36.331693],[140.43031,-36.330348],[140.430857,-36.329974],[140.431798,-36.329472],[140.431923,-36.329412],[140.432598,-36.329088],[140.435885,-36.327747],[140.436332,-36.327487],[140.436737,-36.327155],[140.437084,-36.326904],[140.437579,-36.326669],[140.442594,-36.32459]]}},{"type":"Feature","properties":{"tier":"arterial"},"geometry":{"type":"LineString","coordinates":[[140.472715,-36.317617],[140.478542,-36.316236],[140.479236,-36.31608],[140.480113,-36.315925],[140.481035,-36.315824],[140.486051,-36.315605],[140.491034,-36.315388],[140.491973,-36.315283],[140.496766,-36.314258],[140.50002,-36.313562]]}},{"type":"Feature","properties":{"tier":"high"},"geometry":{"type":"LineString","coordinates":[[140.350093,-36.093127],[140.349991,-36.093112],[140.349919,-36.093128],[140.349839,-36.093165]]}},{"type":"Feature","properties":{"tier":"arterial"},"geometry":{"type":"LineString","coordinates":[[140.363579,-36.466706],[140.364096,-36.466685],[140.36547,-36.465885],[140.371993,-36.458499],[140.374869,-36.455341],[140.382014,-36.449801],[140.39034,-36.443311],[140.391348,-36.442033],[140.394707,-36.437232],[140.395768,-36.435715],[140.396305,-36.434921],[140.397056,-36.434248],[140.404223,-36.429293],[140.40521,-36.428723],[140.40609,-36.42843],[140.406991,-36.428171],[140.423148,-36.425167],[140.4318,-36.423487],[140.432933,-36.423267],[140.443962,-36.421161],[140.445078,-36.42085],[140.446323,-36.42009],[140.447074,-36.41952],[140.447481,-36.41902],[140.450159,-36.415554],[140.453125,-36.411715],[140.458897,-36.404169],[140.459991,-36.402822],[140.460206,-36.402321],[140.460485,-36.401026],[140.460485,-36.400473],[140.460034,-36.391353],[140.460077,-36.390524],[140.461837,-36.387225],[140.46579,-36.380113],[140.466433,-36.379404],[140.467244,-36.378847],[140.468188,-36.378311],[140.468918,-36.378],[140.473595,-36.377119],[140.479067,-36.376117],[140.480555,-36.376117],[140.482178,-36.376117],[140.485828,-36.376073],[140.486742,-36.375968],[140.48838,-36.375443],[140.492348,-36.373066],[140.50002,-36.36828]]}},{"type":"Feature","properties":{"tier":"arterial"},"geometry":{"type":"LineString","coordinates":[[140.359727,-36.477455],[140.358968,-36.477828],[140.357809,-36.478656],[140.353828,-36.485906],[140.353217,-36.486558],[140.337939,-36.49953],[140.337533,-36.50002]]}},{"type":"Feature","properties":{"tier":"high"},"geometry":{"type":"LineString","coordinates":[[140.341368,-36.104143],[140.34144,-36.105988],[140.341503,-36.107634],[140.341544,-36.109008],[140.341584,-36.111758],[140.341551,-36.112243],[140.341541,-36.11236],[140.341503,-36.112794],[140.340376,-36.120784],[140.340355,-36.121151],[140.340357,-36.121577],[140.34038,-36.121705],[140.340925,-36.124765],[140.340931,-36.125548],[140.340807,-36.126358],[140.339164,-36.132469],[140.33752,-36.138579],[140.336241,-36.143333],[140.335876,-36.144689],[140.334564,-36.149565],[140.334232,-36.150799],[140.332589,-36.156908],[140.330945,-36.163016],[140.330812,-36.163803],[140.330772,-36.164537],[140.330845,-36.16508],[140.331248,-36.166448],[140.331281,-36.166529],[140.33205,-36.168444],[140.339053,-36.187022],[140.339115,-36.187191],[140.342652,-36.196712],[140.342873,-36.1975],[140.34295,-36.198162],[140.342965,-36.198851],[140.342897,-36.199533],[140.342747,-36.200184],[140.341954,-36.202453],[140.341778,-36.203],[140.341703,-36.203336],[140.341644,-36.203792],[140.341641,-36.204282],[140.341636,-36.216763],[140.341635,-36.22035],[140.341644,-36.223571],[140.341455,-36.228193],[140.341436,-36.229066],[140.341416,-36.230015],[140.34141,-36.235904],[140.3414,-36.244639],[140.341391,-36.253631],[140.341386,-36.258772],[140.341384,-36.25926],[140.341427,-36.260161],[140.341517,-36.260845],[140.3431,-36.27133],[140.343449,-36.273635],[140.344684,-36.281813],[140.344936,-36.282785],[140.34772,-36.291265],[140.350504,-36.299744],[140.350765,-36.300623],[140.350928,-36.301514],[140.351002,-36.30234],[140.351519,-36.318356],[140.352036,-36.33437],[140.352868,-36.358804],[140.35287,-36.358866],[140.352871,-36.358891],[140.353436,-36.374957],[140.353488,-36.377013],[140.353469,-36.378684],[140.35321,-36.380844],[140.35123,-36.389485]]}},{"type":"Feature","properties":{"tier":"high"},"geometry":{"type":"LineString","coordinates":[[140.357307,-36.100187],[140.35927,-36.102108],[140.360283,-36.103099],[140.36151,-36.1043],[140.363368,-36.10615]]}},{"type":"Feature","properties":{"tier":"high"},"geometry":{"type":"LineString","coordinates":[[140.34169,-36.085007],[140.34157,-36.084893],[140.341227,-36.084547],[140.34096,-36.084249],[140.340688,-36.083917]]}},{"type":"Feature","properties":{"tier":"high"},"geometry":{"type":"LineString","coordinates":[[140.490174,-36.172803],[140.491637,-36.172949],[140.492707,-36.173074],[140.494392,-36.173309],[140.495611,-36.173533],[140.497052,-36.17385],[140.498487,-36.174216],[140.499631,-36.174566],[140.50002,-36.17469]]}},{"type":"Feature","properties":{"tier":"high"},"geometry":{"type":"LineString","coordinates":[[140.350093,-36.093127],[140.350572,-36.093596],[140.351455,-36.09443],[140.35228,-36.095309],[140.354085,-36.097169],[140.35454,-36.097614],[140.354999,-36.098064]]}},{"type":"Feature","properties":{"tier":"high"},"geometry":{"type":"LineString","coordinates":[[140.341709,-36.08722],[140.341531,-36.087736],[140.341353,-36.088565],[140.341317,-36.089292],[140.341313,-36.089377],[140.341334,-36.091171],[140.341344,-36.092083],[140.34134,-36.093032],[140.341344,-36.093502],[140.341303,-36.097712],[140.34132,-36.098597],[140.341294,-36.099506],[140.341296,-36.101106],[140.341309,-36.102292],[140.341368,-36.104143]]}},{"type":"Feature","properties":{"tier":"arterial"},"geometry":{"type":"LineString","coordinates":[[140.353164,-36.099315],[140.352692,-36.099635],[140.351965,-36.100153],[140.351782,-36.100305],[140.351627,-36.100437],[140.351467,-36.100602],[140.350932,-36.101178],[140.350602,-36.101534],[140.350443,-36.101705],[140.350137,-36.101975],[140.349828,-36.102219],[140.349274,-36.102516],[140.348256,-36.102997],[140.346261,-36.103899],[140.344064,-36.104879],[140.342891,-36.105412],[140.341932,-36.105807],[140.341547,-36.105963],[140.34144,-36.105988]]}},{"type":"Feature","properties":{"tier":"regional"},"geometry":{"type":"LineString","coordinates":[[140.351261,-36.097501],[140.351038,-36.097523],[140.350292,-36.097623],[140.350083,-36.097649],[140.349985,-36.097668]]}},{"type":"Feature","properties":{"tier":"arterial"},"geometry":{"type":"LineString","coordinates":[[140.413644,-36.083515],[140.413082,-36.083856],[140.411539,-36.084699],[140.410552,-36.085133],[140.408717,-36.085688],[140.407932,-36.085807],[140.407277,-36.085851],[140.406623,-36.08579],[140.405127,-36.085447],[140.404048,-36.0852],[140.403117,-36.085055],[140.402215,-36.085029],[140.401205,-36.085174],[140.400143,-36.085487],[140.3986,-36.086199],[140.397677,-36.086555],[140.396518,-36.08678],[140.395626,-36.086813],[140.394641,-36.086702],[140.393523,-36.086484],[140.392665,-36.086405],[140.391929,-36.086413],[140.390457,-36.086543],[140.387205,-36.087078],[140.37754,-36.08867],[140.373846,-36.089444],[140.369875,-36.09062],[140.367227,-36.091405],[140.364961,-36.092074],[140.363123,-36.092618],[140.362644,-36.09277],[140.362152,-36.092914],[140.361915,-36.092966],[140.361723,-36.092998],[140.361401,-36.09302],[140.359352,-36.093019],[140.358463,-36.09301],[140.355899,-36.093004],[140.355451,-36.09302],[140.352324,-36.092989],[140.351763,-36.093046],[140.35165,-36.093067],[140.35157,-36.093097],[140.351509,-36.093121],[140.351179,-36.093288],[140.351136,-36.093316],[140.350572,-36.093596]]}},{"type":"Feature","properties":{"tier":"arterial"},"geometry":{"type":"LineString","coordinates":[[140.341703,-36.203336],[140.358249,-36.2102],[140.37137,-36.215644],[140.4022,-36.228388],[140.414757,-36.233577],[140.415551,-36.233785],[140.41656,-36.233924],[140.418555,-36.233941],[140.420409,-36.233974],[140.421605,-36.234164],[140.427074,-36.236381],[140.43231,-36.237281],[140.441494,-36.243027],[140.444927,-36.247319],[140.446386,-36.249257],[140.446944,-36.250278],[140.448049,-36.253208],[140.44821,-36.253635],[140.453883,-36.26443],[140.458561,-36.272544],[140.466192,-36.287214],[140.467681,-36.289582],[140.471277,-36.299977],[140.47136,-36.300311],[140.471406,-36.300496],[140.472715,-36.317617]]}},{"type":"Feature","properties":{"tier":"high"},"geometry":{"type":"LineString","coordinates":[[140.265835,-35.99998],[140.275378,-36.011076],[140.286925,-36.0245],[140.287485,-36.025236],[140.287971,-36.025957],[140.288391,-36.026759],[140.28872,-36.027594],[140.289137,-36.029326],[140.289345,-36.030089],[140.289667,-36.030887],[140.290098,-36.031679],[140.290604,-36.032423],[140.291195,-36.033114],[140.292599,-36.034367],[140.293522,-36.034968],[140.296233,-36.036302],[140.297063,-36.036811],[140.297868,-36.037407],[140.298598,-36.03808],[140.299246,-36.038781],[140.301969,-36.041944],[140.303334,-36.043528],[140.304371,-36.044733],[140.304693,-36.045106],[140.304922,-36.045372],[140.307416,-36.048269],[140.31014,-36.051431],[140.312863,-36.054594],[140.315587,-36.057756],[140.31831,-36.060918],[140.321034,-36.06408],[140.323758,-36.067241],[140.324375,-36.067886],[140.325948,-36.069499],[140.329256,-36.072736],[140.332564,-36.075973],[140.335872,-36.07921],[140.33918,-36.082447],[140.339345,-36.082609],[140.340086,-36.083334]]}},{"type":"Feature","properties":{"tier":"high"},"geometry":{"type":"LineString","coordinates":[[140.342424,-36.085709],[140.342343,-36.085858],[140.342316,-36.085934],[140.342298,-36.085969]]}},{"type":"Feature","properties":{"tier":"high"},"geometry":{"type":"LineString","coordinates":[[140.342257,-36.086051],[140.342236,-36.086087],[140.341879,-36.086883],[140.341709,-36.08722]]}},{"type":"Feature","properties":{"tier":"high"},"geometry":{"type":"LineString","coordinates":[[140.340688,-36.083917],[140.340956,-36.084143],[140.341135,-36.084322],[140.341666,-36.084866],[140.342113,-36.085332],[140.342428,-36.085614],[140.342459,-36.085644]]}},{"type":"Feature","properties":{"tier":"high"},"geometry":{"type":"LineString","coordinates":[[140.344918,-36.088052],[140.346785,-36.089886],[140.348054,-36.091132]]}},{"type":"Feature","properties":{"tier":"high"},"geometry":{"type":"LineString","coordinates":[[140.340086,-36.083334],[140.340688,-36.083917]]}},{"type":"Feature","properties":{"tier":"high"},"geometry":{"type":"LineString","coordinates":[[140.342871,-36.086134],[140.342647,-36.085978],[140.342501,-36.085928],[140.342398,-36.085923],[140.342316,-36.085934]]}},{"type":"Feature","properties":{"tier":"high"},"geometry":{"type":"LineString","coordinates":[[140.342257,-36.086051],[140.342254,-36.085892],[140.342249,-36.085752],[140.342191,-36.085578],[140.342047,-36.085411],[140.341798,-36.085149],[140.34169,-36.085007]]}},{"type":"Feature","properties":{"tier":"high"},"geometry":{"type":"LineString","coordinates":[[140.354999,-36.098064],[140.35576,-36.098747]]}},{"type":"Feature","properties":{"tier":"high"},"geometry":{"type":"LineString","coordinates":[[140.356828,-36.099718],[140.357307,-36.100187]]}},{"type":"Feature","properties":{"tier":"arterial"},"geometry":{"type":"LineString","coordinates":[[140.354999,-36.098064],[140.354851,-36.098187]]}},{"type":"Feature","properties":{"tier":"regional"},"geometry":{"type":"LineString","coordinates":[[140.349869,-36.097588],[140.349906,-36.097591],[140.349939,-36.097603],[140.349966,-36.097624],[140.349982,-36.097651],[140.349985,-36.097668],[140.349981,-36.097698],[140.349965,-36.097725],[140.349938,-36.097746],[140.349904,-36.097758],[140.349886,-36.09776],[140.349849,-36.097757],[140.349816,-36.097743],[140.349784,-36.097713],[140.349773,-36.097685],[140.349775,-36.097655],[140.34979,-36.097627],[140.349815,-36.097605],[140.349848,-36.097592],[140.349869,-36.097588]]}},{"type":"Feature","properties":{"tier":"arterial"},"geometry":{"type":"LineString","coordinates":[[140.35576,-36.098747],[140.355213,-36.098343],[140.355083,-36.098258],[140.354982,-36.09821],[140.354851,-36.098187]]}},{"type":"Feature","properties":{"tier":"high"},"geometry":{"type":"LineString","coordinates":[[140.35576,-36.098747],[140.356828,-36.099718]]}},{"type":"Feature","properties":{"tier":"high"},"geometry":{"type":"LineString","coordinates":[[140.48076,-36.172159],[140.482271,-36.172301],[140.487247,-36.172615],[140.489682,-36.172772],[140.490174,-36.172803]]}},{"type":"Feature","properties":{"tier":"high"},"geometry":{"type":"LineString","coordinates":[[140.366235,-36.108923],[140.367424,-36.110086],[140.370095,-36.112699],[140.381514,-36.123841],[140.384159,-36.126421],[140.390014,-36.132133],[140.390172,-36.132281],[140.392111,-36.134055],[140.393204,-36.13493],[140.394594,-36.135849],[140.395954,-36.136614],[140.398604,-36.137953],[140.40314,-36.140245],[140.404955,-36.141251],[140.406073,-36.141889],[140.411879,-36.145322],[140.414352,-36.146643],[140.416395,-36.147725],[140.425626,-36.152585],[140.427188,-36.153357],[140.428723,-36.153964],[140.43046,-36.154558],[140.432159,-36.154979],[140.432217,-36.154993],[140.433884,-36.155301],[140.4387,-36.156027],[140.440477,-36.156406],[140.442031,-36.15686],[140.443493,-36.157362],[140.444954,-36.157941],[140.452548,-36.161184],[140.462238,-36.165723],[140.463495,-36.166268],[140.466008,-36.167347],[140.467973,-36.16817],[140.471751,-36.169752],[140.473578,-36.170495],[140.474573,-36.17084],[140.475704,-36.171189],[140.476949,-36.171517],[140.478214,-36.171758],[140.479232,-36.171947],[140.480323,-36.172099],[140.48076,-36.172159]]}},{"type":"Feature","properties":{"tier":"high"},"geometry":{"type":"LineString","coordinates":[[140.343076,-36.086223],[140.34471,-36.087825],[140.344918,-36.088052]]}},{"type":"Feature","properties":{"tier":"high"},"geometry":{"type":"LineString","coordinates":[[140.342459,-36.085644],[140.343076,-36.086223]]}},{"type":"Feature","properties":{"tier":"high"},"geometry":{"type":"LineString","coordinates":[[140.342871,-36.086134],[140.342424,-36.085709]]}},{"type":"Feature","properties":{"tier":"high"},"geometry":{"type":"LineString","coordinates":[[140.344918,-36.088052],[140.343825,-36.087038],[140.343369,-36.086621],[140.342976,-36.086235],[140.342871,-36.086134]]}},{"type":"Feature","properties":{"tier":"high"},"geometry":{"type":"LineString","coordinates":[[140.342459,-36.085644],[140.342424,-36.085709]]}},{"type":"Feature","properties":{"tier":"high"},"geometry":{"type":"LineString","coordinates":[[140.342298,-36.085969],[140.342257,-36.086051]]}},{"type":"Feature","properties":{"tier":"high"},"geometry":{"type":"LineString","coordinates":[[140.349749,-36.092791],[140.350093,-36.093127]]}},{"type":"Feature","properties":{"tier":"high"},"geometry":{"type":"LineString","coordinates":[[140.348054,-36.091132],[140.348452,-36.091522],[140.348845,-36.091907],[140.349749,-36.092791]]}},{"type":"Feature","properties":{"tier":"high"},"geometry":{"type":"LineString","coordinates":[[140.350026,-36.394889],[140.349688,-36.396406],[140.349516,-36.397191],[140.34928,-36.398132],[140.348921,-36.399259],[140.34403,-36.413896],[140.343501,-36.415741],[140.343437,-36.417839],[140.343945,-36.426913],[140.343993,-36.428025],[140.344079,-36.428563],[140.34422,-36.429225],[140.344441,-36.429939],[140.344777,-36.430812],[140.34814,-36.437332],[140.35358,-36.448238],[140.35515,-36.451257],[140.3616,-36.462583],[140.363161,-36.465323],[140.363555,-36.466407],[140.363579,-36.466706],[140.363653,-36.467617],[140.363445,-36.468804],[140.363023,-36.469663],[140.361414,-36.472431],[140.360081,-36.474668],[140.359605,-36.476287],[140.359727,-36.477455],[140.359762,-36.477789],[140.360304,-36.479177],[140.365527,-36.487151],[140.366707,-36.488548],[140.368131,-36.489505],[140.373407,-36.492031],[140.375217,-36.493001],[140.376771,-36.494283],[140.383708,-36.50002]]}},{"type":"Feature","properties":{"tier":"high"},"geometry":{"type":"LineString","coordinates":[[140.35123,-36.389485],[140.350866,-36.391074],[140.350673,-36.391954],[140.350599,-36.392309],[140.350447,-36.392992],[140.350341,-36.393472],[140.350026,-36.394889]]}},{"type":"Feature","properties":{"tier":"arterial"},"geometry":{"type":"LineString","coordinates":[[140.354851,-36.098187],[140.354744,-36.098254]]}},{"type":"Feature","properties":{"tier":"high"},"geometry":{"type":"LineString","coordinates":[[140.342424,-36.085709],[140.342077,-36.085379],[140.34169,-36.085007]]}},{"type":"Feature","properties":{"tier":"high"},"geometry":{"type":"LineString","coordinates":[[140.363368,-36.10615],[140.365314,-36.107999],[140.366235,-36.108923]]}},{"type":"Feature","properties":{"tier":"arterial"},"geometry":{"type":"LineString","coordinates":[[140.354172,-36.098638],[140.353164,-36.099315]]}}]}
