{"type":"FeatureCollection","features":[{"type":"Feature","properties":{"tier":"regional"},"geometry":{"type":"LineString","coordinates":[[140.071615,-33.49998],[140.069565,-33.502231],[140.065708,-33.506579],[140.061559,-33.511318],[140.05776,-33.515689],[140.054606,-33.519346],[140.054338,-33.519649],[140.053875,-33.520132],[140.045528,-33.52792],[140.043059,-33.530192],[140.038066,-33.534734],[140.034459,-33.537993],[140.026678,-33.544946],[140.026084,-33.545449],[140.025675,-33.545831],[140.025391,-33.546161],[140.02505,-33.546632],[140.021701,-33.552293],[140.01954,-33.555879],[140.019359,-33.55616],[140.019207,-33.556495],[140.019099,-33.556974],[140.018324,-33.561717],[140.017378,-33.567513],[140.016401,-33.573349],[140.015495,-33.578197],[140.015383,-33.578719],[140.015304,-33.579439],[140.015222,-33.580296],[140.015193,-33.580439],[140.015144,-33.580675],[140.015093,-33.580894],[140.015051,-33.580989],[140.014971,-33.581168],[140.014867,-33.581377],[140.014778,-33.581481],[140.01451,-33.581534],[140.014046,-33.581606],[140.01318,-33.581728],[140.011102,-33.582058],[140.010945,-33.582091],[140.010858,-33.58211],[140.010667,-33.582173],[140.010484,-33.582257],[140.01027,-33.582387],[140.003035,-33.587192],[140.002372,-33.587653],[140.001876,-33.587956],[140.00142,-33.588157],[140.001024,-33.588245],[140.000533,-33.588299],[139.99998,-33.588316]]}}]}
