{"type":"FeatureCollection","features":[{"type":"Feature","properties":{"tier":"arterial"},"geometry":{"type":"LineString","coordinates":[[140.200161,-28.126493],[140.199983,-28.126028],[140.199954,-28.125853],[140.19996,-28.125746],[140.199993,-28.125583],[140.200031,-28.125409],[140.200087,-28.12518],[140.200145,-28.124866],[140.200194,-28.122859],[140.200249,-28.120433],[140.200307,-28.117863],[140.200343,-28.116509],[140.200365,-28.114946],[140.20041,-28.113041],[140.200518,-28.10774],[140.200513,-28.106649]]}},{"type":"Feature","properties":{"tier":"arterial"},"geometry":{"type":"LineString","coordinates":[[140.200513,-28.106649],[140.200538,-28.105927],[140.200564,-28.104446],[140.200566,-28.104304],[140.200547,-28.104074],[140.200487,-28.103806],[140.200376,-28.103524],[140.200206,-28.103235],[140.200019,-28.103006],[140.199973,-28.102963],[140.199809,-28.10281],[140.199732,-28.102754],[140.199592,-28.102652],[140.199272,-28.102416],[140.198859,-28.102092],[140.198113,-28.101586]]}},{"type":"Feature","properties":{"tier":"arterial"},"geometry":{"type":"LineString","coordinates":[[140.210053,-28.13418],[140.209754,-28.133653]]}},{"type":"Feature","properties":{"tier":"arterial"},"geometry":{"type":"LineString","coordinates":[[140.50002,-28.16911],[140.49959,-28.16949],[140.49817,-28.17073],[140.49735,-28.17201],[140.49682,-28.1736],[140.49669,-28.17493],[140.49629,-28.17626],[140.49595,-28.17837],[140.49593,-28.1805],[140.49578,-28.18209],[140.49582,-28.18335],[140.49483,-28.18488],[140.4937,-28.18608],[140.49132,-28.18821],[140.49036,-28.18932],[140.48969,-28.19085],[140.48871,-28.19251],[140.4883,-28.19435],[140.48781,-28.19675],[140.48773,-28.19844],[140.48792,-28.20138],[140.48846,-28.20417],[140.48845,-28.20614],[140.48794,-28.20908],[140.48804,-28.21164],[140.48782,-28.2136],[140.48725,-28.21504],[140.48699,-28.21682],[140.48658,-28.22151],[140.48615,-28.22548],[140.486501,-28.229191],[140.48663,-28.22991],[140.486845,-28.231177],[140.486855,-28.231947],[140.4868,-28.23255],[140.48663,-28.233979],[140.486464,-28.234759],[140.48631,-28.23539],[140.486249,-28.236002],[140.48627,-28.23678],[140.486351,-28.238318],[140.486464,-28.239017],[140.48669,-28.23961],[140.487113,-28.240444],[140.487354,-28.240922],[140.487483,-28.241338],[140.48754,-28.24192],[140.487569,-28.242689],[140.487515,-28.24363],[140.48744,-28.244315],[140.487338,-28.244759],[140.48721,-28.245236],[140.48692,-28.24567],[140.486421,-28.246366],[140.486105,-28.246956],[140.48602,-28.2473],[140.486147,-28.248128],[140.486142,-28.248516],[140.486013,-28.248861],[140.48581,-28.24917],[140.48485,-28.25016],[140.484506,-28.250642],[140.4841,-28.25144],[140.483449,-28.253166],[140.48299,-28.25406],[140.482349,-28.255476],[140.48214,-28.256157],[140.481968,-28.256922],[140.481802,-28.257272],[140.4816,-28.25747],[140.48063,-28.25825],[140.480348,-28.258604],[140.47993,-28.25936],[140.479517,-28.260263],[140.479056,-28.261123],[140.47858,-28.26193],[140.47631,-28.26495],[140.475177,-28.266462],[140.474689,-28.267156],[140.47431,-28.2679],[140.473739,-28.269297],[140.473418,-28.270185],[140.473117,-28.271376],[140.472677,-28.273209],[140.472549,-28.274125],[140.47265,-28.2749],[140.472731,-28.275835],[140.47303,-28.27776],[140.47356,-28.27968],[140.47408,-28.28193],[140.47475,-28.28518],[140.474839,-28.286318],[140.47467,-28.28758],[140.47428,-28.28887],[140.4726,-28.29199],[140.472,-28.29378],[140.4721,-28.29512],[140.47178,-28.29667],[140.4713,-28.2982],[140.47096,-28.29998],[140.47043,-28.30368],[140.47036,-28.30722],[140.470435,-28.30942],[140.470612,-28.311073],[140.470698,-28.311781],[140.470843,-28.312263],[140.470864,-28.312537],[140.470725,-28.312858],[140.470446,-28.313236],[140.470269,-28.313609],[140.47023,-28.31404],[140.470226,-28.314676],[140.470199,-28.315191],[140.47004,-28.31563],[140.469668,-28.317387],[140.469164,-28.320117],[140.46889,-28.32134],[140.46824,-28.32335],[140.467147,-28.326605],[140.46664,-28.32771],[140.465763,-28.329504],[140.46507,-28.33112],[140.464765,-28.331591],[140.46383,-28.33353],[140.463225,-28.334543],[140.46252,-28.33598],[140.461997,-28.337139],[140.46164,-28.33822],[140.461305,-28.33917],[140.461,-28.33967],[140.460591,-28.340133],[140.46016,-28.34089],[140.45944,-28.34245],[140.45812,-28.34507],[140.457689,-28.34595],[140.457255,-28.346762],[140.45687,-28.34725],[140.45567,-28.34833],[140.45491,-28.348929],[140.454175,-28.349642],[140.45381,-28.35012],[140.452523,-28.351459],[140.45186,-28.35199],[140.44934,-28.35358],[140.44781,-28.35489],[140.446585,-28.355798],[140.445249,-28.356699],[140.44453,-28.357148],[140.44406,-28.35766],[140.443253,-28.358715],[140.44273,-28.35945],[140.442358,-28.359914],[140.44159,-28.361071],[140.44105,-28.36177],[140.440099,-28.362647],[140.439595,-28.363181],[140.439246,-28.363667],[140.4389,-28.36439],[140.43871,-28.36487],[140.43842,-28.365805],[140.43818,-28.36682],[140.4377,-28.36962],[140.437535,-28.370558],[140.43731,-28.371144],[140.43713,-28.3715],[140.43606,-28.37276],[140.4344,-28.37493],[140.434129,-28.375359],[140.43357,-28.37655],[140.4322,-28.37875],[140.43078,-28.3813],[140.42961,-28.38343],[140.42774,-28.3864],[140.42693,-28.387837],[140.42655,-28.38869],[140.42605,-28.39074],[140.425825,-28.39174],[140.425546,-28.392623],[140.42516,-28.39333],[140.42487,-28.393793],[140.42418,-28.39451],[140.42108,-28.39744],[140.420718,-28.397809],[140.420133,-28.398243],[140.41949,-28.39863],[140.418701,-28.399022],[140.418277,-28.39914],[140.41785,-28.39917],[140.417467,-28.39914],[140.417048,-28.399215],[140.41654,-28.39937],[140.415986,-28.399451],[140.415364,-28.399659],[140.414838,-28.399895],[140.414586,-28.400088],[140.414404,-28.400376],[140.4142,-28.40076],[140.413765,-28.401994],[140.41351,-28.40261],[140.413234,-28.403179],[140.41249,-28.40427],[140.411974,-28.405024],[140.4114,-28.405722],[140.41093,-28.40614],[140.410595,-28.406383],[140.409806,-28.406888],[140.4096,-28.4071],[140.408776,-28.408006],[140.408009,-28.408666],[140.407215,-28.409275],[140.406405,-28.409874],[140.40606,-28.41023],[140.405558,-28.410804],[140.405198,-28.411144],[140.40469,-28.41157],[140.403889,-28.412097],[140.403332,-28.412403],[140.40265,-28.412672],[140.402334,-28.412852],[140.402082,-28.413092],[140.40187,-28.4134],[140.40103,-28.41463],[140.400698,-28.415012],[140.400349,-28.415565],[140.400097,-28.416211],[140.399812,-28.416772],[140.399507,-28.417126],[140.39914,-28.41742],[140.398745,-28.41774],[140.39845,-28.418093],[140.39791,-28.41879],[140.397323,-28.419452],[140.396825,-28.42007],[140.396411,-28.420429],[140.395864,-28.420882],[140.39486,-28.42192],[140.39426,-28.422401],[140.393708,-28.423],[140.39311,-28.42375],[140.392377,-28.424717],[140.391846,-28.42526],[140.39139,-28.42569],[140.390849,-28.426147],[140.38773,-28.42866],[140.385286,-28.43069],[140.384406,-28.431463],[140.38381,-28.43209],[140.3822,-28.43408],[140.37941,-28.43796],[140.379057,-28.438468],[140.378441,-28.439247],[140.37794,-28.44002],[140.37769,-28.440327],[140.377335,-28.440648],[140.37704,-28.44082],[140.37666,-28.44094],[140.376225,-28.441039],[140.375581,-28.441105],[140.375109,-28.441261],[140.37465,-28.4415],[140.37236,-28.44298],[140.371392,-28.443619],[140.36991,-28.44478],[140.369423,-28.445138],[140.36901,-28.44552],[140.368597,-28.44602],[140.368259,-28.446449],[140.36784,-28.44687],[140.36747,-28.447162],[140.36661,-28.44802],[140.365765,-28.448973],[140.365169,-28.449685],[140.364515,-28.450237],[140.36347,-28.45103],[140.362535,-28.451845],[140.36127,-28.45279],[140.35824,-28.45473],[140.35486,-28.45688],[140.351779,-28.458679],[140.350143,-28.459533],[140.349323,-28.459976],[140.348781,-28.460339],[140.348459,-28.460712],[140.34812,-28.46137],[140.346592,-28.463773],[140.34598,-28.464617],[140.345546,-28.465136],[140.34498,-28.46555],[140.342933,-28.467126],[140.342384,-28.467503],[140.341909,-28.467758],[140.34156,-28.467873],[140.341249,-28.467937],[140.34066,-28.468],[140.339127,-28.468288],[140.338358,-28.468496],[140.337803,-28.468717],[140.337186,-28.469033],[140.336384,-28.469507],[140.3356,-28.46999],[140.334651,-28.470603],[140.33438,-28.470743],[140.333817,-28.470997],[140.33354,-28.471125],[140.33327,-28.47132],[140.333036,-28.471483],[140.332773,-28.471757],[140.3322,-28.47239],[140.330427,-28.474116],[140.33033,-28.47421],[140.328681,-28.475597],[140.328448,-28.475801],[140.327943,-28.476267],[140.327694,-28.476667],[140.32691,-28.47839],[140.326475,-28.479325],[140.32601,-28.48055],[140.325794,-28.481145],[140.325494,-28.482097],[140.325354,-28.482875],[140.325247,-28.483908],[140.325242,-28.484478],[140.3253,-28.48572],[140.32537,-28.48805],[140.325263,-28.489457],[140.32521,-28.49167],[140.325151,-28.493215],[140.32498,-28.49505],[140.32466,-28.49797],[140.32436,-28.49922],[140.324148,-28.50002]]}},{"type":"Feature","properties":{"tier":"arterial"},"geometry":{"type":"LineString","coordinates":[[140.50002,-28.078755],[140.499701,-28.078784],[140.499253,-28.078845],[140.498609,-28.078983],[140.497988,-28.079161],[140.497382,-28.079392],[140.497192,-28.079481],[140.49589,-28.080184],[140.494063,-28.081241],[140.493312,-28.081628],[140.49257,-28.081941],[140.492186,-28.08205],[140.491583,-28.082157],[140.490947,-28.082209],[140.490498,-28.082216],[140.490048,-28.082181],[140.489378,-28.082091],[140.48712,-28.0817],[140.479824,-28.080225],[140.47617,-28.079526],[140.474803,-28.079226],[140.473202,-28.078928],[140.469694,-28.078224],[140.463668,-28.076987],[140.462795,-28.076862],[140.462348,-28.076829],[140.461918,-28.076823],[140.4617,-28.076831],[140.461268,-28.076882],[140.460846,-28.076977],[140.460438,-28.077114],[140.459857,-28.07739],[140.459491,-28.077606],[140.459154,-28.077858],[140.459006,-28.077996],[140.458877,-28.078154],[140.458667,-28.078489],[140.458506,-28.078841],[140.457513,-28.081559],[140.456887,-28.083179],[140.454199,-28.089776],[140.45339,-28.091876],[140.452725,-28.093293],[140.452413,-28.093804],[140.452045,-28.094315],[140.451709,-28.094714],[140.451029,-28.095382],[140.449573,-28.096695],[140.448314,-28.097872],[140.446184,-28.099908],[140.445582,-28.100443],[140.441538,-28.104188],[140.440635,-28.104998],[140.440317,-28.10525],[140.439012,-28.106199],[140.437162,-28.107446],[140.434389,-28.109401],[140.432145,-28.110929],[140.431631,-28.111309],[140.431321,-28.111592],[140.431176,-28.111746],[140.431052,-28.111908],[140.430847,-28.11225],[140.430629,-28.112797],[140.429577,-28.11644],[140.428941,-28.118385],[140.428471,-28.119928],[140.428245,-28.12048],[140.42794,-28.120999],[140.4277,-28.121331],[140.427419,-28.121636],[140.427261,-28.121775],[140.426912,-28.122017],[140.426718,-28.122121],[140.426313,-28.122296],[140.425887,-28.122419],[140.425441,-28.12249],[140.424991,-28.122526],[140.424362,-28.12253],[140.423915,-28.1225],[140.421744,-28.12231],[140.418597,-28.121996],[140.415153,-28.121687],[140.414459,-28.121582],[140.414006,-28.12147],[140.413102,-28.121178],[140.412445,-28.120895],[140.411621,-28.120452],[140.410045,-28.119486],[140.404579,-28.11594],[140.403191,-28.115059],[140.402008,-28.114278],[140.394785,-28.109644],[140.393842,-28.109013],[140.391193,-28.107339],[140.389859,-28.106463],[140.383715,-28.102515],[140.378876,-28.099359],[140.376749,-28.09792],[140.376345,-28.097677],[140.375927,-28.097465],[140.375508,-28.097291],[140.374446,-28.096918],[140.372353,-28.09624],[140.369879,-28.095415],[140.368215,-28.094884],[140.366265,-28.094276],[140.365551,-28.094082],[140.36483,-28.093939],[140.364127,-28.093847],[140.363426,-28.093819],[140.362504,-28.093815],[140.358883,-28.093909],[140.351191,-28.094051],[140.34562,-28.094191],[140.341223,-28.094244],[140.333849,-28.094405],[140.330027,-28.094453],[140.327594,-28.094505],[140.325415,-28.094526],[140.324699,-28.094509],[140.322524,-28.094397],[140.319618,-28.0942],[140.318407,-28.094146],[140.317652,-28.094136],[140.316149,-28.094186],[140.315414,-28.094233],[140.314702,-28.094316],[140.312843,-28.094579],[140.312147,-28.094648],[140.311671,-28.094671],[140.307131,-28.094643],[140.303754,-28.09458],[140.302303,-28.094581],[140.301589,-28.094629],[140.301123,-28.0947],[140.300433,-28.094869],[140.300209,-28.094938],[140.299782,-28.095103],[140.298289,-28.095764],[140.297867,-28.095972],[140.295473,-28.097067],[140.294594,-28.09745],[140.29136,-28.098928],[140.287638,-28.100581],[140.285652,-28.101487],[140.284076,-28.102157],[140.283186,-28.102502],[140.282759,-28.1027],[140.281707,-28.103228],[140.280614,-28.103743],[140.279048,-28.104433],[140.274046,-28.10669],[140.269071,-28.108893],[140.266829,-28.109926],[140.265947,-28.110294],[140.265298,-28.110512],[140.264661,-28.11068],[140.264034,-28.110794],[140.261851,-28.111059],[140.258242,-28.111535],[140.256085,-28.111792],[140.251617,-28.112383],[140.250183,-28.112591],[140.243099,-28.113489],[140.239101,-28.114045],[140.236945,-28.114307],[140.235338,-28.11453],[140.234883,-28.114605],[140.234438,-28.114702],[140.233788,-28.114891],[140.233161,-28.115134],[140.232742,-28.115292],[140.231998,-28.115759],[140.231463,-28.11614],[140.23096,-28.116561],[140.230788,-28.116723],[140.22904,-28.118367],[140.226806,-28.120536],[140.226226,-28.121174],[140.225852,-28.121672],[140.225539,-28.122201],[140.225196,-28.122958],[140.224984,-28.12354],[140.224879,-28.123938],[140.224801,-28.124342],[140.224744,-28.124763],[140.224621,-28.126024],[140.224435,-28.127487],[140.224332,-28.1281],[140.224234,-28.128506],[140.224102,-28.128904],[140.223948,-28.129296],[140.223855,-28.129484],[140.223642,-28.129846],[140.223399,-28.130198],[140.222988,-28.130699],[140.22268,-28.131015],[140.22235,-28.131309],[140.221808,-28.131719],[140.221425,-28.131975],[140.220812,-28.132321],[140.220392,-28.132526],[140.219733,-28.132789]]}},{"type":"Feature","properties":{"tier":"arterial"},"geometry":{"type":"LineString","coordinates":[[140.210053,-28.13418],[140.210264,-28.134768],[140.21036,-28.135194],[140.210434,-28.135793],[140.210445,-28.136169],[140.210242,-28.141463]]}},{"type":"Feature","properties":{"tier":"arterial"},"geometry":{"type":"LineString","coordinates":[[140.210242,-28.141463],[140.210055,-28.146348],[140.209952,-28.14903],[140.209959,-28.14979],[140.210014,-28.150365],[140.210118,-28.150942],[140.210221,-28.151308],[140.210484,-28.152023],[140.210969,-28.153028],[140.211188,-28.153536],[140.211307,-28.153887],[140.211445,-28.154428],[140.211695,-28.156083],[140.212388,-28.161607],[140.212629,-28.163135],[140.212802,-28.163892],[140.2131,-28.165027],[140.213747,-28.167321],[140.213955,-28.167878],[140.215046,-28.170419],[140.215231,-28.170967],[140.215325,-28.171336],[140.215428,-28.171891],[140.215569,-28.172831],[140.215883,-28.17514],[140.216006,-28.17593],[140.216087,-28.176516],[140.216187,-28.177473],[140.216202,-28.178043],[140.216154,-28.178814],[140.215319,-28.18609],[140.215177,-28.187107],[140.214946,-28.189109],[140.214381,-28.193535],[140.213924,-28.19688],[140.213623,-28.199572],[140.213528,-28.200554],[140.213476,-28.201525],[140.213522,-28.201914],[140.213563,-28.202107],[140.213624,-28.202287],[140.213697,-28.202474],[140.213892,-28.202829],[140.21413,-28.203149],[140.2144,-28.203463],[140.214547,-28.203614],[140.214879,-28.203899],[140.215248,-28.204164],[140.215446,-28.204279],[140.216071,-28.20458],[140.217351,-28.205141],[140.223225,-28.20784],[140.22529,-28.208798],[140.227112,-28.209665],[140.22899,-28.210523],[140.229995,-28.211043],[140.23057,-28.211386],[140.230934,-28.211634],[140.233313,-28.213469],[140.238566,-28.217523],[140.239071,-28.217933],[140.23939,-28.218215],[140.239694,-28.218512],[140.239963,-28.218823],[140.240194,-28.219154],[140.24037,-28.219504],[140.240516,-28.219877],[140.240628,-28.220252],[140.240701,-28.22063],[140.240724,-28.221022],[140.240697,-28.221418],[140.240564,-28.222411],[140.240399,-28.22352],[140.240017,-28.226096],[140.239878,-28.226932],[140.239679,-28.227781],[140.239434,-28.228602],[140.238461,-28.231646],[140.236755,-28.236796],[140.235793,-28.239815],[140.233775,-28.245894],[140.233283,-28.24743],[140.233123,-28.248004],[140.232951,-28.24881],[140.232832,-28.24963],[140.231988,-28.256344],[140.231728,-28.25827],[140.231606,-28.258901],[140.231505,-28.2593],[140.230278,-28.263549],[140.229065,-28.267676],[140.228378,-28.269915],[140.227154,-28.274103],[140.226998,-28.274732],[140.226853,-28.275577],[140.226805,-28.275995],[140.22674,-28.277055],[140.226664,-28.278727],[140.226512,-28.281044],[140.226456,-28.282323],[140.226401,-28.28296],[140.226271,-28.28514],[140.226064,-28.287861],[140.225891,-28.290639],[140.225797,-28.292759],[140.225698,-28.294047],[140.225543,-28.29659],[140.225481,-28.297877],[140.225484,-28.298508],[140.225533,-28.29915],[140.225688,-28.30024],[140.227263,-28.309175],[140.227997,-28.313087],[140.228091,-28.31374],[140.228153,-28.314383],[140.228171,-28.315031],[140.228118,-28.315875],[140.227965,-28.316695],[140.226917,-28.320767],[140.226686,-28.321827],[140.226581,-28.322468],[140.22639,-28.323989],[140.226012,-28.32746],[140.225877,-28.328301],[140.225736,-28.328917],[140.225554,-28.329512],[140.22519,-28.330492],[140.224312,-28.332719],[140.222927,-28.336368],[140.22196,-28.338802],[140.221366,-28.34041],[140.221101,-28.341211],[140.220949,-28.341829],[140.220653,-28.343278],[140.220524,-28.344118],[140.220473,-28.344547],[140.220365,-28.346028],[140.22021,-28.34854],[140.220142,-28.349169],[140.219969,-28.350009],[140.219794,-28.350638],[140.219476,-28.351473],[140.219286,-28.351886],[140.21812,-28.354229],[140.217788,-28.355007],[140.21765,-28.355408],[140.217535,-28.355813],[140.21736,-28.356637],[140.217304,-28.357061],[140.217187,-28.358553],[140.216982,-28.361864],[140.216763,-28.364669],[140.216729,-28.365708],[140.216763,-28.366326],[140.21683,-28.366961],[140.217084,-28.36836],[140.217439,-28.37026],[140.217809,-28.371941],[140.218104,-28.373138],[140.218225,-28.373742],[140.218281,-28.374146],[140.218319,-28.374541],[140.218315,-28.375154],[140.218262,-28.375784],[140.218114,-28.376639],[140.217805,-28.377911],[140.217632,-28.378527],[140.216593,-28.381995],[140.216107,-28.383768],[140.215557,-28.385578],[140.214537,-28.389061],[140.214104,-28.390469],[140.210898,-28.40171],[140.210479,-28.4031],[140.209383,-28.407001],[140.208117,-28.411301],[140.207664,-28.412947],[140.206277,-28.417766],[140.204458,-28.423995],[140.203889,-28.425583],[140.202464,-28.429354],[140.200742,-28.433818],[140.199383,-28.437429],[140.199137,-28.438041],[140.198844,-28.438853],[140.198668,-28.43946],[140.198567,-28.440061],[140.198492,-28.440864],[140.19841,-28.443101],[140.198363,-28.443729],[140.198271,-28.444347],[140.198187,-28.444751],[140.198084,-28.445137],[140.197955,-28.445525],[140.196799,-28.448655],[140.196472,-28.449644],[140.196128,-28.450805],[140.196009,-28.451405],[140.195949,-28.451806],[140.195888,-28.452615],[140.195749,-28.455694],[140.195566,-28.458746],[140.195433,-28.461537],[140.195439,-28.462191],[140.195563,-28.464492],[140.195764,-28.467323],[140.195812,-28.468217],[140.195816,-28.468894],[140.195799,-28.469346],[140.195754,-28.469801],[140.195637,-28.470488],[140.195324,-28.4718],[140.194384,-28.47548],[140.193591,-28.47868],[140.193415,-28.479309],[140.193185,-28.479921],[140.192996,-28.480306],[140.192778,-28.480678],[140.192537,-28.48103],[140.192262,-28.481359],[140.191796,-28.481824],[140.190588,-28.482832],[140.190291,-28.483111],[140.190031,-28.483387],[140.189815,-28.483674],[140.189552,-28.484104],[140.189374,-28.484529],[140.188984,-28.486029],[140.188808,-28.486801],[140.188025,-28.489917],[140.187134,-28.494363],[140.186643,-28.496523],[140.186319,-28.498064],[140.185993,-28.49975],[140.185962,-28.50002]]}},{"type":"Feature","properties":{"tier":"arterial"},"geometry":{"type":"LineString","coordinates":[[140.219733,-28.132789],[140.218402,-28.133273],[140.217512,-28.13358],[140.21704,-28.133705],[140.216311,-28.133825],[140.215564,-28.133851],[140.21507,-28.13383],[140.214586,-28.133787],[140.213421,-28.133598],[140.212793,-28.13353],[140.212644,-28.133514],[140.212128,-28.133503],[140.211845,-28.133537],[140.211289,-28.13364],[140.210205,-28.133882],[140.210078,-28.134],[140.210053,-28.13418]]}},{"type":"Feature","properties":{"tier":"arterial"},"geometry":{"type":"LineString","coordinates":[[140.210205,-28.133882],[140.210038,-28.133844],[140.209904,-28.133788],[140.209754,-28.133653],[140.209458,-28.133233],[140.209043,-28.132711],[140.208735,-28.132394],[140.208318,-28.131982],[140.207836,-28.131621],[140.207343,-28.131314],[140.206078,-28.130463],[140.205408,-28.13002],[140.204494,-28.129393],[140.203293,-28.128608],[140.203218,-28.128556],[140.202307,-28.127933],[140.201741,-28.127571],[140.201595,-28.127519],[140.201442,-28.127512],[140.2013,-28.127542],[140.201149,-28.127593],[140.20101,-28.12767],[140.200899,-28.127739],[140.200816,-28.127818]]}},{"type":"Feature","properties":{"tier":"arterial"},"geometry":{"type":"LineString","coordinates":[[140.200816,-28.127818],[140.200628,-28.127569],[140.200432,-28.127201],[140.200161,-28.126493]]}}]}
