{"type":"FeatureCollection","features":[{"type":"Feature","properties":{"tier":"arterial"},"geometry":{"type":"LineString","coordinates":[[140.50002,-37.532726],[140.499414,-37.532861],[140.498414,-37.533043],[140.497688,-37.533219],[140.497242,-37.533358],[140.496895,-37.533487],[140.496578,-37.533621],[140.496005,-37.533953],[140.495328,-37.534384],[140.491231,-37.53696],[140.490476,-37.537424],[140.489926,-37.537755],[140.489566,-37.537939],[140.488766,-37.538256],[140.488177,-37.538505],[140.487265,-37.538843],[140.486199,-37.539212],[140.484893,-37.539611],[140.483948,-37.539851],[140.48303,-37.540038],[140.482285,-37.540167],[140.481439,-37.540293],[140.480601,-37.540384],[140.47971,-37.540443],[140.478849,-37.540487],[140.478594,-37.540496]]}},{"type":"Feature","properties":{"tier":"arterial"},"geometry":{"type":"LineString","coordinates":[[140.360002,-37.604221],[140.35992,-37.604239],[140.359735,-37.604218],[140.358626,-37.60352],[140.357885,-37.603017],[140.357386,-37.602687],[140.356593,-37.602162],[140.355497,-37.601429],[140.354572,-37.600805],[140.353839,-37.600311],[140.353113,-37.599822],[140.352025,-37.599107],[140.351844,-37.599028],[140.35083,-37.598643],[140.350475,-37.598508],[140.347809,-37.597497],[140.346432,-37.596975],[140.345517,-37.596628],[140.344639,-37.596281],[140.343997,-37.596002],[140.343533,-37.595759],[140.341938,-37.594978],[140.340765,-37.594403],[140.340511,-37.594279],[140.339598,-37.593831],[140.33847,-37.593243],[140.336503,-37.592299],[140.326934,-37.587531]]}},{"type":"Feature","properties":{"tier":"regional"},"geometry":{"type":"LineString","coordinates":[[140.358111,-37.595094],[140.35756,-37.595601],[140.357515,-37.595642],[140.357256,-37.59588],[140.357125,-37.596003],[140.356369,-37.596741],[140.355671,-37.597427],[140.354793,-37.598248],[140.353113,-37.599822]]}},{"type":"Feature","properties":{"tier":"arterial"},"geometry":{"type":"LineString","coordinates":[[140.44988,-37.54256],[140.449144,-37.542705],[140.44843,-37.542845],[140.446962,-37.543119],[140.446543,-37.543227],[140.445757,-37.54351],[140.445576,-37.543576],[140.443943,-37.544231],[140.442795,-37.544707],[140.442116,-37.545038],[140.441861,-37.545162],[140.440883,-37.54571],[140.4394,-37.546515],[140.438515,-37.546973],[140.437628,-37.547365],[140.436508,-37.547764],[140.435588,-37.54805],[140.430237,-37.54993],[140.428023,-37.55068],[140.426912,-37.551117],[140.426571,-37.551292],[140.426045,-37.55159],[140.425351,-37.552033],[140.424615,-37.552576],[140.423755,-37.553226],[140.42238,-37.55424],[140.421254,-37.555103],[140.420234,-37.555874],[140.418993,-37.556764],[140.418271,-37.557213],[140.417609,-37.557532],[140.416949,-37.557787],[140.415277,-37.558364],[140.413514,-37.558971],[140.412977,-37.559183],[140.41227,-37.559503],[140.411457,-37.559983],[140.410839,-37.560443],[140.410302,-37.56094],[140.409808,-37.561591],[140.409067,-37.562727],[140.408549,-37.563501],[140.408145,-37.563955],[140.407847,-37.564256],[140.407449,-37.564575],[140.406215,-37.565364],[140.4055,-37.565823],[140.405073,-37.566149],[140.404678,-37.566589],[140.404155,-37.56733],[140.402535,-37.569994],[140.402097,-37.570595],[140.401654,-37.571027],[140.401191,-37.571423],[140.400723,-37.571731],[140.400226,-37.572007],[140.393425,-37.57491],[140.375917,-37.582334],[140.375267,-37.582619],[140.368568,-37.585455],[140.362184,-37.588158],[140.358978,-37.589515],[140.358778,-37.589599],[140.358689,-37.589637],[140.358446,-37.589739],[140.357465,-37.59015],[140.356004,-37.590775],[140.355622,-37.590915],[140.355468,-37.590961],[140.355197,-37.591041],[140.355099,-37.591062],[140.355027,-37.591077],[140.354854,-37.591112],[140.35437,-37.591203]]}},{"type":"Feature","properties":{"tier":"regional"},"geometry":{"type":"LineString","coordinates":[[140.478227,-37.540508],[140.478343,-37.540709]]}},{"type":"Feature","properties":{"tier":"arterial"},"geometry":{"type":"LineString","coordinates":[[140.485643,-37.684125],[140.485991,-37.683657],[140.486099,-37.683535],[140.486253,-37.683413],[140.486398,-37.683335],[140.486707,-37.683229],[140.489109,-37.682593],[140.489845,-37.682405],[140.490251,-37.682358],[140.490662,-37.682361],[140.491233,-37.682374],[140.491751,-37.682379],[140.492142,-37.682374],[140.492575,-37.682331],[140.492876,-37.682299],[140.493166,-37.682294],[140.493508,-37.682329],[140.493855,-37.682381],[140.494256,-37.68248],[140.494738,-37.682625],[140.495032,-37.682704],[140.495284,-37.682752],[140.495558,-37.682786],[140.495925,-37.682808],[140.50002,-37.682975]]}},{"type":"Feature","properties":{"tier":"regional"},"geometry":{"type":"LineString","coordinates":[[140.475859,-37.67934],[140.475199,-37.680123],[140.474882,-37.680498],[140.47453,-37.680813],[140.47409,-37.681164],[140.474006,-37.681224],[140.472815,-37.681984],[140.463554,-37.687933],[140.460746,-37.689737]]}},{"type":"Feature","properties":{"tier":"regional"},"geometry":{"type":"LineString","coordinates":[[140.454335,-37.693801],[140.454695,-37.694169],[140.45493,-37.69448],[140.455207,-37.694826],[140.455476,-37.695278],[140.456122,-37.696427],[140.456775,-37.697546],[140.457364,-37.698583],[140.457423,-37.698711],[140.457452,-37.698799],[140.457437,-37.698877]]}},{"type":"Feature","properties":{"tier":"regional"},"geometry":{"type":"LineString","coordinates":[[140.151517,-37.532874],[140.150772,-37.534272],[140.15043,-37.535429],[140.150715,-37.53936],[140.150172,-37.544005],[140.150391,-37.549554],[140.150367,-37.549741],[140.1495,-37.552996],[140.147999,-37.556112],[140.14414,-37.561086],[140.142139,-37.563673],[140.13968,-37.565188],[140.133058,-37.567435],[140.1312,-37.568107],[140.130262,-37.568433],[140.129384,-37.568736],[140.128585,-37.569025],[140.127734,-37.569327],[140.126925,-37.569617],[140.126082,-37.569916],[140.125273,-37.570186],[140.124435,-37.570461],[140.124078,-37.570487],[140.12343,-37.570448],[140.123132,-37.570431],[140.121764,-37.570324]]}},{"type":"Feature","properties":{"tier":"regional"},"geometry":{"type":"LineString","coordinates":[[140.121764,-37.570324],[140.121636,-37.570376],[140.121561,-37.570442],[140.121545,-37.57051],[140.121544,-37.570595],[140.121524,-37.570727]]}},{"type":"Feature","properties":{"tier":"regional"},"geometry":{"type":"LineString","coordinates":[[140.430974,-37.668124],[140.430991,-37.668313],[140.431076,-37.668438],[140.4318,-37.669226],[140.431972,-37.669446],[140.432108,-37.669669],[140.432441,-37.670223],[140.432661,-37.670523],[140.432902,-37.670827],[140.43323,-37.671197],[140.433534,-37.671539],[140.435154,-37.673318],[140.448045,-37.687467],[140.449361,-37.688597],[140.453674,-37.693106],[140.454335,-37.693801]]}},{"type":"Feature","properties":{"tier":"regional"},"geometry":{"type":"LineString","coordinates":[[140.303237,-37.641914],[140.305026,-37.640372],[140.305367,-37.640137],[140.306619,-37.639323],[140.307397,-37.638791],[140.30775,-37.638431],[140.308039,-37.638072],[140.308272,-37.637719],[140.308422,-37.637335],[140.308522,-37.636911],[140.308559,-37.636615],[140.308565,-37.636015],[140.308602,-37.635761],[140.308714,-37.63536],[140.308888,-37.634955],[140.309123,-37.634583],[140.309372,-37.63428],[140.309707,-37.633959],[140.309924,-37.633801],[140.310038,-37.633718],[140.310483,-37.633455],[140.312479,-37.632308],[140.312968,-37.632064],[140.313476,-37.631855],[140.31396,-37.631681],[140.314581,-37.631527],[140.3152,-37.6314],[140.318544,-37.63073],[140.319087,-37.630606],[140.31947,-37.630492],[140.319843,-37.630363],[140.319976,-37.630314],[140.320212,-37.630228],[140.320673,-37.630024],[140.321141,-37.629773],[140.32158,-37.629502],[140.321924,-37.629261],[140.322324,-37.628936],[140.322644,-37.628652],[140.322869,-37.628414],[140.323158,-37.628074],[140.324993,-37.625268],[140.326119,-37.623503],[140.328366,-37.619998],[140.330696,-37.616459],[140.340961,-37.600514],[140.343997,-37.596002]]}},{"type":"Feature","properties":{"tier":"regional"},"geometry":{"type":"LineString","coordinates":[[140.352909,-37.593169],[140.352972,-37.593244],[140.353363,-37.593504],[140.354032,-37.593948],[140.354779,-37.594445],[140.354821,-37.594474],[140.355001,-37.594596],[140.355912,-37.595214],[140.356141,-37.59537],[140.3564,-37.595537],[140.357125,-37.596003]]}},{"type":"Feature","properties":{"tier":"regional"},"geometry":{"type":"LineString","coordinates":[[140.456267,-37.699261],[140.456792,-37.699164],[140.456902,-37.699143],[140.457044,-37.699115],[140.457155,-37.699114],[140.457252,-37.699132]]}},{"type":"Feature","properties":{"tier":"arterial"},"geometry":{"type":"LineString","coordinates":[[140.352789,-37.591498],[140.352673,-37.591524],[140.352461,-37.591571],[140.352313,-37.591608],[140.35216,-37.591657],[140.351952,-37.591727],[140.351666,-37.591848]]}},{"type":"Feature","properties":{"tier":"arterial"},"geometry":{"type":"LineString","coordinates":[[140.484465,-37.683543],[140.483392,-37.68303],[140.482377,-37.682553],[140.475859,-37.67934],[140.475165,-37.678959],[140.47432,-37.678603],[140.470157,-37.677133],[140.469365,-37.676831],[140.468816,-37.676573],[140.468379,-37.676336],[140.467933,-37.676062],[140.467574,-37.675803],[140.467353,-37.675627],[140.467169,-37.675451],[140.466864,-37.675141],[140.466609,-37.674855],[140.466391,-37.67455],[140.46616,-37.674184],[140.465621,-37.673215],[140.465091,-37.672274],[140.464788,-37.671732],[140.464536,-37.671275],[140.46427,-37.670876],[140.463919,-37.670439],[140.463598,-37.670067],[140.463393,-37.669884],[140.463149,-37.66968],[140.462923,-37.669522],[140.462698,-37.669364],[140.462238,-37.66908],[140.461654,-37.66878],[140.461047,-37.66855],[140.4604,-37.66837],[140.459714,-37.668214],[140.459049,-37.668143],[140.457544,-37.668103],[140.452866,-37.668053],[140.452677,-37.668054],[140.447744,-37.668061],[140.443531,-37.668086],[140.443129,-37.668087],[140.440271,-37.668095],[140.437006,-37.66811],[140.436462,-37.668115],[140.433059,-37.668151],[140.430974,-37.668124],[140.43013,-37.66812],[140.428573,-37.668112],[140.428026,-37.668109],[140.42696,-37.668138],[140.424885,-37.668126],[140.424178,-37.668079],[140.42337,-37.667947],[140.422545,-37.667721],[140.421804,-37.667441],[140.421167,-37.667132],[140.420622,-37.6668],[140.420103,-37.666393],[140.419678,-37.665995],[140.417953,-37.664408]]}},{"type":"Feature","properties":{"tier":"arterial"},"geometry":{"type":"LineString","coordinates":[[140.35006,-37.592586],[140.350095,-37.592545],[140.350438,-37.592387]]}},{"type":"Feature","properties":{"tier":"regional"},"geometry":{"type":"LineString","coordinates":[[140.375267,-37.582619],[140.383137,-37.5896],[140.395158,-37.600209],[140.397998,-37.602693],[140.401546,-37.605967],[140.405687,-37.61036],[140.412886,-37.617961],[140.413486,-37.618576],[140.414135,-37.619207],[140.416066,-37.620932],[140.420766,-37.624774],[140.42472,-37.627946],[140.425063,-37.628247],[140.425347,-37.628559],[140.425629,-37.628894],[140.426149,-37.629647],[140.426372,-37.630179],[140.426536,-37.630685],[140.426638,-37.631191],[140.426708,-37.633004],[140.426769,-37.643147],[140.426783,-37.645389],[140.426899,-37.657759],[140.426927,-37.658403],[140.426985,-37.658911],[140.427027,-37.659143],[140.427135,-37.659641],[140.427364,-37.660238],[140.427766,-37.661048],[140.427982,-37.661369],[140.428264,-37.661742],[140.428645,-37.662177],[140.429219,-37.662703],[140.430127,-37.663484],[140.431192,-37.66443],[140.43154,-37.664811],[140.431852,-37.665194],[140.432092,-37.665518],[140.432426,-37.666106],[140.432652,-37.666599],[140.432896,-37.667295],[140.432975,-37.667586],[140.433059,-37.668151]]}},{"type":"Feature","properties":{"tier":"arterial"},"geometry":{"type":"LineString","coordinates":[[140.499414,-37.532861],[140.50002,-37.53327]]}},{"type":"Feature","properties":{"tier":"regional"},"geometry":{"type":"LineString","coordinates":[[140.360074,-37.569954],[140.360417,-37.569932],[140.360579,-37.569922],[140.360851,-37.56991],[140.361192,-37.569949],[140.361425,-37.570042],[140.361662,-37.570199],[140.370393,-37.578111],[140.37178,-37.579328],[140.373383,-37.580858],[140.373697,-37.581073],[140.375214,-37.581631],[140.375553,-37.581892],[140.375917,-37.582334]]}},{"type":"Feature","properties":{"tier":"regional"},"geometry":{"type":"LineString","coordinates":[[140.476901,-37.715829],[140.476858,-37.719746],[140.476857,-37.719803],[140.476785,-37.725268],[140.476541,-37.738318],[140.476355,-37.754785],[140.475784,-37.785286],[140.475448,-37.811231],[140.475633,-37.812821],[140.489695,-37.830889],[140.498942,-37.842485],[140.50002,-37.843856]]}},{"type":"Feature","properties":{"tier":"regional"},"geometry":{"type":"LineString","coordinates":[[140.121524,-37.570727],[140.121496,-37.571038]]}},{"type":"Feature","properties":{"tier":"regional"},"geometry":{"type":"LineString","coordinates":[[140.121496,-37.571038],[140.121413,-37.571266],[140.121153,-37.571743],[140.120964,-37.571982],[140.120643,-37.572319],[140.120109,-37.57276],[140.119777,-37.572928],[140.11932,-37.573074],[140.118944,-37.573119],[140.118543,-37.573116],[140.11826,-37.573076],[140.117887,-37.572972],[140.117587,-37.572817],[140.117514,-37.572745],[140.116772,-37.572242],[140.115268,-37.570684],[140.114875,-37.570308],[140.114222,-37.569683],[140.113915,-37.569492],[140.113377,-37.569329],[140.112907,-37.56909],[140.112513,-37.568554],[140.112246,-37.568078],[140.111556,-37.566932],[140.111363,-37.566733],[140.111148,-37.566595],[140.110709,-37.566416],[140.110203,-37.566312],[140.10919,-37.566333],[140.108599,-37.566225],[140.108304,-37.566195]]}},{"type":"Feature","properties":{"tier":"arterial"},"geometry":{"type":"LineString","coordinates":[[140.397119,-37.91055],[140.397479,-37.910994],[140.397541,-37.911155],[140.397816,-37.911861],[140.397944,-37.912226],[140.398039,-37.912533],[140.398123,-37.912856],[140.398185,-37.913068],[140.398313,-37.913575],[140.398344,-37.913696],[140.398348,-37.913713],[140.398584,-37.914613],[140.398654,-37.914738],[140.398742,-37.914826],[140.398868,-37.914895],[140.399029,-37.914942],[140.39916,-37.914966],[140.399491,-37.91501],[140.400332,-37.915138],[140.401702,-37.915336],[140.402089,-37.915351],[140.402227,-37.915338],[140.402432,-37.915319],[140.40474,-37.915017],[140.405057,-37.914971],[140.405638,-37.914877]]}},{"type":"Feature","properties":{"tier":"regional"},"geometry":{"type":"LineString","coordinates":[[140.272795,-37.656722],[140.300002,-37.642211],[140.302117,-37.641022]]}},{"type":"Feature","properties":{"tier":"regional"},"geometry":{"type":"LineString","coordinates":[[140.407059,-37.7338],[140.407039,-37.734228],[140.406815,-37.734242],[140.406267,-37.73431],[140.404008,-37.734558],[140.403796,-37.734585],[140.403438,-37.734601],[140.4031,-37.734596],[140.402881,-37.734569],[140.402666,-37.734544],[140.402493,-37.734508],[140.402268,-37.734466],[140.402031,-37.734402],[140.401805,-37.734332],[140.401596,-37.734259],[140.40139,-37.73418],[140.401205,-37.734094],[140.400967,-37.73397],[140.400031,-37.73341],[140.399085,-37.732865],[140.39887,-37.73274],[140.398693,-37.732652],[140.398524,-37.732576],[140.398356,-37.732517],[140.398146,-37.732461],[140.397934,-37.73241],[140.397761,-37.732383],[140.397559,-37.732365],[140.397365,-37.732362],[140.397157,-37.732359],[140.396938,-37.732377],[140.396757,-37.732402],[140.396573,-37.73243],[140.393835,-37.732885],[140.393612,-37.732925],[140.393378,-37.732992],[140.393173,-37.733059],[140.392507,-37.733317],[140.392304,-37.733392],[140.392123,-37.733441],[140.391912,-37.733486],[140.39094,-37.73364],[140.390617,-37.7337],[140.390353,-37.733757],[140.390041,-37.733836],[140.388573,-37.734257],[140.386975,-37.734649],[140.386693,-37.734706],[140.386367,-37.734753],[140.385105,-37.734921],[140.38479,-37.734966],[140.38456,-37.735022],[140.384324,-37.735115],[140.383756,-37.735375],[140.383529,-37.73547],[140.383318,-37.735538],[140.382964,-37.735601],[140.382437,-37.735679],[140.38184,-37.735737],[140.381384,-37.73576],[140.380925,-37.735759],[140.380591,-37.735718],[140.380282,-37.735662],[140.379988,-37.73557],[140.379751,-37.735484],[140.379474,-37.735364],[140.379214,-37.735208],[140.378964,-37.735004],[140.378726,-37.734762],[140.378531,-37.734491],[140.378314,-37.734136],[140.375939,-37.729607],[140.375048,-37.727869],[140.37323,-37.724426],[140.37292,-37.723927],[140.372613,-37.723532],[140.36968,-37.719868],[140.369369,-37.719496],[140.368958,-37.719005],[140.368238,-37.718187],[140.367728,-37.717569],[140.366316,-37.715652],[140.365442,-37.714532],[140.364981,-37.71398],[140.364755,-37.713594],[140.364578,-37.713259],[140.363699,-37.71123],[140.363522,-37.710874],[140.363393,-37.710594],[140.363038,-37.710123],[140.361837,-37.708637],[140.360589,-37.707249],[140.360108,-37.706665],[140.359721,-37.706178],[140.358855,-37.705024],[140.358805,-37.704956],[140.358073,-37.703949],[140.35759,-37.703325],[140.352966,-37.697547],[140.351491,-37.695732],[140.351171,-37.695335],[140.350922,-37.694962],[140.35076,-37.694653],[140.350253,-37.69353],[140.349833,-37.692599],[140.349639,-37.69212],[140.349439,-37.691779],[140.349225,-37.691473],[140.348939,-37.691134],[140.348492,-37.690751],[140.348144,-37.690465],[140.347785,-37.690127],[140.347461,-37.68976],[140.347175,-37.689348],[140.345873,-37.687456],[140.345605,-37.687105],[140.345286,-37.68672],[140.343481,-37.68443],[140.341845,-37.682496],[140.341386,-37.682043],[140.341005,-37.681681],[140.340397,-37.681098]]}},{"type":"Feature","properties":{"tier":"regional"},"geometry":{"type":"LineString","coordinates":[[140.457437,-37.698877],[140.457252,-37.699132],[140.457244,-37.699195],[140.45726,-37.699258],[140.457306,-37.699353],[140.45762,-37.699921],[140.458518,-37.701503],[140.458831,-37.702051],[140.460013,-37.704158],[140.460688,-37.705365],[140.461072,-37.706043],[140.461917,-37.707521],[140.462246,-37.708056],[140.462457,-37.708379],[140.462642,-37.708628],[140.462857,-37.70888],[140.463064,-37.709114],[140.463311,-37.709362],[140.4637,-37.7097],[140.464158,-37.710059],[140.465798,-37.711269],[140.467372,-37.712434],[140.468175,-37.712986],[140.468531,-37.713158],[140.469085,-37.71344]]}},{"type":"Feature","properties":{"tier":"regional"},"geometry":{"type":"LineString","coordinates":[[140.456792,-37.699164],[140.456308,-37.699713]]}},{"type":"Feature","properties":{"tier":"regional"},"geometry":{"type":"LineString","coordinates":[[140.456267,-37.699261],[140.456322,-37.699414],[140.456337,-37.699467],[140.456347,-37.699532],[140.456341,-37.699603],[140.456308,-37.699713],[140.451896,-37.705855],[140.451555,-37.706258],[140.451188,-37.706594],[140.450749,-37.706889],[140.450221,-37.707164],[140.449973,-37.707265],[140.44869,-37.707785],[140.447865,-37.708117],[140.447258,-37.708411],[140.446568,-37.708826],[140.439704,-37.713166],[140.439316,-37.713479],[140.43906,-37.713749],[140.438821,-37.714059],[140.4386,-37.714507],[140.437707,-37.717353],[140.437611,-37.717628],[140.437481,-37.717928],[140.43735,-37.718204],[140.437076,-37.718586],[140.436047,-37.719777],[140.435686,-37.720141],[140.43518,-37.720539],[140.434495,-37.720968],[140.431677,-37.722574],[140.43106,-37.722888],[140.430336,-37.72317],[140.427294,-37.724021],[140.427247,-37.724035],[140.423378,-37.725133],[140.422337,-37.725436],[140.421756,-37.72565],[140.420859,-37.726015],[140.407791,-37.732961],[140.407422,-37.733137],[140.407224,-37.733304],[140.407096,-37.733477],[140.407071,-37.733697]]}},{"type":"Feature","properties":{"tier":"arterial"},"geometry":{"type":"LineString","coordinates":[[140.349164,-37.593012],[140.349073,-37.59295],[140.348003,-37.592403],[140.347664,-37.592234],[140.34752,-37.592162],[140.346519,-37.591662],[140.34508,-37.590968],[140.34392,-37.590388],[140.342755,-37.589805],[140.341562,-37.589233],[140.341221,-37.589061],[140.340069,-37.588483],[140.339664,-37.58828],[140.33845,-37.587681],[140.338121,-37.587544],[140.338034,-37.587507],[140.33793,-37.587475]]}},{"type":"Feature","properties":{"tier":"arterial"},"geometry":{"type":"LineString","coordinates":[[140.350438,-37.592628],[140.350302,-37.592593],[140.350218,-37.592586],[140.35012,-37.59259],[140.35006,-37.592586]]}},{"type":"Feature","properties":{"tier":"arterial"},"geometry":{"type":"LineString","coordinates":[[140.417953,-37.664408],[140.417803,-37.664261]]}},{"type":"Feature","properties":{"tier":"arterial"},"geometry":{"type":"LineString","coordinates":[[140.350529,-37.592345],[140.350681,-37.592277]]}},{"type":"Feature","properties":{"tier":"arterial"},"geometry":{"type":"LineString","coordinates":[[140.350788,-37.592569],[140.350806,-37.592679],[140.350829,-37.592775],[140.350863,-37.592855],[140.350862,-37.592915]]}},{"type":"Feature","properties":{"tier":"arterial"},"geometry":{"type":"LineString","coordinates":[[140.350862,-37.592915],[140.350789,-37.592897],[140.350715,-37.592836],[140.350492,-37.592659]]}},{"type":"Feature","properties":{"tier":"arterial"},"geometry":{"type":"LineString","coordinates":[[140.351039,-37.592137],[140.351026,-37.592171],[140.350976,-37.592211],[140.350916,-37.59228],[140.350861,-37.592372],[140.350839,-37.592419],[140.350803,-37.592508]]}},{"type":"Feature","properties":{"tier":"arterial"},"geometry":{"type":"LineString","coordinates":[[140.295668,-37.49998],[140.296159,-37.500643],[140.300616,-37.506757],[140.305455,-37.513386],[140.307353,-37.515831],[140.310443,-37.519303],[140.311473,-37.520324],[140.31195,-37.520697],[140.312004,-37.520739],[140.312503,-37.521073],[140.315507,-37.522366],[140.321352,-37.524814],[140.321675,-37.524949],[140.327638,-37.527478],[140.329927,-37.528493],[140.330546,-37.528878],[140.331043,-37.529241],[140.331679,-37.529809],[140.332111,-37.530293],[140.332485,-37.530781],[140.332502,-37.530806],[140.334304,-37.533461],[140.338424,-37.539383],[140.342287,-37.544963],[140.343302,-37.546405],[140.343717,-37.547136],[140.343999,-37.547812],[140.344157,-37.548467],[140.344239,-37.549068],[140.34424,-37.54962],[140.344089,-37.551904],[140.344089,-37.552789],[140.344133,-37.553513],[140.344367,-37.554137],[140.34454,-37.554586],[140.344776,-37.554995],[140.345142,-37.555434],[140.345453,-37.555807],[140.346149,-37.556463],[140.348214,-37.558263],[140.353935,-37.563248],[140.354606,-37.563852],[140.355454,-37.564598],[140.356791,-37.565835],[140.357246,-37.566313],[140.358578,-37.567712],[140.359203,-37.568412],[140.359624,-37.568982],[140.359858,-37.569402],[140.360074,-37.569954]]}},{"type":"Feature","properties":{"tier":"arterial"},"geometry":{"type":"LineString","coordinates":[[140.417803,-37.664261],[140.417127,-37.663593],[140.416112,-37.662655],[140.415306,-37.66196],[140.41485,-37.661528],[140.414434,-37.661182],[140.414076,-37.660926],[140.413711,-37.66069],[140.413078,-37.660371],[140.412561,-37.660132],[140.412037,-37.65986],[140.411689,-37.659649],[140.411383,-37.659451],[140.410991,-37.659133],[140.410591,-37.658778],[140.410359,-37.658531],[140.410163,-37.658318],[140.40994,-37.65805],[140.409725,-37.657662],[140.409323,-37.656907],[140.408341,-37.655137],[140.407912,-37.654414],[140.407688,-37.654046],[140.407477,-37.653744],[140.407212,-37.653434],[140.406974,-37.653138],[140.406683,-37.65284],[140.406361,-37.652558],[140.40592,-37.65225],[140.403474,-37.650694],[140.403022,-37.650293],[140.402474,-37.649636],[140.402017,-37.649068],[140.401661,-37.64857],[140.399909,-37.646164],[140.398668,-37.644466],[140.397541,-37.642911],[140.395982,-37.640911],[140.395714,-37.640528],[140.3937,-37.63783],[140.392376,-37.636014],[140.392131,-37.635647],[140.391658,-37.634878],[140.391092,-37.634036],[140.390688,-37.633429],[140.390404,-37.632938],[140.390121,-37.632484],[140.389951,-37.632181],[140.389768,-37.631892],[140.389577,-37.631663],[140.389279,-37.631327],[140.388979,-37.630981],[140.388554,-37.630479],[140.387166,-37.628963],[140.385434,-37.627109],[140.383261,-37.624783]]}},{"type":"Feature","properties":{"tier":"arterial"},"geometry":{"type":"LineString","coordinates":[[140.33793,-37.587475],[140.337819,-37.587444],[140.337721,-37.587424],[140.337124,-37.587339],[140.336548,-37.587254],[140.335897,-37.587161],[140.332192,-37.586609],[140.330711,-37.586388],[140.330425,-37.58635],[140.329141,-37.586164]]}},{"type":"Feature","properties":{"tier":"arterial"},"geometry":{"type":"LineString","coordinates":[[140.350438,-37.592628],[140.350395,-37.592579],[140.350379,-37.592541],[140.350375,-37.592508],[140.350387,-37.592452],[140.350438,-37.592387]]}},{"type":"Feature","properties":{"tier":"arterial"},"geometry":{"type":"LineString","coordinates":[[140.349164,-37.593012],[140.349638,-37.592789]]}},{"type":"Feature","properties":{"tier":"arterial"},"geometry":{"type":"LineString","coordinates":[[140.405638,-37.914877],[140.405916,-37.914797],[140.406227,-37.914706],[140.406526,-37.914583],[140.406936,-37.914395],[140.407543,-37.914036],[140.408392,-37.913491],[140.416923,-37.908022],[140.425456,-37.90264],[140.431435,-37.898565],[140.432875,-37.897588],[140.432997,-37.897506],[140.433631,-37.897133],[140.438512,-37.894369],[140.441368,-37.892546],[140.443811,-37.890921],[140.453907,-37.88466],[140.455083,-37.883894],[140.455865,-37.883243],[140.459475,-37.880137],[140.460418,-37.879337],[140.463005,-37.877027],[140.465238,-37.875013],[140.473441,-37.867602],[140.474656,-37.866507],[140.475503,-37.865763],[140.476244,-37.865101],[140.476875,-37.864706],[140.477599,-37.864315],[140.478499,-37.863996],[140.478776,-37.863898],[140.479236,-37.863772],[140.480076,-37.863666]]}},{"type":"Feature","properties":{"tier":"arterial"},"geometry":{"type":"LineString","coordinates":[[140.497802,-37.863313],[140.497973,-37.863249],[140.498266,-37.863077],[140.498611,-37.862908],[140.498978,-37.86269],[140.499317,-37.862442],[140.49966,-37.862165],[140.50002,-37.861874]]}},{"type":"Feature","properties":{"tier":"arterial"},"geometry":{"type":"LineString","coordinates":[[140.480076,-37.863666],[140.480938,-37.86363],[140.490228,-37.863688],[140.495323,-37.863697],[140.49595,-37.863681],[140.496477,-37.863619],[140.497051,-37.863504],[140.497802,-37.863313]]}},{"type":"Feature","properties":{"tier":"arterial"},"geometry":{"type":"LineString","coordinates":[[140.096117,-37.49998],[140.096995,-37.500518],[140.098413,-37.501368],[140.09954,-37.501952],[140.101153,-37.502724],[140.105631,-37.50488],[140.107466,-37.505802],[140.108203,-37.506232],[140.109106,-37.506795],[140.114882,-37.510658],[140.115648,-37.51117],[140.115969,-37.511384],[140.121391,-37.51501],[140.128043,-37.51942],[140.129089,-37.519995],[140.130112,-37.520421],[140.131132,-37.520725],[140.132119,-37.520901],[140.133141,-37.521018],[140.134233,-37.521143],[140.135233,-37.521353],[140.136165,-37.521684],[140.137,-37.522048],[140.138088,-37.522664],[140.13896,-37.523305],[140.147684,-37.530318],[140.148777,-37.53119],[140.149653,-37.531841],[140.150473,-37.53237],[140.151517,-37.532874],[140.154674,-37.534059],[140.156119,-37.534652],[140.156953,-37.535038],[140.15794,-37.535645],[140.158635,-37.53602],[140.159432,-37.536342],[140.16029,-37.536516],[140.161523,-37.536635],[140.16401,-37.536899],[140.164765,-37.536991]]}},{"type":"Feature","properties":{"tier":"arterial"},"geometry":{"type":"LineString","coordinates":[[140.382442,-37.623885],[140.379779,-37.621036],[140.378367,-37.619523]]}},{"type":"Feature","properties":{"tier":"arterial"},"geometry":{"type":"LineString","coordinates":[[140.356369,-37.596741],[140.356313,-37.596686],[140.35627,-37.596653],[140.356241,-37.59663],[140.356157,-37.596574],[140.355574,-37.596186],[140.355142,-37.595898],[140.35478,-37.595661],[140.354122,-37.595225],[140.354098,-37.595208],[140.35402,-37.595157],[140.353939,-37.595102],[140.353919,-37.595088],[140.352616,-37.594201],[140.351821,-37.59366],[140.351203,-37.593247],[140.351151,-37.593212],[140.351096,-37.593175],[140.351046,-37.59313],[140.351011,-37.593092],[140.350984,-37.593063],[140.350862,-37.592915]]}},{"type":"Feature","properties":{"tier":"arterial"},"geometry":{"type":"LineString","coordinates":[[140.164765,-37.536991],[140.165245,-37.537039]]}},{"type":"Feature","properties":{"tier":"arterial"},"geometry":{"type":"LineString","coordinates":[[140.22857,-37.549574],[140.229751,-37.549682],[140.231093,-37.549889],[140.232562,-37.550178],[140.233532,-37.550405],[140.234458,-37.550639],[140.235145,-37.550845],[140.236197,-37.551168],[140.237155,-37.551498],[140.242583,-37.553663],[140.243632,-37.554143],[140.244359,-37.554464],[140.24502,-37.554886],[140.245537,-37.555327],[140.245833,-37.555599],[140.246156,-37.55604],[140.2465,-37.556459],[140.24679,-37.557137],[140.247181,-37.558081],[140.248885,-37.563493],[140.249119,-37.564244],[140.249446,-37.564961],[140.249837,-37.565597],[140.25024,-37.566071],[140.250747,-37.566553],[140.254159,-37.568833],[140.254954,-37.569245],[140.255769,-37.569561],[140.256122,-37.569675],[140.256511,-37.569796],[140.257517,-37.570301],[140.261267,-37.572423],[140.262213,-37.572955],[140.262769,-37.573191],[140.263434,-37.573336],[140.263833,-37.573355],[140.264992,-37.573393],[140.266579,-37.573422],[140.268152,-37.57346],[140.268901,-37.573521],[140.269687,-37.573619],[140.271193,-37.573867],[140.272624,-37.574041],[140.273763,-37.574142],[140.274491,-37.574249],[140.27522,-37.574494],[140.276479,-37.57502],[140.278008,-37.575681],[140.281766,-37.576864],[140.287421,-37.578611],[140.289511,-37.579262],[140.290286,-37.579538],[140.29098,-37.579747],[140.291621,-37.579891],[140.292505,-37.580023],[140.298912,-37.580924]]}},{"type":"Feature","properties":{"tier":"arterial"},"geometry":{"type":"LineString","coordinates":[[140.50002,-37.715405],[140.499677,-37.714895],[140.499498,-37.714596],[140.49935,-37.714322],[140.499128,-37.713783],[140.49892,-37.713293],[140.498807,-37.712992],[140.498691,-37.71271],[140.498585,-37.712409],[140.498533,-37.712254],[140.498506,-37.712129],[140.498476,-37.711959],[140.498395,-37.711481],[140.49838,-37.711048],[140.498416,-37.710736],[140.498435,-37.710447],[140.498558,-37.710017],[140.498642,-37.709655],[140.49875,-37.709165],[140.498807,-37.708751],[140.498832,-37.708123],[140.498791,-37.707267],[140.498694,-37.706422],[140.498575,-37.705333],[140.498466,-37.704397],[140.498358,-37.703928],[140.498193,-37.703491],[140.498072,-37.703224],[140.497881,-37.702885]]}},{"type":"Feature","properties":{"tier":"arterial"},"geometry":{"type":"LineString","coordinates":[[140.497881,-37.702885],[140.49753,-37.702404],[140.497024,-37.701773],[140.496036,-37.700628],[140.495842,-37.700387],[140.495123,-37.699606],[140.494698,-37.699083],[140.494364,-37.698579],[140.494006,-37.697862],[140.493682,-37.696798],[140.493231,-37.695305]]}},{"type":"Feature","properties":{"tier":"arterial"},"geometry":{"type":"LineString","coordinates":[[140.484465,-37.683543],[140.48478,-37.683605],[140.484947,-37.683617],[140.485126,-37.683619],[140.485285,-37.683596],[140.485582,-37.683516],[140.486309,-37.683322],[140.486707,-37.683229]]}},{"type":"Feature","properties":{"tier":"arterial"},"geometry":{"type":"LineString","coordinates":[[140.492688,-37.693641],[140.492287,-37.69228],[140.491819,-37.69082],[140.491673,-37.690442],[140.491565,-37.690113],[140.49134,-37.68974],[140.491038,-37.689324],[140.490547,-37.688722],[140.490027,-37.688153],[140.48926,-37.687285],[140.488548,-37.686537],[140.48777,-37.685679]]}},{"type":"Feature","properties":{"tier":"arterial"},"geometry":{"type":"LineString","coordinates":[[140.493231,-37.695305],[140.493065,-37.694837],[140.492688,-37.693641]]}},{"type":"Feature","properties":{"tier":"regional"},"geometry":{"type":"LineString","coordinates":[[140.425971,-37.504367],[140.426025,-37.504647],[140.426085,-37.505005],[140.426128,-37.505207],[140.426358,-37.506362],[140.426405,-37.507062],[140.426386,-37.508001],[140.426209,-37.508927],[140.42604,-37.509384],[140.425567,-37.510044],[140.425277,-37.510365],[140.42467,-37.510917],[140.4238,-37.511486],[140.423198,-37.512055],[140.422804,-37.512673],[140.419518,-37.518619],[140.41573,-37.525344],[140.414181,-37.527946],[140.413964,-37.528371],[140.413728,-37.528836],[140.413436,-37.529808],[140.413368,-37.532157],[140.413341,-37.532505],[140.413143,-37.533139],[140.411087,-37.536382],[140.410251,-37.537575],[140.409568,-37.538433],[140.409128,-37.538806],[140.406159,-37.540725],[140.401352,-37.543885],[140.400889,-37.544322],[140.400365,-37.544905],[140.400188,-37.545156],[140.399871,-37.545696],[140.399625,-37.54613],[140.399362,-37.546593],[140.398959,-37.547138],[140.398595,-37.547525],[140.397752,-37.548235],[140.39635,-37.549144],[140.395923,-37.54943],[140.394972,-37.550447],[140.393551,-37.553774],[140.39354,-37.553798],[140.391595,-37.558903],[140.391487,-37.559233],[140.391412,-37.559537],[140.391377,-37.559734],[140.391324,-37.560027],[140.391308,-37.560368],[140.391294,-37.56059],[140.391451,-37.561825],[140.393252,-37.573756],[140.393425,-37.57491]]}},{"type":"Feature","properties":{"tier":"regional"},"geometry":{"type":"LineString","coordinates":[[140.346346,-37.49998],[140.345725,-37.501765],[140.345192,-37.503174],[140.342423,-37.510762],[140.341702,-37.512955],[140.341593,-37.513354],[140.341535,-37.513775],[140.341504,-37.513926],[140.34146,-37.51418],[140.340632,-37.519872],[140.340379,-37.521839],[140.340158,-37.522586],[140.340135,-37.522667],[140.340091,-37.522744],[140.339971,-37.523015],[140.339641,-37.523561],[140.339373,-37.523906],[140.339215,-37.524108],[140.338975,-37.524357],[140.338281,-37.525059],[140.33425,-37.529037],[140.332514,-37.530794],[140.332502,-37.530806]]}},{"type":"Feature","properties":{"tier":"arterial"},"geometry":{"type":"LineString","coordinates":[[140.48777,-37.685679],[140.487196,-37.685159],[140.486919,-37.684916],[140.48658,-37.684657],[140.486119,-37.684391],[140.485643,-37.684125],[140.484651,-37.683668],[140.484465,-37.683543]]}},{"type":"Feature","properties":{"tier":"regional"},"geometry":{"type":"LineString","coordinates":[[140.469085,-37.71344],[140.469752,-37.713663],[140.476901,-37.715829],[140.483501,-37.717853],[140.491116,-37.720223],[140.50002,-37.722994]]}},{"type":"Feature","properties":{"tier":"regional"},"geometry":{"type":"LineString","coordinates":[[140.315655,-37.657461],[140.315429,-37.657197]]}},{"type":"Feature","properties":{"tier":"regional"},"geometry":{"type":"LineString","coordinates":[[140.315429,-37.657197],[140.31489,-37.656471],[140.31064,-37.650832],[140.306726,-37.645173],[140.306366,-37.644652],[140.305833,-37.644052],[140.303237,-37.641914],[140.302117,-37.641022]]}},{"type":"Feature","properties":{"tier":"arterial"},"geometry":{"type":"LineString","coordinates":[[140.298912,-37.580924],[140.308744,-37.5823],[140.310909,-37.582609],[140.312032,-37.582769],[140.31344,-37.582969],[140.313637,-37.583004],[140.313737,-37.583026],[140.313826,-37.583046],[140.313987,-37.58309],[140.314214,-37.58316],[140.314397,-37.583227],[140.314483,-37.583258],[140.314748,-37.583361],[140.315375,-37.583626],[140.316051,-37.583936],[140.316437,-37.584092],[140.316767,-37.584218],[140.31699,-37.584294],[140.317193,-37.584358],[140.317461,-37.584415],[140.317888,-37.584489],[140.318929,-37.584632],[140.322939,-37.585244],[140.322999,-37.585254],[140.328096,-37.586008]]}},{"type":"Feature","properties":{"tier":"arterial"},"geometry":{"type":"LineString","coordinates":[[140.462492,-37.541898],[140.462288,-37.541948],[140.461855,-37.542015],[140.46155,-37.542066],[140.461199,-37.542098],[140.460626,-37.5421],[140.460015,-37.542066],[140.459745,-37.542048],[140.458867,-37.541991],[140.457776,-37.541907],[140.457074,-37.541852],[140.455433,-37.541739],[140.455254,-37.541726],[140.455142,-37.541718],[140.454644,-37.541691],[140.454406,-37.541704],[140.451373,-37.542268],[140.451103,-37.542318],[140.44988,-37.54256]]}},{"type":"Feature","properties":{"tier":"regional"},"geometry":{"type":"LineString","coordinates":[[140.353293,-37.595844],[140.353937,-37.595236],[140.353959,-37.595215],[140.35402,-37.595157],[140.354084,-37.595098],[140.354104,-37.59508],[140.354779,-37.594445]]}},{"type":"Feature","properties":{"tier":"arterial"},"geometry":{"type":"LineString","coordinates":[[140.383261,-37.624783],[140.382442,-37.623885]]}},{"type":"Feature","properties":{"tier":"arterial"},"geometry":{"type":"LineString","coordinates":[[140.378367,-37.619523],[140.377605,-37.618699],[140.376149,-37.617134],[140.375543,-37.616476],[140.374288,-37.615116],[140.373897,-37.61477],[140.373601,-37.614507],[140.372606,-37.613893],[140.371791,-37.613495],[140.371356,-37.613208],[140.371295,-37.613159],[140.37044,-37.612478],[140.36873,-37.611051],[140.366674,-37.609333],[140.36604,-37.608805],[140.365492,-37.608348],[140.364062,-37.607155],[140.364006,-37.607119],[140.363167,-37.606539],[140.360386,-37.604675],[140.360226,-37.604556],[140.360092,-37.604393],[140.360043,-37.604307],[140.360002,-37.604221],[140.359911,-37.60396],[140.359741,-37.603369],[140.359383,-37.602198],[140.35901,-37.600979],[140.358948,-37.600777],[140.358567,-37.599539],[140.358511,-37.599372],[140.358461,-37.599255],[140.357191,-37.597707],[140.356509,-37.59689],[140.356369,-37.596741]]}},{"type":"Feature","properties":{"tier":"regional"},"geometry":{"type":"LineString","coordinates":[[140.353371,-37.592955],[140.352659,-37.592521],[140.352467,-37.592402],[140.351796,-37.59198],[140.351738,-37.591929],[140.351666,-37.591848]]}},{"type":"Feature","properties":{"tier":"regional"},"geometry":{"type":"LineString","coordinates":[[140.351952,-37.591727],[140.351802,-37.59153],[140.351102,-37.591111],[140.349258,-37.589977],[140.347741,-37.589028],[140.345625,-37.587721],[140.345595,-37.587702],[140.343737,-37.586562],[140.343711,-37.586548],[140.343642,-37.58651],[140.343534,-37.586451],[140.343067,-37.58621],[140.341897,-37.585608],[140.341876,-37.585597],[140.338459,-37.583484],[140.331153,-37.578968],[140.330932,-37.578818],[140.33074,-37.578677],[140.330529,-37.578515],[140.330229,-37.57827],[140.330007,-37.578066],[140.329922,-37.577985],[140.32975,-37.577782],[140.329299,-37.577215],[140.329144,-37.576994],[140.328988,-37.576732],[140.328835,-37.576446],[140.328677,-37.57612],[140.327897,-37.57446],[140.326561,-37.571617],[140.326532,-37.571556]]}},{"type":"Feature","properties":{"tier":"regional"},"geometry":{"type":"LineString","coordinates":[[140.353371,-37.592955],[140.353317,-37.592977],[140.353227,-37.59302],[140.353103,-37.593078],[140.353051,-37.593103],[140.352909,-37.593169],[140.35219,-37.593494],[140.351915,-37.593618],[140.351821,-37.59366]]}},{"type":"Feature","properties":{"tier":"arterial"},"geometry":{"type":"LineString","coordinates":[[140.360074,-37.569954],[140.360186,-37.57036],[140.360253,-37.570828],[140.360274,-37.571307],[140.360206,-37.571952],[140.360074,-37.572555],[140.359674,-37.573912],[140.358977,-37.576158],[140.358165,-37.578778],[140.357247,-37.581768],[140.356773,-37.583313],[140.356388,-37.584561],[140.356173,-37.58526],[140.355917,-37.586092],[140.355448,-37.587592],[140.355071,-37.588796],[140.354546,-37.590512],[140.354395,-37.590979],[140.354372,-37.59107],[140.354366,-37.591142],[140.35437,-37.591203],[140.353879,-37.591292],[140.353558,-37.591351],[140.353424,-37.591378],[140.352789,-37.591498]]}},{"type":"Feature","properties":{"tier":"arterial"},"geometry":{"type":"LineString","coordinates":[[140.351666,-37.591848],[140.351311,-37.592008],[140.351177,-37.592069],[140.351039,-37.592137]]}},{"type":"Feature","properties":{"tier":"arterial"},"geometry":{"type":"LineString","coordinates":[[140.343533,-37.595759],[140.343697,-37.59555],[140.343799,-37.595473],[140.344914,-37.594957],[140.346195,-37.59437],[140.347478,-37.593783],[140.34829,-37.593412],[140.348426,-37.593349],[140.349164,-37.593012]]}},{"type":"Feature","properties":{"tier":"arterial"},"geometry":{"type":"LineString","coordinates":[[140.359858,-37.569402],[140.360025,-37.569619],[140.360121,-37.569768],[140.360196,-37.56987],[140.360336,-37.569908],[140.360417,-37.569932]]}},{"type":"Feature","properties":{"tier":"arterial"},"geometry":{"type":"LineString","coordinates":[[140.360579,-37.569922],[140.360424,-37.56998],[140.360215,-37.570078],[140.360164,-37.570135],[140.360186,-37.57036]]}},{"type":"Feature","properties":{"tier":"arterial"},"geometry":{"type":"LineString","coordinates":[[140.478343,-37.540709],[140.478238,-37.540651],[140.478039,-37.54056],[140.47779,-37.540484]]}},{"type":"Feature","properties":{"tier":"regional"},"geometry":{"type":"LineString","coordinates":[[140.478594,-37.540496],[140.478417,-37.540549],[140.478364,-37.540645],[140.478343,-37.540709]]}},{"type":"Feature","properties":{"tier":"arterial"},"geometry":{"type":"LineString","coordinates":[[140.221791,-37.549634],[140.222595,-37.549566],[140.223904,-37.549469],[140.224843,-37.549442],[140.225121,-37.54944],[140.226355,-37.549438],[140.227923,-37.549515],[140.22857,-37.549574]]}},{"type":"Feature","properties":{"tier":"arterial"},"geometry":{"type":"LineString","coordinates":[[140.165245,-37.537039],[140.166075,-37.537111],[140.166855,-37.537292],[140.167687,-37.537585],[140.180117,-37.543902],[140.192463,-37.5502],[140.193467,-37.550628],[140.194426,-37.550918],[140.195926,-37.551243],[140.197067,-37.551389]]}},{"type":"Feature","properties":{"tier":"arterial"},"geometry":{"type":"LineString","coordinates":[[140.197455,-37.551433],[140.19764,-37.551455],[140.198245,-37.551513],[140.199147,-37.551492],[140.200225,-37.551455],[140.212328,-37.55043],[140.220487,-37.549744],[140.221791,-37.549634]]}},{"type":"Feature","properties":{"tier":"arterial"},"geometry":{"type":"LineString","coordinates":[[140.197067,-37.551389],[140.197455,-37.551433]]}},{"type":"Feature","properties":{"tier":"regional"},"geometry":{"type":"LineString","coordinates":[[140.340302,-37.681008],[140.339701,-37.680433],[140.339016,-37.679783],[140.338703,-37.679443],[140.338462,-37.679172],[140.337239,-37.677615],[140.336405,-37.676607],[140.336241,-37.676442],[140.336083,-37.676291],[140.335877,-37.676115],[140.33567,-37.675962],[140.335372,-37.675741],[140.33354,-37.674395],[140.33257,-37.673679],[140.331902,-37.673102],[140.331346,-37.672573],[140.330319,-37.671574],[140.326352,-37.667795],[140.325217,-37.666695],[140.324568,-37.666239],[140.32303,-37.665422],[140.321612,-37.664412],[140.320459,-37.663018],[140.319257,-37.660952],[140.317367,-37.659113],[140.315655,-37.657461]]}},{"type":"Feature","properties":{"tier":"regional"},"geometry":{"type":"LineString","coordinates":[[140.340397,-37.681098],[140.340302,-37.681008]]}},{"type":"Feature","properties":{"tier":"regional"},"geometry":{"type":"LineString","coordinates":[[140.425971,-37.504367],[140.425951,-37.500716],[140.425944,-37.49998]]}},{"type":"Feature","properties":{"tier":"regional"},"geometry":{"type":"LineString","coordinates":[[140.407065,-37.733756],[140.407059,-37.7338]]}},{"type":"Feature","properties":{"tier":"regional"},"geometry":{"type":"LineString","coordinates":[[140.407071,-37.733697],[140.407065,-37.733756]]}},{"type":"Feature","properties":{"tier":"regional"},"geometry":{"type":"LineString","coordinates":[[140.256549,-37.659349],[140.268781,-37.658429],[140.269918,-37.65814],[140.270791,-37.65779],[140.271993,-37.657149],[140.272795,-37.656722]]}},{"type":"Feature","properties":{"tier":"arterial"},"geometry":{"type":"LineString","coordinates":[[140.329141,-37.586164],[140.328096,-37.586008]]}},{"type":"Feature","properties":{"tier":"regional"},"geometry":{"type":"LineString","coordinates":[[140.460746,-37.689737],[140.458054,-37.691466],[140.454335,-37.693801]]}},{"type":"Feature","properties":{"tier":"arterial"},"geometry":{"type":"LineString","coordinates":[[140.397119,-37.91055],[140.396899,-37.910253],[140.396905,-37.910146]]}},{"type":"Feature","properties":{"tier":"arterial"},"geometry":{"type":"LineString","coordinates":[[140.349638,-37.592789],[140.35006,-37.592586]]}},{"type":"Feature","properties":{"tier":"arterial"},"geometry":{"type":"LineString","coordinates":[[140.350741,-37.592388],[140.350778,-37.592428],[140.350797,-37.592466],[140.350803,-37.592508]]}},{"type":"Feature","properties":{"tier":"arterial"},"geometry":{"type":"LineString","coordinates":[[140.350529,-37.592345],[140.35059,-37.592338],[140.350653,-37.592346],[140.350713,-37.592369],[140.350741,-37.592388]]}},{"type":"Feature","properties":{"tier":"arterial"},"geometry":{"type":"LineString","coordinates":[[140.350492,-37.592659],[140.350438,-37.592628]]}},{"type":"Feature","properties":{"tier":"arterial"},"geometry":{"type":"LineString","coordinates":[[140.350438,-37.592387],[140.350477,-37.592363],[140.350529,-37.592345]]}},{"type":"Feature","properties":{"tier":"arterial"},"geometry":{"type":"LineString","coordinates":[[140.350803,-37.592508],[140.350788,-37.592569]]}},{"type":"Feature","properties":{"tier":"arterial"},"geometry":{"type":"LineString","coordinates":[[140.350681,-37.592277],[140.350754,-37.592244],[140.350996,-37.592139],[140.351039,-37.592137]]}},{"type":"Feature","properties":{"tier":"arterial"},"geometry":{"type":"LineString","coordinates":[[140.350788,-37.592569],[140.350741,-37.592627],[140.350671,-37.592664],[140.35059,-37.592677],[140.350492,-37.592659]]}},{"type":"Feature","properties":{"tier":"arterial"},"geometry":{"type":"LineString","coordinates":[[140.478227,-37.540508],[140.47779,-37.540484]]}},{"type":"Feature","properties":{"tier":"regional"},"geometry":{"type":"LineString","coordinates":[[140.478343,-37.540709],[140.479706,-37.543081],[140.479907,-37.543425],[140.48022,-37.543825],[140.480547,-37.544167],[140.480752,-37.544346],[140.48099,-37.544555],[140.481476,-37.544884],[140.481952,-37.545129],[140.485393,-37.546804],[140.485869,-37.547026],[140.486273,-37.54725],[140.486634,-37.547501],[140.486895,-37.54771],[140.48957,-37.550496],[140.489975,-37.550837],[140.490164,-37.550977],[140.490416,-37.551156],[140.490955,-37.551454],[140.494776,-37.553337],[140.495121,-37.553525],[140.495512,-37.553776],[140.495917,-37.55409],[140.496206,-37.554371],[140.496407,-37.554596],[140.49936,-37.558235],[140.499666,-37.558575],[140.50002,-37.558917]]}},{"type":"Feature","properties":{"tier":"arterial"},"geometry":{"type":"LineString","coordinates":[[140.47779,-37.540484],[140.477598,-37.540474],[140.477064,-37.540422],[140.475728,-37.54035],[140.474183,-37.540265],[140.472599,-37.540166],[140.471498,-37.540128],[140.470555,-37.540141],[140.47021,-37.540159],[140.469536,-37.540208],[140.468668,-37.540305],[140.467569,-37.540471],[140.466617,-37.540659],[140.465873,-37.540833],[140.464051,-37.541408],[140.462492,-37.541898]]}},{"type":"Feature","properties":{"tier":"arterial"},"geometry":{"type":"LineString","coordinates":[[140.478594,-37.540496],[140.478227,-37.540508]]}}]}
