{"type":"FeatureCollection","features":[{"type":"Feature","properties":{"tier":"regional"},"geometry":{"type":"LineString","coordinates":[[140.56464,-33.048335],[140.56486,-33.048658],[140.565143,-33.049049],[140.565379,-33.049408],[140.565476,-33.04966],[140.565519,-33.049921],[140.565443,-33.05029],[140.56525,-33.050658],[140.564886,-33.050991],[140.564338,-33.051423],[140.563988,-33.051673],[140.563662,-33.052016],[140.563459,-33.052376],[140.563365,-33.052709],[140.563255,-33.053168],[140.563167,-33.053603],[140.563148,-33.053698]]}},{"type":"Feature","properties":{"tier":"arterial"},"geometry":{"type":"LineString","coordinates":[[140.49998,-33.05732],[140.5076,-33.056723],[140.508851,-33.056692],[140.510482,-33.056689],[140.530189,-33.057834],[140.534759,-33.05805],[140.535478,-33.058068],[140.536547,-33.057985],[140.5433,-33.05718],[140.552258,-33.056135],[140.553375,-33.055966],[140.554556,-33.055617],[140.556816,-33.054841],[140.557332,-33.054633],[140.557762,-33.054282],[140.558148,-33.053869],[140.55862,-33.053176],[140.559006,-33.05261],[140.559419,-33.052224],[140.559982,-33.051773],[140.563201,-33.049255],[140.564199,-33.048617],[140.56464,-33.048335],[140.565308,-33.04804],[140.565851,-33.04788],[140.567697,-33.047448],[140.568834,-33.047106],[140.572331,-33.045847],[140.573275,-33.045451],[140.573855,-33.045056],[140.574177,-33.044588],[140.57761,-33.039156],[140.578447,-33.037807],[140.579155,-33.037123],[140.584454,-33.033144],[140.585362,-33.032484],[140.586038,-33.032063],[140.586682,-33.031713],[140.587249,-33.031443],[140.591278,-33.029622],[140.593306,-33.028645],[140.594051,-33.028424],[140.594707,-33.028367],[140.596578,-33.028398],[140.597866,-33.02838],[140.598596,-33.028272],[140.599475,-33.028085],[140.600683,-33.027857],[140.601142,-33.027813],[140.601566,-33.027878],[140.601964,-33.028075],[140.60381,-33.029298],[140.604582,-33.029748],[140.605416,-33.030283],[140.605715,-33.030497],[140.605924,-33.030717],[140.606254,-33.031182],[140.607136,-33.032806],[140.607272,-33.032981],[140.607503,-33.033144],[140.607973,-33.033381],[140.60839,-33.033512],[140.608759,-33.033565],[140.609056,-33.033584],[140.609475,-33.033525],[140.610183,-33.033507],[140.613187,-33.033694],[140.621899,-33.034335],[140.622542,-33.034335],[140.623079,-33.034245],[140.625267,-33.033507],[140.627285,-33.032842],[140.628272,-33.032356],[140.629666,-33.031529],[140.633743,-33.028965],[140.635374,-33.027931],[140.635755,-33.0277],[140.636158,-33.027605],[140.63662,-33.027551],[140.637231,-33.027398],[140.637789,-33.027254],[140.638271,-33.027175],[140.638614,-33.027067],[140.638861,-33.026923],[140.638947,-33.026752],[140.639054,-33.026581],[140.63929,-33.026339],[140.639709,-33.026078],[140.641007,-33.025385],[140.641448,-33.025041],[140.641908,-33.024503],[140.642648,-33.023406],[140.643303,-33.022542],[140.643785,-33.022039],[140.644215,-33.02176],[140.647143,-33.019916],[140.647916,-33.019466],[140.648388,-33.019232],[140.649547,-33.018818],[140.650405,-33.018503],[140.650791,-33.018287],[140.651768,-33.017451],[140.652358,-33.016947],[140.652895,-33.016289],[140.653755,-33.015224],[140.654063,-33.014782],[140.654199,-33.014451],[140.654294,-33.013981],[140.654415,-33.013341],[140.654544,-33.012496],[140.654627,-33.012196],[140.654733,-33.012067],[140.654924,-33.011997],[140.655198,-33.011972],[140.655559,-33.011831],[140.655791,-33.011691],[140.656092,-33.01151],[140.656417,-33.011411],[140.657675,-33.011141],[140.718068,-32.99998]]}},{"type":"Feature","properties":{"tier":"arterial"},"geometry":{"type":"LineString","coordinates":[[140.758734,-32.99998],[140.760773,-33.000311],[140.765708,-33.001049],[140.766394,-33.001157],[140.767017,-33.001193],[140.767425,-33.001157],[140.767982,-33.001103],[140.768437,-33.001029],[140.768733,-33.000941],[140.768991,-33.000833],[140.770096,-32.99998]]}},{"type":"Feature","properties":{"tier":"regional"},"geometry":{"type":"LineString","coordinates":[[140.563148,-33.053698],[140.561641,-33.060345],[140.560557,-33.065093],[140.559254,-33.070883],[140.559173,-33.071135],[140.559034,-33.071369],[140.558755,-33.071791],[140.556282,-33.074848],[140.556126,-33.075073],[140.556057,-33.075343],[140.556046,-33.075621],[140.556143,-33.075908],[140.557548,-33.078885],[140.557591,-33.079082],[140.557602,-33.079469],[140.555543,-33.088791],[140.554321,-33.093392],[140.552238,-33.102507],[140.552195,-33.1031],[140.55226,-33.104161],[140.552646,-33.115717],[140.552774,-33.116346],[140.553219,-33.117766],[140.555203,-33.123474],[140.555242,-33.123588],[140.555328,-33.124128],[140.555285,-33.125009],[140.555242,-33.131873],[140.55507,-33.135665],[140.554555,-33.140138],[140.553268,-33.153379],[140.552774,-33.154799],[140.552217,-33.156595],[140.551938,-33.157763],[140.551787,-33.158643],[140.551594,-33.160672],[140.55168,-33.161103],[140.552066,-33.161732],[140.552238,-33.162145],[140.552238,-33.162594],[140.551015,-33.17373],[140.550307,-33.180394],[140.550393,-33.180933],[140.550457,-33.1814],[140.550457,-33.181902],[140.550371,-33.182657],[140.549148,-33.195802],[140.547453,-33.21406],[140.546444,-33.22597]]}},{"type":"Feature","properties":{"tier":"regional"},"geometry":{"type":"LineString","coordinates":[[140.546444,-33.22597],[140.520303,-33.226996],[140.519232,-33.227048],[140.518619,-33.227095],[140.517657,-33.227186],[140.509271,-33.228302],[140.502372,-33.229243],[140.501637,-33.229335],[140.501213,-33.229443],[140.500887,-33.229599],[140.500507,-33.229817],[140.49998,-33.230144]]}}]}
