{"type":"FeatureCollection","features":[{"type":"Feature","properties":{"tier":"arterial"},"geometry":{"type":"LineString","coordinates":[[140.911726,-35.26097],[140.911609,-35.260757],[140.911381,-35.260343],[140.911064,-35.259648],[140.910835,-35.25898],[140.91076,-35.258787],[140.910566,-35.258306],[140.910392,-35.257843],[140.910153,-35.257236],[140.909936,-35.256724],[140.909765,-35.256453]]}},{"type":"Feature","properties":{"tier":"arterial"},"geometry":{"type":"LineString","coordinates":[[140.515109,-35.326015],[140.515163,-35.325972],[140.51522,-35.325949],[140.515283,-35.325939],[140.515346,-35.325944],[140.515406,-35.325963],[140.515457,-35.325995],[140.515495,-35.326037],[140.515517,-35.326086],[140.515521,-35.326138],[140.515508,-35.32619],[140.515484,-35.326228],[140.515436,-35.326271],[140.515375,-35.326299],[140.515305,-35.326311],[140.515235,-35.326305],[140.51517,-35.326282],[140.515117,-35.326244],[140.515079,-35.326191],[140.515065,-35.32613],[140.515075,-35.32607],[140.515109,-35.326015]]}},{"type":"Feature","properties":{"tier":"arterial"},"geometry":{"type":"LineString","coordinates":[[140.515214,-35.329663],[140.515274,-35.329634],[140.515342,-35.329621],[140.515411,-35.329625],[140.515476,-35.329646],[140.515529,-35.329682],[140.515549,-35.329708],[140.515569,-35.329735],[140.515586,-35.329796],[140.515577,-35.329858],[140.515555,-35.329899],[140.515521,-35.329935],[140.515469,-35.329967],[140.515408,-35.329986],[140.515343,-35.32999],[140.51528,-35.329978],[140.515242,-35.329963],[140.515208,-35.329943],[140.515167,-35.329903],[140.515141,-35.329856],[140.515133,-35.329804],[140.515142,-35.329753],[140.515168,-35.329706],[140.515214,-35.329663]]}},{"type":"Feature","properties":{"tier":"arterial"},"geometry":{"type":"LineString","coordinates":[[140.515484,-35.326228],[140.51554,-35.326309],[140.515685,-35.327408],[140.515694,-35.327574],[140.515708,-35.327727],[140.515716,-35.32789],[140.515703,-35.328511],[140.515537,-35.329461],[140.515529,-35.329682]]}},{"type":"Feature","properties":{"tier":"arterial"},"geometry":{"type":"LineString","coordinates":[[140.515277,-35.328595],[140.515316,-35.328191],[140.515321,-35.328061],[140.515267,-35.327582],[140.515264,-35.327556],[140.515113,-35.326352],[140.515117,-35.326244]]}},{"type":"Feature","properties":{"tier":"arterial"},"geometry":{"type":"LineString","coordinates":[[140.908909,-35.255209],[140.908968,-35.255374],[140.909038,-35.25554],[140.909149,-35.255714],[140.909523,-35.25618],[140.909765,-35.256453]]}},{"type":"Feature","properties":{"tier":"arterial"},"geometry":{"type":"LineString","coordinates":[[140.871433,-35.30475],[140.871455,-35.305952],[140.871412,-35.306763],[140.871367,-35.307095],[140.871324,-35.307322],[140.871279,-35.307486],[140.871099,-35.308028],[140.870553,-35.309523],[140.870048,-35.31091],[140.869715,-35.311565],[140.869326,-35.31223],[140.868809,-35.312821],[140.866363,-35.315031],[140.864997,-35.316324],[140.864251,-35.316886],[140.863884,-35.317101],[140.863481,-35.317309],[140.862506,-35.317738],[140.860635,-35.318141],[140.860015,-35.318347],[140.859361,-35.318666],[140.858551,-35.319117],[140.85796,-35.319631],[140.857168,-35.32052],[140.856284,-35.321663],[140.854367,-35.324109],[140.853999,-35.324614],[140.853768,-35.324964],[140.853514,-35.325447],[140.853321,-35.325969],[140.853193,-35.326405],[140.853099,-35.326983],[140.853078,-35.327375],[140.853116,-35.327773],[140.853277,-35.32925],[140.853709,-35.332304],[140.854052,-35.335105],[140.854098,-35.335456],[140.854123,-35.335786],[140.854125,-35.336112],[140.854106,-35.336515],[140.853693,-35.341146],[140.853596,-35.341725],[140.853451,-35.342268],[140.853265,-35.342705],[140.853072,-35.343074],[140.85284,-35.343434],[140.852601,-35.34377],[140.852223,-35.344198],[140.851879,-35.344513],[140.851543,-35.344787],[140.851265,-35.344987],[140.850847,-35.345252],[140.849844,-35.345834],[140.848806,-35.346443],[140.848286,-35.346794],[140.847926,-35.347079],[140.847511,-35.347478],[140.847191,-35.347834],[140.846842,-35.348305],[140.846598,-35.348739],[140.846367,-35.349237],[140.844051,-35.356334],[140.842024,-35.362561],[140.841962,-35.362749],[140.841698,-35.363543],[140.841526,-35.364056],[140.841329,-35.364508],[140.84112,-35.364877],[140.838721,-35.369111],[140.836863,-35.372351],[140.834794,-35.375411],[140.830876,-35.381152],[140.830619,-35.381509],[140.83034,-35.381843],[140.830013,-35.382182],[140.82929,-35.382864],[140.828884,-35.383234],[140.828576,-35.383559],[140.82818,-35.384024],[140.823373,-35.389601],[140.82318,-35.389876],[140.823003,-35.390154],[140.822838,-35.390471],[140.820965,-35.394677],[140.820805,-35.395065],[140.820686,-35.395422],[140.820603,-35.39576],[140.820465,-35.396519],[140.820344,-35.397058],[140.820218,-35.397394],[140.819198,-35.399687],[140.818937,-35.400164],[140.81867,-35.400556],[140.81829,-35.401022],[140.817884,-35.40142],[140.817551,-35.401696],[140.817199,-35.401937],[140.816814,-35.402183],[140.816253,-35.402484],[140.812651,-35.404414],[140.812223,-35.404666],[140.811785,-35.40497],[140.811435,-35.405254],[140.81114,-35.405531],[140.810854,-35.405839],[140.810604,-35.406143],[140.810325,-35.406552],[140.807413,-35.411074],[140.802422,-35.418841],[140.801512,-35.420206],[140.801397,-35.420378],[140.799018,-35.424076],[140.798472,-35.424939],[140.798136,-35.425655],[140.797974,-35.426191],[140.797395,-35.428832],[140.797258,-35.429382],[140.796988,-35.429957],[140.793563,-35.43604],[140.793266,-35.436687],[140.7927,-35.438549],[140.792512,-35.439095],[140.792255,-35.43962],[140.791953,-35.44009],[140.791689,-35.440438],[140.791386,-35.440764],[140.791021,-35.441098],[140.79067,-35.441394],[140.79025,-35.441668],[140.789787,-35.441946],[140.784686,-35.445009],[140.78425,-35.445277],[140.78386,-35.445569],[140.78351,-35.445865],[140.783156,-35.446229],[140.782816,-35.446632],[140.782483,-35.447145],[140.782231,-35.447622],[140.782065,-35.448074],[140.78195,-35.44848],[140.78186,-35.448985],[140.78169,-35.450997],[140.781623,-35.451645],[140.781515,-35.452188],[140.781341,-35.452711],[140.781142,-35.453146],[140.780871,-35.453617],[140.778429,-35.457327],[140.778158,-35.457755],[140.777941,-35.458094],[140.776794,-35.459815],[140.775452,-35.461858],[140.774346,-35.463529],[140.773653,-35.464578],[140.772347,-35.466557],[140.769656,-35.470665],[140.769062,-35.471571],[140.768613,-35.472213],[140.767797,-35.473284],[140.765955,-35.475724],[140.764132,-35.47816],[140.762047,-35.480922],[140.76027,-35.483273],[140.759242,-35.484654],[140.758764,-35.485281],[140.758485,-35.485735],[140.758303,-35.486111],[140.758159,-35.486483],[140.758044,-35.486866],[140.757968,-35.48725],[140.75791,-35.487711],[140.75743,-35.49365],[140.757113,-35.49825],[140.757021,-35.498915],[140.756923,-35.499399],[140.756689,-35.50002]]}},{"type":"Feature","properties":{"tier":"arterial"},"geometry":{"type":"LineString","coordinates":[[140.49998,-35.323266],[140.504359,-35.323238]]}},{"type":"Feature","properties":{"tier":"arterial"},"geometry":{"type":"LineString","coordinates":[[140.506537,-35.323315],[140.506521,-35.320718],[140.506436,-35.320318],[140.506345,-35.319924],[140.506222,-35.319608],[140.506094,-35.319341]]}},{"type":"Feature","properties":{"tier":"regional"},"geometry":{"type":"LineString","coordinates":[[140.49998,-35.078408],[140.500288,-35.078899],[140.50075,-35.079804],[140.500979,-35.080589],[140.501222,-35.081736],[140.506134,-35.101306],[140.506811,-35.10376],[140.507269,-35.104544],[140.507698,-35.105071],[140.508302,-35.105672],[140.509072,-35.106265],[140.513578,-35.108476],[140.514225,-35.108902],[140.514879,-35.109565],[140.515308,-35.110267],[140.515609,-35.111145],[140.515694,-35.112116],[140.515512,-35.112997],[140.515287,-35.113487],[140.515169,-35.113747],[140.513549,-35.116481],[140.513152,-35.117245],[140.512866,-35.118158],[140.512762,-35.119032],[140.512823,-35.119796],[140.513339,-35.123809],[140.513363,-35.124752],[140.513259,-35.125652],[140.512132,-35.132347],[140.512079,-35.132724],[140.51209,-35.133198],[140.512165,-35.134234],[140.512465,-35.13512],[140.512626,-35.135506],[140.513152,-35.136217],[140.514603,-35.138289],[140.516247,-35.140534],[140.516346,-35.140656],[140.516773,-35.141226],[140.516926,-35.141487],[140.517329,-35.142317],[140.517422,-35.14261],[140.517486,-35.142869],[140.517551,-35.143235],[140.517583,-35.143623],[140.517599,-35.144347],[140.517623,-35.144904],[140.517619,-35.146111],[140.517658,-35.146595],[140.517779,-35.147098],[140.517882,-35.147376],[140.517992,-35.147638],[140.518103,-35.147852],[140.518251,-35.148109],[140.518606,-35.148663],[140.518944,-35.149188],[140.519045,-35.149358],[140.519346,-35.14986],[140.51971,-35.150399],[140.519844,-35.150614],[140.520135,-35.151166],[140.520284,-35.151546],[140.520394,-35.151904],[140.520482,-35.152293],[140.520683,-35.153359],[140.521148,-35.155754],[140.521563,-35.157753],[140.521779,-35.158819],[140.522324,-35.161658],[140.522518,-35.162619],[140.522607,-35.163209],[140.522773,-35.164678],[140.522966,-35.166527],[140.523033,-35.16725],[140.523052,-35.167715],[140.523052,-35.168147],[140.523011,-35.168597],[140.522953,-35.169013],[140.522859,-35.169439],[140.522751,-35.169792],[140.522658,-35.170145],[140.522505,-35.170522],[140.522376,-35.170787],[140.521791,-35.172015],[140.521384,-35.172837],[140.521231,-35.173197],[140.521099,-35.17355],[140.520979,-35.173922],[140.520869,-35.174308],[140.520657,-35.175209],[140.519903,-35.178632],[140.519737,-35.179353],[140.519363,-35.180791],[140.518333,-35.182474],[140.516428,-35.18547],[140.514368,-35.188752],[140.514019,-35.189455],[140.513913,-35.189832],[140.513853,-35.190225],[140.513813,-35.190625],[140.513823,-35.191077],[140.513962,-35.191727],[140.514044,-35.191973],[140.514938,-35.194665],[140.515083,-35.195195],[140.51519,-35.195739],[140.515283,-35.235294],[140.515367,-35.276507],[140.515512,-35.315456]]}},{"type":"Feature","properties":{"tier":"arterial"},"geometry":{"type":"LineString","coordinates":[[140.911889,-34.99998],[140.914111,-35.002167],[140.915842,-35.003678],[140.916551,-35.004173],[140.918281,-35.005044],[140.918906,-35.005428],[140.919897,-35.006623],[140.920291,-35.007538],[140.920334,-35.007639],[140.920359,-35.007794],[140.920543,-35.00892],[140.920251,-35.012412],[140.919876,-35.014555],[140.919407,-35.015664],[140.918145,-35.017133],[140.916613,-35.018669],[140.915008,-35.019779],[140.911704,-35.020897],[140.910182,-35.021426],[140.909285,-35.022024],[140.90841,-35.02275],[140.907868,-35.023765],[140.907651,-35.02435],[140.907646,-35.02543],[140.908003,-35.027931],[140.907941,-35.029254],[140.907472,-35.031098],[140.906544,-35.032685],[140.904855,-35.034751],[140.901947,-35.037285],[140.900498,-35.038591],[140.899873,-35.039555],[140.899592,-35.040469],[140.899571,-35.041493],[140.899727,-35.04215],[140.900217,-35.043072],[140.900738,-35.043652],[140.901572,-35.044292],[140.904699,-35.045572],[140.90619,-35.046442],[140.907096,-35.047304],[140.907534,-35.047876],[140.907711,-35.048584],[140.90792,-35.052296],[140.908022,-35.05379],[140.908118,-35.055189],[140.90841,-35.056716],[140.909369,-35.05867],[140.910005,-35.0596],[140.910974,-35.06082],[140.911798,-35.061682],[140.914001,-35.063398],[140.915665,-35.064694],[140.916353,-35.065411],[140.918729,-35.068337],[140.921523,-35.072287],[140.922075,-35.073072],[140.92466,-35.075878],[140.925421,-35.076876],[140.926015,-35.078327],[140.926661,-35.080732],[140.926724,-35.081662],[140.92662,-35.082464],[140.926286,-35.083837],[140.924723,-35.086959],[140.924452,-35.087752],[140.924306,-35.089023],[140.924316,-35.090149],[140.924504,-35.091539],[140.924504,-35.093176],[140.924327,-35.093927],[140.923858,-35.09495],[140.923201,-35.095684],[140.921122,-35.097703],[140.920188,-35.098635],[140.919431,-35.099445],[140.918607,-35.101033],[140.918458,-35.101722],[140.918472,-35.102267],[140.91846,-35.102887],[140.918647,-35.103674],[140.919157,-35.105167],[140.91954,-35.106365],[140.919643,-35.106672],[140.919977,-35.107663],[140.921884,-35.113491],[140.923759,-35.119296],[140.924509,-35.121533],[140.92467,-35.121981],[140.924875,-35.122399],[140.925138,-35.122824],[140.926359,-35.124522],[140.927965,-35.126857],[140.9311,-35.131254],[140.935402,-35.137331],[140.93722,-35.139956],[140.937894,-35.140929],[140.938211,-35.141469],[140.938479,-35.141927],[140.938843,-35.142759],[140.939253,-35.143974],[140.939719,-35.14565],[140.940817,-35.14923],[140.940844,-35.149321],[140.941205,-35.150538],[140.941478,-35.151461],[140.941657,-35.152135],[140.941968,-35.153684],[140.942298,-35.155334],[140.942351,-35.155736],[140.942371,-35.15603],[140.942376,-35.156413],[140.942342,-35.156722],[140.942289,-35.157085],[140.942203,-35.157407],[140.942062,-35.157829],[140.941104,-35.160031],[140.940434,-35.16156],[140.940055,-35.162437],[140.93989,-35.162897],[140.939768,-35.163399],[140.939692,-35.16398],[140.939405,-35.166891],[140.939358,-35.167346],[140.939301,-35.167651],[140.939217,-35.167961],[140.939148,-35.168204],[140.939048,-35.168467],[140.938934,-35.168724],[140.93877,-35.169025],[140.938623,-35.169268],[140.938457,-35.169519],[140.938266,-35.169766],[140.938081,-35.169983],[140.937817,-35.170252],[140.937489,-35.170555],[140.937174,-35.1708],[140.936833,-35.171039],[140.9348,-35.172382],[140.934474,-35.172603],[140.934228,-35.172782],[140.933937,-35.173023],[140.933664,-35.173287],[140.933459,-35.1735],[140.93318,-35.173851],[140.932967,-35.174145],[140.932801,-35.174424],[140.932641,-35.174708],[140.932418,-35.17525],[140.929574,-35.182426],[140.927256,-35.188346],[140.925068,-35.193789],[140.924595,-35.195907],[140.924467,-35.19759],[140.92445,-35.19926],[140.924681,-35.200382],[140.924982,-35.201223],[140.9256,-35.202079],[140.928458,-35.205712],[140.93087,-35.208882],[140.931453,-35.21053],[140.93141,-35.211477],[140.931299,-35.212949],[140.930672,-35.216976],[140.930406,-35.218685],[140.928947,-35.227884],[140.927574,-35.236445],[140.926484,-35.243483],[140.926187,-35.244936],[140.925891,-35.246387],[140.925857,-35.246553],[140.924467,-35.248425],[140.922966,-35.250118]]}},{"type":"Feature","properties":{"tier":"arterial"},"geometry":{"type":"LineString","coordinates":[[140.52014,-35.328688],[140.520772,-35.328553],[140.521108,-35.328502],[140.521485,-35.328459]]}},{"type":"Feature","properties":{"tier":"regional"},"geometry":{"type":"LineString","coordinates":[[140.51553,-35.321966],[140.515508,-35.323239],[140.515518,-35.325798]]}},{"type":"Feature","properties":{"tier":"regional"},"geometry":{"type":"LineString","coordinates":[[140.52531,-35.330679],[140.526803,-35.331538],[140.52712,-35.33172],[140.530648,-35.33375],[140.532408,-35.334762],[140.53329,-35.335165],[140.533512,-35.335201],[140.538469,-35.336067],[140.538912,-35.33614],[140.540932,-35.336475],[140.553663,-35.338587],[140.555656,-35.338921],[140.555916,-35.338965],[140.557223,-35.339184],[140.557472,-35.339225]]}},{"type":"Feature","properties":{"tier":"arterial"},"geometry":{"type":"LineString","coordinates":[[140.509823,-35.323376],[140.51032,-35.323478],[140.510793,-35.323663],[140.511135,-35.323834],[140.513098,-35.32483],[140.513905,-35.325254],[140.515004,-35.325852],[140.515163,-35.325972]]}},{"type":"Feature","properties":{"tier":"arterial"},"geometry":{"type":"LineString","coordinates":[[140.504359,-35.323238],[140.506537,-35.323315],[140.509312,-35.323315],[140.509823,-35.323376]]}},{"type":"Feature","properties":{"tier":"arterial"},"geometry":{"type":"LineString","coordinates":[[140.506094,-35.319341],[140.505845,-35.31892],[140.505492,-35.318455],[140.501546,-35.314362],[140.49998,-35.312758]]}},{"type":"Feature","properties":{"tier":"regional"},"geometry":{"type":"LineString","coordinates":[[140.515527,-35.319058],[140.515512,-35.315456]]}},{"type":"Feature","properties":{"tier":"arterial"},"geometry":{"type":"LineString","coordinates":[[140.51596,-35.329662],[140.515775,-35.329769],[140.515577,-35.329858]]}},{"type":"Feature","properties":{"tier":"arterial"},"geometry":{"type":"LineString","coordinates":[[140.51596,-35.329662],[140.517831,-35.3292],[140.517928,-35.329178],[140.52014,-35.328688]]}},{"type":"Feature","properties":{"tier":"arterial"},"geometry":{"type":"LineString","coordinates":[[140.515549,-35.329708],[140.515735,-35.329664],[140.51596,-35.329662]]}},{"type":"Feature","properties":{"tier":"arterial"},"geometry":{"type":"LineString","coordinates":[[140.910033,-35.255195],[140.909861,-35.255247],[140.909741,-35.255313],[140.909646,-35.255414],[140.909567,-35.255562],[140.909532,-35.255729],[140.909537,-35.255913],[140.909576,-35.256059],[140.909671,-35.256241],[140.909765,-35.256453]]}},{"type":"Feature","properties":{"tier":"arterial"},"geometry":{"type":"LineString","coordinates":[[140.871433,-35.30475],[140.871805,-35.304744],[140.872235,-35.304713],[140.872609,-35.304652],[140.873272,-35.30446],[140.874014,-35.304222],[140.874255,-35.304105],[140.874644,-35.303873],[140.875024,-35.303632],[140.875364,-35.30339],[140.875926,-35.302859],[140.876946,-35.301618],[140.877943,-35.300386],[140.87996,-35.29788],[140.882062,-35.295308],[140.883169,-35.293892],[140.883598,-35.293206],[140.883786,-35.292807],[140.883955,-35.292399],[140.88418,-35.291831],[140.884327,-35.291336],[140.884457,-35.290669],[140.884535,-35.289767],[140.884546,-35.288953],[140.884559,-35.288005],[140.884568,-35.2879],[140.884607,-35.287424],[140.88467,-35.286985],[140.884784,-35.286547],[140.884876,-35.286203],[140.884997,-35.285812],[140.885093,-35.285557],[140.885211,-35.285251],[140.885335,-35.284994],[140.885476,-35.284731],[140.885668,-35.284423],[140.885848,-35.284143],[140.88601,-35.283914],[140.886287,-35.283554],[140.886559,-35.283257],[140.886806,-35.282984],[140.887067,-35.282742],[140.887465,-35.282381],[140.887801,-35.282122],[140.888135,-35.281894],[140.888473,-35.281674],[140.889031,-35.281355],[140.889547,-35.281088],[140.890006,-35.280905],[140.890475,-35.280719],[140.891077,-35.280509],[140.891614,-35.28036],[140.892429,-35.280164],[140.894296,-35.27979],[140.897533,-35.279148],[140.901229,-35.278382],[140.901724,-35.278255],[140.902103,-35.278137],[140.902417,-35.278009],[140.902708,-35.277871],[140.903035,-35.277681],[140.903382,-35.277467],[140.903726,-35.277214],[140.904004,-35.276969],[140.904262,-35.276707],[140.904591,-35.276307],[140.904926,-35.275803],[140.906936,-35.272623]]}},{"type":"Feature","properties":{"tier":"arterial"},"geometry":{"type":"LineString","coordinates":[[140.911726,-35.26097],[140.912094,-35.260841],[140.912274,-35.260777],[140.912765,-35.26064],[140.913197,-35.260569],[140.913515,-35.260534]]}},{"type":"Feature","properties":{"tier":"regional"},"geometry":{"type":"LineString","coordinates":[[140.515527,-35.319058],[140.515529,-35.319317],[140.515517,-35.320091],[140.515512,-35.32112],[140.515521,-35.32142],[140.515526,-35.321871],[140.51553,-35.321966]]}},{"type":"Feature","properties":{"tier":"regional"},"geometry":{"type":"LineString","coordinates":[[140.520542,-35.329817],[140.522339,-35.329383],[140.52261,-35.329359],[140.522843,-35.329377],[140.523039,-35.329419],[140.523253,-35.329488],[140.524539,-35.330228],[140.524646,-35.330291],[140.52531,-35.330679]]}},{"type":"Feature","properties":{"tier":"arterial"},"geometry":{"type":"LineString","coordinates":[[140.521485,-35.328459],[140.52255,-35.328356],[140.523092,-35.32828],[140.523622,-35.328182],[140.524002,-35.328094],[140.524524,-35.327983],[140.528082,-35.327229]]}},{"type":"Feature","properties":{"tier":"arterial"},"geometry":{"type":"LineString","coordinates":[[140.654719,-35.296167],[140.65789,-35.296299]]}},{"type":"Feature","properties":{"tier":"arterial"},"geometry":{"type":"LineString","coordinates":[[140.528082,-35.327229],[140.547821,-35.322857],[140.55362,-35.321571],[140.561318,-35.319865],[140.567904,-35.318404],[140.568124,-35.318356],[140.5723,-35.31743],[140.573293,-35.31717],[140.574044,-35.316915],[140.574821,-35.316594],[140.582408,-35.312633],[140.590368,-35.308477],[140.605041,-35.300792],[140.605551,-35.300583],[140.606091,-35.300502],[140.606618,-35.300539],[140.607056,-35.300659],[140.607483,-35.300898],[140.607757,-35.301159],[140.607971,-35.301461],[140.608266,-35.3018],[140.608556,-35.302075],[140.608899,-35.302287],[140.609315,-35.302459],[140.609719,-35.302518],[140.610117,-35.302506],[140.610492,-35.302447],[140.610818,-35.302343],[140.611715,-35.302006],[140.61244,-35.301813],[140.612853,-35.301748],[140.613296,-35.301727],[140.615589,-35.30163],[140.617263,-35.301443],[140.628241,-35.30024],[140.629053,-35.300195],[140.629834,-35.300215],[140.630636,-35.300295],[140.637981,-35.301311],[140.638453,-35.301326],[140.638968,-35.301319],[140.639491,-35.30125],[140.640076,-35.301123],[140.640554,-35.300967],[140.64097,-35.300799],[140.641367,-35.300596],[140.641776,-35.300339],[140.642115,-35.300093],[140.643339,-35.299145],[140.643862,-35.298765],[140.64419,-35.298562],[140.644728,-35.29827],[140.64582,-35.297719],[140.647888,-35.296727],[140.648435,-35.296501],[140.648978,-35.296332],[140.649506,-35.296205],[140.649971,-35.296119],[140.650465,-35.296058],[140.651065,-35.29603],[140.65197,-35.296057],[140.654719,-35.296167]]}},{"type":"Feature","properties":{"tier":"arterial"},"geometry":{"type":"LineString","coordinates":[[140.662409,-35.29649],[140.662897,-35.296519],[140.664511,-35.296572],[140.665724,-35.296625],[140.665945,-35.296638],[140.666773,-35.296671],[140.667463,-35.296697],[140.667976,-35.296716],[140.668693,-35.296745],[140.66914,-35.296758],[140.669282,-35.296752],[140.669331,-35.29675]]}},{"type":"Feature","properties":{"tier":"arterial"},"geometry":{"type":"LineString","coordinates":[[140.675433,-35.296885],[140.676602,-35.297096],[140.677111,-35.297141],[140.677699,-35.297168],[140.687218,-35.297537],[140.700477,-35.298081],[140.711338,-35.298499],[140.711974,-35.298491],[140.712563,-35.298459],[140.713033,-35.298413],[140.71349,-35.298368],[140.721663,-35.297224],[140.726666,-35.296493],[140.727331,-35.296413],[140.727849,-35.296368],[140.728194,-35.296355],[140.728925,-35.296343],[140.729585,-35.296374],[140.730121,-35.296415],[140.730581,-35.296474],[140.7313,-35.296575],[140.731842,-35.296706],[140.732387,-35.296843],[140.733167,-35.297094],[140.733913,-35.297396],[140.734209,-35.297524],[140.73439,-35.297616],[140.735494,-35.298168],[140.741625,-35.302354],[140.742616,-35.302944],[140.74322,-35.303232],[140.743889,-35.303513],[140.744537,-35.303757],[140.745094,-35.303911],[140.745792,-35.304087],[140.746318,-35.304197],[140.746867,-35.304275],[140.74756,-35.304342],[140.748426,-35.304374],[140.781804,-35.304387],[140.783684,-35.304403],[140.785587,-35.304498],[140.785873,-35.304491],[140.787991,-35.30462],[140.80691,-35.304661],[140.818276,-35.304697],[140.833067,-35.304745],[140.834405,-35.304739],[140.838959,-35.304721],[140.849952,-35.304715],[140.86006,-35.304699],[140.865142,-35.304713],[140.869856,-35.304769],[140.871433,-35.30475]]}},{"type":"Feature","properties":{"tier":"arterial"},"geometry":{"type":"LineString","coordinates":[[140.669331,-35.29675],[140.670343,-35.29664],[140.67068,-35.296601],[140.671027,-35.296585],[140.67151,-35.296597],[140.673863,-35.296692],[140.674206,-35.296714],[140.675049,-35.296819],[140.675433,-35.296885]]}},{"type":"Feature","properties":{"tier":"arterial"},"geometry":{"type":"LineString","coordinates":[[140.915765,-35.260496],[140.916442,-35.260494],[140.917398,-35.260492],[140.917492,-35.260493],[140.919994,-35.260484],[140.921161,-35.26048],[140.922417,-35.260475],[140.92308,-35.260483]]}},{"type":"Feature","properties":{"tier":"arterial"},"geometry":{"type":"LineString","coordinates":[[140.92308,-35.260483],[140.924497,-35.260492],[140.925707,-35.26046],[140.926319,-35.260439],[140.926877,-35.260373],[140.927311,-35.260287],[140.92827,-35.260078],[140.929052,-35.259814],[140.929846,-35.259473],[140.933457,-35.257982],[140.933948,-35.257739],[140.9343,-35.257582],[140.934714,-35.257366],[140.935001,-35.257196],[140.935311,-35.257005],[140.93917,-35.254474],[140.945244,-35.250459],[140.949386,-35.247727],[140.951476,-35.246383],[140.954217,-35.244544],[140.954592,-35.244293],[140.954745,-35.24419],[140.955328,-35.24381],[140.955681,-35.243589],[140.956437,-35.243082],[140.956654,-35.242936],[140.957441,-35.242428],[140.958028,-35.242031],[140.959029,-35.24136],[140.959362,-35.241136],[140.959727,-35.240934]]}},{"type":"Feature","properties":{"tier":"arterial"},"geometry":{"type":"LineString","coordinates":[[140.965941,-35.239343],[140.96603,-35.239237],[140.966191,-35.238995],[140.966318,-35.238744],[140.966385,-35.238547],[140.966428,-35.238364],[140.966447,-35.238125],[140.966439,-35.237835],[140.966396,-35.237573],[140.966369,-35.237485],[140.966279,-35.237189],[140.966198,-35.23668],[140.966156,-35.23647],[140.966148,-35.23626],[140.96617,-35.236101],[140.966193,-35.235928],[140.966334,-35.235551],[140.966478,-35.23527],[140.966664,-35.235005],[140.966796,-35.234864],[140.967085,-35.234626],[140.967454,-35.234425],[140.967697,-35.234308],[140.968137,-35.234174],[140.968749,-35.234112],[140.96914,-35.234124],[140.969444,-35.234167],[140.969793,-35.234253],[140.970062,-35.234364],[140.970441,-35.234566],[140.970807,-35.234814],[140.971174,-35.235096],[140.97181,-35.235561],[140.972216,-35.235804],[140.972635,-35.235997],[140.973155,-35.23616],[140.973523,-35.236236],[140.973942,-35.236306],[140.974442,-35.236343]]}},{"type":"Feature","properties":{"tier":"regional"},"geometry":{"type":"LineString","coordinates":[[140.52014,-35.328688],[140.520404,-35.329347],[140.520458,-35.329522],[140.520542,-35.329817]]}},{"type":"Feature","properties":{"tier":"arterial"},"geometry":{"type":"LineString","coordinates":[[140.914132,-35.260501],[140.915323,-35.260497],[140.915765,-35.260496]]}},{"type":"Feature","properties":{"tier":"arterial"},"geometry":{"type":"LineString","coordinates":[[140.913515,-35.260534],[140.913618,-35.260524],[140.914132,-35.260501]]}},{"type":"Feature","properties":{"tier":"arterial"},"geometry":{"type":"LineString","coordinates":[[140.910033,-35.255195],[140.908909,-35.255209]]}},{"type":"Feature","properties":{"tier":"arterial"},"geometry":{"type":"LineString","coordinates":[[140.909038,-35.25554],[140.908915,-35.255397],[140.908808,-35.255307],[140.90867,-35.255243],[140.908508,-35.255207]]}},{"type":"Feature","properties":{"tier":"arterial"},"geometry":{"type":"LineString","coordinates":[[140.911609,-35.260757],[140.911774,-35.26082],[140.911921,-35.260844],[140.912094,-35.260841]]}},{"type":"Feature","properties":{"tier":"arterial"},"geometry":{"type":"LineString","coordinates":[[140.911364,-35.261146],[140.911489,-35.261035],[140.911565,-35.260944],[140.911597,-35.260857],[140.911609,-35.260757]]}},{"type":"Feature","properties":{"tier":"arterial"},"geometry":{"type":"LineString","coordinates":[[140.913089,-35.255174],[140.912924,-35.255191],[140.910033,-35.255195]]}},{"type":"Feature","properties":{"tier":"arterial"},"geometry":{"type":"LineString","coordinates":[[140.917356,-35.253188],[140.915318,-35.254168],[140.913498,-35.255048],[140.913294,-35.255127],[140.913089,-35.255174]]}},{"type":"Feature","properties":{"tier":"arterial"},"geometry":{"type":"LineString","coordinates":[[140.906936,-35.272623],[140.908413,-35.270301]]}},{"type":"Feature","properties":{"tier":"arterial"},"geometry":{"type":"LineString","coordinates":[[140.910182,-35.263562],[140.910169,-35.262999],[140.910172,-35.262806],[140.910175,-35.262666],[140.910198,-35.262537],[140.910217,-35.262435],[140.910282,-35.262236],[140.910359,-35.262068],[140.910381,-35.262032],[140.910478,-35.261871],[140.91063,-35.261679],[140.910859,-35.261471],[140.91108,-35.261309],[140.911364,-35.261146],[140.911726,-35.26097]]}},{"type":"Feature","properties":{"tier":"regional"},"geometry":{"type":"LineString","coordinates":[[140.515346,-35.325944],[140.515452,-35.325891],[140.515518,-35.325798]]}},{"type":"Feature","properties":{"tier":"regional"},"geometry":{"type":"LineString","coordinates":[[140.515518,-35.325798],[140.515495,-35.326037]]}},{"type":"Feature","properties":{"tier":"arterial"},"geometry":{"type":"LineString","coordinates":[[140.909574,-35.268484],[140.909941,-35.267891],[140.910116,-35.267575],[140.910219,-35.267328],[140.910277,-35.267107],[140.910314,-35.266853],[140.91032,-35.266635],[140.910253,-35.26499],[140.910238,-35.264661],[140.910182,-35.263562]]}},{"type":"Feature","properties":{"tier":"arterial"},"geometry":{"type":"LineString","coordinates":[[140.908413,-35.270301],[140.909464,-35.268648],[140.909574,-35.268484]]}},{"type":"Feature","properties":{"tier":"arterial"},"geometry":{"type":"LineString","coordinates":[[140.515168,-35.329706],[140.515139,-35.329447],[140.515277,-35.328595]]}},{"type":"Feature","properties":{"tier":"arterial"},"geometry":{"type":"LineString","coordinates":[[140.922966,-35.250118],[140.92269,-35.250394],[140.92243,-35.250618],[140.922216,-35.250785],[140.921858,-35.25102],[140.921521,-35.251202],[140.920065,-35.251891],[140.91948,-35.252168],[140.917356,-35.253188]]}},{"type":"Feature","properties":{"tier":"regional"},"geometry":{"type":"LineString","coordinates":[[140.557472,-35.339225],[140.560468,-35.33972],[140.560483,-35.339723],[140.561486,-35.339866],[140.563301,-35.340171],[140.570219,-35.341316],[140.572053,-35.341597],[140.574249,-35.341957],[140.575984,-35.342087],[140.577738,-35.342352],[140.581179,-35.342927],[140.586772,-35.343868],[140.592635,-35.344858],[140.59442,-35.345158],[140.595858,-35.345423],[140.596904,-35.345521],[140.599227,-35.345738],[140.607901,-35.346671],[140.625363,-35.348497],[140.628031,-35.348805],[140.652116,-35.348127],[140.658392,-35.347986]]}},{"type":"Feature","properties":{"tier":"arterial"},"geometry":{"type":"LineString","coordinates":[[140.959727,-35.240934],[140.959979,-35.240816],[140.960254,-35.240698],[140.960661,-35.240558],[140.96103,-35.240452],[140.961352,-35.240389],[140.96178,-35.240327],[140.962293,-35.240296],[140.963618,-35.240268],[140.963955,-35.240256],[140.964236,-35.240232],[140.964481,-35.24018],[140.964717,-35.24012],[140.964984,-35.240032],[140.965236,-35.239898],[140.965461,-35.239767],[140.965698,-35.239584],[140.965887,-35.239407],[140.965941,-35.239343]]}},{"type":"Feature","properties":{"tier":"arterial"},"geometry":{"type":"LineString","coordinates":[[140.65789,-35.296299],[140.661342,-35.296428],[140.662409,-35.29649]]}}]}
