{"type":"FeatureCollection","features":[{"type":"Feature","properties":{"tier":"arterial"},"geometry":{"type":"LineString","coordinates":[[140.767347,-36.304778],[140.767218,-36.305093],[140.767171,-36.305342],[140.767137,-36.30568],[140.767168,-36.30594],[140.767266,-36.306294],[140.767359,-36.306498],[140.767462,-36.306666],[140.767634,-36.306902],[140.767818,-36.307086],[140.768053,-36.307287],[140.768296,-36.307449],[140.768616,-36.307609],[140.768938,-36.307735],[140.769589,-36.307871],[140.770267,-36.307949],[140.771171,-36.308031],[140.772103,-36.308129]]}},{"type":"Feature","properties":{"tier":"arterial"},"geometry":{"type":"LineString","coordinates":[[140.721717,-36.076763],[140.717698,-36.075612],[140.712849,-36.075052],[140.698773,-36.073387],[140.678517,-36.07186],[140.657574,-36.074635],[140.653455,-36.075052],[140.647795,-36.075293],[140.641653,-36.075554],[140.633885,-36.075884],[140.609087,-36.07683],[140.597825,-36.077189],[140.59733,-36.077169],[140.597035,-36.077143],[140.591765,-36.076222],[140.589898,-36.075896],[140.578135,-36.073701],[140.577589,-36.073649],[140.577033,-36.073604],[140.573986,-36.073499],[140.571801,-36.073251],[140.566766,-36.072693],[140.564886,-36.07264],[140.557024,-36.072589],[140.548913,-36.07297],[140.547464,-36.072924],[140.544621,-36.072832],[140.541714,-36.07134],[140.540019,-36.070698],[140.538125,-36.070456],[140.53106,-36.070057],[140.52685,-36.070132],[140.525504,-36.070147],[140.523865,-36.070164],[140.521236,-36.070197],[140.517698,-36.070242],[140.515215,-36.070166],[140.512709,-36.070079],[140.510403,-36.069995],[140.507651,-36.069906],[140.500926,-36.069665],[140.49998,-36.069635]]}},{"type":"Feature","properties":{"tier":"regional"},"geometry":{"type":"LineString","coordinates":[[140.912318,-36.325927],[140.912304,-36.326072],[140.912299,-36.326199],[140.912299,-36.326544],[140.912309,-36.326999],[140.912376,-36.335749],[140.912389,-36.337652],[140.912408,-36.339917],[140.912443,-36.344076],[140.91247,-36.347638],[140.912488,-36.350072],[140.912542,-36.356525],[140.912558,-36.358807],[140.912569,-36.359244]]}},{"type":"Feature","properties":{"tier":"regional"},"geometry":{"type":"LineString","coordinates":[[140.787028,-36.316615],[140.787177,-36.316627],[140.787994,-36.316694],[140.78888,-36.316797],[140.789768,-36.317045],[140.790644,-36.317407],[140.791585,-36.31796],[140.792523,-36.318697],[140.79349,-36.319537],[140.79742,-36.322946],[140.802316,-36.327195],[140.807213,-36.331443],[140.812109,-36.335691],[140.814842,-36.338062],[140.815915,-36.338993],[140.817006,-36.339939],[140.818582,-36.341306],[140.821902,-36.344187],[140.826799,-36.348434],[140.831696,-36.352681],[140.835613,-36.356138],[140.835892,-36.356345],[140.836306,-36.356465],[140.836399,-36.35647],[140.836697,-36.356453],[140.837088,-36.35634],[140.837414,-36.356113],[140.837586,-36.355819],[140.837708,-36.355403],[140.837722,-36.355034],[140.837851,-36.354813],[140.838079,-36.354644],[140.838331,-36.354567],[140.838624,-36.354556],[140.838904,-36.354642],[140.840028,-36.355305],[140.840529,-36.355513],[140.841046,-36.355639],[140.848089,-36.356673],[140.855131,-36.357706],[140.862174,-36.358739],[140.869216,-36.359772],[140.869716,-36.359845],[140.876259,-36.360805],[140.881574,-36.361585],[140.886894,-36.362341],[140.892214,-36.363098],[140.897534,-36.363854]]}},{"type":"Feature","properties":{"tier":"arterial"},"geometry":{"type":"LineString","coordinates":[[140.733537,-36.284126],[140.733077,-36.284854],[140.732947,-36.285237],[140.732892,-36.285549],[140.732927,-36.285835],[140.733186,-36.286355],[140.733473,-36.286714],[140.734124,-36.287378],[140.734602,-36.287974],[140.734858,-36.288517],[140.735062,-36.28902],[140.735162,-36.289469],[140.735218,-36.289896],[140.735228,-36.290279],[140.735174,-36.291961],[140.735188,-36.292579],[140.735305,-36.293294],[140.735591,-36.294066],[140.735977,-36.294868],[140.73617,-36.295431],[140.736427,-36.296532],[140.736667,-36.297878],[140.736988,-36.300169],[140.737173,-36.301229],[140.737197,-36.302082],[140.737045,-36.303551],[140.736999,-36.304258],[140.737022,-36.30457],[140.737097,-36.304914],[140.737566,-36.30683],[140.737765,-36.307645],[140.737811,-36.307994],[140.737838,-36.308408],[140.737842,-36.310893],[140.737854,-36.314107],[140.737791,-36.314873],[140.737491,-36.317324],[140.737401,-36.318398],[140.737361,-36.31939],[140.737359,-36.321362],[140.737359,-36.321755]]}},{"type":"Feature","properties":{"tier":"arterial"},"geometry":{"type":"LineString","coordinates":[[140.737022,-36.30457],[140.737687,-36.304523],[140.738288,-36.304531],[140.739082,-36.304644],[140.741743,-36.304998],[140.74376,-36.305249],[140.744329,-36.305379],[140.744615,-36.305454],[140.745047,-36.305569],[140.749157,-36.306857],[140.749565,-36.307019],[140.751603,-36.307601],[140.752408,-36.307843],[140.753015,-36.307929],[140.756718,-36.308264],[140.7593,-36.308498]]}},{"type":"Feature","properties":{"tier":"arterial"},"geometry":{"type":"LineString","coordinates":[[140.863809,-36.50002],[140.863807,-36.500016],[140.863458,-36.499492],[140.863137,-36.498925],[140.86292,-36.498416],[140.861973,-36.495839],[140.861792,-36.495218],[140.861545,-36.494265],[140.8615,-36.494079],[140.860845,-36.491351],[140.860613,-36.490868],[140.860324,-36.490375],[140.859865,-36.489814],[140.85776,-36.48768],[140.855655,-36.485546],[140.853441,-36.483384],[140.853208,-36.483053],[140.852771,-36.4825],[140.852436,-36.481905],[140.850804,-36.478125],[140.848262,-36.472712],[140.847858,-36.472145],[140.847419,-36.471697],[140.846977,-36.471336],[140.844937,-36.470014],[140.844537,-36.469615],[140.844121,-36.469119],[140.842763,-36.466864],[140.842447,-36.46619],[140.842332,-36.465871],[140.840198,-36.459392],[140.83795,-36.452593],[140.835702,-36.445794],[140.834309,-36.441118],[140.834105,-36.440345],[140.833972,-36.439612],[140.833932,-36.438942],[140.834127,-36.435622],[140.834132,-36.435371],[140.834125,-36.435099],[140.834117,-36.435022],[140.834103,-36.434923],[140.834056,-36.434766],[140.83401,-36.434612],[140.833915,-36.434415],[140.833814,-36.434219],[140.833661,-36.433998],[140.83351,-36.433797],[140.828781,-36.428058],[140.824018,-36.422314],[140.819256,-36.416569],[140.815096,-36.411551],[140.814977,-36.411407],[140.814493,-36.410824],[140.809731,-36.405079],[140.804969,-36.399333],[140.804549,-36.398685],[140.800042,-36.388548],[140.799621,-36.387654]]}},{"type":"Feature","properties":{"tier":"regional"},"geometry":{"type":"LineString","coordinates":[[140.773299,-36.31532],[140.773813,-36.315368],[140.775075,-36.315487],[140.776172,-36.315591],[140.776423,-36.315614],[140.776858,-36.315655],[140.780665,-36.316015],[140.781568,-36.3161],[140.782005,-36.316141],[140.783266,-36.31626],[140.78463,-36.316389],[140.785827,-36.316502],[140.787028,-36.316615]]}},{"type":"Feature","properties":{"tier":"arterial"},"geometry":{"type":"LineString","coordinates":[[140.76864,-36.327649],[140.757268,-36.336422],[140.757238,-36.336446],[140.75438,-36.33865],[140.7539,-36.338993],[140.753339,-36.3393],[140.752799,-36.339569],[140.752497,-36.339691],[140.752427,-36.339719],[140.75185,-36.339912],[140.751256,-36.340076],[140.739785,-36.341614],[140.737624,-36.341904],[140.737323,-36.341944]]}},{"type":"Feature","properties":{"tier":"arterial"},"geometry":{"type":"LineString","coordinates":[[140.76864,-36.327649],[140.768951,-36.327356],[140.769131,-36.327122],[140.76937,-36.326758],[140.769514,-36.326513],[140.769627,-36.326237],[140.769701,-36.326023],[140.769776,-36.325716],[140.769858,-36.325041],[140.769879,-36.32493],[140.770071,-36.323621],[140.770266,-36.322286],[140.770467,-36.320905],[140.770672,-36.319521],[140.770983,-36.317118],[140.771069,-36.316524],[140.771261,-36.315187],[140.771269,-36.315133],[140.771629,-36.312685]]}},{"type":"Feature","properties":{"tier":"regional"},"geometry":{"type":"LineString","coordinates":[[140.873349,-36.388203],[140.873855,-36.387662],[140.874445,-36.387193],[140.875157,-36.38674],[140.876042,-36.386176],[140.88103,-36.383462],[140.892064,-36.377359],[140.89245,-36.377145],[140.898901,-36.373577],[140.899305,-36.373329],[140.89955,-36.373164],[140.899774,-36.372985],[140.90008,-36.372712],[140.900329,-36.372444],[140.900583,-36.372117],[140.900737,-36.37186],[140.900902,-36.371535],[140.900996,-36.37129],[140.901111,-36.370944],[140.901988,-36.367846],[140.902302,-36.366693],[140.902569,-36.365816],[140.902741,-36.365235],[140.90275,-36.365206],[140.90276,-36.365167],[140.90279,-36.365076],[140.902898,-36.364685]]}},{"type":"Feature","properties":{"tier":"arterial"},"geometry":{"type":"LineString","coordinates":[[140.771987,-36.308876],[140.771868,-36.309649],[140.771751,-36.310403],[140.771635,-36.311154],[140.771519,-36.311906],[140.771402,-36.312661]]}},{"type":"Feature","properties":{"tier":"regional"},"geometry":{"type":"LineString","coordinates":[[140.902898,-36.364685],[140.904636,-36.36494],[140.906691,-36.365235],[140.907834,-36.365382],[140.909266,-36.365584],[140.911001,-36.365837],[140.91257,-36.366074]]}},{"type":"Feature","properties":{"tier":"regional"},"geometry":{"type":"LineString","coordinates":[[140.74896,-36.318365],[140.747057,-36.318861],[140.74385,-36.319697],[140.740642,-36.320533],[140.739963,-36.320729],[140.73938,-36.320988],[140.738258,-36.32158],[140.737922,-36.321706],[140.737671,-36.321755],[140.737359,-36.321755]]}},{"type":"Feature","properties":{"tier":"arterial"},"geometry":{"type":"LineString","coordinates":[[140.520636,-36.309498],[140.521213,-36.309475],[140.532108,-36.309406],[140.543002,-36.309337],[140.554004,-36.309233],[140.564072,-36.309202],[140.564792,-36.309198],[140.575687,-36.309129],[140.586581,-36.309059],[140.587954,-36.309009],[140.595187,-36.308931]]}},{"type":"Feature","properties":{"tier":"arterial"},"geometry":{"type":"LineString","coordinates":[[140.595187,-36.308931],[140.600795,-36.308417],[140.606476,-36.307865],[140.612158,-36.307312],[140.617839,-36.306759],[140.623521,-36.306207],[140.629202,-36.305654],[140.63009,-36.305583],[140.633138,-36.305449],[140.634394,-36.305394],[140.638708,-36.304821],[140.639289,-36.304701],[140.639956,-36.304541],[140.640718,-36.304238],[140.641756,-36.30368],[140.642453,-36.303306],[140.643527,-36.302769],[140.644513,-36.302347],[140.645647,-36.301917],[140.64665,-36.301637],[140.650854,-36.300838],[140.655059,-36.300039],[140.659263,-36.29924],[140.660447,-36.299058],[140.663193,-36.298813],[140.663254,-36.298808],[140.663512,-36.298793],[140.664567,-36.298707],[140.668381,-36.298636],[140.672195,-36.298565],[140.676008,-36.298494],[140.679822,-36.298423],[140.682372,-36.298375],[140.683636,-36.298352],[140.684787,-36.298432],[140.687816,-36.298769],[140.690923,-36.299187],[140.69195,-36.299311],[140.697391,-36.299687],[140.700278,-36.299886],[140.702832,-36.300063],[140.708273,-36.300438],[140.709468,-36.300607],[140.714114,-36.301708],[140.71876,-36.302809],[140.719719,-36.303026],[140.720848,-36.303173],[140.725148,-36.303371],[140.729449,-36.303569],[140.730124,-36.303613],[140.730831,-36.303682],[140.731864,-36.303806],[140.73485,-36.304155],[140.735645,-36.304221],[140.736332,-36.304256],[140.736999,-36.304258]]}},{"type":"Feature","properties":{"tier":"arterial"},"geometry":{"type":"LineString","coordinates":[[140.49998,-36.31357],[140.501559,-36.313233],[140.502837,-36.312946],[140.508213,-36.311723],[140.513465,-36.310529],[140.513633,-36.310491],[140.513807,-36.310457],[140.514469,-36.310328],[140.520183,-36.309535],[140.520636,-36.309498]]}},{"type":"Feature","properties":{"tier":"high"},"geometry":{"type":"LineString","coordinates":[[140.754731,-36.297108],[140.755385,-36.297463],[140.755709,-36.297653],[140.757463,-36.298546],[140.758402,-36.299096],[140.759085,-36.299524],[140.76035,-36.300377],[140.760763,-36.300636],[140.761631,-36.301138],[140.762292,-36.301496],[140.765052,-36.30284],[140.765151,-36.302895],[140.76574,-36.30321],[140.766353,-36.303583],[140.766916,-36.30394],[140.76756,-36.304357]]}},{"type":"Feature","properties":{"tier":"high"},"geometry":{"type":"LineString","coordinates":[[140.760494,-36.300886],[140.760532,-36.300794],[140.760517,-36.300696],[140.760465,-36.300609]]}},{"type":"Feature","properties":{"tier":"high"},"geometry":{"type":"LineString","coordinates":[[140.765151,-36.302895],[140.765101,-36.30301]]}},{"type":"Feature","properties":{"tier":"high"},"geometry":{"type":"LineString","coordinates":[[140.769153,-36.305267],[140.768662,-36.305052],[140.768098,-36.304776],[140.767485,-36.304438]]}},{"type":"Feature","properties":{"tier":"high"},"geometry":{"type":"LineString","coordinates":[[140.774139,-36.30674],[140.773009,-36.30643],[140.770723,-36.305814],[140.769958,-36.30558],[140.769301,-36.305332],[140.769153,-36.305267]]}},{"type":"Feature","properties":{"tier":"high"},"geometry":{"type":"LineString","coordinates":[[140.760878,-36.300864],[140.760725,-36.300847],[140.76062,-36.300857],[140.760494,-36.300886]]}},{"type":"Feature","properties":{"tier":"high"},"geometry":{"type":"LineString","coordinates":[[140.757384,-36.298656],[140.757463,-36.298546],[140.75764,-36.298309]]}},{"type":"Feature","properties":{"tier":"high"},"geometry":{"type":"LineString","coordinates":[[140.774308,-36.306784],[140.774139,-36.30674]]}},{"type":"Feature","properties":{"tier":"high"},"geometry":{"type":"LineString","coordinates":[[140.775187,-36.307013],[140.774876,-36.306933]]}},{"type":"Feature","properties":{"tier":"high"},"geometry":{"type":"LineString","coordinates":[[140.774876,-36.306933],[140.774308,-36.306784]]}},{"type":"Feature","properties":{"tier":"regional"},"geometry":{"type":"LineString","coordinates":[[140.967777,-36.435696],[140.940401,-36.43585],[140.920086,-36.436009],[140.917488,-36.436769]]}},{"type":"Feature","properties":{"tier":"high"},"geometry":{"type":"LineString","coordinates":[[140.781107,-36.308597],[140.780609,-36.308478]]}},{"type":"Feature","properties":{"tier":"high"},"geometry":{"type":"LineString","coordinates":[[140.781107,-36.308597],[140.781161,-36.308591],[140.781365,-36.308634],[140.782165,-36.308809],[140.782575,-36.308898],[140.782797,-36.308934],[140.783985,-36.309128],[140.78472,-36.309232]]}},{"type":"Feature","properties":{"tier":"high"},"geometry":{"type":"LineString","coordinates":[[140.78472,-36.309232],[140.784661,-36.309227],[140.784361,-36.309201],[140.783595,-36.309116]]}},{"type":"Feature","properties":{"tier":"arterial"},"geometry":{"type":"LineString","coordinates":[[140.49998,-36.368305],[140.50546,-36.364886],[140.506898,-36.364178],[140.507003,-36.364151],[140.508335,-36.363815],[140.520159,-36.362519],[140.535672,-36.360843],[140.553053,-36.359001],[140.554327,-36.358871],[140.567065,-36.357439],[140.568368,-36.357403],[140.568932,-36.357387],[140.582386,-36.359858],[140.585516,-36.360361],[140.58981,-36.36105],[140.597857,-36.360428],[140.598878,-36.360573],[140.600539,-36.360808],[140.612856,-36.36245],[140.625172,-36.364161],[140.629989,-36.364809],[140.630338,-36.364848],[140.630686,-36.364874],[140.631052,-36.364886],[140.631468,-36.364875],[140.632117,-36.364823],[140.632487,-36.364765],[140.6328,-36.364712],[140.633217,-36.364615],[140.633599,-36.364514],[140.637897,-36.362796],[140.647853,-36.36143],[140.652617,-36.361603],[140.65326,-36.361707],[140.657144,-36.362968],[140.660512,-36.364047],[140.662037,-36.364368],[140.666442,-36.364534],[140.672314,-36.364755],[140.684814,-36.365077],[140.68542,-36.364982],[140.685688,-36.364891],[140.685909,-36.364773],[140.689661,-36.362212],[140.690141,-36.361868]]}},{"type":"Feature","properties":{"tier":"arterial"},"geometry":{"type":"LineString","coordinates":[[140.770132,-36.308785],[140.770409,-36.308764],[140.77074,-36.30877],[140.771055,-36.308779],[140.771407,-36.308817],[140.771987,-36.308876]]}},{"type":"Feature","properties":{"tier":"regional"},"geometry":{"type":"LineString","coordinates":[[140.690408,-36.358455],[140.690462,-36.358462],[140.690701,-36.358514],[140.691088,-36.358737],[140.691684,-36.359244],[140.692633,-36.360151]]}},{"type":"Feature","properties":{"tier":"regional"},"geometry":{"type":"LineString","coordinates":[[140.639289,-36.304701],[140.639499,-36.305106],[140.640004,-36.305818],[140.641001,-36.307197],[140.642172,-36.308797],[140.642917,-36.309986],[140.643592,-36.311179],[140.644151,-36.311983],[140.645417,-36.313042],[140.64841,-36.315311],[140.648518,-36.315393],[140.651527,-36.317684],[140.651756,-36.317857],[140.653501,-36.319175],[140.656543,-36.321522],[140.66223,-36.32581],[140.663402,-36.32695],[140.663851,-36.327722],[140.664247,-36.328898],[140.671478,-36.353014],[140.682679,-36.356263],[140.690408,-36.358455]]}},{"type":"Feature","properties":{"tier":"arterial"},"geometry":{"type":"LineString","coordinates":[[140.580287,-36.50002],[140.582322,-36.497821],[140.583421,-36.496046],[140.583845,-36.494112],[140.583722,-36.492544],[140.582129,-36.489213],[140.581463,-36.48735],[140.581334,-36.485538],[140.581791,-36.484143],[140.582842,-36.481693],[140.583244,-36.479983],[140.583566,-36.477913],[140.583588,-36.476532],[140.582257,-36.472529],[140.580648,-36.468163],[140.580583,-36.466576],[140.580755,-36.465351],[140.581227,-36.464471],[140.58348,-36.460622],[140.584274,-36.458948],[140.584596,-36.457965],[140.585347,-36.454202],[140.585497,-36.452977],[140.585969,-36.452045],[140.589124,-36.447108],[140.594038,-36.439755],[140.594125,-36.43962],[140.599343,-36.431626],[140.602234,-36.42736],[140.610345,-36.420781],[140.615645,-36.416672],[140.616954,-36.415083],[140.618199,-36.413978],[140.62535,-36.41113],[140.627382,-36.409833],[140.628884,-36.408348],[140.629506,-36.407623],[140.632138,-36.402197],[140.633111,-36.40018],[140.635214,-36.396311],[140.636351,-36.394843],[140.640198,-36.39197],[140.646509,-36.387374],[140.647638,-36.386552],[140.654829,-36.381313],[140.659231,-36.378106],[140.660405,-36.377154],[140.661027,-36.376515],[140.661457,-36.375822],[140.661564,-36.375651],[140.666005,-36.365543],[140.666442,-36.364534]]}},{"type":"Feature","properties":{"tier":"regional"},"geometry":{"type":"LineString","coordinates":[[140.586259,-36.208303],[140.586141,-36.208685],[140.586317,-36.20936],[140.587261,-36.210935],[140.588265,-36.212805],[140.588823,-36.213965],[140.589299,-36.216545],[140.589921,-36.220492],[140.590089,-36.22501],[140.590351,-36.232193],[140.591037,-36.235291],[140.592475,-36.241643],[140.591445,-36.246575],[140.589917,-36.24924],[140.589235,-36.252784],[140.589063,-36.254864],[140.589131,-36.255399],[140.589878,-36.261145],[140.589299,-36.263671],[140.589406,-36.26592],[140.590029,-36.269276],[140.59335,-36.277095],[140.593586,-36.281351],[140.593462,-36.282215],[140.593501,-36.285],[140.593651,-36.287197],[140.594445,-36.289653],[140.594857,-36.290898],[140.5949,-36.297297],[140.595076,-36.306389],[140.595187,-36.308931]]}},{"type":"Feature","properties":{"tier":"arterial"},"geometry":{"type":"LineString","coordinates":[[140.7593,-36.308498],[140.760523,-36.308609],[140.76113,-36.308664],[140.762841,-36.308811],[140.763002,-36.308821],[140.764753,-36.30898]]}},{"type":"Feature","properties":{"tier":"arterial"},"geometry":{"type":"LineString","coordinates":[[140.764753,-36.30898],[140.765314,-36.309052],[140.765811,-36.309067],[140.766209,-36.30905],[140.766554,-36.309036],[140.767478,-36.308965],[140.768744,-36.308867],[140.769546,-36.308805],[140.770132,-36.308785]]}},{"type":"Feature","properties":{"tier":"high"},"geometry":{"type":"LineString","coordinates":[[140.77864,-36.307976],[140.778254,-36.307872],[140.77765,-36.307716],[140.776743,-36.307464],[140.776225,-36.307324],[140.775841,-36.307184]]}},{"type":"Feature","properties":{"tier":"high"},"geometry":{"type":"LineString","coordinates":[[140.775841,-36.307184],[140.775187,-36.307013]]}},{"type":"Feature","properties":{"tier":"high"},"geometry":{"type":"LineString","coordinates":[[140.775841,-36.307184],[140.77625,-36.307273],[140.776903,-36.307447],[140.777978,-36.307726],[140.778947,-36.307991]]}},{"type":"Feature","properties":{"tier":"arterial"},"geometry":{"type":"LineString","coordinates":[[140.737359,-36.321755],[140.737389,-36.327488],[140.737624,-36.341904]]}},{"type":"Feature","properties":{"tier":"arterial"},"geometry":{"type":"LineString","coordinates":[[140.737574,-36.366236],[140.737765,-36.38736],[140.737895,-36.389943],[140.738071,-36.392656],[140.738286,-36.410685],[140.738361,-36.413336],[140.73843,-36.430637],[140.738476,-36.435053],[140.738538,-36.43932],[140.738559,-36.448314],[140.738666,-36.448969],[140.739796,-36.454745],[140.740722,-36.458685],[140.74203,-36.46371],[140.743233,-36.468091],[140.747471,-36.482979],[140.747679,-36.484569],[140.748203,-36.492958],[140.748242,-36.493384],[140.748295,-36.494152],[140.748507,-36.496997],[140.748508,-36.498089],[140.748354,-36.498749],[140.748227,-36.499264],[140.74786,-36.50002]]}},{"type":"Feature","properties":{"tier":"arterial"},"geometry":{"type":"LineString","coordinates":[[140.771629,-36.312685],[140.771402,-36.312661]]}},{"type":"Feature","properties":{"tier":"arterial"},"geometry":{"type":"LineString","coordinates":[[140.778701,-36.308255],[140.778719,-36.308154],[140.778719,-36.308101],[140.778701,-36.308059],[140.77868,-36.308021],[140.77864,-36.307976]]}},{"type":"Feature","properties":{"tier":"arterial"},"geometry":{"type":"LineString","coordinates":[[140.779389,-36.308179],[140.779194,-36.308159],[140.779097,-36.308163],[140.778981,-36.308172],[140.77889,-36.308191],[140.778803,-36.308217],[140.778701,-36.308255]]}},{"type":"Feature","properties":{"tier":"high"},"geometry":{"type":"LineString","coordinates":[[140.49998,-36.174678],[140.500707,-36.17491],[140.501723,-36.175276],[140.504965,-36.176457],[140.514549,-36.179931],[140.524513,-36.183565],[140.534937,-36.187334],[140.544521,-36.19083],[140.55227,-36.193629],[140.554519,-36.194441],[140.557429,-36.195499],[140.5648,-36.198177],[140.570351,-36.200193],[140.571082,-36.200471],[140.571867,-36.200837],[140.572666,-36.201258],[140.57341,-36.201673],[140.573999,-36.202066],[140.574716,-36.20258],[140.576355,-36.203759],[140.577126,-36.204278],[140.577817,-36.204704],[140.5785,-36.20512],[140.580715,-36.206289],[140.582008,-36.206876],[140.58308,-36.207316],[140.584439,-36.20778],[140.585463,-36.208096],[140.586259,-36.208303],[140.58665,-36.208405],[140.588096,-36.208815],[140.588192,-36.208842],[140.589178,-36.20917],[140.590068,-36.209517],[140.590552,-36.209699],[140.591609,-36.210197],[140.595256,-36.212097],[140.604771,-36.217109],[140.614391,-36.222129],[140.621561,-36.225921],[140.625227,-36.227836],[140.634848,-36.232909],[140.644391,-36.237873],[140.648687,-36.240129],[140.650403,-36.241029],[140.652643,-36.242205],[140.662062,-36.247122],[140.664225,-36.248242],[140.665613,-36.249021],[140.666743,-36.249678],[140.667997,-36.250481],[140.669289,-36.251214],[140.670763,-36.25197],[140.671647,-36.252401],[140.672764,-36.252827],[140.673955,-36.253287]]}},{"type":"Feature","properties":{"tier":"arterial"},"geometry":{"type":"LineString","coordinates":[[140.774613,-36.308378],[140.774915,-36.308412],[140.775489,-36.30847],[140.775815,-36.308503],[140.776112,-36.308533],[140.777213,-36.308644]]}},{"type":"Feature","properties":{"tier":"regional"},"geometry":{"type":"LineString","coordinates":[[140.771402,-36.312661],[140.77092,-36.312618],[140.770463,-36.312568],[140.770386,-36.31256],[140.77024,-36.312561],[140.76952,-36.312601],[140.768152,-36.312644],[140.76682,-36.312706],[140.766152,-36.312737],[140.765648,-36.31276],[140.764525,-36.312812],[140.764241,-36.312837]]}},{"type":"Feature","properties":{"tier":"arterial"},"geometry":{"type":"LineString","coordinates":[[140.67084,-36.177932],[140.670754,-36.177611],[140.670587,-36.176736],[140.670252,-36.175021],[140.669949,-36.173472],[140.669785,-36.172807],[140.669627,-36.172381],[140.669451,-36.172003],[140.668995,-36.171051],[140.668896,-36.170814],[140.668807,-36.170539],[140.668725,-36.170223],[140.668678,-36.169954],[140.668645,-36.169626],[140.668629,-36.168878],[140.668619,-36.167027],[140.668568,-36.157882],[140.668597,-36.157479],[140.668682,-36.15704],[140.668818,-36.156626],[140.669067,-36.15606],[140.669396,-36.155411],[140.669925,-36.154298],[140.670036,-36.153961],[140.670127,-36.153591],[140.670289,-36.152753],[140.670366,-36.152437],[140.6705,-36.152093],[140.670636,-36.151786],[140.670836,-36.151455],[140.67108,-36.151114],[140.672777,-36.148903],[140.67416,-36.147128],[140.674481,-36.146762],[140.674813,-36.146454],[140.675027,-36.146276],[140.67573,-36.145803],[140.680304,-36.142961],[140.680745,-36.142553],[140.680993,-36.142286],[140.68121,-36.141975],[140.681396,-36.141683],[140.681538,-36.141397],[140.681758,-36.140773],[140.682686,-36.137375],[140.683003,-36.136189],[140.683122,-36.135863],[140.68332,-36.135463],[140.683514,-36.135117],[140.683733,-36.134817],[140.684079,-36.134382],[140.684236,-36.134183],[140.688288,-36.129025],[140.692668,-36.123316],[140.694598,-36.120782],[140.695832,-36.119168],[140.696341,-36.118492],[140.697567,-36.116923],[140.698412,-36.115825],[140.699721,-36.114202],[140.701022,-36.112578],[140.701753,-36.111731],[140.703963,-36.109193],[140.706325,-36.106492],[140.707473,-36.105183],[140.707969,-36.104605],[140.708313,-36.104099],[140.708553,-36.103702],[140.708707,-36.10336],[140.71089,-36.096169],[140.711742,-36.093326],[140.711939,-36.09275],[140.712082,-36.092411],[140.712281,-36.092061],[140.712527,-36.091731],[140.712818,-36.091389],[140.713258,-36.090978],[140.71474,-36.089767],[140.716434,-36.088416],[140.717102,-36.087876],[140.718435,-36.086801],[140.718741,-36.086526],[140.719012,-36.086235],[140.719296,-36.085853],[140.719541,-36.085419],[140.71972,-36.084991],[140.719827,-36.084639],[140.720115,-36.082928],[140.720712,-36.079721],[140.720919,-36.078476],[140.721022,-36.078036],[140.72121,-36.077563],[140.721717,-36.076763],[140.722285,-36.076172],[140.723051,-36.075604],[140.724152,-36.074879],[140.725506,-36.073987],[140.726044,-36.073621],[140.726385,-36.073392],[140.726746,-36.073113],[140.727093,-36.072753],[140.728039,-36.071772],[140.729402,-36.070378],[140.731169,-36.068578],[140.732629,-36.067079],[140.734694,-36.064967],[140.736848,-36.062777],[140.741273,-36.058257],[140.742477,-36.057021],[140.743587,-36.055874],[140.744688,-36.054761],[140.745482,-36.053951],[140.745946,-36.053469],[140.746994,-36.052408],[140.747505,-36.051878],[140.748062,-36.051315],[140.748974,-36.050384],[140.74934,-36.050018],[140.749869,-36.049473],[140.749972,-36.049358],[140.75011,-36.049205],[140.750437,-36.048762],[140.750439,-36.048752],[140.750643,-36.048369],[140.750802,-36.04799],[140.750914,-36.047653],[140.750966,-36.047314],[140.751022,-36.046773],[140.750946,-36.045801],[140.750867,-36.044564],[140.750804,-36.043794],[140.75069,-36.042368],[140.750613,-36.041279],[140.750193,-36.034158],[140.750181,-36.027279],[140.750175,-36.024351],[140.750123,-35.99998]]}},{"type":"Feature","properties":{"tier":"arterial"},"geometry":{"type":"LineString","coordinates":[[140.673955,-36.253287],[140.673998,-36.252713],[140.67407,-36.252093],[140.674138,-36.251385],[140.674073,-36.24365],[140.674009,-36.242889],[140.670316,-36.229436],[140.670125,-36.228645],[140.670075,-36.228148],[140.670045,-36.227753],[140.670031,-36.222614],[140.67009,-36.222016],[140.670196,-36.221483],[140.672956,-36.208563],[140.673059,-36.208228],[140.673226,-36.207781],[140.673388,-36.207441],[140.674807,-36.204751],[140.677696,-36.199286],[140.678236,-36.198264],[140.679155,-36.196525],[140.679336,-36.19612],[140.679465,-36.195712],[140.679545,-36.195283],[140.679618,-36.194432],[140.679605,-36.191291],[140.679584,-36.189748],[140.679554,-36.189428],[140.67933,-36.188633],[140.677867,-36.184593],[140.677662,-36.184075],[140.67758,-36.183903],[140.677358,-36.183515],[140.677135,-36.183211],[140.67687,-36.182919],[140.676597,-36.182665],[140.676272,-36.182423],[140.675927,-36.182189],[140.672392,-36.180084],[140.672098,-36.179853],[140.671885,-36.179644],[140.671563,-36.179298],[140.671207,-36.178811],[140.671035,-36.178447],[140.67084,-36.177932]]}},{"type":"Feature","properties":{"tier":"regional"},"geometry":{"type":"LineString","coordinates":[[140.915922,-36.436061],[140.915879,-36.43582],[140.914292,-36.432298],[140.914034,-36.430951],[140.91295,-36.428804],[140.900687,-36.418779],[140.897105,-36.41479],[140.889668,-36.406357],[140.88777,-36.404204],[140.884007,-36.399944],[140.883914,-36.399839],[140.881646,-36.396615],[140.881506,-36.396416],[140.879767,-36.393945],[140.878114,-36.391682],[140.875427,-36.389716],[140.875102,-36.389461],[140.8741,-36.388675],[140.873349,-36.388203],[140.873162,-36.388132],[140.872883,-36.388027],[140.872006,-36.387809],[140.87145,-36.387712],[140.871018,-36.387679],[140.870573,-36.38771],[140.870116,-36.387789],[140.86361,-36.389455],[140.857105,-36.39112],[140.856436,-36.391251],[140.855722,-36.391318],[140.854909,-36.39131],[140.848457,-36.39079],[140.843198,-36.390366],[140.842004,-36.39027],[140.84132,-36.390183],[140.840648,-36.390031],[140.834562,-36.388505],[140.828476,-36.386979],[140.827788,-36.386828],[140.827089,-36.38671],[140.819221,-36.385871],[140.8189,-36.385836],[140.811353,-36.385031],[140.810694,-36.38498],[140.809996,-36.384989],[140.809358,-36.385054],[140.808751,-36.385191],[140.808215,-36.385344],[140.806052,-36.386238],[140.805487,-36.386437],[140.80488,-36.386567],[140.802175,-36.386944],[140.799467,-36.387322]]}},{"type":"Feature","properties":{"tier":"regional"},"geometry":{"type":"LineString","coordinates":[[140.912556,-36.366407],[140.913122,-36.366447],[140.91328,-36.366447],[140.913586,-36.36645],[140.914164,-36.366401],[140.914453,-36.366392],[140.914689,-36.366398],[140.915033,-36.366423],[140.923402,-36.367622],[140.931706,-36.368826],[140.94001,-36.370029],[140.948314,-36.371232],[140.951954,-36.37176],[140.956618,-36.372436],[140.965156,-36.373652],[140.965695,-36.373723],[140.966463,-36.373775],[140.967077,-36.373844],[140.967937,-36.373952],[140.968302,-36.374003],[140.968872,-36.374078],[140.969777,-36.37421],[140.971374,-36.37443],[140.972435,-36.37458],[140.972938,-36.374651],[140.973574,-36.374757],[140.973967,-36.374814],[140.974575,-36.374893],[140.974959,-36.374931],[140.975324,-36.37496],[140.976094,-36.375005],[140.979534,-36.375003],[140.980627,-36.375002],[140.98115,-36.375014]]}},{"type":"Feature","properties":{"tier":"regional"},"geometry":{"type":"LineString","coordinates":[[140.912556,-36.366407],[140.91257,-36.366074]]}},{"type":"Feature","properties":{"tier":"regional"},"geometry":{"type":"LineString","coordinates":[[140.912569,-36.359244],[140.912529,-36.359843],[140.912545,-36.362429],[140.912552,-36.363338],[140.912561,-36.364081],[140.912576,-36.364777]]}},{"type":"Feature","properties":{"tier":"regional"},"geometry":{"type":"LineString","coordinates":[[140.912576,-36.364777],[140.912572,-36.365587],[140.912584,-36.365895],[140.91257,-36.366074]]}},{"type":"Feature","properties":{"tier":"regional"},"geometry":{"type":"LineString","coordinates":[[140.897534,-36.363854],[140.902898,-36.364685]]}},{"type":"Feature","properties":{"tier":"high"},"geometry":{"type":"LineString","coordinates":[[140.791764,-36.30996],[140.790883,-36.309823],[140.78996,-36.309708],[140.78818,-36.309527],[140.787671,-36.309476],[140.787468,-36.309455],[140.786624,-36.309373],[140.785648,-36.3093],[140.78472,-36.309232]]}},{"type":"Feature","properties":{"tier":"high"},"geometry":{"type":"LineString","coordinates":[[140.767347,-36.304778],[140.767348,-36.304571],[140.767302,-36.304394],[140.767243,-36.304314],[140.767144,-36.304207]]}},{"type":"Feature","properties":{"tier":"high"},"geometry":{"type":"LineString","coordinates":[[140.915298,-36.326362],[140.914521,-36.326245],[140.913754,-36.326129],[140.912318,-36.325927],[140.890094,-36.322526],[140.878231,-36.320566],[140.87448,-36.319988],[140.873331,-36.319855],[140.872138,-36.319752],[140.870887,-36.319714],[140.870703,-36.319711],[140.869276,-36.319688],[140.869067,-36.319705],[140.86871,-36.319741],[140.868041,-36.319801],[140.867112,-36.319917],[140.864191,-36.320264],[140.862909,-36.320416],[140.856639,-36.321242],[140.849435,-36.322253],[140.848853,-36.322297],[140.848399,-36.3223],[140.847888,-36.322301],[140.847421,-36.322287],[140.84679,-36.322239],[140.845705,-36.322097],[140.818724,-36.317862],[140.818254,-36.317783],[140.80943,-36.316302],[140.808883,-36.316188],[140.808257,-36.316001],[140.808092,-36.315963],[140.807349,-36.315709],[140.807154,-36.315639],[140.802974,-36.314007],[140.80282,-36.313949],[140.802269,-36.313747],[140.802085,-36.313678],[140.79884,-36.312406],[140.798679,-36.312343],[140.795049,-36.310878],[140.79457,-36.310701],[140.79398,-36.310503],[140.793122,-36.310261],[140.792384,-36.310084],[140.791764,-36.30996]]}},{"type":"Feature","properties":{"tier":"high"},"geometry":{"type":"LineString","coordinates":[[140.673955,-36.253287],[140.675711,-36.25404],[140.676804,-36.254539],[140.683924,-36.258258],[140.691044,-36.262023],[140.694001,-36.263571],[140.695852,-36.26454],[140.697302,-36.265299],[140.698163,-36.26575],[140.705264,-36.269484],[140.712384,-36.273187],[140.719523,-36.276851],[140.726642,-36.280569],[140.72747,-36.281001],[140.733537,-36.284126],[140.73991,-36.287497],[140.746059,-36.290707],[140.747302,-36.291409],[140.747957,-36.29182],[140.748744,-36.292347]]}},{"type":"Feature","properties":{"tier":"high"},"geometry":{"type":"LineString","coordinates":[[140.765101,-36.30301],[140.762225,-36.3016],[140.761512,-36.301232],[140.760878,-36.300864],[140.760656,-36.300736],[140.760465,-36.300609],[140.759378,-36.29989],[140.758747,-36.299467],[140.758227,-36.299141],[140.757536,-36.29874],[140.757384,-36.298656],[140.756916,-36.2984],[140.756109,-36.297952],[140.755659,-36.297689],[140.75511,-36.297369],[140.754731,-36.297108]]}},{"type":"Feature","properties":{"tier":"high"},"geometry":{"type":"LineString","coordinates":[[140.76756,-36.304357],[140.767656,-36.30442],[140.768134,-36.304716],[140.768635,-36.304999],[140.769153,-36.305267]]}},{"type":"Feature","properties":{"tier":"arterial"},"geometry":{"type":"LineString","coordinates":[[140.692633,-36.360151],[140.693876,-36.359308],[140.694803,-36.358665],[140.695114,-36.358501]]}},{"type":"Feature","properties":{"tier":"arterial"},"geometry":{"type":"LineString","coordinates":[[140.695114,-36.358501],[140.698284,-36.357354],[140.701395,-36.35622],[140.705166,-36.354847],[140.70639,-36.354301],[140.706898,-36.35392],[140.707269,-36.353602],[140.709115,-36.351114],[140.709993,-36.350257],[140.71008,-36.350205],[140.711132,-36.349577],[140.718718,-36.346603],[140.71892,-36.346524],[140.725122,-36.344236],[140.729268,-36.343127],[140.737323,-36.341944]]}},{"type":"Feature","properties":{"tier":"arterial"},"geometry":{"type":"LineString","coordinates":[[140.690141,-36.361868],[140.691339,-36.361062],[140.692633,-36.360151]]}},{"type":"Feature","properties":{"tier":"arterial"},"geometry":{"type":"LineString","coordinates":[[140.799621,-36.387654],[140.799547,-36.38749]]}},{"type":"Feature","properties":{"tier":"arterial"},"geometry":{"type":"LineString","coordinates":[[140.799547,-36.38749],[140.799467,-36.387322],[140.799059,-36.386396],[140.798816,-36.385937],[140.79844,-36.385526],[140.797994,-36.385204],[140.79483,-36.383474],[140.794368,-36.383081],[140.794028,-36.382627],[140.793796,-36.382129],[140.792323,-36.376899],[140.790849,-36.371669],[140.790691,-36.371367],[140.790451,-36.371082],[140.78727,-36.367914],[140.786136,-36.366784],[140.782054,-36.362771],[140.77839,-36.35916],[140.778186,-36.358958],[140.777521,-36.358111],[140.774323,-36.352253],[140.771125,-36.346395],[140.767927,-36.340536],[140.767819,-36.34017],[140.767815,-36.339915],[140.767812,-36.339795],[140.767912,-36.339102],[140.768299,-36.336414],[140.768753,-36.333263],[140.769206,-36.330113],[140.769258,-36.329482],[140.769189,-36.328901],[140.769001,-36.32832],[140.76864,-36.327649]]}},{"type":"Feature","properties":{"tier":"high"},"geometry":{"type":"LineString","coordinates":[[140.767485,-36.304438],[140.767144,-36.304207]]}},{"type":"Feature","properties":{"tier":"high"},"geometry":{"type":"LineString","coordinates":[[140.778947,-36.307991],[140.780236,-36.308344],[140.780609,-36.308478]]}},{"type":"Feature","properties":{"tier":"high"},"geometry":{"type":"LineString","coordinates":[[140.780609,-36.308478],[140.780221,-36.308404],[140.779389,-36.308179]]}},{"type":"Feature","properties":{"tier":"arterial"},"geometry":{"type":"LineString","coordinates":[[140.772103,-36.308129],[140.772063,-36.30839],[140.771987,-36.308876]]}},{"type":"Feature","properties":{"tier":"arterial"},"geometry":{"type":"LineString","coordinates":[[140.772103,-36.308129],[140.77221,-36.30814],[140.772304,-36.308149],[140.772363,-36.308155],[140.772593,-36.308178],[140.772956,-36.308215],[140.773043,-36.308223]]}},{"type":"Feature","properties":{"tier":"arterial"},"geometry":{"type":"LineString","coordinates":[[140.773043,-36.308223],[140.773143,-36.308234],[140.773897,-36.30831],[140.773981,-36.308318]]}},{"type":"Feature","properties":{"tier":"arterial"},"geometry":{"type":"LineString","coordinates":[[140.76756,-36.304357],[140.767485,-36.304438]]}},{"type":"Feature","properties":{"tier":"arterial"},"geometry":{"type":"LineString","coordinates":[[140.778701,-36.308255],[140.778852,-36.308098],[140.778898,-36.308046]]}},{"type":"Feature","properties":{"tier":"arterial"},"geometry":{"type":"LineString","coordinates":[[140.767485,-36.304438],[140.767347,-36.304778]]}},{"type":"Feature","properties":{"tier":"regional"},"geometry":{"type":"LineString","coordinates":[[140.917488,-36.436769],[140.917055,-36.43688],[140.916544,-36.437011],[140.916351,-36.43689],[140.915922,-36.436061]]}},{"type":"Feature","properties":{"tier":"high"},"geometry":{"type":"LineString","coordinates":[[140.963917,-36.343596],[140.963134,-36.34348],[140.962556,-36.343379],[140.961925,-36.343241],[140.961365,-36.343083],[140.960717,-36.342864],[140.959899,-36.342535],[140.959043,-36.342115],[140.958518,-36.341804],[140.958028,-36.341464],[140.957257,-36.340902],[140.956416,-36.340201],[140.953433,-36.33771],[140.947849,-36.333093],[140.947062,-36.332493],[140.946433,-36.332098],[140.945811,-36.331784],[140.945213,-36.331538],[140.944647,-36.331297],[140.94412,-36.331122],[140.943686,-36.331001],[140.943327,-36.330905],[140.942995,-36.330839],[140.942595,-36.330754],[140.942082,-36.330675],[140.941245,-36.33054],[140.936949,-36.329902],[140.933171,-36.32926],[140.927869,-36.328373],[140.9237,-36.327783],[140.918338,-36.326834],[140.915516,-36.326396],[140.915298,-36.326362]]}},{"type":"Feature","properties":{"tier":"high"},"geometry":{"type":"LineString","coordinates":[[140.779389,-36.308179],[140.778898,-36.308046]]}},{"type":"Feature","properties":{"tier":"high"},"geometry":{"type":"LineString","coordinates":[[140.767144,-36.304207],[140.766469,-36.303793],[140.765953,-36.303475],[140.765101,-36.30301]]}},{"type":"Feature","properties":{"tier":"high"},"geometry":{"type":"LineString","coordinates":[[140.748744,-36.292347],[140.749411,-36.292889],[140.750351,-36.293669],[140.751873,-36.294988],[140.752893,-36.295834],[140.753522,-36.296284],[140.753996,-36.296633],[140.754305,-36.296842],[140.754599,-36.297023],[140.754731,-36.297108]]}},{"type":"Feature","properties":{"tier":"regional"},"geometry":{"type":"LineString","coordinates":[[140.771269,-36.315133],[140.772615,-36.315256],[140.773151,-36.315306]]}},{"type":"Feature","properties":{"tier":"regional"},"geometry":{"type":"LineString","coordinates":[[140.773151,-36.315306],[140.773299,-36.31532]]}},{"type":"Feature","properties":{"tier":"arterial"},"geometry":{"type":"LineString","coordinates":[[140.737323,-36.341944],[140.737344,-36.343944],[140.737518,-36.360483],[140.737547,-36.363265],[140.737573,-36.366095]]}},{"type":"Feature","properties":{"tier":"arterial"},"geometry":{"type":"LineString","coordinates":[[140.737573,-36.366095],[140.737574,-36.366236]]}},{"type":"Feature","properties":{"tier":"high"},"geometry":{"type":"LineString","coordinates":[[140.969901,-36.34472],[140.969184,-36.344543],[140.968622,-36.344381]]}},{"type":"Feature","properties":{"tier":"high"},"geometry":{"type":"LineString","coordinates":[[140.968368,-36.344317],[140.968209,-36.344281],[140.967802,-36.344199],[140.96723,-36.344094]]}},{"type":"Feature","properties":{"tier":"high"},"geometry":{"type":"LineString","coordinates":[[140.968622,-36.344381],[140.968368,-36.344317]]}},{"type":"Feature","properties":{"tier":"high"},"geometry":{"type":"LineString","coordinates":[[140.96723,-36.344094],[140.965945,-36.343888]]}},{"type":"Feature","properties":{"tier":"high"},"geometry":{"type":"LineString","coordinates":[[140.965945,-36.343888],[140.964453,-36.343672],[140.963917,-36.343596]]}},{"type":"Feature","properties":{"tier":"arterial"},"geometry":{"type":"LineString","coordinates":[[140.778898,-36.308046],[140.778947,-36.307991]]}},{"type":"Feature","properties":{"tier":"high"},"geometry":{"type":"LineString","coordinates":[[140.778898,-36.308046],[140.77864,-36.307976]]}},{"type":"Feature","properties":{"tier":"high"},"geometry":{"type":"LineString","coordinates":[[140.783595,-36.309116],[140.783081,-36.309041],[140.782556,-36.30896]]}},{"type":"Feature","properties":{"tier":"high"},"geometry":{"type":"LineString","coordinates":[[140.782556,-36.30896],[140.782195,-36.308892],[140.781842,-36.3088],[140.781218,-36.308639],[140.781107,-36.308597]]}},{"type":"Feature","properties":{"tier":"regional"},"geometry":{"type":"LineString","coordinates":[[140.764241,-36.312837],[140.763852,-36.312917],[140.763086,-36.313194],[140.762206,-36.313511],[140.761291,-36.31384],[140.760404,-36.314179],[140.759855,-36.314371],[140.758442,-36.314866],[140.755337,-36.315984]]}},{"type":"Feature","properties":{"tier":"regional"},"geometry":{"type":"LineString","coordinates":[[140.755337,-36.315984],[140.754509,-36.316282],[140.753704,-36.316606],[140.751996,-36.317377],[140.751472,-36.317597],[140.750878,-36.317837],[140.750265,-36.318025],[140.74896,-36.318365]]}},{"type":"Feature","properties":{"tier":"high"},"geometry":{"type":"LineString","coordinates":[[140.755709,-36.297653],[140.755871,-36.297706],[140.756008,-36.297725],[140.756182,-36.297714],[140.756323,-36.297669],[140.75654,-36.297534]]}},{"type":"Feature","properties":{"tier":"arterial"},"geometry":{"type":"LineString","coordinates":[[140.777213,-36.308644],[140.777665,-36.30869],[140.777983,-36.308676],[140.778357,-36.308568],[140.778425,-36.308506],[140.778701,-36.308255]]}},{"type":"Feature","properties":{"tier":"arterial"},"geometry":{"type":"LineString","coordinates":[[140.773981,-36.308318],[140.774128,-36.308333],[140.774368,-36.308357],[140.774445,-36.308362]]}},{"type":"Feature","properties":{"tier":"arterial"},"geometry":{"type":"LineString","coordinates":[[140.774445,-36.308362],[140.774613,-36.308378]]}}]}
