{"type":"FeatureCollection","features":[{"type":"Feature","properties":{"tier":"arterial"},"geometry":{"type":"LineString","coordinates":[[140.72319,-27.99998],[140.723011,-28.005077],[140.722945,-28.009068],[140.722915,-28.009512],[140.722844,-28.01201],[140.722844,-28.012373],[140.722844,-28.01308],[140.722769,-28.015215],[140.722763,-28.016481],[140.722694,-28.019385],[140.72266,-28.020026],[140.722464,-28.02134],[140.722425,-28.022011],[140.722439,-28.022455],[140.722498,-28.022894],[140.722545,-28.023112],[140.722735,-28.023755],[140.7233,-28.025397],[140.723691,-28.026592],[140.723961,-28.027632],[140.724033,-28.028048],[140.724071,-28.028477],[140.724076,-28.028904],[140.724045,-28.029334],[140.723977,-28.029765],[140.723803,-28.03063],[140.723742,-28.031065],[140.723709,-28.031505],[140.723714,-28.032161],[140.723738,-28.032381],[140.723817,-28.032804],[140.724036,-28.033621],[140.724162,-28.034245],[140.724253,-28.034876],[140.724299,-28.035768],[140.724247,-28.038261],[140.724169,-28.040533],[140.724082,-28.041416],[140.724007,-28.041861],[140.723856,-28.042536],[140.723667,-28.043191],[140.723367,-28.044064],[140.722713,-28.045823],[140.722377,-28.046871],[140.722226,-28.047248],[140.722054,-28.047617],[140.721371,-28.048856],[140.721211,-28.049233],[140.72109,-28.049619],[140.721006,-28.050011],[140.72095,-28.050407],[140.720925,-28.050797],[140.720929,-28.051193],[140.720965,-28.051589],[140.721037,-28.051989],[140.721421,-28.053344],[140.721596,-28.054126],[140.721641,-28.054513],[140.721651,-28.0549],[140.721624,-28.055295],[140.721564,-28.0557],[140.721419,-28.056299],[140.721077,-28.057244],[140.720567,-28.058485],[140.720039,-28.059848],[140.719477,-28.061211]]}},{"type":"Feature","properties":{"tier":"arterial"},"geometry":{"type":"LineString","coordinates":[[140.694584,-28.129371],[140.693611,-28.129152],[140.691643,-28.128764],[140.690884,-28.128587],[140.688766,-28.12817],[140.684816,-28.127344],[140.681721,-28.126725],[140.678283,-28.126003],[140.677532,-28.125845],[140.675558,-28.125444],[140.674016,-28.125149],[140.668768,-28.124079],[140.668311,-28.123977],[140.667868,-28.123845],[140.667423,-28.123677],[140.667014,-28.123468],[140.666821,-28.123343],[140.666466,-28.123076],[140.666009,-28.122622],[140.665303,-28.121805],[140.663663,-28.119836],[140.663345,-28.119335],[140.663261,-28.119165],[140.663116,-28.118815],[140.663002,-28.118447],[140.662918,-28.117864],[140.662905,-28.117048],[140.663162,-28.110309],[140.663199,-28.108785],[140.663263,-28.107475],[140.663296,-28.106187],[140.663244,-28.105558],[140.663155,-28.10514],[140.663005,-28.104739],[140.662896,-28.104554],[140.662759,-28.104384],[140.662432,-28.104079],[140.662039,-28.103852],[140.661609,-28.103673],[140.660269,-28.10322],[140.659855,-28.103051],[140.65944,-28.102847],[140.659247,-28.102735],[140.658893,-28.102488],[140.658462,-28.10211],[140.657825,-28.10151],[140.657387,-28.10116],[140.6569,-28.10082],[140.656535,-28.100618],[140.656167,-28.10045],[140.65578,-28.100313],[140.655166,-28.100123],[140.652285,-28.099328],[140.650244,-28.098709],[140.649039,-28.098406],[140.647233,-28.097871],[140.644603,-28.097125],[140.64415,-28.09698],[140.642954,-28.09665],[140.642328,-28.096494],[140.641824,-28.096416],[140.641099,-28.096386],[140.63942,-28.096391],[140.638739,-28.096393],[140.637498,-28.096436],[140.636378,-28.09643],[140.635081,-28.096452],[140.633581,-28.096429],[140.631292,-28.096462],[140.630358,-28.096454],[140.629392,-28.096477],[140.627788,-28.096482],[140.627173,-28.096441],[140.626305,-28.096307],[140.625452,-28.096102],[140.624845,-28.095913],[140.621902,-28.094894],[140.621473,-28.094762],[140.621043,-28.094651],[140.620603,-28.094569],[140.620159,-28.094531],[140.618206,-28.094504],[140.617551,-28.09453],[140.617108,-28.094531],[140.615783,-28.094513],[140.614204,-28.094535],[140.613274,-28.094512],[140.609528,-28.09453],[140.609074,-28.094517],[140.607524,-28.094542],[140.606143,-28.094538],[140.605452,-28.094571],[140.604321,-28.094548],[140.600395,-28.094525],[140.596131,-28.09457],[140.592513,-28.094576],[140.591812,-28.094572],[140.591343,-28.094548],[140.590655,-28.094477],[140.589543,-28.094254],[140.582431,-28.092705],[140.580263,-28.092277],[140.579401,-28.092093],[140.578756,-28.091937],[140.577414,-28.091677],[140.573763,-28.090895],[140.572426,-28.090634],[140.57065,-28.090263],[140.569563,-28.090086],[140.568473,-28.089955],[140.566563,-28.089741]]}},{"type":"Feature","properties":{"tier":"arterial"},"geometry":{"type":"LineString","coordinates":[[140.562094,-28.089292],[140.5607,-28.0904]]}},{"type":"Feature","properties":{"tier":"arterial"},"geometry":{"type":"LineString","coordinates":[[140.719477,-28.061211],[140.718592,-28.063358],[140.717862,-28.065203],[140.717115,-28.066974],[140.716971,-28.067372],[140.716857,-28.067788],[140.716765,-28.068403],[140.71676,-28.068602],[140.716836,-28.070396],[140.716827,-28.071003],[140.716799,-28.071417],[140.716719,-28.072032],[140.716627,-28.07242],[140.716506,-28.072807],[140.715814,-28.07461],[140.715558,-28.07522],[140.715396,-28.075606],[140.714123,-28.078826],[140.711812,-28.085329],[140.711388,-28.086569],[140.711068,-28.087376],[140.710546,-28.088586],[140.709991,-28.0898],[140.709091,-28.091842],[140.707428,-28.095443],[140.707072,-28.096278],[140.706656,-28.097339],[140.705227,-28.100821],[140.704273,-28.103347],[140.703819,-28.104631],[140.702487,-28.108252],[140.70156,-28.110698],[140.700478,-28.113712],[140.698533,-28.119276],[140.697945,-28.120892],[140.697192,-28.122878],[140.695347,-28.12745],[140.694758,-28.128932],[140.694584,-28.129371]]}},{"type":"Feature","properties":{"tier":"arterial"},"geometry":{"type":"LineString","coordinates":[[140.5607,-28.0904],[140.55781,-28.09226],[140.55575,-28.09373],[140.55344,-28.09582],[140.55084,-28.09838],[140.54877,-28.10006],[140.54636,-28.1014],[140.54394,-28.10235],[140.5417,-28.10271],[140.53823,-28.10309],[140.53649,-28.10343],[140.5355,-28.10421],[140.53426,-28.10577],[140.53315,-28.10783],[140.5321,-28.10999],[140.53118,-28.1108],[140.529,-28.11244],[140.5274,-28.11362],[140.52686,-28.11455],[140.52634,-28.11628],[140.52558,-28.11714],[140.5229,-28.11959],[140.52097,-28.12177],[140.51873,-28.12504],[140.518143,-28.125962],[140.51722,-28.12741],[140.51452,-28.13135],[140.5131,-28.13343],[140.51185,-28.13566],[140.50954,-28.13857],[140.50842,-28.14036],[140.50764,-28.14282],[140.50621,-28.14718],[140.50579,-28.14952],[140.50546,-28.15278],[140.50515,-28.15542],[140.50411,-28.15935],[140.50344,-28.16191],[140.50284,-28.16294],[140.50263,-28.16387],[140.50193,-28.16667],[140.50124,-28.16752],[140.50037,-28.1688],[140.49998,-28.169145]]}},{"type":"Feature","properties":{"tier":"arterial"},"geometry":{"type":"LineString","coordinates":[[140.562094,-28.089292],[140.561093,-28.089119],[140.560706,-28.089036],[140.559732,-28.088776],[140.557319,-28.088073],[140.556778,-28.087936],[140.556006,-28.087701],[140.54382,-28.084281],[140.5409,-28.083497],[140.540075,-28.083248],[140.535377,-28.081954],[140.525848,-28.079237],[140.525353,-28.079117],[140.524741,-28.078931],[140.524124,-28.078789],[140.5233,-28.078565],[140.522873,-28.078481],[140.522446,-28.07842],[140.522021,-28.078385],[140.521124,-28.078367],[140.519078,-28.078429],[140.511102,-28.078574],[140.510167,-28.078605],[140.508289,-28.07862],[140.504807,-28.078685],[140.502948,-28.078691],[140.500611,-28.078726],[140.500156,-28.078743],[140.49998,-28.078759]]}},{"type":"Feature","properties":{"tier":"arterial"},"geometry":{"type":"LineString","coordinates":[[140.566563,-28.089741],[140.56607,-28.089686],[140.565244,-28.089578],[140.562094,-28.089292]]}}]}
