{"type":"FeatureCollection","features":[{"type":"Feature","properties":{"tier":"arterial"},"geometry":{"type":"LineString","coordinates":[[140.756704,-35.49998],[140.756672,-35.500065],[140.756271,-35.500778],[140.753391,-35.505557],[140.753242,-35.505819],[140.753092,-35.506113],[140.752977,-35.506392],[140.75283,-35.506833],[140.752748,-35.507189],[140.752681,-35.507644],[140.752665,-35.508089],[140.752683,-35.508474],[140.752741,-35.508876],[140.752873,-35.509426],[140.753051,-35.509884],[140.75317,-35.510191],[140.759658,-35.52688],[140.759797,-35.527254],[140.759898,-35.527607],[140.759949,-35.527844],[140.759995,-35.528194],[140.760063,-35.529049],[140.760664,-35.536651],[140.761023,-35.541179],[140.761066,-35.541577],[140.761134,-35.541947],[140.761237,-35.542324],[140.761353,-35.542652],[140.76229,-35.544773],[140.762463,-35.545162],[140.762632,-35.54559],[140.762768,-35.546007],[140.762876,-35.546459],[140.764245,-35.554112],[140.764264,-35.554531],[140.764245,-35.554938],[140.764202,-35.55525],[140.764139,-35.555602],[140.763999,-35.556086],[140.763004,-35.558386],[140.762833,-35.558834],[140.762707,-35.559256],[140.762633,-35.559669],[140.762585,-35.56014],[140.762592,-35.560693],[140.76359,-35.573302],[140.763629,-35.57389],[140.763627,-35.574393],[140.763597,-35.57507],[140.763291,-35.583202],[140.763284,-35.583659],[140.763341,-35.584216],[140.763459,-35.58474],[140.7636,-35.585135],[140.763766,-35.585495],[140.77004,-35.598326],[140.770242,-35.598769],[140.7704,-35.599249],[140.77047,-35.599645],[140.770528,-35.600072],[140.77053,-35.600659],[140.769432,-35.610309],[140.769435,-35.6109],[140.769512,-35.611539],[140.769644,-35.612015],[140.769889,-35.612613],[140.770162,-35.61311],[140.77446,-35.619529],[140.774702,-35.619877],[140.774916,-35.620228],[140.775116,-35.620631],[140.777482,-35.625796],[140.778895,-35.628827],[140.779062,-35.629185],[140.779217,-35.629714],[140.779313,-35.630184],[140.779354,-35.630663],[140.779357,-35.631014],[140.779333,-35.631355],[140.77927,-35.631701],[140.779149,-35.632158],[140.778812,-35.633186],[140.778562,-35.63395],[140.77758,-35.636947],[140.776398,-35.639822],[140.776212,-35.640334],[140.775903,-35.641105],[140.775795,-35.641498],[140.775725,-35.641866],[140.775684,-35.642229],[140.775674,-35.642558],[140.775684,-35.642865],[140.775729,-35.643229],[140.775802,-35.64361],[140.775901,-35.643931],[140.776032,-35.644283],[140.776158,-35.644591],[140.776382,-35.644989],[140.776588,-35.6453],[140.776825,-35.645611],[140.77712,-35.645939],[140.777355,-35.646169],[140.777618,-35.646415],[140.778029,-35.646755],[140.801967,-35.665476],[140.802548,-35.665968],[140.802966,-35.666416],[140.803302,-35.666874],[140.803481,-35.66718],[140.803669,-35.667555],[140.803826,-35.667941],[140.803963,-35.668368],[140.804029,-35.668681],[140.804072,-35.668985],[140.804099,-35.669341],[140.804093,-35.669741],[140.804014,-35.671107],[140.803919,-35.672701],[140.803897,-35.673082],[140.803884,-35.673307],[140.803656,-35.677218],[140.803551,-35.678706],[140.803491,-35.679078],[140.803349,-35.679586],[140.803276,-35.679777],[140.803199,-35.679961],[140.802663,-35.681057],[140.801776,-35.682817],[140.801696,-35.682972],[140.801604,-35.683174],[140.801407,-35.683735],[140.80133,-35.684053],[140.801288,-35.684261],[140.80126,-35.684485],[140.801244,-35.684734],[140.801238,-35.68517],[140.801514,-35.699056],[140.801783,-35.711171],[140.801798,-35.712308],[140.801856,-35.716325],[140.801861,-35.71683],[140.801882,-35.717213],[140.802778,-35.727604],[140.802794,-35.728028],[140.802768,-35.728397],[140.802605,-35.729948],[140.802557,-35.730407],[140.802518,-35.730792],[140.802461,-35.731374],[140.802309,-35.732882],[140.80224,-35.733443],[140.802146,-35.734003],[140.801425,-35.73825],[140.800466,-35.743729],[140.800446,-35.743829],[140.800166,-35.745423],[140.799285,-35.750478],[140.796659,-35.765543],[140.795473,-35.772324],[140.795139,-35.774226],[140.795047,-35.774845],[140.795013,-35.775356],[140.795005,-35.775651],[140.796183,-35.805769]]}},{"type":"Feature","properties":{"tier":"arterial"},"geometry":{"type":"LineString","coordinates":[[140.750123,-36.00002],[140.750106,-35.991899],[140.750081,-35.979873],[140.750085,-35.977247],[140.750104,-35.966332],[140.750036,-35.96592],[140.749819,-35.965134],[140.7492,-35.963617],[140.749001,-35.962987],[140.748918,-35.962558],[140.748872,-35.961893],[140.748995,-35.961131],[140.749137,-35.960598],[140.749374,-35.960045],[140.749835,-35.958975],[140.749952,-35.958614],[140.750091,-35.958005],[140.75009,-35.952372],[140.750159,-35.943493],[140.750167,-35.936115],[140.750202,-35.925589],[140.750227,-35.925269],[140.750239,-35.925122],[140.750282,-35.924888],[140.750319,-35.924692],[140.750383,-35.924477],[140.750429,-35.924321],[140.75053,-35.924056],[140.750643,-35.923814],[140.750738,-35.923634],[140.750853,-35.923428],[140.750946,-35.923293],[140.751042,-35.923149],[140.751163,-35.922978],[140.751292,-35.92282],[140.751431,-35.922658],[140.751524,-35.92255],[140.751667,-35.922406],[140.751791,-35.92229],[140.751882,-35.922209],[140.752007,-35.922096],[140.752161,-35.921978],[140.752319,-35.921853],[140.752416,-35.921787],[140.752503,-35.921726],[140.752699,-35.9216],[140.752916,-35.921473],[140.753081,-35.921376],[140.753187,-35.921322],[140.753356,-35.921234],[140.753686,-35.921082],[140.753975,-35.920967],[140.754221,-35.920879],[140.754732,-35.920696],[140.755451,-35.920432],[140.755842,-35.920284],[140.756214,-35.920144],[140.757201,-35.919788],[140.759634,-35.918895]]}},{"type":"Feature","properties":{"tier":"arterial"},"geometry":{"type":"LineString","coordinates":[[140.759634,-35.918895],[140.7674,-35.916047],[140.768073,-35.9158],[140.768626,-35.915599],[140.768949,-35.915477],[140.769178,-35.915389],[140.769324,-35.915329],[140.769568,-35.915224],[140.769823,-35.915106],[140.770015,-35.915008],[140.770247,-35.914884],[140.770494,-35.914745],[140.770653,-35.914641],[140.770876,-35.914497],[140.771028,-35.91439],[140.771162,-35.914291],[140.771485,-35.914025],[140.772311,-35.91334],[140.772965,-35.912789],[140.773333,-35.91248],[140.773761,-35.912123],[140.774192,-35.911762],[140.774618,-35.911407],[140.775526,-35.910642],[140.776011,-35.910243],[140.776202,-35.910069],[140.776309,-35.909974],[140.776458,-35.90983],[140.776613,-35.909668],[140.776715,-35.90956],[140.776867,-35.909368],[140.776983,-35.909217],[140.777097,-35.909062],[140.77724,-35.908817],[140.777364,-35.908564],[140.777428,-35.908425],[140.77756,-35.908116],[140.777674,-35.907818],[140.777744,-35.907588],[140.777807,-35.907313],[140.777851,-35.907014],[140.777873,-35.906815],[140.777899,-35.906389],[140.777918,-35.905751],[140.778456,-35.88403],[140.778865,-35.867295],[140.779141,-35.857496],[140.779155,-35.857268],[140.779171,-35.856957],[140.77921,-35.856566],[140.77925,-35.856297],[140.779294,-35.856085],[140.779354,-35.855856],[140.779427,-35.855605],[140.779486,-35.855419],[140.779592,-35.85512],[140.779662,-35.854936],[140.779827,-35.854545],[140.780065,-35.853993],[140.78051,-35.852939],[140.789986,-35.830821],[140.790422,-35.829804],[140.795937,-35.81693],[140.796187,-35.816329],[140.796259,-35.816138],[140.79629,-35.816047],[140.796337,-35.815897],[140.796385,-35.815734],[140.796427,-35.815569],[140.796462,-35.815415],[140.796488,-35.815271],[140.796517,-35.815079],[140.796531,-35.814906],[140.796544,-35.814739],[140.79656,-35.814467],[140.796558,-35.814321],[140.796553,-35.814062],[140.796538,-35.813753],[140.796514,-35.813144],[140.79634,-35.809274],[140.796337,-35.809191],[140.796183,-35.805769]]}}]}
