{"type":"FeatureCollection","features":[{"type":"Feature","properties":{"tier":"arterial"},"geometry":{"type":"LineString","coordinates":[[140.764036,-27.758129],[140.763455,-27.75784],[140.762933,-27.757639],[140.762387,-27.757489],[140.761703,-27.757372],[140.760971,-27.757302],[140.76013,-27.757285],[140.755866,-27.757385],[140.755141,-27.757381],[140.754222,-27.757308],[140.753718,-27.757227],[140.75319,-27.757081],[140.752919,-27.756996]]}},{"type":"Feature","properties":{"tier":"regional"},"geometry":{"type":"LineString","coordinates":[[140.736173,-27.747392],[140.73613,-27.747286],[140.736143,-27.747031],[140.736335,-27.746199],[140.736329,-27.744946],[140.736214,-27.744197],[140.736162,-27.74396],[140.735911,-27.743425]]}},{"type":"Feature","properties":{"tier":"arterial"},"geometry":{"type":"LineString","coordinates":[[140.746755,-27.827412],[140.746289,-27.830194],[140.745996,-27.831975],[140.745428,-27.835231],[140.745044,-27.837611],[140.744572,-27.840351],[140.744484,-27.840959],[140.74442,-27.841585],[140.744371,-27.842651],[140.744227,-27.850863],[140.744184,-27.851676],[140.74409,-27.852288],[140.743797,-27.853743],[140.74314,-27.856797],[140.742796,-27.858397],[140.74234,-27.86095],[140.741987,-27.863105],[140.741792,-27.864169],[140.741599,-27.865443],[140.741276,-27.867342],[140.740552,-27.87131],[140.739619,-27.876784],[140.738464,-27.883659],[140.737699,-27.888414],[140.737549,-27.88924],[140.737396,-27.889854],[140.737331,-27.890057],[140.737165,-27.890452],[140.736963,-27.890838],[140.736736,-27.891224],[140.736151,-27.892164],[140.73596,-27.892547],[140.73572,-27.893142],[140.735472,-27.893945],[140.735124,-27.895374],[140.734737,-27.896816],[140.73457,-27.897631],[140.73452,-27.898473],[140.734547,-27.898899],[140.734664,-27.899522],[140.735152,-27.901331],[140.735688,-27.903083],[140.736579,-27.906227],[140.736729,-27.906822],[140.736846,-27.907614],[140.736856,-27.90821],[140.736833,-27.908605],[140.736767,-27.909197],[140.73609,-27.913254],[140.735458,-27.917288],[140.735221,-27.918633],[140.735095,-27.919559],[140.73452,-27.923045],[140.734437,-27.923661],[140.732782,-27.933733],[140.732213,-27.937471],[140.731555,-27.941343],[140.730995,-27.944882],[140.730529,-27.947646],[140.730345,-27.949568],[140.730094,-27.953382],[140.729999,-27.955075],[140.729699,-27.959293],[140.729605,-27.960999],[140.729395,-27.963772],[140.729287,-27.964611],[140.728933,-27.96651],[140.728746,-27.967356],[140.728205,-27.970112],[140.728022,-27.970929],[140.72747,-27.973676],[140.726085,-27.980337],[140.725937,-27.980918],[140.725765,-27.981489],[140.724814,-27.984053],[140.724045,-27.986296],[140.723864,-27.986884],[140.723765,-27.987291],[140.723626,-27.988113],[140.723543,-27.98937],[140.723374,-27.994091],[140.723301,-27.995604],[140.723248,-27.998342],[140.723189,-28.00002]]}},{"type":"Feature","properties":{"tier":"arterial"},"geometry":{"type":"LineString","coordinates":[[140.99975,-27.717563],[140.999141,-27.718187],[140.99902,-27.718303],[140.99846,-27.718839],[140.99816,-27.719054],[140.997996,-27.719149],[140.997639,-27.719299],[140.997446,-27.719354],[140.997245,-27.719393],[140.996826,-27.719423],[140.995564,-27.719382],[140.995545,-27.719382],[140.995241,-27.719372],[140.994764,-27.719382],[140.994445,-27.71941],[140.994134,-27.71948],[140.993672,-27.719644],[140.993372,-27.719795],[140.993075,-27.719987],[140.992797,-27.720219],[140.99267,-27.720344],[140.992392,-27.720676],[140.992305,-27.72078],[140.991649,-27.721684],[140.991388,-27.722044],[140.990062,-27.723826],[140.989339,-27.724767],[140.988198,-27.72621],[140.987088,-27.72749],[140.986506,-27.7281],[140.986038,-27.728522],[140.985202,-27.729178],[140.984187,-27.729925],[140.983318,-27.730527],[140.982801,-27.730908],[140.981736,-27.731643],[140.977011,-27.735035],[140.975713,-27.735933],[140.974754,-27.736626],[140.972972,-27.737868],[140.970853,-27.739381],[140.969178,-27.740549],[140.966637,-27.742367],[140.96536,-27.74325],[140.96441,-27.74393],[140.961486,-27.745875],[140.960292,-27.746647],[140.956247,-27.749316],[140.955537,-27.749741],[140.953181,-27.750929],[140.951596,-27.751706],[140.951004,-27.751972],[140.948863,-27.752861],[140.94707,-27.753536],[140.945311,-27.754253],[140.944325,-27.754639],[140.942949,-27.755237],[140.942571,-27.755432],[140.942026,-27.755757],[140.939808,-27.757238],[140.939096,-27.757612],[140.938726,-27.757757],[140.938536,-27.757806],[140.938139,-27.75787],[140.937939,-27.75788],[140.937734,-27.75788],[140.935601,-27.757758],[140.932296,-27.75754],[140.931209,-27.757482],[140.930134,-27.757458],[140.927757,-27.757476],[140.926448,-27.757532],[140.924234,-27.757582],[140.922485,-27.75764],[140.920739,-27.757717],[140.916979,-27.757956],[140.91564,-27.75801],[140.914968,-27.758058],[140.913634,-27.75822],[140.912754,-27.758347],[140.907513,-27.759198],[140.906621,-27.759325],[140.906165,-27.759362],[140.905948,-27.759365],[140.905727,-27.759362],[140.905065,-27.759308],[140.904413,-27.759182],[140.903989,-27.75905],[140.903786,-27.758969],[140.903393,-27.758781],[140.903204,-27.758674],[140.90284,-27.758443],[140.902307,-27.758074],[140.901332,-27.757307],[140.900614,-27.756769],[140.900439,-27.756629],[140.896606,-27.753582]]}},{"type":"Feature","properties":{"tier":"arterial"},"geometry":{"type":"LineString","coordinates":[[140.773722,-27.751075],[140.772821,-27.752244],[140.771772,-27.753563],[140.771276,-27.754162],[140.770919,-27.754617],[140.770855,-27.754698],[140.770161,-27.755583],[140.769421,-27.756563],[140.767777,-27.758681]]}},{"type":"Feature","properties":{"tier":"regional"},"geometry":{"type":"LineString","coordinates":[[140.735911,-27.743425],[140.73568,-27.742965],[140.735504,-27.742722],[140.735283,-27.742481],[140.734579,-27.741974],[140.734165,-27.741756],[140.733298,-27.741246],[140.732741,-27.740841],[140.732565,-27.740439],[140.732301,-27.74026],[140.732189,-27.739859],[140.732345,-27.739644],[140.732366,-27.73934],[140.732298,-27.738855],[140.733017,-27.736947],[140.733376,-27.735883],[140.73355,-27.734962],[140.733847,-27.733493],[140.734169,-27.731705],[140.734256,-27.73108],[140.73432,-27.730443],[140.734332,-27.730316],[140.734429,-27.729391],[140.734677,-27.728053],[140.73474,-27.727983],[140.735297,-27.727363],[140.736077,-27.7262],[140.736597,-27.724676],[140.736759,-27.724059],[140.736907,-27.723491],[140.737279,-27.722109],[140.737594,-27.720894],[140.738183,-27.718281],[140.73827,-27.717645],[140.738282,-27.716921],[140.738035,-27.716274],[140.737688,-27.715507],[140.737452,-27.714969],[140.737353,-27.714421],[140.737452,-27.713894],[140.737737,-27.713477],[140.738274,-27.712813],[140.738704,-27.712282],[140.739026,-27.71181],[140.739174,-27.71135],[140.739224,-27.710878],[140.739162,-27.708552],[140.739113,-27.707993],[140.738939,-27.707434],[140.738741,-27.706962],[140.738518,-27.7066],[140.737581,-27.705341],[140.737415,-27.705119],[140.736944,-27.704593],[140.736548,-27.704318],[140.735953,-27.704033],[140.735383,-27.703704],[140.734987,-27.703287],[140.734677,-27.702849],[140.734082,-27.701653],[140.733711,-27.700742],[140.73355,-27.699909],[140.73324,-27.699294],[140.732831,-27.698856],[140.732534,-27.698504],[140.732348,-27.698099],[140.73205,-27.697364],[140.731704,-27.696727],[140.731171,-27.695707],[140.730687,-27.695104],[140.730378,-27.694489],[140.73008,-27.693678],[140.729783,-27.693063],[140.728879,-27.691275],[140.727912,-27.689454],[140.726983,-27.687874],[140.726227,-27.686283],[140.725657,-27.685055],[140.724765,-27.682948],[140.724059,-27.681006],[140.723291,-27.67913],[140.722088,-27.675916],[140.721194,-27.673433],[140.720388,-27.671571],[140.720108,-27.670283],[140.719827,-27.669119],[140.7196,-27.667738],[140.719722,-27.667106],[140.719731,-27.666571],[140.7196,-27.665966],[140.719337,-27.66536],[140.718776,-27.664367],[140.718505,-27.663847],[140.718364,-27.663242],[140.71811,-27.661551],[140.717865,-27.659766],[140.717699,-27.658424],[140.717576,-27.657702],[140.717279,-27.656311],[140.716734,-27.65483],[140.716102,-27.652788],[140.715483,-27.651219],[140.714504,-27.648651],[140.713897,-27.647038],[140.713612,-27.646511],[140.713066,-27.645578],[140.712744,-27.644634],[140.712608,-27.643921],[140.712447,-27.643273],[140.711986,-27.641964],[140.711404,-27.64079],[140.71081,-27.639791],[140.710465,-27.639268],[140.71036,-27.639012],[140.710228,-27.638523],[140.710062,-27.637926],[140.709729,-27.637041],[140.709431,-27.63642],[140.709055,-27.63569],[140.708713,-27.634821],[140.708459,-27.634053],[140.708327,-27.633533],[140.708231,-27.632516],[140.7081,-27.631778],[140.707872,-27.631126],[140.707583,-27.630343],[140.707259,-27.629644],[140.706926,-27.629132],[140.706567,-27.628666],[140.706146,-27.628255],[140.705009,-27.627454],[140.704867,-27.627354],[140.702843,-27.626019],[140.701801,-27.625359],[140.700653,-27.624544],[140.700005,-27.623985],[140.699479,-27.62338],[140.698945,-27.62272],[140.698868,-27.622627],[140.698507,-27.622185],[140.69799,-27.621703],[140.697297,-27.621292],[140.696553,-27.620997],[140.695011,-27.620524],[140.693557,-27.620166],[140.692409,-27.619794],[140.69113,-27.619266],[140.688353,-27.618055],[140.687512,-27.617698],[140.686014,-27.6171],[140.685243,-27.616712],[140.685094,-27.616471],[140.685111,-27.616037],[140.685006,-27.615416],[140.684743,-27.614616],[140.684332,-27.614026],[140.683503,-27.613155],[140.683039,-27.612688],[140.682549,-27.612386],[140.682103,-27.612288],[140.681471,-27.612266],[140.68087,-27.612315],[140.680133,-27.612507],[140.679305,-27.612832],[140.678158,-27.61329],[140.677404,-27.613561],[140.676353,-27.61395],[140.675906,-27.614043],[140.675468,-27.614082],[140.675065,-27.614035],[140.67418,-27.613856],[140.673856,-27.613802],[140.672998,-27.613748],[140.671736,-27.613662],[140.669633,-27.613538],[140.668941,-27.613492],[140.668188,-27.613391],[140.667338,-27.613251],[140.66513,-27.612808],[140.662081,-27.612172],[140.658323,-27.611396],[140.656203,-27.610875],[140.653417,-27.610161],[140.651183,-27.609602],[140.650368,-27.6094],[140.649457,-27.609028],[140.648844,-27.608686],[140.647959,-27.608197],[140.647258,-27.607879],[140.646584,-27.60763],[140.645734,-27.607436],[140.644884,-27.607335],[140.643947,-27.607281],[140.642852,-27.607273],[140.642142,-27.607297],[140.641529,-27.607211],[140.640425,-27.607017],[140.639277,-27.606901],[140.637998,-27.606707],[140.636736,-27.606536],[140.636123,-27.60645],[140.63523,-27.606334],[140.634407,-27.606124],[140.633715,-27.605845],[140.632926,-27.60548],[140.632164,-27.605231],[140.631078,-27.60503],[140.629939,-27.604789],[140.628905,-27.604634],[140.628125,-27.604556],[140.627424,-27.604447],[140.626461,-27.60416],[140.624489,-27.603655],[140.62321,-27.603314],[140.622396,-27.603081],[140.621765,-27.602848],[140.62109,-27.602514],[140.620556,-27.602258],[140.618734,-27.601451],[140.61749,-27.600861],[140.61586,-27.6001],[140.614555,-27.599517],[140.613468,-27.598958],[140.612557,-27.598609],[140.611664,-27.598399],[140.610901,-27.598213],[140.610087,-27.597957],[140.609237,-27.597545],[140.608352,-27.596994],[140.607818,-27.596738],[140.607266,-27.596575],[140.606451,-27.596295],[140.604024,-27.595558],[140.602699,-27.595203],[140.601586,-27.594815],[140.600088,-27.594101],[140.59746,-27.592804],[140.596067,-27.592183],[140.595208,-27.591795],[140.594639,-27.5916],[140.593876,-27.591406],[140.592764,-27.591096],[140.591274,-27.590793],[140.590722,-27.590638],[140.590363,-27.590459],[140.590101,-27.590226],[140.589811,-27.589854],[140.589391,-27.589388],[140.588707,-27.588751],[140.588164,-27.588254],[140.587472,-27.58771],[140.586982,-27.587252],[140.586666,-27.586903],[140.586491,-27.586538],[140.586192,-27.586026],[140.585666,-27.585184],[140.584912,-27.583942],[140.58464,-27.583429],[140.58431,-27.582688],[140.583962,-27.581687],[140.583721,-27.581205],[140.583385,-27.580508],[140.583164,-27.579564],[140.582955,-27.578646],[140.582543,-27.577189],[140.582156,-27.575852],[140.582036,-27.575301],[140.581751,-27.573483],[140.581548,-27.572203],[140.581466,-27.571487],[140.581542,-27.571063],[140.581764,-27.570435],[140.581954,-27.569726],[140.582321,-27.568193],[140.582359,-27.567705],[140.582264,-27.567173],[140.582163,-27.566514],[140.582239,-27.56602],[140.582505,-27.565063],[140.582657,-27.564499],[140.58272,-27.563967],[140.582727,-27.563416],[140.582701,-27.562827],[140.582606,-27.562193],[140.582549,-27.56156],[140.582619,-27.561084],[140.582803,-27.560546],[140.583031,-27.559988],[140.583233,-27.559336],[140.583373,-27.558531],[140.583417,-27.557765],[140.583518,-27.557068],[140.583804,-27.556073],[140.58412,-27.554793],[140.58438,-27.554097],[140.58476,-27.553203],[140.585248,-27.552025],[140.586046,-27.550327],[140.586642,-27.54913],[140.587301,-27.547856],[140.587643,-27.5474],[140.588264,-27.546482],[140.58856,-27.546094],[140.588944,-27.545589],[140.590154,-27.543854],[140.591307,-27.542295],[140.59253,-27.540629],[140.593373,-27.539508],[140.594082,-27.538697],[140.594602,-27.538228],[140.595172,-27.537955],[140.596103,-27.537601],[140.596642,-27.537309],[140.596952,-27.536961],[140.597186,-27.536612],[140.597478,-27.535909],[140.597997,-27.534604],[140.598295,-27.533502],[140.598587,-27.532406],[140.599093,-27.529986],[140.599486,-27.528028],[140.599898,-27.526691],[140.600487,-27.524791],[140.601273,-27.522282],[140.601944,-27.519742],[140.602343,-27.518601],[140.6028,-27.517885],[140.604149,-27.51627],[140.60579,-27.513958],[140.606518,-27.512963],[140.606753,-27.512773],[140.607336,-27.512374],[140.608007,-27.511803],[140.608463,-27.511404],[140.608862,-27.51079],[140.609927,-27.50875],[140.610928,-27.506837],[140.611859,-27.505202],[140.612942,-27.503441],[140.61437,-27.501169],[140.615114,-27.49998]]}},{"type":"Feature","properties":{"tier":"arterial"},"geometry":{"type":"LineString","coordinates":[[140.744617,-27.752089],[140.743252,-27.751276],[140.7426,-27.750862],[140.742081,-27.750468],[140.740881,-27.749565]]}},{"type":"Feature","properties":{"tier":"arterial"},"geometry":{"type":"LineString","coordinates":[[140.766429,-27.760573],[140.76606,-27.760402],[140.765817,-27.760239],[140.765644,-27.76005],[140.765073,-27.759055],[140.764786,-27.758702],[140.764472,-27.758415],[140.764036,-27.758129]]}},{"type":"Feature","properties":{"tier":"arterial"},"geometry":{"type":"LineString","coordinates":[[140.767777,-27.758681],[140.766985,-27.759725],[140.766429,-27.760573]]}},{"type":"Feature","properties":{"tier":"arterial"},"geometry":{"type":"LineString","coordinates":[[140.896606,-27.753582],[140.896211,-27.753274]]}},{"type":"Feature","properties":{"tier":"arterial"},"geometry":{"type":"LineString","coordinates":[[140.896211,-27.753274],[140.895128,-27.752428],[140.891801,-27.749748],[140.891295,-27.749376],[140.890746,-27.749074],[140.889945,-27.748743],[140.889505,-27.748623],[140.887973,-27.748307],[140.887751,-27.748266]]}},{"type":"Feature","properties":{"tier":"arterial"},"geometry":{"type":"LineString","coordinates":[[140.887751,-27.748266],[140.887303,-27.748183]]}},{"type":"Feature","properties":{"tier":"arterial"},"geometry":{"type":"LineString","coordinates":[[140.887303,-27.748183],[140.88458,-27.74768],[140.883199,-27.747439],[140.88144,-27.747176],[140.880386,-27.746998]]}},{"type":"Feature","properties":{"tier":"arterial"},"geometry":{"type":"LineString","coordinates":[[140.880386,-27.746998],[140.879982,-27.746903]]}},{"type":"Feature","properties":{"tier":"arterial"},"geometry":{"type":"LineString","coordinates":[[140.879982,-27.746903],[140.878015,-27.746443],[140.876338,-27.746079],[140.875057,-27.745731],[140.874621,-27.745642],[140.873964,-27.745565],[140.873295,-27.745554],[140.867838,-27.745675],[140.864811,-27.745728],[140.863419,-27.745739],[140.861548,-27.745786],[140.860825,-27.745817],[140.856514,-27.746003],[140.853546,-27.746084],[140.852378,-27.746137],[140.848601,-27.746194],[140.84653,-27.746256],[140.846077,-27.746253],[140.845634,-27.746222],[140.844968,-27.746123],[140.844317,-27.745982],[140.842378,-27.745507],[140.84019,-27.744991],[140.839787,-27.744889]]}},{"type":"Feature","properties":{"tier":"arterial"},"geometry":{"type":"LineString","coordinates":[[140.839787,-27.744889],[140.839547,-27.744829]]}},{"type":"Feature","properties":{"tier":"arterial"},"geometry":{"type":"LineString","coordinates":[[140.839547,-27.744829],[140.836877,-27.744155],[140.834726,-27.743651]]}},{"type":"Feature","properties":{"tier":"arterial"},"geometry":{"type":"LineString","coordinates":[[140.834726,-27.743651],[140.834425,-27.743581]]}},{"type":"Feature","properties":{"tier":"arterial"},"geometry":{"type":"LineString","coordinates":[[140.834425,-27.743581],[140.834084,-27.743501],[140.830377,-27.742604],[140.830124,-27.742545],[140.829904,-27.74251],[140.829721,-27.742481],[140.828899,-27.742285],[140.825649,-27.741447],[140.8239,-27.741024]]}},{"type":"Feature","properties":{"tier":"arterial"},"geometry":{"type":"LineString","coordinates":[[140.8239,-27.741024],[140.823534,-27.740928]]}},{"type":"Feature","properties":{"tier":"arterial"},"geometry":{"type":"LineString","coordinates":[[140.823534,-27.740928],[140.822312,-27.740608],[140.822086,-27.740556],[140.82139,-27.740435],[140.82092,-27.74039],[140.820447,-27.740364],[140.819738,-27.740358],[140.818546,-27.740392],[140.816568,-27.740379]]}},{"type":"Feature","properties":{"tier":"arterial"},"geometry":{"type":"LineString","coordinates":[[140.816568,-27.740379],[140.816249,-27.740376]]}},{"type":"Feature","properties":{"tier":"arterial"},"geometry":{"type":"LineString","coordinates":[[140.816249,-27.740376],[140.815135,-27.740369],[140.814397,-27.740392],[140.813669,-27.740462],[140.813191,-27.740535],[140.812724,-27.740633],[140.810204,-27.741337],[140.809744,-27.74145],[140.808789,-27.741652],[140.807342,-27.741935],[140.804691,-27.742426],[140.803238,-27.742714],[140.802462,-27.742853]]}},{"type":"Feature","properties":{"tier":"arterial"},"geometry":{"type":"LineString","coordinates":[[140.802462,-27.742853],[140.801558,-27.743015]]}},{"type":"Feature","properties":{"tier":"arterial"},"geometry":{"type":"LineString","coordinates":[[140.801558,-27.743015],[140.800427,-27.74324],[140.800203,-27.743278],[140.799757,-27.743324],[140.799306,-27.743326],[140.799081,-27.74331],[140.798861,-27.74327],[140.798644,-27.743212],[140.798226,-27.743062],[140.797833,-27.742874],[140.79754,-27.742706]]}},{"type":"Feature","properties":{"tier":"arterial"},"geometry":{"type":"LineString","coordinates":[[140.79754,-27.742706],[140.797253,-27.742542]]}},{"type":"Feature","properties":{"tier":"arterial"},"geometry":{"type":"LineString","coordinates":[[140.797253,-27.742542],[140.795671,-27.741634],[140.795252,-27.741409],[140.794817,-27.741216],[140.794585,-27.741129],[140.794101,-27.740986],[140.793356,-27.740837],[140.791663,-27.740612],[140.788923,-27.740335]]}},{"type":"Feature","properties":{"tier":"arterial"},"geometry":{"type":"LineString","coordinates":[[140.788923,-27.740335],[140.788646,-27.740321]]}},{"type":"Feature","properties":{"tier":"arterial"},"geometry":{"type":"LineString","coordinates":[[140.788646,-27.740321],[140.786588,-27.740118],[140.786057,-27.740056]]}},{"type":"Feature","properties":{"tier":"arterial"},"geometry":{"type":"LineString","coordinates":[[140.786057,-27.740056],[140.785708,-27.740015]]}},{"type":"Feature","properties":{"tier":"arterial"},"geometry":{"type":"LineString","coordinates":[[140.785708,-27.740015],[140.783242,-27.739725]]}},{"type":"Feature","properties":{"tier":"arterial"},"geometry":{"type":"LineString","coordinates":[[140.783242,-27.739725],[140.782928,-27.739688]]}},{"type":"Feature","properties":{"tier":"arterial"},"geometry":{"type":"LineString","coordinates":[[140.782928,-27.739688],[140.782791,-27.739672],[140.782009,-27.73958],[140.781559,-27.739547],[140.781102,-27.739574],[140.780873,-27.73961],[140.780654,-27.739674],[140.78045,-27.739756],[140.780085,-27.739985],[140.779746,-27.740246],[140.779584,-27.740388],[140.779316,-27.740708],[140.779119,-27.74106]]}},{"type":"Feature","properties":{"tier":"arterial"},"geometry":{"type":"LineString","coordinates":[[140.779119,-27.74106],[140.779018,-27.741286]]}},{"type":"Feature","properties":{"tier":"arterial"},"geometry":{"type":"LineString","coordinates":[[140.779018,-27.741286],[140.778709,-27.741978],[140.778585,-27.74223]]}},{"type":"Feature","properties":{"tier":"arterial"},"geometry":{"type":"LineString","coordinates":[[140.778585,-27.74223],[140.778423,-27.742558]]}},{"type":"Feature","properties":{"tier":"arterial"},"geometry":{"type":"LineString","coordinates":[[140.778423,-27.742558],[140.77836,-27.742687],[140.778147,-27.743236],[140.77776,-27.744107],[140.777089,-27.745612]]}},{"type":"Feature","properties":{"tier":"arterial"},"geometry":{"type":"LineString","coordinates":[[140.777089,-27.745612],[140.777028,-27.74575]]}},{"type":"Feature","properties":{"tier":"arterial"},"geometry":{"type":"LineString","coordinates":[[140.777028,-27.74575],[140.776522,-27.746807],[140.77609,-27.747774],[140.775854,-27.748229],[140.775525,-27.74878],[140.77527,-27.749135],[140.773917,-27.750821]]}},{"type":"Feature","properties":{"tier":"arterial"},"geometry":{"type":"LineString","coordinates":[[140.773917,-27.750821],[140.773722,-27.751075]]}},{"type":"Feature","properties":{"tier":"arterial"},"geometry":{"type":"LineString","coordinates":[[140.752008,-27.756591],[140.751601,-27.756343],[140.746206,-27.753042],[140.744694,-27.752137],[140.744617,-27.752089]]}},{"type":"Feature","properties":{"tier":"arterial"},"geometry":{"type":"LineString","coordinates":[[140.752919,-27.756996],[140.752407,-27.756782],[140.752008,-27.756591]]}},{"type":"Feature","properties":{"tier":"regional"},"geometry":{"type":"LineString","coordinates":[[140.739027,-27.748301],[140.738531,-27.74806],[140.73797,-27.747882],[140.736173,-27.747392]]}},{"type":"Feature","properties":{"tier":"regional"},"geometry":{"type":"LineString","coordinates":[[140.740317,-27.749141],[140.740028,-27.748928]]}},{"type":"Feature","properties":{"tier":"regional"},"geometry":{"type":"LineString","coordinates":[[141.00002,-27.717285],[140.99975,-27.717563]]}},{"type":"Feature","properties":{"tier":"arterial"},"geometry":{"type":"LineString","coordinates":[[140.766429,-27.760573],[140.766224,-27.761178],[140.766174,-27.761537],[140.766161,-27.761909],[140.766195,-27.76257],[140.76643,-27.763178],[140.766726,-27.763609],[140.766987,-27.763937],[140.767382,-27.764254],[140.767784,-27.764513],[140.76827,-27.764752],[140.76935,-27.765057],[140.771103,-27.765524],[140.772257,-27.765868],[140.772849,-27.766083],[140.773415,-27.766336],[140.77395,-27.76663],[140.774462,-27.766951],[140.775714,-27.767816]]}},{"type":"Feature","properties":{"tier":"arterial"},"geometry":{"type":"LineString","coordinates":[[140.775714,-27.767816],[140.77696,-27.768657],[140.780005,-27.770714],[140.780447,-27.771069],[140.780843,-27.771451],[140.781185,-27.771854],[140.781494,-27.772285],[140.781762,-27.772759],[140.781977,-27.773267],[140.782155,-27.77379],[140.783863,-27.780332],[140.784184,-27.781489],[140.784331,-27.782071],[140.784442,-27.782667],[140.7845,-27.783264],[140.784531,-27.783867],[140.784551,-27.785646],[140.784549,-27.791458],[140.784534,-27.792664],[140.784546,-27.794437],[140.78453,-27.795023],[140.784467,-27.795598],[140.784341,-27.796173],[140.784156,-27.796735],[140.78391,-27.797297],[140.783594,-27.797832],[140.78323,-27.798351],[140.78161,-27.800343],[140.78081,-27.801363],[140.779716,-27.802686],[140.77828,-27.804476],[140.778027,-27.80476],[140.777541,-27.805366]]}},{"type":"Feature","properties":{"tier":"arterial"},"geometry":{"type":"LineString","coordinates":[[140.777541,-27.805366],[140.776574,-27.806571],[140.776291,-27.806879],[140.7758,-27.807322],[140.775455,-27.807587],[140.774901,-27.807933],[140.774509,-27.808132],[140.773893,-27.80839],[140.773466,-27.808535],[140.773018,-27.808651],[140.772094,-27.808827],[140.768295,-27.80948],[140.766156,-27.809876],[140.76146,-27.810695],[140.760625,-27.810815],[140.760063,-27.810929],[140.75934,-27.811047],[140.7586,-27.811195],[140.758158,-27.811308],[140.757684,-27.811427],[140.757283,-27.811583],[140.757144,-27.811638],[140.756301,-27.812057],[140.75584,-27.812349],[140.755495,-27.812622],[140.755127,-27.812959],[140.754784,-27.813366],[140.754546,-27.813653],[140.754329,-27.813983],[140.754048,-27.814543],[140.753901,-27.815054],[140.753608,-27.815879],[140.752987,-27.817743],[140.752644,-27.818943],[140.75235,-27.819832],[140.752013,-27.820708],[140.751851,-27.821053],[140.751756,-27.82122],[140.751531,-27.821529],[140.751278,-27.821823],[140.751137,-27.821958],[140.750666,-27.82234],[140.748873,-27.823663],[140.748577,-27.82392],[140.748306,-27.824194],[140.74793,-27.824637],[140.747613,-27.825106],[140.747251,-27.825779],[140.747046,-27.826318],[140.746755,-27.827412]]}},{"type":"Feature","properties":{"tier":"arterial"},"geometry":{"type":"LineString","coordinates":[[140.740881,-27.749565],[140.740317,-27.749141]]}},{"type":"Feature","properties":{"tier":"regional"},"geometry":{"type":"LineString","coordinates":[[140.740028,-27.748928],[140.739703,-27.748689],[140.739358,-27.748476],[140.739027,-27.748301]]}}]}
