{"type":"FeatureCollection","features":[{"type":"Feature","properties":{"tier":"arterial"},"geometry":{"type":"LineString","coordinates":[[140.966261,-38.038167],[140.966365,-38.038226],[140.966644,-38.038384],[140.966862,-38.038491],[140.967184,-38.038618],[140.967492,-38.038722],[140.967807,-38.038806],[140.968209,-38.038902],[140.968608,-38.038977],[140.968942,-38.039024],[140.969274,-38.039053],[140.969544,-38.039064],[140.970009,-38.039071],[140.970372,-38.039062],[140.971072,-38.039034],[140.971945,-38.038978],[140.973674,-38.038882],[140.973699,-38.03888],[140.975188,-38.038817],[140.977682,-38.038676],[140.980362,-38.038561],[140.980814,-38.038583],[140.981258,-38.038652],[140.981635,-38.038751],[140.981966,-38.038871],[140.9823,-38.039039],[140.982556,-38.039196],[140.983652,-38.040085],[140.983935,-38.040287],[140.984896,-38.040862],[140.986685,-38.041899],[140.987126,-38.042099],[140.987449,-38.042211],[140.987907,-38.042322],[140.989652,-38.042629],[140.991228,-38.042895],[140.991705,-38.042933],[140.99223,-38.042928],[140.994789,-38.042643],[140.995256,-38.042614],[140.995666,-38.042643],[140.996042,-38.042711],[140.996452,-38.042824],[140.996846,-38.042977],[140.997334,-38.043245]]}},{"type":"Feature","properties":{"tier":"arterial"},"geometry":{"type":"LineString","coordinates":[[140.966261,-38.038167],[140.965954,-38.037996],[140.96553,-38.037737],[140.965235,-38.037552],[140.964731,-38.037229],[140.964182,-38.036877],[140.963742,-38.036595],[140.963329,-38.036346],[140.9629,-38.036085],[140.962573,-38.035872],[140.962311,-38.035698],[140.961664,-38.03529],[140.960466,-38.034532],[140.959411,-38.033854],[140.958717,-38.033431],[140.951142,-38.028646],[140.950565,-38.028255],[140.949944,-38.027943],[140.949366,-38.027696],[140.946404,-38.026746],[140.940121,-38.024732],[140.934325,-38.022881],[140.933845,-38.022728],[140.933537,-38.022621],[140.933186,-38.022492],[140.932862,-38.022337],[140.932464,-38.022129],[140.921723,-38.015717],[140.918748,-38.013941],[140.918352,-38.013697],[140.918173,-38.01359],[140.917656,-38.013278],[140.917074,-38.012936],[140.916583,-38.012681],[140.915229,-38.01203],[140.900198,-38.004832],[140.899654,-38.004566],[140.899276,-38.004347],[140.898854,-38.004066],[140.898503,-38.003807],[140.893467,-37.99998]]}},{"type":"Feature","properties":{"tier":"arterial"},"geometry":{"type":"LineString","coordinates":[[140.701491,-38.051576],[140.701516,-38.051624],[140.701809,-38.052223],[140.702104,-38.052829]]}},{"type":"Feature","properties":{"tier":"regional"},"geometry":{"type":"LineString","coordinates":[[140.966261,-38.038167],[140.966254,-38.037933],[140.966249,-38.037111],[140.966285,-38.034564],[140.966318,-38.032519],[140.966329,-38.03138],[140.966351,-38.030372],[140.966355,-38.030206],[140.966356,-38.029548],[140.966375,-38.029022],[140.966383,-38.02866],[140.966377,-38.028316],[140.966364,-38.027659],[140.966379,-38.02634],[140.966416,-38.025009],[140.96642,-38.024725],[140.966408,-38.024498],[140.966351,-38.024238],[140.966265,-38.023961],[140.966147,-38.023674],[140.966008,-38.023389],[140.96586,-38.023148],[140.96571,-38.022963],[140.965482,-38.022706],[140.965125,-38.022326],[140.964883,-38.022047],[140.964599,-38.021709],[140.964269,-38.021346],[140.963747,-38.020811],[140.963307,-38.020342],[140.963035,-38.020042],[140.962677,-38.019646],[140.962437,-38.019392],[140.962329,-38.019267],[140.962229,-38.019138],[140.962132,-38.018994],[140.962043,-38.018845],[140.961951,-38.018671],[140.961864,-38.01843]]}},{"type":"Feature","properties":{"tier":"regional"},"geometry":{"type":"LineString","coordinates":[[140.961958,-38.015315],[140.962042,-38.015094],[140.962208,-38.014663],[140.962224,-38.014414],[140.962195,-38.014234],[140.962092,-38.013703],[140.962077,-38.013534],[140.962077,-38.013393],[140.96204,-38.013197],[140.961944,-38.012825],[140.961884,-38.012623],[140.961825,-38.012519],[140.961733,-38.012431],[140.961608,-38.012363],[140.961412,-38.012295],[140.961219,-38.012219],[140.960358,-38.011906],[140.959788,-38.011726],[140.959651,-38.011671],[140.959555,-38.011603],[140.959483,-38.011534],[140.959446,-38.011464],[140.959416,-38.011316],[140.959377,-38.011196],[140.95932,-38.011048],[140.959088,-38.010573],[140.958958,-38.010376],[140.95888,-38.010307],[140.958777,-38.010245],[140.958203,-38.009981],[140.957166,-38.009465],[140.956889,-38.009333],[140.956724,-38.009252],[140.955643,-38.008705],[140.954785,-38.008001],[140.954603,-38.007816],[140.954497,-38.007648],[140.954468,-38.007435],[140.954479,-38.007081],[140.954573,-38.00675],[140.95521,-38.005471],[140.955618,-38.004829],[140.955874,-38.004442],[140.956253,-38.003195],[140.956276,-38.002973],[140.956102,-38.002558],[140.9551,-38.000472],[140.954909,-37.99998]]}},{"type":"Feature","properties":{"tier":"regional"},"geometry":{"type":"LineString","coordinates":[[140.66944,-38.058398],[140.668854,-38.058428],[140.668079,-38.058463],[140.667298,-38.058496],[140.667037,-38.05848],[140.66694,-38.058465],[140.666371,-38.058387],[140.665778,-38.058307],[140.665315,-38.058248],[140.665062,-38.058205],[140.664919,-38.058157],[140.66479,-38.058085],[140.664639,-38.057956],[140.664511,-38.057808],[140.664433,-38.057729],[140.664339,-38.057668],[140.66419,-38.057596],[140.664009,-38.057574],[140.663884,-38.057574],[140.663748,-38.057603],[140.663487,-38.057709],[140.663277,-38.057796],[140.663128,-38.057829],[140.662955,-38.057836]]}},{"type":"Feature","properties":{"tier":"arterial"},"geometry":{"type":"LineString","coordinates":[[140.708135,-38.006732],[140.708216,-38.006247],[140.708257,-38.005945],[140.708307,-38.005593],[140.708332,-38.005397],[140.708383,-38.005197]]}},{"type":"Feature","properties":{"tier":"arterial"},"geometry":{"type":"LineString","coordinates":[[140.715187,-38.050236],[140.716128,-38.050054],[140.71644,-38.050002],[140.716686,-38.049969],[140.717085,-38.049943],[140.718278,-38.049931],[140.718664,-38.04994],[140.718874,-38.049945],[140.718988,-38.049954],[140.71937,-38.050003],[140.719657,-38.050058],[140.719941,-38.050128],[140.720022,-38.050155],[140.720176,-38.050206],[140.720536,-38.050364],[140.720595,-38.050392],[140.720655,-38.050421],[140.721623,-38.050886]]}},{"type":"Feature","properties":{"tier":"arterial"},"geometry":{"type":"LineString","coordinates":[[140.799373,-38.044736],[140.799543,-38.044773],[140.80101,-38.04511],[140.804185,-38.045884],[140.804538,-38.04594],[140.805175,-38.045977],[140.805762,-38.045981],[140.806392,-38.045937],[140.80684,-38.045875],[140.807205,-38.045799],[140.807693,-38.045647],[140.808286,-38.045415],[140.809622,-38.044707],[140.810196,-38.044424],[140.812277,-38.043294],[140.815359,-38.041708],[140.816124,-38.04134],[140.816593,-38.041165],[140.817078,-38.041034],[140.817746,-38.040895],[140.818087,-38.040862],[140.819324,-38.040778],[140.819814,-38.040746],[140.822157,-38.040574],[140.826534,-38.040277],[140.829478,-38.04008],[140.832542,-38.039887],[140.833697,-38.039797],[140.834149,-38.039744],[140.834658,-38.039643],[140.835134,-38.039503],[140.835542,-38.039355],[140.835892,-38.039198],[140.836349,-38.038952],[140.836816,-38.038633],[140.837408,-38.038126],[140.838004,-38.037574],[140.842243,-38.033701],[140.842437,-38.033531],[140.842634,-38.033349],[140.84279,-38.033184],[140.842914,-38.033025],[140.843034,-38.032846],[140.843132,-38.032672],[140.843219,-38.03248]]}},{"type":"Feature","properties":{"tier":"arterial"},"geometry":{"type":"LineString","coordinates":[[140.799011,-38.044652],[140.799373,-38.044736]]}},{"type":"Feature","properties":{"tier":"arterial"},"geometry":{"type":"LineString","coordinates":[[140.78115,-38.043866],[140.781307,-38.043816]]}},{"type":"Feature","properties":{"tier":"arterial"},"geometry":{"type":"LineString","coordinates":[[140.781307,-38.043816],[140.781562,-38.043745],[140.782176,-38.043575],[140.782682,-38.04348],[140.783293,-38.043424],[140.786252,-38.04314],[140.786541,-38.043123],[140.78684,-38.043135],[140.787176,-38.043163],[140.787442,-38.043205],[140.789399,-38.04354],[140.791635,-38.04392],[140.792141,-38.043985],[140.79292,-38.044053],[140.794241,-38.044168],[140.796302,-38.044353],[140.797994,-38.044493],[140.798456,-38.044554],[140.79889,-38.044631],[140.799011,-38.044652]]}},{"type":"Feature","properties":{"tier":"regional"},"geometry":{"type":"LineString","coordinates":[[140.714817,-38.050308],[140.714792,-38.050377],[140.714754,-38.050421],[140.71468,-38.050478],[140.71463,-38.050516],[140.713831,-38.05113],[140.713604,-38.051281],[140.713379,-38.051395],[140.713136,-38.051475],[140.712928,-38.051531],[140.7126,-38.051584],[140.711219,-38.051757],[140.707007,-38.052211],[140.706977,-38.052215]]}},{"type":"Feature","properties":{"tier":"arterial"},"geometry":{"type":"LineString","coordinates":[[140.705495,-38.051319],[140.706706,-38.051231],[140.706899,-38.051217],[140.709658,-38.051017],[140.710279,-38.050964],[140.710497,-38.050945],[140.711734,-38.050811],[140.712636,-38.050706],[140.714817,-38.050308]]}},{"type":"Feature","properties":{"tier":"regional"},"geometry":{"type":"LineString","coordinates":[[140.662955,-38.057836],[140.662823,-38.057825],[140.662478,-38.057756],[140.661845,-38.057633],[140.661697,-38.057597],[140.661541,-38.057539],[140.661406,-38.057462],[140.661293,-38.057354],[140.661191,-38.057232],[140.661108,-38.057098],[140.661005,-38.056899],[140.660941,-38.056685],[140.660919,-38.05654],[140.660877,-38.056361],[140.660859,-38.056219],[140.660817,-38.056086],[140.660769,-38.056006],[140.660715,-38.055944],[140.660637,-38.055883],[140.660559,-38.055826],[140.660451,-38.055769],[140.659952,-38.0555],[140.659838,-38.055415],[140.659766,-38.055334],[140.659688,-38.055225],[140.659646,-38.05515],[140.659574,-38.054989],[140.65943,-38.054582],[140.65937,-38.054464],[140.659303,-38.054332],[140.659219,-38.05419],[140.658973,-38.053736],[140.658895,-38.053589],[140.658775,-38.053272],[140.658643,-38.052903],[140.658607,-38.052766],[140.658583,-38.052633],[140.658571,-38.052515],[140.658571,-38.052383],[140.658619,-38.052288],[140.658703,-38.05216],[140.658811,-38.051947],[140.658835,-38.051843],[140.658841,-38.05172],[140.658805,-38.050983],[140.658781,-38.050822],[140.658751,-38.05076],[140.658709,-38.050694],[140.658649,-38.050623],[140.658559,-38.050538],[140.658463,-38.050476],[140.65794,-38.050095],[140.657931,-38.050089],[140.657808,-38.050003],[140.657682,-38.049937],[140.657574,-38.049904],[140.657435,-38.049895],[140.657273,-38.049895],[140.656726,-38.049932],[140.656558,-38.049937],[140.656402,-38.049923],[140.656018,-38.049876],[140.655922,-38.049861],[140.655747,-38.049861],[140.6532,-38.049956],[140.652912,-38.04997],[140.65275,-38.049965],[140.652552,-38.049951],[140.652347,-38.049928],[140.651404,-38.049824],[140.65123,-38.049809],[140.651086,-38.049809],[140.650882,-38.0498],[140.650677,-38.049795],[140.650521,-38.049809],[140.650341,-38.049857],[140.650167,-38.049932],[140.650094,-38.049977],[140.650035,-38.050046]]}},{"type":"Feature","properties":{"tier":"regional"},"geometry":{"type":"LineString","coordinates":[[140.962077,-38.013534],[140.960597,-38.013554],[140.958799,-38.013559],[140.957146,-38.013579],[140.957033,-38.013579],[140.95624,-38.013593]]}},{"type":"Feature","properties":{"tier":"arterial"},"geometry":{"type":"LineString","coordinates":[[140.840438,-38.016616],[140.859886,-38.017651],[140.876225,-38.017397],[140.87953,-38.017373],[140.88114,-38.017136],[140.893789,-38.014152],[140.895077,-38.014068],[140.917564,-38.013882],[140.917779,-38.013876],[140.91798,-38.013837],[140.918185,-38.013765],[140.918352,-38.013697]]}},{"type":"Feature","properties":{"tier":"arterial"},"geometry":{"type":"LineString","coordinates":[[140.701289,-38.050974],[140.701267,-38.050771],[140.701282,-38.050536],[140.701306,-38.05032],[140.701379,-38.049695],[140.701445,-38.049079],[140.701487,-38.048669],[140.701491,-38.048359],[140.701472,-38.048073],[140.701439,-38.047814],[140.701373,-38.047472],[140.701309,-38.047203],[140.701259,-38.046937],[140.700881,-38.045889]]}},{"type":"Feature","properties":{"tier":"arterial"},"geometry":{"type":"LineString","coordinates":[[140.708835,-38.004017],[140.708806,-38.004514],[140.708805,-38.004662],[140.708771,-38.004923],[140.708722,-38.005205]]}},{"type":"Feature","properties":{"tier":"regional"},"geometry":{"type":"LineString","coordinates":[[140.681005,-38.041656],[140.700045,-38.043484]]}},{"type":"Feature","properties":{"tier":"regional"},"geometry":{"type":"LineString","coordinates":[[140.656764,-38.002219],[140.657026,-38.002119],[140.657457,-38.001988],[140.657696,-38.001925],[140.658097,-38.001849],[140.658482,-38.001788],[140.658871,-38.001751],[140.65936,-38.001733],[140.659881,-38.00173],[140.66086,-38.001722],[140.683685,-38.001533],[140.695989,-38.001402],[140.696155,-38.001407],[140.696421,-38.00143],[140.70448,-38.002773],[140.705872,-38.003005],[140.7072,-38.003226],[140.707451,-38.00325],[140.709016,-38.003506]]}},{"type":"Feature","properties":{"tier":"arterial"},"geometry":{"type":"LineString","coordinates":[[140.843219,-38.03248],[140.843288,-38.032286],[140.843339,-38.032101],[140.843375,-38.031914],[140.843391,-38.031774],[140.843395,-38.03158],[140.843377,-38.031363],[140.843311,-38.030952],[140.843219,-38.030382],[140.843101,-38.029835],[140.842921,-38.028987],[140.842753,-38.028101],[140.842551,-38.027129],[140.842384,-38.026269],[140.84224,-38.025599],[140.842038,-38.024582],[140.841897,-38.023874],[140.84178,-38.023251],[140.841662,-38.022633],[140.841506,-38.021834],[140.841366,-38.021149],[140.841233,-38.020526],[140.841138,-38.020109],[140.840869,-38.018803],[140.840751,-38.018215],[140.840692,-38.017868],[140.840594,-38.017383],[140.840495,-38.016957],[140.840438,-38.016616]]}},{"type":"Feature","properties":{"tier":"regional"},"geometry":{"type":"LineString","coordinates":[[140.65641,-38.001771],[140.656764,-38.002219],[140.658387,-38.004432],[140.65863,-38.004757],[140.65887,-38.005013],[140.659183,-38.005306],[140.659489,-38.005559],[140.659971,-38.005884],[140.660325,-38.00616],[140.660583,-38.006386],[140.660826,-38.00663],[140.661047,-38.00688],[140.661228,-38.007115],[140.661423,-38.007394],[140.661618,-38.007742],[140.663971,-38.012806],[140.664218,-38.013339],[140.664436,-38.01381],[140.6646,-38.014187],[140.664778,-38.014493],[140.665101,-38.015453],[140.665418,-38.016386],[140.667755,-38.023243],[140.667874,-38.023626],[140.66795,-38.023951],[140.668,-38.024281],[140.668013,-38.02462],[140.667992,-38.025026],[140.667934,-38.025555],[140.667484,-38.028363],[140.667429,-38.02875],[140.667399,-38.029144],[140.667407,-38.029522],[140.667451,-38.029951],[140.667912,-38.032235],[140.667987,-38.032559],[140.668088,-38.032871],[140.668241,-38.033214],[140.668407,-38.033536],[140.669402,-38.035247],[140.669605,-38.035636],[140.669738,-38.03598],[140.669856,-38.036345],[140.669918,-38.036628],[140.66997,-38.03702],[140.669986,-38.037313],[140.669988,-38.037657],[140.669908,-38.040116],[140.669896,-38.040533],[140.669892,-38.040706],[140.669876,-38.041279],[140.669845,-38.041879],[140.669753,-38.042389],[140.669596,-38.043128],[140.669406,-38.044081],[140.66934,-38.044729],[140.669207,-38.046386],[140.668977,-38.049093],[140.668976,-38.049505],[140.669004,-38.049862],[140.669062,-38.050216],[140.669132,-38.050484],[140.669246,-38.050801],[140.669425,-38.051157],[140.669653,-38.051523],[140.669984,-38.051998],[140.670255,-38.052357],[140.670584,-38.052711],[140.671549,-38.053621],[140.671851,-38.053905],[140.673923,-38.055944],[140.6749,-38.056857],[140.675252,-38.057184],[140.675308,-38.057251]]}},{"type":"Feature","properties":{"tier":"arterial"},"geometry":{"type":"LineString","coordinates":[[140.700881,-38.045889],[140.700045,-38.043484],[140.699946,-38.0432]]}},{"type":"Feature","properties":{"tier":"arterial"},"geometry":{"type":"LineString","coordinates":[[140.699946,-38.0432],[140.699469,-38.041829],[140.69937,-38.041348],[140.699291,-38.040963],[140.699277,-38.040571],[140.699277,-38.040328],[140.699286,-38.039964],[140.699324,-38.03971],[140.699384,-38.039435],[140.699444,-38.03914],[140.699538,-38.038796],[140.705181,-38.017932],[140.706922,-38.011292]]}},{"type":"Feature","properties":{"tier":"arterial"},"geometry":{"type":"LineString","coordinates":[[140.721623,-38.050886],[140.722535,-38.051323],[140.722932,-38.051513],[140.723203,-38.051618],[140.723579,-38.051734],[140.724186,-38.051897],[140.724833,-38.052069],[140.725275,-38.052158],[140.726182,-38.052306],[140.728066,-38.052644],[140.729363,-38.052871],[140.729771,-38.052925],[140.730184,-38.052944],[140.730969,-38.052969],[140.73291,-38.05303],[140.7355,-38.053129],[140.73579,-38.05314],[140.736205,-38.053206],[140.736584,-38.053309],[140.736749,-38.053368],[140.737697,-38.053707],[140.738687,-38.054071],[140.739273,-38.054285],[140.73955,-38.054397],[140.739734,-38.054495],[140.739935,-38.054631],[140.740514,-38.055136],[140.740801,-38.055352],[140.741129,-38.055573],[140.741661,-38.055857],[140.741885,-38.055977],[140.742386,-38.056229],[140.742701,-38.056388],[140.743245,-38.056649],[140.743352,-38.056701],[140.743538,-38.056779],[140.74371,-38.056823],[140.743895,-38.056842],[140.744247,-38.056861],[140.744557,-38.05684],[140.744792,-38.056776],[140.745049,-38.056656],[140.746276,-38.055916],[140.747717,-38.055051],[140.747961,-38.054926],[140.748194,-38.054852],[140.748476,-38.054788],[140.750102,-38.054473],[140.751028,-38.054311],[140.751956,-38.0541],[140.752427,-38.054031],[140.753831,-38.053959],[140.75412,-38.05398],[140.754285,-38.053965],[140.754878,-38.054],[140.755235,-38.054054],[140.758761,-38.054729],[140.759719,-38.054897],[140.760067,-38.054918],[140.764588,-38.054913],[140.764893,-38.054891],[140.765804,-38.054712],[140.766609,-38.054556],[140.767412,-38.0544],[140.767742,-38.054322],[140.768062,-38.054218],[140.76843,-38.054074],[140.768766,-38.053888],[140.769068,-38.053672],[140.769287,-38.053474],[140.769564,-38.053168],[140.76981,-38.05282],[140.770064,-38.052381],[140.770664,-38.05131],[140.771263,-38.050253],[140.771432,-38.049951],[140.772069,-38.048811],[140.772228,-38.048615],[140.772344,-38.048479],[140.772571,-38.048282],[140.773483,-38.047552],[140.773998,-38.047173],[140.774373,-38.046938],[140.775001,-38.046596],[140.77654,-38.045762],[140.777443,-38.045337],[140.779191,-38.044527],[140.779936,-38.044222],[140.780753,-38.043982],[140.78115,-38.043866]]}},{"type":"Feature","properties":{"tier":"arterial"},"geometry":{"type":"LineString","coordinates":[[140.711379,-37.99998],[140.710192,-38.001778],[140.710148,-38.001842],[140.710106,-38.001903],[140.709669,-38.00254],[140.709353,-38.002902],[140.709211,-38.00313],[140.709085,-38.003349],[140.709016,-38.003506],[140.708914,-38.003785],[140.708835,-38.004017]]}},{"type":"Feature","properties":{"tier":"arterial"},"geometry":{"type":"LineString","coordinates":[[140.706922,-38.011292],[140.707084,-38.010622],[140.70803,-38.007281]]}},{"type":"Feature","properties":{"tier":"arterial"},"geometry":{"type":"LineString","coordinates":[[140.70803,-38.007281],[140.708135,-38.006732]]}},{"type":"Feature","properties":{"tier":"regional"},"geometry":{"type":"LineString","coordinates":[[140.840438,-38.016616],[140.840115,-38.013413],[140.839804,-38.011412],[140.838885,-38.005726],[140.838606,-38.003836],[140.838505,-38.003079],[140.838453,-38.002209],[140.838384,-37.99998]]}},{"type":"Feature","properties":{"tier":"regional"},"geometry":{"type":"LineString","coordinates":[[140.95237,-38.013618],[140.947503,-38.013626],[140.936117,-38.013726],[140.918958,-38.013874],[140.918853,-38.013896],[140.918748,-38.013941]]}},{"type":"Feature","properties":{"tier":"regional"},"geometry":{"type":"LineString","coordinates":[[140.95624,-38.013593],[140.954467,-38.013609],[140.953134,-38.013616],[140.95237,-38.013618]]}},{"type":"Feature","properties":{"tier":"regional"},"geometry":{"type":"LineString","coordinates":[[140.961864,-38.01843],[140.96183,-38.018305],[140.961805,-38.018133],[140.961776,-38.017868],[140.961737,-38.017416],[140.961695,-38.017067],[140.961677,-38.016817],[140.961672,-38.016614],[140.961689,-38.01647],[140.961727,-38.016246],[140.961766,-38.016003],[140.961854,-38.015676],[140.961958,-38.015315]]}},{"type":"Feature","properties":{"tier":"arterial"},"geometry":{"type":"LineString","coordinates":[[140.708722,-38.005205],[140.708614,-38.005539],[140.708444,-38.005907],[140.708288,-38.006266],[140.708135,-38.006732]]}},{"type":"Feature","properties":{"tier":"arterial"},"geometry":{"type":"LineString","coordinates":[[140.708383,-38.005197],[140.708461,-38.004947],[140.708659,-38.004473],[140.708835,-38.004017]]}},{"type":"Feature","properties":{"tier":"arterial"},"geometry":{"type":"LineString","coordinates":[[140.701491,-38.051576],[140.701395,-38.051349],[140.70133,-38.051182],[140.701305,-38.051073],[140.701289,-38.050974]]}},{"type":"Feature","properties":{"tier":"regional"},"geometry":{"type":"LineString","coordinates":[[140.706977,-38.052215],[140.7069,-38.052225]]}},{"type":"Feature","properties":{"tier":"arterial"},"geometry":{"type":"LineString","coordinates":[[140.714817,-38.050308],[140.715095,-38.050254]]}},{"type":"Feature","properties":{"tier":"arterial"},"geometry":{"type":"LineString","coordinates":[[140.715095,-38.050254],[140.715187,-38.050236]]}},{"type":"Feature","properties":{"tier":"regional"},"geometry":{"type":"LineString","coordinates":[[140.669896,-38.040533],[140.681005,-38.041656]]}},{"type":"Feature","properties":{"tier":"regional"},"geometry":{"type":"LineString","coordinates":[[140.702104,-38.052829],[140.702391,-38.053421]]}},{"type":"Feature","properties":{"tier":"regional"},"geometry":{"type":"LineString","coordinates":[[140.7069,-38.052225],[140.705989,-38.05235]]}},{"type":"Feature","properties":{"tier":"arterial"},"geometry":{"type":"LineString","coordinates":[[140.701809,-38.052223],[140.702491,-38.052017],[140.703832,-38.051615],[140.704484,-38.051426],[140.704669,-38.05138],[140.70493,-38.051351],[140.705495,-38.051319]]}}]}
