{"type":"FeatureCollection","features":[{"type":"Feature","properties":{"tier":"high"},"geometry":{"type":"LineString","coordinates":[[140.793099,-37.103306],[140.793362,-37.104437],[140.794037,-37.107511],[140.794935,-37.111311],[140.794986,-37.111527],[140.795886,-37.113624],[140.796999,-37.115204],[140.798194,-37.116359],[140.799086,-37.117116],[140.807057,-37.122476],[140.807706,-37.122962],[140.80804,-37.123264],[140.808401,-37.123589],[140.810033,-37.125447],[140.810929,-37.126258],[140.813691,-37.128441],[140.814899,-37.129644],[140.815527,-37.13056],[140.816939,-37.132718],[140.817194,-37.133118],[140.817302,-37.133287],[140.817619,-37.133739],[140.818115,-37.134344],[140.820815,-37.137341],[140.821359,-37.138376],[140.821654,-37.139239],[140.821834,-37.140466],[140.822036,-37.143236],[140.822268,-37.144406],[140.822694,-37.145382],[140.824926,-37.149267],[140.82531,-37.150183],[140.82555,-37.150864],[140.826322,-37.153409],[140.826814,-37.154747],[140.827653,-37.15638],[140.828243,-37.157375],[140.828969,-37.158545],[140.829355,-37.1593],[140.829618,-37.160073],[140.829935,-37.161868],[140.830416,-37.163291],[140.830971,-37.164381],[140.836677,-37.17301],[140.837033,-37.173647],[140.837344,-37.174387],[140.837536,-37.175138],[140.837842,-37.177237],[140.837944,-37.177864],[140.838074,-37.178513],[140.838395,-37.179599],[140.839411,-37.182096],[140.839702,-37.183056],[140.839835,-37.183905],[140.8399,-37.184896],[140.839776,-37.185989],[140.839369,-37.187712],[140.839238,-37.188591],[140.839329,-37.189571],[140.839697,-37.190557],[140.83976,-37.190726],[140.840501,-37.191793],[140.840566,-37.191873],[140.843694,-37.195873],[140.84425,-37.196463],[140.845136,-37.197222],[140.846102,-37.197892],[140.846885,-37.198391],[140.847668,-37.199096],[140.848333,-37.199781],[140.848973,-37.200766],[140.849366,-37.201522],[140.849753,-37.202631],[140.85024,-37.203764],[140.85085,-37.204774],[140.851977,-37.2064],[140.852662,-37.207494],[140.853366,-37.208807],[140.854072,-37.210603],[140.854478,-37.21229],[140.854881,-37.214891],[140.855195,-37.217101],[140.855253,-37.218646],[140.855185,-37.219184],[140.854942,-37.220392],[140.854739,-37.220972],[140.853478,-37.225067],[140.853171,-37.225838],[140.852805,-37.226658],[140.851601,-37.229361],[140.851044,-37.230653],[140.850592,-37.231384],[140.849524,-37.232738],[140.847468,-37.235345],[140.846196,-37.236947],[140.844845,-37.238735],[140.844127,-37.239488],[140.841379,-37.241444],[140.84022,-37.24236],[140.839475,-37.243251],[140.838937,-37.244158],[140.838621,-37.245069],[140.838471,-37.24591],[140.838185,-37.248854],[140.837612,-37.254754],[140.837444,-37.256478],[140.837466,-37.26036],[140.837408,-37.261666],[140.837393,-37.262005],[140.836991,-37.264601],[140.836908,-37.265186],[140.83689,-37.265407],[140.836891,-37.265671],[140.836901,-37.266071],[140.836934,-37.266438],[140.837,-37.266784],[140.837211,-37.267667]]}},{"type":"Feature","properties":{"tier":"arterial"},"geometry":{"type":"LineString","coordinates":[[140.842973,-37.383427],[140.843104,-37.382841],[140.843345,-37.381835],[140.843364,-37.381734],[140.843376,-37.381671],[140.843355,-37.381582],[140.843323,-37.381517],[140.843262,-37.381453],[140.843128,-37.381368]]}},{"type":"Feature","properties":{"tier":"regional"},"geometry":{"type":"LineString","coordinates":[[140.837374,-37.379914],[140.838021,-37.379808],[140.839089,-37.379635]]}},{"type":"Feature","properties":{"tier":"arterial"},"geometry":{"type":"LineString","coordinates":[[140.84446,-37.375767],[140.838411,-37.374886],[140.836783,-37.374638]]}},{"type":"Feature","properties":{"tier":"arterial"},"geometry":{"type":"LineString","coordinates":[[140.842973,-37.383427],[140.847819,-37.385644],[140.848678,-37.386047],[140.849111,-37.386237],[140.84953,-37.386441],[140.849859,-37.386624],[140.850245,-37.386879],[140.854244,-37.389468],[140.855117,-37.390095],[140.859229,-37.393249],[140.85996,-37.393657],[140.860684,-37.393945],[140.861294,-37.394153],[140.862035,-37.394317],[140.862819,-37.394424],[140.863691,-37.394474],[140.873156,-37.394835],[140.873912,-37.394871],[140.874607,-37.394936],[140.875361,-37.39508],[140.876167,-37.395285],[140.876954,-37.395568],[140.877558,-37.395859],[140.878123,-37.39619],[140.8799,-37.397215],[140.880443,-37.397554],[140.88081,-37.397816],[140.881125,-37.398076],[140.881481,-37.398424],[140.883661,-37.400789],[140.883961,-37.401134],[140.884272,-37.401548],[140.884491,-37.401925],[140.884735,-37.40241],[140.885981,-37.405968],[140.886314,-37.406769],[140.886761,-37.407549],[140.887176,-37.408124],[140.887646,-37.408668],[140.888257,-37.409263],[140.889216,-37.410014],[140.889896,-37.410434],[140.890592,-37.410792],[140.891198,-37.411057],[140.894609,-37.41237],[140.909794,-37.418408],[140.910357,-37.41866],[140.910876,-37.418925],[140.911457,-37.419314],[140.912175,-37.419798],[140.919056,-37.424782],[140.919728,-37.425286],[140.920404,-37.425884],[140.921048,-37.426695],[140.923478,-37.430422],[140.923885,-37.431007],[140.924194,-37.431414],[140.924694,-37.431978],[140.937617,-37.446354],[140.941346,-37.450375],[140.941592,-37.450632],[140.941814,-37.450863],[140.942128,-37.451204],[140.947737,-37.456285],[140.948191,-37.456655],[140.948646,-37.457102],[140.949057,-37.457618],[140.953738,-37.463678],[140.954212,-37.46425],[140.955375,-37.465663],[140.955732,-37.466094],[140.956872,-37.467421],[140.957469,-37.468106],[140.958021,-37.468729],[140.958727,-37.469318],[140.967072,-37.476066]]}},{"type":"Feature","properties":{"tier":"regional"},"geometry":{"type":"LineString","coordinates":[[140.780253,-37.032763],[140.78024,-37.032731],[140.780207,-37.032678],[140.780067,-37.032519],[140.779608,-37.032007],[140.779439,-37.031803],[140.779341,-37.031672],[140.77929,-37.031594],[140.77923,-37.031492],[140.779132,-37.031309],[140.778876,-37.030798],[140.778754,-37.030538],[140.778656,-37.030322],[140.778599,-37.030165],[140.778447,-37.029692],[140.778314,-37.029297],[140.778162,-37.028882],[140.777997,-37.028367],[140.777767,-37.027646],[140.777624,-37.027239],[140.777537,-37.027026],[140.777431,-37.026845],[140.777247,-37.026619],[140.775037,-37.02424],[140.774206,-37.023347],[140.773534,-37.022607],[140.773196,-37.022244],[140.773088,-37.022137],[140.772961,-37.022014],[140.772609,-37.021724],[140.772131,-37.021349],[140.771984,-37.02123],[140.77186,-37.021104],[140.771698,-37.020915],[140.77152,-37.020705],[140.770782,-37.019796],[140.77062,-37.019587],[140.770517,-37.019438],[140.770447,-37.019312],[140.770377,-37.019178],[140.77002,-37.01839],[140.769607,-37.017457],[140.769314,-37.016755],[140.769245,-37.016557],[140.769217,-37.016348],[140.769212,-37.016173],[140.769217,-37.016009],[140.769248,-37.015857],[140.769308,-37.015624],[140.769749,-37.013945],[140.770061,-37.012731],[140.770102,-37.012524],[140.770116,-37.012363],[140.770121,-37.012193],[140.770106,-37.012032],[140.77007,-37.011859],[140.76956,-37.009775],[140.769281,-37.00864],[140.768609,-37.006024],[140.767221,-37.000616],[140.76706,-36.99998]]}},{"type":"Feature","properties":{"tier":"arterial"},"geometry":{"type":"LineString","coordinates":[[140.868261,-37.032403],[140.86703,-37.032013],[140.866713,-37.031876],[140.866397,-37.031688],[140.866117,-37.031447],[140.865935,-37.031228],[140.865792,-37.030988],[140.865647,-37.0306],[140.865622,-37.030481],[140.865604,-37.030351],[140.865612,-37.030203],[140.86563,-37.030055],[140.866322,-37.025492],[140.866371,-37.025117],[140.866367,-37.022336],[140.866342,-37.017151],[140.866309,-37.014492],[140.866302,-37.014372],[140.866278,-37.014221],[140.866201,-37.013932],[140.866109,-37.013709],[140.866022,-37.013521],[140.865921,-37.013373],[140.865559,-37.012937],[140.865243,-37.012655]]}},{"type":"Feature","properties":{"tier":"arterial"},"geometry":{"type":"LineString","coordinates":[[140.971264,-37.161853],[140.967496,-37.164104],[140.967132,-37.164301],[140.966638,-37.164523],[140.966177,-37.164686],[140.96564,-37.164831],[140.965072,-37.164925],[140.964514,-37.164993],[140.963666,-37.165053],[140.956403,-37.165532],[140.955909,-37.165592],[140.955437,-37.165677],[140.955008,-37.165797],[140.954396,-37.165985],[140.94932,-37.167862],[140.947525,-37.168501],[140.946709,-37.168768],[140.946105,-37.168901],[140.945522,-37.169002],[140.945056,-37.169041],[140.944635,-37.169047],[140.944086,-37.169037],[140.94376,-37.169027],[140.942949,-37.169003],[140.941972,-37.16902],[140.9412,-37.16914],[140.939859,-37.169431],[140.932595,-37.171021],[140.928089,-37.17203],[140.927467,-37.172183],[140.927113,-37.172277],[140.926512,-37.172457],[140.925268,-37.17279],[140.924763,-37.172944],[140.924399,-37.173124],[140.923487,-37.173654],[140.923122,-37.173876],[140.922746,-37.17409],[140.922457,-37.17421],[140.922146,-37.174304],[140.921785,-37.174401],[140.921212,-37.174492],[140.916234,-37.175338],[140.915676,-37.1755],[140.912479,-37.176458],[140.911975,-37.176612],[140.911545,-37.176783],[140.911052,-37.177022],[140.906363,-37.17939],[140.905816,-37.179723],[140.905387,-37.180099],[140.904593,-37.180852],[140.904314,-37.181108],[140.904046,-37.181288],[140.903649,-37.181501],[140.901074,-37.182843],[140.900688,-37.183048],[140.900377,-37.183288],[140.900066,-37.18363],[140.896139,-37.18804],[140.895935,-37.188391],[140.895731,-37.188801],[140.895624,-37.189288],[140.895452,-37.191272],[140.89543,-37.191615],[140.895463,-37.191967],[140.895575,-37.192517],[140.896128,-37.195405],[140.896169,-37.195899],[140.896142,-37.196281],[140.89611,-37.196619],[140.896059,-37.196935],[140.895949,-37.197345],[140.89567,-37.198627],[140.895603,-37.198914],[140.895487,-37.19932],[140.895412,-37.19952],[140.895275,-37.199824],[140.895077,-37.200178],[140.894691,-37.200794],[140.894463,-37.201157],[140.893894,-37.202022],[140.893524,-37.202586],[140.893258,-37.202913],[140.893079,-37.20312],[140.892789,-37.203394],[140.892432,-37.203698],[140.891937,-37.204],[140.891326,-37.204287],[140.890847,-37.204459],[140.89027,-37.204603],[140.889723,-37.204697],[140.887052,-37.205056],[140.88644,-37.205201],[140.885979,-37.205346],[140.885592,-37.2055],[140.885142,-37.205705],[140.88482,-37.205885],[140.88129,-37.207833],[140.880915,-37.208072],[140.880485,-37.20838],[140.88011,-37.208679],[140.876419,-37.211866],[140.875475,-37.212652],[140.87511,-37.212883],[140.871173,-37.214976],[140.86878,-37.216266],[140.868019,-37.216736],[140.867128,-37.217274],[140.866142,-37.217881],[140.863878,-37.219265],[140.863406,-37.219538],[140.862869,-37.219795],[140.862451,-37.219983],[140.861829,-37.220188],[140.861078,-37.220384],[140.860133,-37.22053],[140.858954,-37.220622],[140.856853,-37.220805],[140.85508,-37.220974],[140.854901,-37.220987],[140.854798,-37.220981],[140.854739,-37.220972]]}},{"type":"Feature","properties":{"tier":"arterial"},"geometry":{"type":"LineString","coordinates":[[140.84446,-37.375767],[140.845292,-37.372428]]}},{"type":"Feature","properties":{"tier":"arterial"},"geometry":{"type":"LineString","coordinates":[[140.845292,-37.372428],[140.848236,-37.373601],[140.848679,-37.373762],[140.849042,-37.373861],[140.849362,-37.373903],[140.849665,-37.373907],[140.851676,-37.373756],[140.851884,-37.373736],[140.852051,-37.37372],[140.852336,-37.373681],[140.852659,-37.373604],[140.852895,-37.37352],[140.853189,-37.373382],[140.853498,-37.373209],[140.85396,-37.372917],[140.855476,-37.371934],[140.855825,-37.37166],[140.856118,-37.37138],[140.856394,-37.371086],[140.857256,-37.369833],[140.857508,-37.369446],[140.857637,-37.369182],[140.85779,-37.368724],[140.857878,-37.36833],[140.857928,-37.367959],[140.857924,-37.367614],[140.857831,-37.365689],[140.857862,-37.365299],[140.857921,-37.364917],[140.858016,-37.364577],[140.85813,-37.36426],[140.858265,-37.363968],[140.859094,-37.362471],[140.859262,-37.362132],[140.859399,-37.361776],[140.859514,-37.361299]]}},{"type":"Feature","properties":{"tier":"arterial"},"geometry":{"type":"LineString","coordinates":[[140.859514,-37.361299],[140.862766,-37.362447],[140.866309,-37.3637],[140.868666,-37.364534],[140.869966,-37.364854],[140.870779,-37.364964],[140.871924,-37.365141],[140.872756,-37.365261],[140.87319,-37.365318],[140.87345,-37.365331],[140.8737,-37.365325],[140.873786,-37.365311],[140.873949,-37.365286],[140.874284,-37.365195],[140.874671,-37.365045],[140.875717,-37.364574],[140.878115,-37.363472],[140.881081,-37.362127],[140.882559,-37.361447],[140.883063,-37.361206],[140.883967,-37.360711],[140.886199,-37.359479],[140.886915,-37.359068],[140.887552,-37.358718],[140.888915,-37.357957],[140.889477,-37.357801],[140.889929,-37.357759],[140.890475,-37.357759],[140.891156,-37.357826],[140.896643,-37.358382],[140.898442,-37.358572],[140.898944,-37.358643],[140.899217,-37.358692],[140.899536,-37.358756],[140.90175,-37.359324],[140.902957,-37.359541],[140.904556,-37.359537],[140.919205,-37.358806],[140.920351,-37.358535],[140.922221,-37.357733],[140.926823,-37.355507],[140.943084,-37.34807],[140.943624,-37.34786],[140.944298,-37.347668],[140.952372,-37.346399]]}},{"type":"Feature","properties":{"tier":"arterial"},"geometry":{"type":"LineString","coordinates":[[140.83098,-37.374531],[140.828127,-37.374108],[140.827937,-37.374074],[140.827706,-37.374035]]}},{"type":"Feature","properties":{"tier":"arterial"},"geometry":{"type":"LineString","coordinates":[[140.553458,-37.354232],[140.552278,-37.354349],[140.55171,-37.354433],[140.551218,-37.354542],[140.550583,-37.354754],[140.550103,-37.354973],[140.549638,-37.355222],[140.549224,-37.355501],[140.548621,-37.355959],[140.548163,-37.356266],[140.547669,-37.35653],[140.547254,-37.356715],[140.5468,-37.356873],[140.546303,-37.357002],[140.5457,-37.357118],[140.544987,-37.357158],[140.544277,-37.35715],[140.537803,-37.357037],[140.531394,-37.356961],[140.511783,-37.3566],[140.505508,-37.356511],[140.49998,-37.35641]]}},{"type":"Feature","properties":{"tier":"regional"},"geometry":{"type":"LineString","coordinates":[[140.756149,-37.032725],[140.757307,-37.032748],[140.757596,-37.032747],[140.75795,-37.032724],[140.758477,-37.03266],[140.75902,-37.032575],[140.759257,-37.032537],[140.761973,-37.032103],[140.763297,-37.031892],[140.763655,-37.031841],[140.763924,-37.031815],[140.7643,-37.03179],[140.76671,-37.031678],[140.767873,-37.031634],[140.768248,-37.031632],[140.768587,-37.031638],[140.768927,-37.031663],[140.769391,-37.031723],[140.769935,-37.031823],[140.77035,-37.031933],[140.770798,-37.032089],[140.771419,-37.032313],[140.771762,-37.032406],[140.772071,-37.032463],[140.77239,-37.03252],[140.772805,-37.032558],[140.773238,-37.032568],[140.775693,-37.032572],[140.777348,-37.032565],[140.777578,-37.032579],[140.778479,-37.032688],[140.77892,-37.032734],[140.77935,-37.032756],[140.779643,-37.03276],[140.780253,-37.032763],[140.793273,-37.032798],[140.793867,-37.03279],[140.794265,-37.032781],[140.794526,-37.032747],[140.794726,-37.032714],[140.79498,-37.032652],[140.795285,-37.032562],[140.795685,-37.032438],[140.796043,-37.032345],[140.796436,-37.032256],[140.796832,-37.032187],[140.79737,-37.032094],[140.797711,-37.032027],[140.798011,-37.03195],[140.798442,-37.031812],[140.798779,-37.031677],[140.799179,-37.031492],[140.799415,-37.031367],[140.80002,-37.031028],[140.800494,-37.030757],[140.800882,-37.030516],[140.801212,-37.030263],[140.801501,-37.030019],[140.804378,-37.027236],[140.804691,-37.026967],[140.804939,-37.02678],[140.805177,-37.026621],[140.805619,-37.026336],[140.806041,-37.02606],[140.806651,-37.025665],[140.807198,-37.025315],[140.807544,-37.02511],[140.807944,-37.024884],[140.808367,-37.024659],[140.809812,-37.023976],[140.812277,-37.022843],[140.816854,-37.020755],[140.81695,-37.020712],[140.821394,-37.01865],[140.821908,-37.018411],[140.822051,-37.01834],[140.822589,-37.018049],[140.822893,-37.017834],[140.824025,-37.016874],[140.826581,-37.014574],[140.827002,-37.01419],[140.827284,-37.01391],[140.827551,-37.013611],[140.827913,-37.013146],[140.828262,-37.012682],[140.828619,-37.012171],[140.828675,-37.012081],[140.828703,-37.012014],[140.828727,-37.011948],[140.828745,-37.01186],[140.828786,-37.011766],[140.828847,-37.011668]]}},{"type":"Feature","properties":{"tier":"arterial"},"geometry":{"type":"LineString","coordinates":[[140.839443,-37.380997],[140.841022,-37.381156],[140.843128,-37.381368]]}},{"type":"Feature","properties":{"tier":"arterial"},"geometry":{"type":"LineString","coordinates":[[140.865243,-37.012655],[140.864913,-37.012423],[140.864496,-37.012211],[140.864256,-37.012118],[140.863936,-37.012026],[140.863664,-37.011969],[140.86336,-37.011925],[140.863185,-37.011906],[140.863028,-37.011896],[140.862669,-37.011892],[140.860529,-37.011884],[140.854295,-37.011894],[140.849671,-37.011901],[140.848573,-37.0119],[140.847975,-37.011891],[140.847642,-37.011868],[140.847328,-37.011839],[140.844385,-37.011449],[140.843041,-37.011272],[140.842849,-37.011251],[140.842586,-37.011232],[140.842134,-37.01122],[140.841867,-37.011223],[140.841535,-37.011238],[140.840843,-37.011292],[140.839095,-37.011473],[140.8354,-37.011862],[140.834934,-37.011898],[140.834455,-37.011912],[140.830115,-37.011904],[140.829846,-37.011889],[140.829611,-37.011859],[140.829336,-37.011801],[140.82906,-37.011721],[140.828847,-37.011668]]}},{"type":"Feature","properties":{"tier":"regional"},"geometry":{"type":"LineString","coordinates":[[140.56879,-37.179504],[140.571721,-37.18189],[140.572329,-37.182439],[140.572663,-37.182788],[140.572898,-37.183075],[140.573172,-37.183462],[140.574163,-37.185044],[140.576034,-37.18811],[140.578169,-37.191547],[140.579318,-37.193444],[140.579765,-37.194138],[140.580059,-37.194501],[140.580238,-37.194694],[140.58041,-37.194851],[140.580648,-37.195054],[140.580969,-37.195295],[140.581377,-37.195556],[140.581772,-37.195766],[140.582102,-37.195904],[140.582691,-37.196121],[140.583872,-37.196486],[140.586854,-37.197407],[140.589985,-37.19838],[140.592073,-37.199032],[140.593488,-37.199458],[140.595911,-37.200201],[140.598929,-37.201146],[140.599573,-37.201337],[140.599892,-37.201421],[140.600245,-37.201492],[140.600611,-37.201545],[140.600981,-37.201593],[140.601393,-37.201619],[140.601906,-37.201626],[140.602298,-37.201616],[140.602869,-37.201557],[140.603511,-37.201454],[140.603931,-37.201352],[140.604283,-37.201249],[140.604617,-37.201134],[140.604912,-37.201016],[140.605553,-37.200728],[140.605988,-37.200539],[140.606404,-37.200377],[140.606851,-37.200232],[140.607224,-37.200142],[140.607653,-37.20005],[140.608008,-37.199997],[140.608412,-37.199952],[140.608758,-37.19993],[140.609738,-37.199894],[140.610676,-37.199862],[140.611369,-37.199838],[140.611653,-37.199827],[140.611868,-37.199827]]}},{"type":"Feature","properties":{"tier":"regional"},"geometry":{"type":"LineString","coordinates":[[140.638305,-37.357245],[140.638305,-37.357002],[140.638225,-37.356782],[140.609936,-37.322049]]}},{"type":"Feature","properties":{"tier":"regional"},"geometry":{"type":"LineString","coordinates":[[140.671752,-37.164575],[140.678068,-37.16314],[140.679141,-37.162832],[140.680042,-37.162439],[140.680901,-37.161943],[140.681694,-37.161412],[140.685257,-37.157531],[140.68899,-37.153392],[140.689655,-37.152588],[140.690449,-37.15187],[140.690964,-37.151442],[140.691629,-37.150878],[140.692295,-37.150536],[140.693346,-37.150023],[140.694655,-37.149664],[140.699835,-37.148756],[140.700943,-37.148562],[140.701906,-37.148357],[140.702326,-37.148211],[140.702744,-37.148072],[140.703301,-37.147839],[140.704095,-37.147435],[140.705108,-37.146913],[140.705291,-37.146819],[140.705761,-37.14658],[140.706423,-37.146244],[140.707385,-37.145756],[140.707742,-37.145596],[140.708206,-37.145421],[140.70886,-37.145217],[140.709501,-37.14507],[140.709653,-37.145046],[140.71045,-37.144917],[140.711306,-37.144806],[140.712244,-37.144635],[140.712893,-37.144458],[140.713553,-37.144222],[140.714765,-37.14371],[140.715169,-37.143521],[140.715489,-37.143357],[140.715664,-37.143267],[140.715978,-37.143045],[140.716262,-37.142799],[140.716492,-37.142577],[140.717046,-37.141717],[140.717266,-37.141379],[140.717397,-37.14122],[140.717591,-37.141005],[140.717878,-37.140726],[140.718349,-37.140388],[140.718777,-37.140136],[140.723104,-37.137615],[140.723486,-37.137375],[140.723947,-37.137024],[140.724427,-37.136572],[140.724756,-37.136226],[140.725056,-37.135842],[140.725786,-37.134822],[140.726414,-37.133947],[140.72671,-37.133535],[140.727017,-37.133185],[140.727331,-37.132886],[140.732197,-37.128188],[140.737133,-37.123432],[140.740265,-37.120404],[140.742433,-37.117974],[140.743183,-37.117461],[140.744083,-37.117126],[140.744328,-37.117051],[140.744992,-37.116873],[140.746042,-37.116715],[140.746273,-37.116691],[140.749728,-37.116263],[140.752432,-37.115681],[140.760028,-37.112345],[140.760629,-37.112037],[140.766637,-37.108238],[140.766929,-37.108049],[140.767413,-37.107757],[140.767632,-37.10765],[140.767936,-37.107507],[140.768355,-37.107364],[140.769316,-37.107114],[140.770358,-37.106883],[140.772366,-37.106441],[140.773396,-37.106253],[140.785399,-37.105171],[140.785734,-37.10514],[140.790476,-37.104747],[140.793362,-37.104437]]}},{"type":"Feature","properties":{"tier":"regional"},"geometry":{"type":"LineString","coordinates":[[140.82906,-37.011721],[140.829518,-37.011018],[140.829722,-37.010819],[140.83227,-37.008627],[140.832893,-37.007762],[140.833332,-37.006785],[140.833343,-37.005697],[140.833172,-37.004823],[140.832785,-37.003889],[140.832636,-37.002962],[140.832725,-36.99998]]}},{"type":"Feature","properties":{"tier":"regional"},"geometry":{"type":"LineString","coordinates":[[140.609936,-37.322049],[140.610096,-37.321965],[140.61019,-37.321915],[140.61025,-37.321849],[140.610281,-37.321728],[140.611799,-37.311076],[140.611892,-37.310411],[140.611926,-37.30978],[140.611919,-37.308905],[140.611849,-37.256299],[140.611921,-37.228063],[140.611908,-37.225508],[140.61189,-37.222166]]}},{"type":"Feature","properties":{"tier":"arterial"},"geometry":{"type":"LineString","coordinates":[[140.821058,-37.385184],[140.814047,-37.387301],[140.813671,-37.387405],[140.812736,-37.387645],[140.811159,-37.388015],[140.810016,-37.388299],[140.79899,-37.391085],[140.798534,-37.39122],[140.797838,-37.391435],[140.795588,-37.392129],[140.795231,-37.392216],[140.794781,-37.392299],[140.794347,-37.392355],[140.793984,-37.392368],[140.793603,-37.392368],[140.793063,-37.392326],[140.792533,-37.392262],[140.792129,-37.392176],[140.791573,-37.392015],[140.790892,-37.391781],[140.790568,-37.391691],[140.790158,-37.391616],[140.789676,-37.391558],[140.789043,-37.39155],[140.78856,-37.391551],[140.78677,-37.391675],[140.785504,-37.391709],[140.784074,-37.391785],[140.783058,-37.39176],[140.779765,-37.391323],[140.77923,-37.391265],[140.778969,-37.391245],[140.77879,-37.39124],[140.778495,-37.391244],[140.777993,-37.391257],[140.776805,-37.391299],[140.775449,-37.391338],[140.774668,-37.391368],[140.774407,-37.391375],[140.774029,-37.391394],[140.773687,-37.391426],[140.773409,-37.391468],[140.773219,-37.391505],[140.772937,-37.391562],[140.772532,-37.391658],[140.77195,-37.391786],[140.771508,-37.391895],[140.771108,-37.391999],[140.770751,-37.392123],[140.767676,-37.393377],[140.758075,-37.397164],[140.755583,-37.398156],[140.752248,-37.399466],[140.751836,-37.399619],[140.751607,-37.399701],[140.751396,-37.399772],[140.751163,-37.399842],[140.750977,-37.399895],[140.750865,-37.39992],[140.750706,-37.399954],[140.750543,-37.399986],[140.750332,-37.400013],[140.750141,-37.400036],[140.749995,-37.400053],[140.749755,-37.400072],[140.749298,-37.400105],[140.748811,-37.400148],[140.74865,-37.400163],[140.748441,-37.40018],[140.748247,-37.400208],[140.748042,-37.400239],[140.747864,-37.400274],[140.747731,-37.400305],[140.747559,-37.400346],[140.747348,-37.400406],[140.74712,-37.400477],[140.746945,-37.40054],[140.746799,-37.400591],[140.746668,-37.400645],[140.746542,-37.400699],[140.746426,-37.400755],[140.74631,-37.400807],[140.746197,-37.400867],[140.746076,-37.400934],[140.745772,-37.401105],[140.745497,-37.401258],[140.745155,-37.401453],[140.74504,-37.40151],[140.744889,-37.401577],[140.744718,-37.401652],[140.744541,-37.401721],[140.744227,-37.401834],[140.743637,-37.402046],[140.742632,-37.402399],[140.722235,-37.409742],[140.721741,-37.409918],[140.721497,-37.410001],[140.721281,-37.410068],[140.721128,-37.41011],[140.720916,-37.410164],[140.720711,-37.410212],[140.720509,-37.410256],[140.720277,-37.410296],[140.72006,-37.410326],[140.719762,-37.410359],[140.71962,-37.410371],[140.71943,-37.410384],[140.719148,-37.410399],[140.715553,-37.410553],[140.714827,-37.410582],[140.714367,-37.410601],[140.714016,-37.410625],[140.713749,-37.410655],[140.713535,-37.410681],[140.713269,-37.410721],[140.713136,-37.410744],[140.712938,-37.410783],[140.712739,-37.41083],[140.712536,-37.41088],[140.712429,-37.410909],[140.712149,-37.410995],[140.71177,-37.411127],[140.711454,-37.411254],[140.711277,-37.411332],[140.711126,-37.411405],[140.710929,-37.411502],[140.710706,-37.411625],[140.710598,-37.411686],[140.710429,-37.411791],[140.710101,-37.412014],[140.709254,-37.412626],[140.702619,-37.417429],[140.692766,-37.424557],[140.692187,-37.42498],[140.691795,-37.425269],[140.691597,-37.425421],[140.691449,-37.425545],[140.69129,-37.42568],[140.691206,-37.425759],[140.691076,-37.425894],[140.690958,-37.426013],[140.690878,-37.426106],[140.690762,-37.426233],[140.69067,-37.426349],[140.690577,-37.426463],[140.690483,-37.426584],[140.690341,-37.426767],[140.690155,-37.426996],[140.689842,-37.427389],[140.689373,-37.427988],[140.688187,-37.429466],[140.684092,-37.434605],[140.681089,-37.43839],[140.68072,-37.438841],[140.680553,-37.439042],[140.680377,-37.439237],[140.680288,-37.439331],[140.680166,-37.439442],[140.680064,-37.439542],[140.679933,-37.439657],[140.679731,-37.439816],[140.67946,-37.440008],[140.674948,-37.443322],[140.671473,-37.445885],[140.668766,-37.447869],[140.668274,-37.448232],[140.668021,-37.448418],[140.667771,-37.448583],[140.667494,-37.448747],[140.667199,-37.448914],[140.666987,-37.449012],[140.666751,-37.449114],[140.666523,-37.449214],[140.666295,-37.449291],[140.665842,-37.44944],[140.665249,-37.449608],[140.61019,-37.464745],[140.586152,-37.471302],[140.578719,-37.473336]]}},{"type":"Feature","properties":{"tier":"regional"},"geometry":{"type":"LineString","coordinates":[[140.49998,-37.101208],[140.500124,-37.101292],[140.505929,-37.104636],[140.512023,-37.108129],[140.513617,-37.109077],[140.514091,-37.109389],[140.514458,-37.109666],[140.514839,-37.110005],[140.515163,-37.110348],[140.515491,-37.110779],[140.515694,-37.111064],[140.515892,-37.11141],[140.516066,-37.111819],[140.516843,-37.114129],[140.518495,-37.119101],[140.520306,-37.124566],[140.521441,-37.127974],[140.523185,-37.133168],[140.523397,-37.133587],[140.523624,-37.133969],[140.523808,-37.134242],[140.524102,-37.134577],[140.524416,-37.13492],[140.524725,-37.135208],[140.527497,-37.137826],[140.529893,-37.140183],[140.5304,-37.140675],[140.531795,-37.142373],[140.532235,-37.142908],[140.532737,-37.143436],[140.533858,-37.145195],[140.534461,-37.146019],[140.535049,-37.147046]]}},{"type":"Feature","properties":{"tier":"regional"},"geometry":{"type":"LineString","coordinates":[[140.838405,-37.362327],[140.838724,-37.362624],[140.838933,-37.362845],[140.839011,-37.362948],[140.839089,-37.363067],[140.839156,-37.363233],[140.839207,-37.363383],[140.839255,-37.363623],[140.839249,-37.363841],[140.839228,-37.363986],[140.839177,-37.364215],[140.838707,-37.366315],[140.838512,-37.367181]]}},{"type":"Feature","properties":{"tier":"regional"},"geometry":{"type":"LineString","coordinates":[[140.838512,-37.367181],[140.838305,-37.368019]]}},{"type":"Feature","properties":{"tier":"arterial"},"geometry":{"type":"LineString","coordinates":[[140.967072,-37.476066],[140.967787,-37.476609],[140.968286,-37.47699],[140.968614,-37.477296],[140.968946,-37.477668],[140.971555,-37.480901],[140.971841,-37.481259],[140.972106,-37.481595]]}},{"type":"Feature","properties":{"tier":"regional"},"geometry":{"type":"LineString","coordinates":[[140.767676,-37.393377],[140.765463,-37.398937],[140.764981,-37.399784],[140.764068,-37.400642],[140.763102,-37.401255],[140.761965,-37.40175],[140.760163,-37.402329],[140.758982,-37.403011],[140.751537,-37.409625],[140.747889,-37.412045],[140.744606,-37.414499],[140.744243,-37.414707],[140.743597,-37.415078],[140.738362,-37.417345],[140.737031,-37.41818],[140.733748,-37.421265],[140.732645,-37.422191],[140.732436,-37.422341],[140.732166,-37.422508],[140.732019,-37.422591],[140.731747,-37.422755],[140.731576,-37.422849],[140.731425,-37.422919],[140.731237,-37.422997],[140.730959,-37.423109],[140.73041,-37.42331],[140.729385,-37.423682],[140.728198,-37.424107],[140.727888,-37.424247],[140.72754,-37.424413],[140.727183,-37.424616],[140.72697,-37.424749],[140.72675,-37.424895],[140.726516,-37.425078],[140.726363,-37.425217],[140.7262,-37.425386],[140.726066,-37.425537],[140.725949,-37.425676],[140.725863,-37.425791],[140.72559,-37.426153],[140.725159,-37.426873],[140.724242,-37.428507],[140.723878,-37.429308],[140.72347,-37.431676],[140.723053,-37.432914],[140.722461,-37.433926],[140.72156,-37.434982],[140.72038,-37.435851],[140.719684,-37.436441],[140.716067,-37.441184],[140.715338,-37.441967],[140.714286,-37.442615],[140.712677,-37.44333],[140.712006,-37.443646],[140.711362,-37.444029],[140.711115,-37.444225],[140.710757,-37.444517],[140.710307,-37.44513],[140.70993,-37.445783],[140.709716,-37.446499],[140.709587,-37.447317],[140.70978,-37.449753],[140.709909,-37.450468],[140.710703,-37.452393],[140.71081,-37.453296],[140.710767,-37.454045],[140.709244,-37.459479],[140.707613,-37.463635],[140.707355,-37.464452],[140.707315,-37.465131],[140.707312,-37.465185],[140.707484,-37.467927],[140.707827,-37.471793],[140.708215,-37.47513],[140.708578,-37.47949],[140.709179,-37.482861],[140.709437,-37.483747],[140.710582,-37.486686],[140.712763,-37.492277],[140.712934,-37.493213],[140.712902,-37.50002]]}},{"type":"Feature","properties":{"tier":"arterial"},"geometry":{"type":"LineString","coordinates":[[140.836616,-37.375361],[140.835227,-37.375156],[140.834735,-37.375084],[140.833868,-37.374956],[140.832849,-37.374806],[140.832187,-37.374709],[140.83098,-37.374531]]}},{"type":"Feature","properties":{"tier":"arterial"},"geometry":{"type":"LineString","coordinates":[[140.586257,-36.99998],[140.585564,-37.000184],[140.582667,-37.001178],[140.58035,-37.002275],[140.579256,-37.002549],[140.573977,-37.003423],[140.573162,-37.003457],[140.570072,-37.00368],[140.565866,-37.004314],[140.562969,-37.00488],[140.560673,-37.005599],[140.555459,-37.007347],[140.550346,-37.009069],[140.541469,-37.012059],[140.532456,-37.01504],[140.531577,-37.015297],[140.530847,-37.015452],[140.521835,-37.016068],[140.52074,-37.016137],[140.519217,-37.01576],[140.513874,-37.013773],[140.513595,-37.01367],[140.512093,-37.013533],[140.508295,-37.01367],[140.507394,-37.013635],[140.505016,-37.013264],[140.504433,-37.013173],[140.503188,-37.012916],[140.49998,-37.011789]]}},{"type":"Feature","properties":{"tier":"high"},"geometry":{"type":"LineString","coordinates":[[140.820457,-37.50002],[140.820539,-37.499736],[140.821039,-37.49827],[140.823165,-37.492199],[140.82445,-37.488655],[140.825713,-37.485077],[140.826392,-37.483318],[140.827884,-37.480019]]}},{"type":"Feature","properties":{"tier":"high"},"geometry":{"type":"LineString","coordinates":[[140.827884,-37.480019],[140.828266,-37.479057],[140.828641,-37.477934],[140.829351,-37.47583],[140.830165,-37.473337],[140.830538,-37.471588],[140.831314,-37.467359]]}},{"type":"Feature","properties":{"tier":"high"},"geometry":{"type":"LineString","coordinates":[[140.831314,-37.467359],[140.831429,-37.465693],[140.831636,-37.462722],[140.832028,-37.460869],[140.83268,-37.457794],[140.832951,-37.456946],[140.836606,-37.445544],[140.837704,-37.442005],[140.838438,-37.439416],[140.840918,-37.432288],[140.842321,-37.427357],[140.845665,-37.41998],[140.846052,-37.417523],[140.845761,-37.416045],[140.845721,-37.415844],[140.844851,-37.414524],[140.838977,-37.405614],[140.838438,-37.40457],[140.837672,-37.40305],[140.837525,-37.400591],[140.838386,-37.398297],[140.838607,-37.397686],[140.838763,-37.397225],[140.838908,-37.396658],[140.838984,-37.396097],[140.83897,-37.395576],[140.838891,-37.395058],[140.838776,-37.394583],[140.838561,-37.394016],[140.838094,-37.393138],[140.837447,-37.392034],[140.837261,-37.391677]]}},{"type":"Feature","properties":{"tier":"high"},"geometry":{"type":"LineString","coordinates":[[140.828169,-37.384773],[140.828527,-37.385294],[140.828853,-37.385665],[140.829165,-37.385981],[140.829514,-37.386269],[140.829869,-37.386515],[140.830319,-37.386806],[140.83129,-37.387385],[140.832229,-37.387881],[140.833412,-37.388432],[140.834137,-37.388842],[140.835135,-37.389447]]}},{"type":"Feature","properties":{"tier":"arterial"},"geometry":{"type":"LineString","coordinates":[[140.825945,-37.383762],[140.824868,-37.384075],[140.82414,-37.384307],[140.822907,-37.384656],[140.821058,-37.385184]]}},{"type":"Feature","properties":{"tier":"arterial"},"geometry":{"type":"LineString","coordinates":[[140.971471,-37.066889],[140.966444,-37.067961],[140.965871,-37.068066],[140.965372,-37.068131],[140.964448,-37.068201],[140.95387,-37.068149],[140.947131,-37.068186],[140.946613,-37.068176],[140.946122,-37.068146],[140.945768,-37.068104],[140.945166,-37.068009],[140.944438,-37.067816],[140.943965,-37.067652],[140.942443,-37.066998],[140.939985,-37.065926],[140.93636,-37.06469],[140.933034,-37.063184],[140.928614,-37.060881],[140.926179,-37.059802],[140.925734,-37.059512],[140.925238,-37.059188],[140.924473,-37.058432],[140.920042,-37.054288],[140.916662,-37.052413],[140.914806,-37.051702],[140.911888,-37.051],[140.910053,-37.050255],[140.906934,-37.04842],[140.905568,-37.047618],[140.903037,-37.046059],[140.901298,-37.045117],[140.894775,-37.043302],[140.89411,-37.043062],[140.882287,-37.037418],[140.877952,-37.035305],[140.877643,-37.035169],[140.877167,-37.03499],[140.876644,-37.034837]]}},{"type":"Feature","properties":{"tier":"arterial"},"geometry":{"type":"LineString","coordinates":[[140.823691,-37.373474],[140.824366,-37.373594],[140.8247,-37.373618],[140.82505,-37.373614],[140.825294,-37.373584],[140.825517,-37.373539],[140.826087,-37.373381],[140.82637,-37.373319],[140.826657,-37.373276],[140.826926,-37.373266],[140.827175,-37.373271],[140.827633,-37.373326],[140.827848,-37.37336]]}},{"type":"Feature","properties":{"tier":"regional"},"geometry":{"type":"LineString","coordinates":[[140.836597,-37.376933],[140.836861,-37.377946],[140.837112,-37.378908],[140.837374,-37.379914],[140.837592,-37.38075],[140.837643,-37.380945],[140.83772,-37.38124],[140.837794,-37.381525]]}},{"type":"Feature","properties":{"tier":"regional"},"geometry":{"type":"LineString","coordinates":[[140.83562,-37.385696],[140.835523,-37.385998],[140.835433,-37.386259],[140.835389,-37.386453],[140.835343,-37.386713],[140.835313,-37.387054],[140.835303,-37.387316],[140.83536,-37.387776],[140.835557,-37.388432],[140.835579,-37.388704],[140.835519,-37.388967],[140.83536,-37.389189],[140.835231,-37.389325],[140.835135,-37.389447]]}},{"type":"Feature","properties":{"tier":"arterial"},"geometry":{"type":"LineString","coordinates":[[140.828847,-37.011668],[140.828515,-37.011525],[140.828244,-37.011397],[140.828042,-37.011267],[140.827821,-37.011114],[140.826506,-37.009953],[140.825739,-37.009272],[140.82531,-37.008895],[140.825109,-37.008745],[140.824959,-37.008646],[140.82474,-37.008528],[140.820591,-37.006632],[140.820184,-37.006434],[140.819958,-37.006298],[140.819416,-37.005904],[140.813698,-37.001395],[140.813254,-37.001004],[140.812441,-37.00034],[140.811979,-36.99998]]}},{"type":"Feature","properties":{"tier":"arterial"},"geometry":{"type":"LineString","coordinates":[[140.823691,-37.373474],[140.817102,-37.372513],[140.81579,-37.372318],[140.814841,-37.372162],[140.81418,-37.372041],[140.813579,-37.371852],[140.812974,-37.371627],[140.808978,-37.369864],[140.808469,-37.369668],[140.808025,-37.369534],[140.80758,-37.369418],[140.807112,-37.369317],[140.806569,-37.36923],[140.804132,-37.368997],[140.80357,-37.368932],[140.802993,-37.368863],[140.802321,-37.368737],[140.800495,-37.368302],[140.799902,-37.368166],[140.799297,-37.368061],[140.798717,-37.36799],[140.797896,-37.367949],[140.797146,-37.367961],[140.793296,-37.368047],[140.792394,-37.368053],[140.791316,-37.368028],[140.786567,-37.367863],[140.785676,-37.367828],[140.784856,-37.367756],[140.784242,-37.367655],[140.774955,-37.36626],[140.760742,-37.364099],[140.760089,-37.364007],[140.759577,-37.363945],[140.759151,-37.363903],[140.758549,-37.363877],[140.75792,-37.363864],[140.752493,-37.363837],[140.752173,-37.363836],[140.751056,-37.363829],[140.750246,-37.363813],[140.749315,-37.36378],[140.747423,-37.363725],[140.746811,-37.3637],[140.746351,-37.363664],[140.745813,-37.363616],[140.740238,-37.362999],[140.739165,-37.362872],[140.73562,-37.36239],[140.734971,-37.362304],[140.734321,-37.362226],[140.733668,-37.362169],[140.732038,-37.36209],[140.731432,-37.362051],[140.730994,-37.362008],[140.730484,-37.361938],[140.729915,-37.361819],[140.729345,-37.361664],[140.728892,-37.36152],[140.72887,-37.361513],[140.728471,-37.361374],[140.727409,-37.360961],[140.727006,-37.360822],[140.726617,-37.360708],[140.726179,-37.360597],[140.725691,-37.360516],[140.725184,-37.360449],[140.724518,-37.36039],[140.724073,-37.360351]]}},{"type":"Feature","properties":{"tier":"high"},"geometry":{"type":"LineString","coordinates":[[140.742162,-36.99998],[140.742745,-37.001124],[140.742843,-37.001345],[140.743049,-37.001856],[140.743326,-37.0026],[140.743653,-37.003781],[140.743816,-37.004503],[140.744046,-37.005364],[140.744263,-37.006166],[140.744515,-37.007028],[140.744608,-37.007302],[140.744779,-37.007728],[140.745411,-37.009253],[140.745845,-37.010322],[140.745981,-37.010776],[140.74606,-37.011041],[140.74622,-37.011983],[140.746317,-37.013047],[140.74635,-37.013247],[140.746406,-37.013582],[140.746627,-37.014351],[140.747065,-37.015403],[140.748277,-37.018108],[140.749153,-37.020058],[140.749557,-37.020914],[140.750668,-37.023289],[140.751808,-37.025794],[140.754313,-37.030328]]}},{"type":"Feature","properties":{"tier":"regional"},"geometry":{"type":"LineString","coordinates":[[140.837794,-37.381525],[140.837778,-37.381676],[140.837753,-37.381795],[140.837707,-37.381907],[140.83562,-37.385696]]}},{"type":"Feature","properties":{"tier":"regional"},"geometry":{"type":"LineString","coordinates":[[140.838305,-37.368019],[140.838029,-37.369221],[140.837962,-37.369512],[140.837772,-37.370336],[140.837579,-37.371174],[140.837396,-37.371971],[140.836908,-37.374094],[140.836783,-37.374638],[140.836616,-37.375361],[140.836606,-37.375404],[140.836455,-37.376064]]}},{"type":"Feature","properties":{"tier":"regional"},"geometry":{"type":"LineString","coordinates":[[140.568491,-37.179257],[140.56879,-37.179504]]}},{"type":"Feature","properties":{"tier":"regional"},"geometry":{"type":"LineString","coordinates":[[140.548581,-37.173955],[140.549631,-37.174454],[140.550251,-37.174746],[140.550668,-37.174918],[140.550972,-37.175019],[140.551305,-37.175119],[140.551723,-37.175223],[140.552115,-37.175301],[140.552515,-37.175358],[140.552867,-37.175396],[140.553282,-37.175413],[140.553618,-37.175421],[140.558713,-37.175407],[140.559742,-37.175406],[140.560047,-37.17543],[140.560355,-37.175461],[140.560679,-37.175508],[140.560955,-37.175556],[140.561185,-37.1756],[140.561766,-37.175756],[140.562209,-37.175907],[140.56323,-37.176246],[140.56486,-37.176806],[140.565198,-37.176945],[140.565539,-37.177105],[140.56583,-37.177262],[140.566064,-37.1774],[140.566421,-37.177631],[140.567614,-37.178565],[140.568491,-37.179257]]}},{"type":"Feature","properties":{"tier":"regional"},"geometry":{"type":"LineString","coordinates":[[140.612323,-37.162965],[140.616978,-37.162592],[140.624755,-37.161419],[140.626679,-37.161114],[140.63274,-37.160209],[140.632874,-37.160189],[140.633834,-37.160038],[140.634238,-37.159993],[140.634628,-37.159974],[140.635282,-37.159976],[140.647105,-37.16025],[140.647684,-37.160215],[140.648735,-37.159942],[140.649508,-37.159737],[140.650302,-37.159668],[140.651139,-37.159754],[140.651511,-37.15982],[140.65616,-37.160643],[140.656675,-37.160711],[140.65734,-37.160745],[140.658263,-37.160711],[140.659293,-37.160592],[140.660087,-37.160643],[140.66146,-37.160916],[140.664872,-37.161549],[140.666309,-37.162045],[140.670429,-37.163413],[140.67088,-37.163635],[140.671202,-37.163926],[140.671502,-37.164302],[140.671752,-37.164575]]}},{"type":"Feature","properties":{"tier":"arterial"},"geometry":{"type":"LineString","coordinates":[[140.505508,-37.356511],[140.505345,-37.356196],[140.501997,-37.350107],[140.49998,-37.346426]]}},{"type":"Feature","properties":{"tier":"arterial"},"geometry":{"type":"LineString","coordinates":[[140.827287,-37.383355],[140.827129,-37.383407],[140.825945,-37.383762]]}},{"type":"Feature","properties":{"tier":"high"},"geometry":{"type":"LineString","coordinates":[[140.755337,-37.032245],[140.755539,-37.032463],[140.755668,-37.032565],[140.755813,-37.032638],[140.756149,-37.032725]]}},{"type":"Feature","properties":{"tier":"high"},"geometry":{"type":"LineString","coordinates":[[140.756149,-37.032725],[140.755964,-37.032753],[140.755881,-37.032774],[140.755801,-37.032832],[140.755771,-37.032944],[140.755774,-37.033075]]}},{"type":"Feature","properties":{"tier":"regional"},"geometry":{"type":"LineString","coordinates":[[140.755589,-37.032719],[140.756149,-37.032725]]}},{"type":"Feature","properties":{"tier":"high"},"geometry":{"type":"LineString","coordinates":[[140.755774,-37.033075],[140.757701,-37.03678],[140.763618,-37.048502],[140.769215,-37.059574],[140.770355,-37.061868],[140.771129,-37.063403],[140.771643,-37.064375],[140.772245,-37.06526],[140.773366,-37.066647],[140.773839,-37.067379],[140.774232,-37.068129],[140.774301,-37.068291],[140.774467,-37.068681],[140.774631,-37.069068],[140.775142,-37.070567],[140.775601,-37.071954],[140.775971,-37.072914],[140.776421,-37.073878],[140.776913,-37.074817],[140.77755,-37.075834],[140.777899,-37.076375],[140.778588,-37.077284],[140.779698,-37.078731],[140.780528,-37.079828],[140.781282,-37.080846],[140.785174,-37.086469],[140.786717,-37.088699],[140.78782,-37.090292],[140.788946,-37.092142],[140.789284,-37.092774]]}},{"type":"Feature","properties":{"tier":"high"},"geometry":{"type":"LineString","coordinates":[[140.754313,-37.030328],[140.754419,-37.030521],[140.755337,-37.032245]]}},{"type":"Feature","properties":{"tier":"high"},"geometry":{"type":"LineString","coordinates":[[140.755337,-37.032245],[140.755589,-37.032719],[140.755774,-37.033075]]}},{"type":"Feature","properties":{"tier":"high"},"geometry":{"type":"LineString","coordinates":[[140.82995,-37.368102],[140.830358,-37.367748],[140.83138,-37.367047],[140.832372,-37.366384],[140.833297,-37.36574],[140.834617,-37.364885],[140.835527,-37.364278]]}},{"type":"Feature","properties":{"tier":"high"},"geometry":{"type":"LineString","coordinates":[[140.827287,-37.383355],[140.827989,-37.384503],[140.828169,-37.384773]]}},{"type":"Feature","properties":{"tier":"high"},"geometry":{"type":"LineString","coordinates":[[140.826566,-37.381411],[140.826596,-37.381659],[140.826704,-37.382129],[140.826843,-37.382537],[140.827028,-37.382965],[140.827287,-37.383355]]}},{"type":"Feature","properties":{"tier":"high"},"geometry":{"type":"LineString","coordinates":[[140.827233,-37.37646],[140.827007,-37.377578],[140.82671,-37.379277],[140.826585,-37.37986],[140.82654,-37.380251],[140.826525,-37.380719],[140.826527,-37.381127],[140.826566,-37.381411]]}},{"type":"Feature","properties":{"tier":"high"},"geometry":{"type":"LineString","coordinates":[[140.827464,-37.375242],[140.827233,-37.37646]]}},{"type":"Feature","properties":{"tier":"high"},"geometry":{"type":"LineString","coordinates":[[140.840223,-37.359558],[140.840118,-37.359929],[140.840017,-37.360176],[140.839751,-37.360722]]}},{"type":"Feature","properties":{"tier":"high"},"geometry":{"type":"LineString","coordinates":[[140.838405,-37.362327],[140.83869,-37.362068]]}},{"type":"Feature","properties":{"tier":"high"},"geometry":{"type":"LineString","coordinates":[[140.835527,-37.364278],[140.836189,-37.363826]]}},{"type":"Feature","properties":{"tier":"high"},"geometry":{"type":"LineString","coordinates":[[140.836189,-37.363826],[140.836836,-37.363408]]}},{"type":"Feature","properties":{"tier":"high"},"geometry":{"type":"LineString","coordinates":[[140.83869,-37.362068],[140.838869,-37.361905],[140.839012,-37.361765],[140.839141,-37.361623],[140.83937,-37.361342],[140.839531,-37.361119],[140.839751,-37.360722]]}},{"type":"Feature","properties":{"tier":"high"},"geometry":{"type":"LineString","coordinates":[[140.836836,-37.363408],[140.837825,-37.362771],[140.838405,-37.362327]]}},{"type":"Feature","properties":{"tier":"high"},"geometry":{"type":"LineString","coordinates":[[140.828169,-37.371541],[140.828263,-37.371108],[140.828346,-37.370731],[140.82844,-37.370381],[140.828569,-37.370042],[140.828759,-37.36965],[140.829164,-37.369004],[140.829596,-37.368456],[140.82995,-37.368102]]}},{"type":"Feature","properties":{"tier":"high"},"geometry":{"type":"LineString","coordinates":[[140.828019,-37.372432],[140.828169,-37.371541]]}},{"type":"Feature","properties":{"tier":"high"},"geometry":{"type":"LineString","coordinates":[[140.827848,-37.37336],[140.828019,-37.372432]]}},{"type":"Feature","properties":{"tier":"high"},"geometry":{"type":"LineString","coordinates":[[140.827706,-37.374035],[140.827464,-37.375242]]}},{"type":"Feature","properties":{"tier":"high"},"geometry":{"type":"LineString","coordinates":[[140.827848,-37.37336],[140.827706,-37.374035]]}},{"type":"Feature","properties":{"tier":"high"},"geometry":{"type":"LineString","coordinates":[[140.835135,-37.389447],[140.83555,-37.389728],[140.836184,-37.390267],[140.836649,-37.390759],[140.837261,-37.391677]]}},{"type":"Feature","properties":{"tier":"high"},"geometry":{"type":"LineString","coordinates":[[140.789391,-37.092976],[140.789959,-37.094039],[140.79077,-37.095798],[140.79169,-37.09814],[140.792002,-37.09917],[140.792484,-37.100765],[140.792754,-37.101881],[140.793099,-37.103306]]}},{"type":"Feature","properties":{"tier":"high"},"geometry":{"type":"LineString","coordinates":[[140.789284,-37.092774],[140.789391,-37.092976]]}},{"type":"Feature","properties":{"tier":"arterial"},"geometry":{"type":"LineString","coordinates":[[140.723949,-37.360343],[140.718726,-37.359939],[140.71837,-37.359913],[140.71798,-37.359901],[140.717602,-37.35991],[140.717223,-37.359935],[140.716791,-37.359975],[140.716317,-37.36004],[140.715891,-37.360128],[140.71526,-37.360268],[140.714811,-37.360364],[140.714406,-37.360435],[140.714041,-37.360477],[140.713697,-37.360503],[140.713231,-37.36052],[140.711211,-37.360465],[140.710246,-37.360447],[140.70723,-37.360348],[140.703699,-37.360255],[140.699756,-37.36015],[140.699163,-37.360125],[140.698608,-37.360143],[140.69792,-37.360223],[140.691882,-37.36116],[140.69127,-37.361253],[140.69064,-37.36129],[140.689956,-37.361254],[140.689362,-37.361163],[140.68421,-37.359923],[140.683964,-37.359859],[140.6837,-37.3598],[140.683252,-37.359724],[140.682782,-37.359681],[140.682298,-37.359667],[140.681652,-37.359653],[140.663894,-37.359284]]}},{"type":"Feature","properties":{"tier":"arterial"},"geometry":{"type":"LineString","coordinates":[[140.724073,-37.360351],[140.723949,-37.360343]]}},{"type":"Feature","properties":{"tier":"arterial"},"geometry":{"type":"LineString","coordinates":[[140.876644,-37.034837],[140.876296,-37.034752],[140.873558,-37.03408],[140.868568,-37.0325]]}},{"type":"Feature","properties":{"tier":"arterial"},"geometry":{"type":"LineString","coordinates":[[140.868568,-37.0325],[140.868261,-37.032403]]}},{"type":"Feature","properties":{"tier":"arterial"},"geometry":{"type":"LineString","coordinates":[[140.57851,-37.473393],[140.578194,-37.47348],[140.561123,-37.478151],[140.560725,-37.47826],[140.560445,-37.478345],[140.560222,-37.478416],[140.560062,-37.478475],[140.559869,-37.47855],[140.55973,-37.47861],[140.559622,-37.478656],[140.55949,-37.478715],[140.559164,-37.47888],[140.558929,-37.479009],[140.558721,-37.479133],[140.558574,-37.479231],[140.558422,-37.479339],[140.558293,-37.479429],[140.558146,-37.479541],[140.558044,-37.479626],[140.557909,-37.479743],[140.557774,-37.479868],[140.557628,-37.480006],[140.557451,-37.480194],[140.557203,-37.480456],[140.556598,-37.481125],[140.556116,-37.481657],[140.555866,-37.481932],[140.555226,-37.48261],[140.554674,-37.483173],[140.554323,-37.483506],[140.553857,-37.483946],[140.553459,-37.484296],[140.55328,-37.484452],[140.552843,-37.484834],[140.552667,-37.484986],[140.552567,-37.485073],[140.552299,-37.485305],[140.552046,-37.485536],[140.551536,-37.486018],[140.551218,-37.486332],[140.551029,-37.486531],[140.550707,-37.486866],[140.549977,-37.487647],[140.549661,-37.488003],[140.547579,-37.490239],[140.546101,-37.491814],[140.544164,-37.49391],[140.538544,-37.50002]]}},{"type":"Feature","properties":{"tier":"arterial"},"geometry":{"type":"LineString","coordinates":[[140.578719,-37.473336],[140.57851,-37.473393]]}},{"type":"Feature","properties":{"tier":"regional"},"geometry":{"type":"LineString","coordinates":[[140.611889,-37.222049],[140.611796,-37.204213],[140.611868,-37.199827],[140.611909,-37.192861],[140.611927,-37.189852],[140.612025,-37.17337],[140.612009,-37.168803],[140.61208,-37.163839],[140.612083,-37.16334],[140.612092,-37.163151]]}},{"type":"Feature","properties":{"tier":"regional"},"geometry":{"type":"LineString","coordinates":[[140.61189,-37.222166],[140.611889,-37.222049]]}},{"type":"Feature","properties":{"tier":"high"},"geometry":{"type":"LineString","coordinates":[[140.837323,-37.268123],[140.837352,-37.268236],[140.83742,-37.268564],[140.837471,-37.268844],[140.83751,-37.269057],[140.837536,-37.26923],[140.837567,-37.269401],[140.837595,-37.26962],[140.83763,-37.269963],[140.837647,-37.270248],[140.837674,-37.270664],[140.837861,-37.273278],[140.83809,-37.276491],[140.838135,-37.277235],[140.838349,-37.280761],[140.83837,-37.281099],[140.838541,-37.283941],[140.838645,-37.285676],[140.838704,-37.286584],[140.83882,-37.288429],[140.839041,-37.292085],[140.839154,-37.293616],[140.839296,-37.295871],[140.839321,-37.296563],[140.839479,-37.298893],[140.839618,-37.300998],[140.839693,-37.302206],[140.839756,-37.303214],[140.840072,-37.308258],[140.840532,-37.315615],[140.840592,-37.316552],[140.841007,-37.323088],[140.841244,-37.326714],[140.841379,-37.328776],[140.841668,-37.333201],[140.841809,-37.335363],[140.841957,-37.335971],[140.842148,-37.336489],[140.842402,-37.337027],[140.84269,-37.337535],[140.843331,-37.338468],[140.843391,-37.338555],[140.843773,-37.339109],[140.844031,-37.339645],[140.844252,-37.340285],[140.844346,-37.340773],[140.844372,-37.341002],[140.844388,-37.341176],[140.84438,-37.341453],[140.844374,-37.341651],[140.844347,-37.341899],[140.844328,-37.34207],[140.844095,-37.343084],[140.843691,-37.344839],[140.843209,-37.346936],[140.843105,-37.347388],[140.842696,-37.34917],[140.841345,-37.355056],[140.840223,-37.359558]]}},{"type":"Feature","properties":{"tier":"high"},"geometry":{"type":"LineString","coordinates":[[140.837211,-37.267667],[140.837323,-37.268123]]}},{"type":"Feature","properties":{"tier":"regional"},"geometry":{"type":"LineString","coordinates":[[140.535218,-37.147336],[140.535307,-37.147486],[140.535451,-37.14777],[140.535592,-37.148128],[140.535732,-37.148594],[140.536157,-37.150958],[140.536876,-37.154965],[140.536905,-37.15525],[140.536915,-37.155908],[140.536876,-37.156266],[140.536799,-37.156651],[140.536678,-37.157074],[140.536442,-37.157663],[140.536055,-37.158548],[140.535915,-37.158941],[140.535799,-37.159318],[140.535732,-37.159684],[140.535688,-37.160061],[140.535698,-37.160469],[140.535741,-37.160915],[140.535794,-37.161308],[140.535843,-37.161616],[140.536417,-37.164283],[140.536775,-37.166092],[140.536867,-37.166481],[140.537026,-37.166892],[140.537209,-37.167273],[140.537393,-37.167604],[140.537707,-37.168047],[140.538035,-37.16842],[140.538344,-37.168747],[140.538784,-37.169097],[140.539194,-37.169371],[140.539846,-37.169779],[140.540503,-37.170125],[140.545458,-37.172449],[140.547313,-37.173346],[140.548581,-37.173955]]}},{"type":"Feature","properties":{"tier":"regional"},"geometry":{"type":"LineString","coordinates":[[140.535049,-37.147046],[140.535133,-37.147193],[140.535218,-37.147336]]}},{"type":"Feature","properties":{"tier":"regional"},"geometry":{"type":"LineString","coordinates":[[140.612142,-37.16305],[140.612323,-37.162965]]}},{"type":"Feature","properties":{"tier":"regional"},"geometry":{"type":"LineString","coordinates":[[140.612092,-37.163151],[140.612142,-37.16305]]}},{"type":"Feature","properties":{"tier":"arterial"},"geometry":{"type":"LineString","coordinates":[[140.963943,-37.344587],[140.967196,-37.344078],[140.973102,-37.342561]]}},{"type":"Feature","properties":{"tier":"regional"},"geometry":{"type":"LineString","coordinates":[[140.843128,-37.381368],[140.843775,-37.378746],[140.84424,-37.376723],[140.84446,-37.375767]]}},{"type":"Feature","properties":{"tier":"arterial"},"geometry":{"type":"LineString","coordinates":[[140.95945,-37.345288],[140.963943,-37.344587]]}},{"type":"Feature","properties":{"tier":"arterial"},"geometry":{"type":"LineString","coordinates":[[140.952372,-37.346399],[140.958132,-37.345494],[140.95945,-37.345288]]}},{"type":"Feature","properties":{"tier":"arterial"},"geometry":{"type":"LineString","coordinates":[[140.663894,-37.359284],[140.655385,-37.359112],[140.654283,-37.35908],[140.653537,-37.359039],[140.652825,-37.358941],[140.652075,-37.358804],[140.645794,-37.357629],[140.644923,-37.357472],[140.644266,-37.357401],[140.643593,-37.357372],[140.642777,-37.357347],[140.638305,-37.357245],[140.629122,-37.356992],[140.628486,-37.356988],[140.627912,-37.357005],[140.623936,-37.357131],[140.623276,-37.357182],[140.622752,-37.357244],[140.62225,-37.357318],[140.61774,-37.358092],[140.617319,-37.358151],[140.616975,-37.358179],[140.61671,-37.358187],[140.616429,-37.358183],[140.616111,-37.358177],[140.615484,-37.358155],[140.610217,-37.358043],[140.599527,-37.357819],[140.581817,-37.357458],[140.575913,-37.357378],[140.569119,-37.357319],[140.567754,-37.357323],[140.566838,-37.357251],[140.566208,-37.357136],[140.565632,-37.356995],[140.563755,-37.356429],[140.557962,-37.35456],[140.557394,-37.35439],[140.556806,-37.354262],[140.555915,-37.354137],[140.555123,-37.354105],[140.554197,-37.354164],[140.553658,-37.354214]]}},{"type":"Feature","properties":{"tier":"arterial"},"geometry":{"type":"LineString","coordinates":[[140.553658,-37.354214],[140.553458,-37.354232]]}},{"type":"Feature","properties":{"tier":"regional"},"geometry":{"type":"LineString","coordinates":[[140.836455,-37.376064],[140.83644,-37.376262],[140.836465,-37.376447],[140.836597,-37.376933]]}},{"type":"Feature","properties":{"tier":"arterial"},"geometry":{"type":"LineString","coordinates":[[140.837592,-37.38075],[140.839443,-37.380997]]}}]}
