{"type":"FeatureCollection","features":[{"type":"Feature","properties":{"tier":"arterial"},"geometry":{"type":"LineString","coordinates":[[140.882714,-28.998403],[140.878374,-28.998329],[140.873219,-28.998141],[140.872041,-28.998086],[140.870831,-28.997855],[140.869113,-28.997309],[140.867894,-28.996689],[140.863467,-28.994115],[140.862519,-28.993511],[140.860023,-28.991093],[140.859286,-28.990262],[140.85887,-28.989816],[140.858296,-28.989227],[140.8577,-28.988674],[140.857244,-28.988303],[140.856354,-28.987693],[140.855308,-28.986958],[140.854518,-28.986446],[140.854042,-28.98626],[140.852979,-28.986165],[140.849849,-28.986181],[140.848797,-28.986151],[140.836339,-28.986057],[140.833923,-28.986002],[140.831489,-28.985871],[140.830118,-28.985801],[140.828945,-28.98594],[140.828219,-28.986208],[140.827648,-28.98647],[140.821308,-28.989766],[140.819666,-28.990665],[140.817928,-28.991979],[140.815973,-28.993605],[140.814567,-28.99475],[140.811995,-28.996136],[140.809935,-28.997065],[140.808312,-28.997734],[140.806907,-28.9978],[140.804268,-28.997828],[140.799721,-28.99775],[140.797809,-28.997743],[140.792865,-28.997759],[140.782168,-28.997703],[140.77869,-28.997049],[140.7781,-28.997002],[140.775858,-28.997565],[140.775107,-28.997659],[140.76736,-28.997659],[140.766685,-28.997602],[140.765912,-28.997612],[140.753381,-28.997528],[140.7466,-28.997462],[140.731099,-28.997374],[140.717086,-28.997133],[140.704193,-28.997011],[140.703192,-28.997002],[140.689278,-28.997065],[140.676423,-28.997058],[140.675372,-28.997162],[140.674376,-28.997046],[140.671835,-28.99705],[140.669539,-28.997054],[140.668711,-28.997055],[140.655806,-28.997049],[140.65488,-28.997049],[140.648153,-28.997021],[140.640859,-28.996811],[140.633005,-28.996624],[140.626878,-28.996495],[140.622897,-28.996364],[140.61598,-28.996205],[140.614695,-28.996174],[140.606514,-28.996007],[140.599216,-28.995843],[140.598106,-28.995834],[140.589013,-28.995648],[140.584528,-28.995613],[140.583157,-28.995641],[140.57819,-28.995658],[140.57524,-28.995681],[140.572222,-28.995724],[140.570058,-28.995714],[140.568888,-28.995719],[140.567037,-28.99574],[140.565951,-28.995735],[140.564822,-28.995726],[140.564092,-28.995735],[140.560402,-28.995754],[140.556939,-28.995768],[140.551998,-28.995874],[140.549244,-28.995965],[140.547956,-28.995989],[140.545816,-28.996022],[140.543941,-28.996064],[140.541803,-28.996139],[140.539118,-28.996249],[140.537257,-28.996343],[140.535602,-28.996444],[140.533926,-28.996561],[140.532016,-28.996664],[140.530616,-28.99669],[140.529441,-28.9967],[140.528795,-28.996714],[140.528245,-28.996758],[140.527545,-28.996822],[140.523347,-28.997206],[140.520944,-28.997422],[140.52008,-28.997504],[140.519372,-28.997565],[140.518972,-28.997549],[140.518613,-28.9975],[140.518235,-28.997429],[140.517545,-28.997293],[140.515732,-28.996967],[140.51467,-28.99677],[140.513833,-28.996629],[140.513023,-28.99654],[140.512374,-28.996502],[140.511462,-28.996451],[140.510374,-28.996411],[140.50469,-28.996137],[140.50183,-28.996029],[140.501248,-28.995991],[140.500476,-28.9959],[140.49998,-28.995833]]}},{"type":"Feature","properties":{"tier":"arterial"},"geometry":{"type":"LineString","coordinates":[[140.9983,-29.00002],[140.997849,-28.999699],[140.997328,-28.999328],[140.997131,-28.999198],[140.996826,-28.999086],[140.99654,-28.999014],[140.996342,-28.998977],[140.996072,-28.998968],[140.995242,-28.998963],[140.985029,-28.998964],[140.969252,-28.998842],[140.954346,-28.998798],[140.92093,-28.998412],[140.920655,-28.998409],[140.913813,-28.99836],[140.910013,-28.998333],[140.908513,-28.998344],[140.90477,-28.998372],[140.899602,-28.998466],[140.882714,-28.998403]]}}]}
