{"type":"FeatureCollection","features":[{"type":"Feature","properties":{"tier":"regional"},"geometry":{"type":"LineString","coordinates":[[140.923519,-26.800476],[140.923716,-26.800425],[140.923876,-26.800295],[140.924253,-26.799795],[140.924726,-26.799275],[140.925298,-26.798693],[140.92549,-26.798534],[140.92581,-26.798335],[140.92627,-26.798064],[140.927133,-26.797593],[140.927892,-26.797194],[140.928187,-26.796973],[140.928529,-26.796634],[140.928888,-26.796221],[140.929422,-26.795647],[140.930019,-26.795064],[140.930532,-26.794607],[140.930995,-26.794258],[140.931351,-26.794017],[140.931784,-26.793664],[140.932375,-26.793147],[140.933368,-26.792326],[140.933918,-26.791822],[140.934374,-26.791426],[140.9347,-26.791208],[140.935294,-26.790933],[140.935716,-26.790702],[140.935945,-26.790426],[140.936136,-26.790044],[140.936294,-26.789715],[140.936518,-26.789366],[140.936901,-26.78891],[140.937344,-26.788517],[140.937713,-26.788161],[140.93822,-26.787524],[140.938699,-26.786836],[140.939008,-26.786477],[140.939307,-26.786108],[140.939729,-26.785558],[140.940038,-26.785138],[140.940192,-26.784873],[140.940333,-26.784561],[140.940511,-26.784122],[140.941051,-26.782766],[140.941454,-26.781763],[140.941632,-26.781454],[140.94178,-26.781125],[140.941823,-26.78087],[140.941884,-26.780491],[140.942025,-26.780028],[140.942196,-26.779542],[140.942625,-26.778568],[140.942857,-26.778062],[140.943045,-26.777746],[140.943226,-26.777515],[140.943541,-26.777112],[140.943947,-26.776632],[140.944618,-26.775793],[140.945034,-26.775307],[140.945417,-26.774901],[140.945709,-26.774539],[140.946031,-26.774075],[140.946333,-26.773696],[140.946611,-26.773431],[140.946913,-26.773159],[140.947618,-26.772589],[140.948104,-26.772247],[140.948826,-26.771791],[140.949373,-26.771465],[140.949785,-26.771234],[140.950272,-26.771002],[140.950886,-26.77069],[140.951218,-26.770458],[140.951447,-26.770224],[140.951563,-26.770068],[140.951722,-26.769858],[140.951779,-26.76964],[140.951725,-26.769485],[140.951544,-26.769284],[140.95136,-26.769099],[140.951148,-26.768844],[140.950947,-26.768479],[140.950803,-26.768153],[140.950588,-26.767928],[140.949991,-26.767386],[140.949551,-26.767026],[140.948887,-26.766402],[140.948374,-26.765902],[140.947921,-26.765345],[140.947615,-26.765009],[140.947444,-26.764734],[140.947357,-26.764445],[140.947434,-26.764217],[140.947733,-26.763945],[140.948018,-26.763687],[140.948206,-26.763459],[140.948296,-26.763197],[140.948454,-26.762707],[140.948793,-26.761939],[140.949222,-26.760902],[140.949531,-26.760063],[140.949806,-26.759533],[140.950014,-26.759204],[140.950269,-26.758889],[140.950377,-26.758664],[140.950414,-26.758419],[140.950454,-26.758094],[140.950524,-26.757808],[140.950635,-26.75749],[140.95092,-26.756782],[140.951253,-26.756097],[140.951538,-26.755567],[140.95187,-26.75498],[140.952252,-26.754336],[140.952648,-26.753749],[140.952957,-26.753296],[140.953118,-26.752957],[140.953491,-26.752312],[140.95383,-26.751776],[140.954101,-26.75142],[140.95438,-26.751151],[140.954596,-26.750926],[140.954746,-26.750641],[140.954923,-26.750356],[140.955155,-26.750111],[140.95545,-26.74991],[140.955769,-26.749789],[140.956115,-26.749732],[140.956423,-26.749729],[140.956718,-26.749759],[140.95701,-26.749853],[140.957373,-26.749964],[140.957735,-26.750071],[140.958175,-26.750098],[140.958614,-26.750034],[140.958903,-26.750024],[140.959265,-26.750051],[140.959785,-26.750135],[140.960426,-26.750256],[140.961124,-26.750494],[140.961637,-26.750678],[140.962013,-26.750863],[140.962496,-26.751031],[140.962963,-26.751135],[140.963305,-26.751155],[140.963922,-26.751168],[140.96457,-26.751094],[140.9651,-26.75093],[140.965456,-26.750883],[140.965879,-26.75092],[140.966332,-26.75096],[140.966634,-26.7509],[140.966926,-26.750752],[140.967171,-26.750584],[140.967466,-26.75048],[140.96813,-26.750303],[140.969006,-26.750081],[140.969526,-26.749883],[140.969865,-26.749715],[140.970167,-26.749591],[140.97061,-26.749457],[140.971163,-26.749262],[140.971751,-26.749021],[140.972324,-26.748769],[140.972794,-26.748578],[140.97313,-26.748387],[140.973405,-26.748172],[140.973868,-26.747803],[140.974227,-26.747575],[140.974717,-26.74737],[140.97522,-26.747209],[140.975707,-26.747024],[140.97619,-26.7468],[140.976656,-26.746531],[140.977176,-26.746289],[140.97774,-26.746058],[140.978632,-26.745692],[140.97979,-26.745202],[140.980334,-26.744994],[140.980787,-26.744857],[140.98128,-26.744672],[140.981874,-26.744421],[140.982525,-26.744162],[140.983256,-26.74389],[140.98389,-26.743629],[140.984444,-26.743394],[140.985229,-26.743095],[140.985914,-26.742833],[140.986628,-26.742568],[140.987377,-26.74236],[140.988145,-26.742139],[140.988642,-26.741948],[140.989246,-26.741639],[140.989997,-26.741313],[140.990561,-26.741082],[140.990977,-26.740928],[140.991386,-26.740696],[140.991762,-26.740418],[140.992158,-26.740049],[140.992416,-26.739689],[140.992594,-26.739361],[140.992802,-26.739075],[140.993037,-26.73882],[140.993252,-26.738585],[140.993426,-26.738468],[140.993792,-26.738284],[140.994218,-26.738082],[140.994433,-26.737938],[140.99454,-26.737794],[140.994664,-26.737633],[140.994758,-26.737559],[140.994909,-26.737478],[140.995174,-26.737438],[140.99557,-26.737398],[140.995919,-26.737334],[140.996305,-26.73722],[140.996694,-26.737072],[140.996849,-26.736955],[140.99704,-26.736753],[140.997288,-26.736401],[140.997795,-26.735794],[140.998322,-26.735133],[140.998785,-26.734633],[140.99905,-26.734385],[140.999255,-26.73426],[140.999459,-26.73421],[140.999574,-26.734195],[140.99964,-26.734187]]}},{"type":"Feature","properties":{"tier":"regional"},"geometry":{"type":"LineString","coordinates":[[140.793773,-26.759676],[140.793496,-26.759867],[140.792771,-26.760108],[140.791939,-26.759974],[140.79104,-26.759961],[140.789899,-26.760189],[140.788423,-26.760578],[140.786906,-26.760887],[140.784799,-26.761518],[140.782933,-26.762108],[140.781953,-26.762551],[140.780675,-26.762761],[140.779393,-26.763283],[140.77778,-26.764042],[140.776281,-26.764706],[140.775265,-26.765143],[140.774259,-26.765437],[140.772722,-26.765712],[140.768479,-26.766253],[140.765813,-26.766662],[140.764693,-26.766624],[140.762785,-26.766405],[140.762536,-26.766368],[140.760375,-26.766045],[140.757622,-26.765504],[140.756389,-26.765152],[140.75506,-26.764807],[140.753054,-26.764197],[140.751376,-26.763807],[140.749886,-26.763479],[140.748705,-26.763096],[140.747041,-26.762693],[140.745645,-26.762318],[140.744692,-26.762002],[140.743793,-26.761593],[140.742585,-26.760875],[140.740854,-26.759962],[140.738946,-26.758868],[140.737741,-26.758175],[140.736071,-26.757587],[140.733366,-26.756647],[140.731515,-26.755897],[140.730224,-26.75567],[140.728696,-26.755357],[140.72752,-26.754977],[140.726124,-26.754426],[140.725081,-26.754085],[140.723306,-26.753582],[140.722325,-26.753303],[140.722205,-26.753269],[140.720649,-26.752576],[140.719605,-26.751779],[140.71895,-26.75138],[140.716805,-26.750336],[140.714053,-26.748988],[140.711263,-26.747698],[140.70932,-26.746696],[140.707415,-26.745831],[140.706274,-26.745307],[140.705802,-26.745071],[140.704858,-26.744596],[140.702972,-26.743569],[140.700592,-26.742208],[140.698978,-26.741458],[140.697678,-26.74068],[140.695961,-26.739232],[140.693483,-26.737438],[140.691272,-26.735824],[140.689203,-26.734211],[140.68758,-26.73292],[140.685407,-26.731117],[140.683575,-26.729694],[140.682968,-26.729267],[140.682322,-26.728877],[140.681658,-26.728768],[140.680994,-26.728659],[140.677843,-26.72808],[140.676116,-26.72772],[140.675233,-26.727368],[140.672813,-26.72603],[140.671152,-26.7251],[140.670402,-26.724768],[140.669875,-26.724636],[140.669324,-26.724381],[140.668693,-26.724073],[140.66819,-26.723751],[140.667358,-26.723341],[140.666633,-26.722925],[140.665996,-26.722583],[140.665137,-26.722348],[140.664741,-26.722315],[140.664513,-26.7222],[140.664224,-26.722013],[140.663553,-26.721751],[140.662493,-26.721415],[140.661493,-26.72114],[140.660748,-26.720966],[140.660211,-26.720952],[140.659999,-26.720897],[140.659795,-26.720814],[140.659339,-26.720583],[140.659089,-26.720397],[140.658945,-26.720337],[140.65848,-26.720103],[140.657826,-26.719737],[140.657175,-26.719516],[140.656644,-26.719469],[140.655483,-26.719442],[140.655121,-26.719274],[140.654839,-26.719012],[140.654604,-26.718919],[140.654101,-26.718825],[140.653618,-26.718845],[140.653376,-26.718737],[140.653034,-26.71865],[140.652598,-26.71869],[140.651806,-26.718778],[140.651007,-26.718744],[140.650054,-26.718643],[140.649578,-26.718616],[140.64884,-26.718704],[140.648162,-26.718845],[140.647671,-26.718845],[140.647545,-26.718845],[140.646417,-26.718764],[140.645525,-26.718516],[140.644283,-26.718107],[140.643887,-26.717885],[140.643545,-26.71755],[140.642948,-26.716717],[140.641941,-26.715342],[140.640579,-26.71355],[140.640049,-26.712946],[140.639364,-26.712449],[140.63821,-26.711778],[140.637317,-26.711241],[140.636886,-26.711116],[140.636303,-26.711031],[140.635539,-26.711031],[140.635468,-26.711034],[140.634267,-26.711083],[140.633422,-26.711164],[140.632502,-26.711254],[140.631961,-26.711377],[140.631396,-26.711453],[140.631035,-26.71141],[140.630741,-26.711254],[140.630556,-26.711088],[140.630257,-26.710988],[140.629994,-26.711003],[140.629455,-26.710874],[140.628687,-26.710817],[140.627894,-26.710651],[140.627171,-26.710507],[140.62704,-26.71048],[140.626044,-26.710129],[140.624829,-26.709726],[140.623714,-26.709322],[140.622616,-26.708932],[140.622561,-26.708919],[140.621778,-26.708687],[140.6209,-26.708544],[140.620008,-26.70853],[140.619775,-26.708562],[140.61931,-26.708625],[140.618579,-26.708914],[140.617379,-26.70947],[140.615808,-26.710181],[140.61487,-26.710559],[140.613112,-26.711157],[140.611985,-26.7116],[140.608828,-26.712699],[140.605696,-26.713901],[140.603352,-26.714813],[140.602319,-26.715124],[140.601275,-26.715394],[140.600103,-26.715622],[140.599163,-26.715673],[140.598579,-26.715591],[140.598502,-26.71558],[140.597364,-26.715383],[140.595949,-26.71528],[140.594406,-26.715228],[140.591946,-26.715166],[140.590959,-26.715207],[140.59002,-26.715331],[140.587432,-26.716015],[140.586457,-26.716212],[140.585552,-26.716243],[140.584206,-26.716119],[140.581236,-26.715933],[140.580435,-26.71585],[140.579571,-26.715654],[140.578906,-26.715522],[140.577782,-26.715288],[140.57729,-26.71517],[140.576625,-26.714951],[140.575321,-26.714379],[140.574484,-26.713976],[140.573237,-26.713463],[140.572548,-26.713177],[140.572055,-26.712891],[140.570874,-26.712158],[140.570209,-26.711748],[140.569906,-26.711623],[140.569528,-26.711616],[140.568937,-26.711638],[140.568478,-26.711535],[140.567723,-26.711257],[140.567183,-26.711045],[140.566894,-26.710723],[140.566675,-26.710533],[140.566452,-26.710526],[140.566235,-26.710572],[140.566012,-26.710598],[140.565765,-26.710566],[140.565234,-26.710447],[140.565008,-26.710316],[140.564815,-26.710205],[140.564151,-26.709795],[140.563888,-26.709457],[140.563494,-26.7089],[140.563125,-26.70849],[140.562592,-26.70816],[140.561984,-26.707742],[140.56155,-26.707354],[140.561156,-26.706951],[140.560409,-26.706057],[140.559474,-26.705016],[140.559047,-26.704532],[140.558563,-26.704078],[140.558251,-26.703894],[140.557907,-26.703726],[140.557439,-26.703572],[140.556217,-26.703103],[140.555773,-26.702993],[140.555199,-26.702949],[140.55469,-26.70289],[140.55396,-26.702722],[140.552442,-26.702377],[140.551384,-26.702121],[140.550974,-26.701937],[140.550358,-26.701769],[140.549956,-26.701725],[140.549489,-26.701732],[140.548914,-26.701827],[140.548061,-26.70204],[140.547306,-26.702377],[140.546797,-26.702546],[140.546289,-26.7027],[140.545747,-26.702773],[140.54528,-26.702736],[140.54482,-26.702494],[140.544385,-26.702172],[140.543721,-26.701886],[140.542794,-26.70152],[140.542441,-26.701344],[140.541202,-26.700515],[140.540193,-26.699834],[140.539741,-26.699416],[140.539298,-26.699049],[140.538749,-26.698705],[140.538109,-26.698346],[140.537698,-26.698016],[140.537346,-26.697745],[140.536952,-26.697554],[140.536402,-26.697349],[140.53568,-26.696909],[140.534794,-26.696411],[140.533231,-26.695343],[140.532349,-26.694731],[140.531456,-26.694503],[140.530342,-26.694223],[140.529657,-26.693809],[140.529352,-26.693434],[140.529089,-26.692945],[140.528483,-26.692407],[140.527758,-26.692146],[140.527208,-26.691868],[140.526959,-26.691742],[140.525341,-26.690326],[140.52374,-26.689227],[140.522707,-26.688615],[140.521338,-26.687672],[140.520189,-26.687039],[140.518762,-26.68621],[140.517335,-26.684955],[140.516232,-26.68397],[140.515432,-26.683224],[140.515095,-26.682664],[140.514782,-26.682021],[140.514028,-26.680788],[140.513251,-26.679716],[140.511672,-26.678476],[140.509259,-26.676329],[140.508517,-26.675473],[140.508029,-26.674747],[140.507472,-26.67397],[140.50709,-26.673576],[140.506393,-26.672985],[140.505279,-26.672197],[140.50434,-26.671575],[140.50362,-26.671191],[140.502982,-26.671004],[140.502548,-26.670855],[140.502433,-26.670672],[140.502458,-26.670474],[140.502534,-26.67025],[140.502505,-26.669965],[140.502412,-26.669753],[140.502169,-26.669447],[140.501783,-26.668985],[140.501176,-26.668376],[140.500454,-26.66776],[140.50015,-26.667423],[140.49998,-26.667165]]}},{"type":"Feature","properties":{"tier":"regional"},"geometry":{"type":"LineString","coordinates":[[140.973631,-27.00002],[140.973582,-26.999936],[140.973355,-26.999511],[140.973256,-26.999222],[140.973249,-26.998935],[140.973351,-26.998593],[140.973407,-26.998287],[140.97343,-26.998073],[140.973457,-26.997563],[140.97347,-26.996855],[140.97347,-26.996414],[140.973441,-26.995914],[140.973378,-26.995621],[140.973312,-26.995299],[140.973201,-26.994966],[140.973079,-26.994627],[140.972947,-26.994199],[140.972908,-26.993936],[140.972901,-26.993643],[140.972885,-26.9928],[140.972871,-26.991984],[140.972838,-26.991579],[140.972779,-26.991161],[140.972638,-26.990444],[140.972529,-26.989818],[140.972365,-26.988771],[140.9722,-26.987902],[140.971894,-26.986191],[140.971624,-26.984815],[140.971489,-26.984071],[140.971443,-26.983643],[140.97142,-26.983195],[140.97141,-26.982669],[140.971371,-26.982343],[140.971301,-26.982132],[140.971199,-26.981974],[140.970966,-26.981764],[140.970587,-26.981434],[140.970166,-26.981023],[140.96984,-26.980667],[140.969583,-26.98045],[140.969363,-26.980269],[140.969145,-26.980088],[140.96904,-26.979927],[140.968968,-26.97969],[140.968991,-26.979466],[140.969099,-26.979163],[140.969422,-26.97839],[140.969735,-26.977715],[140.969804,-26.977402],[140.969879,-26.97702],[140.970014,-26.976158],[140.970143,-26.975151],[140.970258,-26.974519],[140.970248,-26.974328],[140.970228,-26.974061],[140.970136,-26.973485],[140.970054,-26.973261],[140.969899,-26.972949],[140.969751,-26.972705],[140.969603,-26.972541],[140.969363,-26.972261],[140.969155,-26.972027],[140.968987,-26.971721],[140.968859,-26.971428],[140.968698,-26.971003],[140.968556,-26.970506],[140.968138,-26.969045],[140.968046,-26.968673],[140.967832,-26.967751],[140.967592,-26.966945],[140.967496,-26.966603],[140.967483,-26.966316],[140.967579,-26.965993],[140.96775,-26.965622],[140.968204,-26.964786],[140.968494,-26.964259],[140.968787,-26.963703],[140.969103,-26.962906],[140.969389,-26.962182],[140.96957,-26.96152],[140.9696,-26.961129],[140.969527,-26.960799],[140.969419,-26.960586],[140.969211,-26.960213],[140.969089,-26.959924],[140.968833,-26.959269],[140.968448,-26.958248],[140.96823,-26.957639],[140.968049,-26.956925],[140.967875,-26.956253],[140.967776,-26.955536],[140.967776,-26.954759],[140.967829,-26.954222],[140.967957,-26.953518],[140.96803,-26.952988],[140.968052,-26.952435],[140.968043,-26.951734],[140.967992,-26.950755],[140.967964,-26.94914],[140.967936,-26.948697],[140.967888,-26.948361],[140.967737,-26.947815],[140.967582,-26.947285],[140.967438,-26.94685],[140.967332,-26.946422],[140.967099,-26.945504],[140.967062,-26.945119],[140.967,-26.944701],[140.966858,-26.943924],[140.966832,-26.943499],[140.966838,-26.943052],[140.966819,-26.942193],[140.966759,-26.941113],[140.966756,-26.940652],[140.966783,-26.940336],[140.966852,-26.939839],[140.966908,-26.939214],[140.966911,-26.938381],[140.966862,-26.9379],[140.966832,-26.937387],[140.96674,-26.936936],[140.966625,-26.936597],[140.966463,-26.936258],[140.966147,-26.935649],[140.965716,-26.934678],[140.965364,-26.933934],[140.965071,-26.933417],[140.964814,-26.933072],[140.9646,-26.932805],[140.964393,-26.93245],[140.964265,-26.93212],[140.964149,-26.931666],[140.963856,-26.930168],[140.963672,-26.929079],[140.963553,-26.928654],[140.963435,-26.928431],[140.963293,-26.928197],[140.962987,-26.927733],[140.962461,-26.92691],[140.961964,-26.926169],[140.961236,-26.925089],[140.960891,-26.92456],[140.960772,-26.9243],[140.960664,-26.923974],[140.960608,-26.923615],[140.960502,-26.9227],[140.960344,-26.921758],[140.960265,-26.921057],[140.960081,-26.919889],[140.959939,-26.91898],[140.9599,-26.918592],[140.959916,-26.918243],[140.959943,-26.917848],[140.960028,-26.917137],[140.960002,-26.916709],[140.959962,-26.91636],[140.959867,-26.915998],[140.959696,-26.915544],[140.959232,-26.914264],[140.959126,-26.913878],[140.959044,-26.913411],[140.958942,-26.912483],[140.95883,-26.911617],[140.958738,-26.910899],[140.958675,-26.910136],[140.958616,-26.909688],[140.958557,-26.909385],[140.958415,-26.908984],[140.958241,-26.90846],[140.957892,-26.907516],[140.957774,-26.907111],[140.957668,-26.906663],[140.9575,-26.905857],[140.957454,-26.905534],[140.957461,-26.905126],[140.957517,-26.904491],[140.957625,-26.903836],[140.957744,-26.903223],[140.957938,-26.902371],[140.958024,-26.901762],[140.958096,-26.901209],[140.958112,-26.900679],[140.958116,-26.899813],[140.958132,-26.898579],[140.958136,-26.89717],[140.958132,-26.896272],[140.958089,-26.89588],[140.958053,-26.89559],[140.957938,-26.895245],[140.957754,-26.894771],[140.957405,-26.893912],[140.957227,-26.893569],[140.956934,-26.89302],[140.956654,-26.892522],[140.955814,-26.891052],[140.955511,-26.890586],[140.955278,-26.890102],[140.955004,-26.889553],[140.954757,-26.88899],[140.954506,-26.888418],[140.953865,-26.886943],[140.953158,-26.885291],[140.952744,-26.884363],[140.952603,-26.884083],[140.952438,-26.883836],[140.952237,-26.883583],[140.951951,-26.883231],[140.950035,-26.880994],[140.947894,-26.878462],[140.94744,-26.877916],[140.947127,-26.877511],[140.946798,-26.877067],[140.946601,-26.876741],[140.946242,-26.876079],[140.946051,-26.875645],[140.945959,-26.875315],[140.945923,-26.875042],[140.945844,-26.874035],[140.945803,-26.873522],[140.945822,-26.872768],[140.945901,-26.871623],[140.945971,-26.870399],[140.946013,-26.869361],[140.946003,-26.868416],[140.945985,-26.867857],[140.945934,-26.867434],[140.945841,-26.867075],[140.945719,-26.866712],[140.945533,-26.866307],[140.945193,-26.865707],[140.944807,-26.864976],[140.94457,-26.864454],[140.944463,-26.86404],[140.944435,-26.863663],[140.944467,-26.863156],[140.944533,-26.862048],[140.944504,-26.861633],[140.944435,-26.861075],[140.944248,-26.86],[140.944011,-26.858901],[140.943876,-26.858487],[140.943681,-26.858077],[140.943173,-26.857113],[140.942517,-26.855898],[140.941986,-26.854856],[140.941092,-26.853124],[140.940627,-26.852179],[140.940464,-26.851895],[140.940096,-26.851411],[140.938718,-26.849447],[140.93782,-26.848194],[140.93741,-26.847631],[140.937024,-26.847152],[140.936591,-26.846607],[140.936098,-26.846021],[140.93471,-26.844414],[140.934147,-26.843707],[140.933575,-26.843172],[140.933049,-26.842771],[140.932588,-26.842422],[140.932122,-26.841999],[140.931708,-26.841552],[140.931443,-26.841151],[140.931321,-26.840826],[140.931266,-26.840425],[140.931289,-26.839894],[140.931396,-26.839313],[140.931494,-26.83888],[140.931591,-26.838447],[140.931596,-26.837986],[140.931564,-26.837395],[140.931573,-26.836454],[140.931657,-26.835575],[140.931652,-26.835119],[140.931647,-26.834713],[140.931713,-26.834481],[140.931903,-26.834169],[140.932108,-26.833931],[140.932257,-26.83361],[140.932294,-26.833312],[140.932225,-26.833075],[140.932085,-26.832828],[140.931899,-26.832596],[140.931266,-26.831823],[140.930353,-26.830696],[140.92966,-26.829872],[140.928929,-26.828979],[140.928128,-26.828099],[140.927109,-26.827009],[140.926341,-26.826139],[140.925954,-26.825739],[140.925493,-26.825338],[140.925163,-26.825105],[140.924786,-26.824789],[140.924483,-26.824482],[140.924316,-26.824207],[140.924162,-26.823835],[140.923957,-26.823346],[140.923669,-26.822629],[140.923273,-26.821889],[140.922561,-26.820641],[140.921867,-26.819464],[140.921004,-26.818103],[140.920912,-26.817982],[140.920202,-26.817054],[140.919841,-26.816527],[140.91969,-26.816195],[140.9196,-26.815792],[140.91958,-26.815426],[140.919585,-26.814487],[140.919715,-26.812675],[140.9198,-26.811507],[140.919852,-26.811242],[140.919961,-26.810933],[140.920806,-26.809111],[140.921257,-26.807825],[140.922106,-26.805177],[140.923053,-26.802258],[140.923334,-26.801285],[140.923524,-26.800607],[140.923519,-26.800476],[140.923419,-26.800329],[140.92317,-26.800142],[140.922596,-26.799723],[140.922504,-26.799627],[140.922408,-26.799536],[140.922277,-26.799469],[140.922042,-26.799308],[140.921307,-26.798738],[140.92124,-26.798691],[140.920438,-26.798121],[140.918797,-26.796876],[140.917965,-26.796242],[140.917153,-26.795658],[140.916899,-26.795486],[140.916761,-26.795392],[140.916512,-26.795198],[140.916014,-26.794799],[140.914836,-26.793939],[140.914571,-26.79365],[140.914386,-26.793328],[140.914299,-26.793053],[140.914289,-26.792704],[140.914339,-26.792345],[140.914457,-26.791731],[140.914591,-26.791272],[140.914752,-26.790829],[140.914933,-26.790456],[140.915131,-26.790128],[140.915314,-26.789922],[140.915591,-26.789739],[140.915973,-26.789494],[140.916301,-26.789331],[140.91645,-26.789196],[140.916462,-26.789091],[140.916424,-26.788835],[140.916401,-26.78837],[140.916405,-26.787997],[140.916381,-26.787632],[140.916344,-26.787252],[140.916234,-26.78692],[140.916033,-26.786363],[140.915471,-26.784691],[140.915313,-26.784278],[140.915172,-26.783964],[140.915019,-26.783654],[140.914826,-26.783193],[140.914711,-26.782822],[140.91456,-26.782256],[140.914417,-26.781755],[140.914197,-26.781032],[140.913884,-26.780091],[140.913682,-26.779537],[140.913307,-26.778505],[140.913181,-26.778077],[140.913075,-26.777838],[140.912897,-26.777531],[140.912724,-26.77724],[140.912419,-26.776759],[140.91207,-26.776281],[140.911585,-26.775574],[140.910892,-26.774551],[140.910493,-26.773899],[140.910084,-26.773211],[140.909792,-26.772706],[140.909473,-26.772103],[140.909248,-26.771687],[140.90909,-26.771432],[140.908903,-26.771207],[140.908575,-26.770889],[140.907743,-26.770101],[140.906696,-26.769166],[140.905771,-26.768304],[140.905204,-26.767787],[140.9043,-26.766902],[140.903472,-26.766126],[140.902547,-26.765239],[140.902157,-26.764912],[140.901609,-26.764527],[140.900808,-26.763972],[140.900444,-26.763718],[140.900207,-26.763609],[140.899623,-26.763315],[140.899163,-26.763049],[140.898646,-26.762731],[140.898069,-26.762437],[140.897099,-26.761865],[140.896107,-26.761293],[140.89508,-26.760698],[140.894178,-26.760188],[140.893814,-26.759963],[140.89338,-26.759626],[140.892511,-26.75895],[140.892108,-26.75863],[140.891811,-26.758421],[140.891342,-26.758134],[140.89062,-26.757678],[140.889826,-26.757156],[140.888979,-26.756577],[140.888219,-26.756067],[140.887609,-26.755659],[140.887088,-26.755329],[140.886798,-26.755166],[140.886378,-26.754959],[140.886022,-26.75481],[140.885595,-26.754644],[140.884665,-26.754302],[140.883733,-26.753948],[140.882895,-26.753609],[140.882214,-26.753325],[140.881638,-26.753071],[140.88057,-26.752641],[140.879773,-26.752347],[140.879256,-26.752167],[140.878852,-26.75206],[140.878603,-26.752012],[140.878193,-26.751977],[140.877239,-26.751946]]}},{"type":"Feature","properties":{"tier":"regional"},"geometry":{"type":"LineString","coordinates":[[140.99964,-26.734187],[140.9998,-26.734181],[140.999943,-26.734177],[141.00002,-26.734177]]}},{"type":"Feature","properties":{"tier":"regional"},"geometry":{"type":"LineString","coordinates":[[140.86145,-26.745943],[140.860711,-26.746012],[140.859983,-26.746158],[140.858007,-26.746792],[140.856023,-26.747401],[140.855075,-26.747709],[140.854262,-26.748068],[140.853412,-26.748468],[140.852436,-26.748981],[140.850479,-26.749652],[140.848494,-26.750403],[140.844959,-26.751642],[140.84332,-26.752292],[140.842582,-26.75273],[140.840261,-26.753994],[140.837893,-26.755243],[140.834948,-26.756707],[140.833962,-26.757142],[140.832951,-26.757582],[140.832267,-26.757818],[140.831343,-26.758319],[140.830671,-26.758649],[140.829858,-26.758941],[140.829075,-26.759111],[140.827128,-26.759409],[140.826031,-26.759535],[140.82255,-26.759876],[140.820621,-26.760107],[140.819419,-26.760146],[140.818353,-26.760107],[140.816825,-26.759948],[140.815815,-26.759799],[140.814749,-26.759689],[140.814219,-26.759733],[140.813658,-26.759882],[140.812764,-26.760047],[140.811674,-26.760201],[140.808815,-26.760085],[140.806331,-26.760052],[140.80468,-26.759843],[140.80285,-26.759689],[140.800342,-26.759755],[140.797495,-26.759541],[140.795806,-26.759502],[140.795048,-26.759508],[140.794438,-26.759607],[140.793773,-26.759676]]}},{"type":"Feature","properties":{"tier":"regional"},"geometry":{"type":"LineString","coordinates":[[140.86145,-26.745943],[140.860924,-26.745719],[140.86025,-26.745254],[140.859605,-26.744429],[140.858219,-26.742701],[140.856881,-26.741135],[140.856378,-26.740727],[140.855942,-26.740528],[140.855325,-26.740386],[140.852136,-26.739854],[140.851206,-26.739835],[140.850323,-26.739949],[140.84778,-26.740481],[140.841516,-26.741686],[140.828244,-26.744123],[140.82701,-26.744445],[140.825882,-26.744929],[140.822809,-26.746606],[140.81485,-26.750888],[140.814031,-26.751223],[140.813078,-26.751358],[140.807468,-26.75172],[140.803884,-26.751948],[140.802448,-26.752284],[140.801133,-26.752847],[140.799992,-26.753733],[140.798784,-26.754874],[140.7941,-26.759451],[140.793773,-26.759676]]}},{"type":"Feature","properties":{"tier":"regional"},"geometry":{"type":"LineString","coordinates":[[140.877239,-26.751946],[140.876816,-26.751934],[140.876371,-26.75197],[140.876136,-26.751974],[140.875445,-26.751929],[140.87513,-26.751896],[140.874778,-26.751794],[140.873984,-26.751481],[140.873554,-26.751208],[140.873462,-26.751145],[140.873194,-26.750964],[140.872596,-26.750511],[140.871927,-26.750041],[140.871165,-26.749516],[140.870586,-26.749134],[140.870232,-26.748928],[140.869908,-26.748776],[140.869561,-26.748643],[140.869105,-26.748489],[140.867789,-26.748043],[140.866301,-26.747542],[140.865548,-26.747297],[140.864984,-26.747113],[140.863969,-26.746757],[140.863371,-26.746562],[140.861883,-26.746128],[140.86145,-26.745943]]}}]}
