{"type":"FeatureCollection","features":[{"type":"Feature","properties":{"tier":"high"},"geometry":{"type":"LineString","coordinates":[[140.97409,-32.081591],[140.973105,-32.081997],[140.972591,-32.082179],[140.972098,-32.082335],[140.971615,-32.082457],[140.971051,-32.082563],[140.970452,-32.082641],[140.96992,-32.082665],[140.969339,-32.082645],[140.968371,-32.08259],[140.968033,-32.082571],[140.967579,-32.082563],[140.967168,-32.082558],[140.966743,-32.082572],[140.966265,-32.082609],[140.965842,-32.082671],[140.965334,-32.082771],[140.964416,-32.082949],[140.959823,-32.08384],[140.956564,-32.084495],[140.948529,-32.086104],[140.942137,-32.087354]]}},{"type":"Feature","properties":{"tier":"high"},"geometry":{"type":"LineString","coordinates":[[140.994603,-32.078123],[140.994143,-32.078122],[140.993887,-32.078121]]}},{"type":"Feature","properties":{"tier":"high"},"geometry":{"type":"LineString","coordinates":[[140.988637,-32.078197],[140.988132,-32.078277],[140.984159,-32.07904]]}},{"type":"Feature","properties":{"tier":"high"},"geometry":{"type":"LineString","coordinates":[[140.97409,-32.081591],[140.974593,-32.081379]]}},{"type":"Feature","properties":{"tier":"high"},"geometry":{"type":"LineString","coordinates":[[141.00002,-32.078144],[140.999178,-32.078138],[140.997556,-32.078126],[140.997355,-32.078126],[140.996614,-32.078125],[140.996344,-32.078125],[140.994603,-32.078123]]}},{"type":"Feature","properties":{"tier":"high"},"geometry":{"type":"LineString","coordinates":[[140.941519,-32.087475],[140.935024,-32.088738]]}},{"type":"Feature","properties":{"tier":"high"},"geometry":{"type":"LineString","coordinates":[[140.507955,-32.200808],[140.507582,-32.200898]]}},{"type":"Feature","properties":{"tier":"high"},"geometry":{"type":"LineString","coordinates":[[140.798106,-32.115806],[140.797751,-32.115874]]}},{"type":"Feature","properties":{"tier":"high"},"geometry":{"type":"LineString","coordinates":[[140.572244,-32.188044],[140.571859,-32.188108]]}},{"type":"Feature","properties":{"tier":"high"},"geometry":{"type":"LineString","coordinates":[[140.867309,-32.102152],[140.86704,-32.102205]]}},{"type":"Feature","properties":{"tier":"high"},"geometry":{"type":"LineString","coordinates":[[140.890752,-32.097504],[140.89046,-32.097564]]}},{"type":"Feature","properties":{"tier":"high"},"geometry":{"type":"LineString","coordinates":[[140.750828,-32.127096],[140.750245,-32.127449]]}},{"type":"Feature","properties":{"tier":"high"},"geometry":{"type":"LineString","coordinates":[[140.832308,-32.109058],[140.832073,-32.109105]]}},{"type":"Feature","properties":{"tier":"high"},"geometry":{"type":"LineString","coordinates":[[140.935024,-32.088738],[140.934808,-32.08878]]}},{"type":"Feature","properties":{"tier":"high"},"geometry":{"type":"LineString","coordinates":[[140.891904,-32.097276],[140.891581,-32.097337]]}},{"type":"Feature","properties":{"tier":"high"},"geometry":{"type":"LineString","coordinates":[[140.942137,-32.087354],[140.941519,-32.087475]]}},{"type":"Feature","properties":{"tier":"high"},"geometry":{"type":"LineString","coordinates":[[140.891581,-32.097337],[140.890752,-32.097504]]}},{"type":"Feature","properties":{"tier":"high"},"geometry":{"type":"LineString","coordinates":[[140.735359,-32.131027],[140.733623,-32.131745],[140.731523,-32.132613],[140.729501,-32.13344],[140.699113,-32.145827],[140.692312,-32.148656],[140.678222,-32.154395],[140.67729,-32.154775],[140.675946,-32.155322],[140.675189,-32.155634],[140.654084,-32.164302]]}},{"type":"Feature","properties":{"tier":"high"},"geometry":{"type":"LineString","coordinates":[[140.86704,-32.102205],[140.839857,-32.107556],[140.836444,-32.108224],[140.833789,-32.108759]]}},{"type":"Feature","properties":{"tier":"high"},"geometry":{"type":"LineString","coordinates":[[140.89046,-32.097564],[140.880321,-32.099587],[140.867309,-32.102152]]}},{"type":"Feature","properties":{"tier":"high"},"geometry":{"type":"LineString","coordinates":[[140.832073,-32.109105],[140.826271,-32.110242],[140.826248,-32.110246],[140.825094,-32.110473],[140.812705,-32.112917],[140.808027,-32.113845],[140.798106,-32.115806]]}},{"type":"Feature","properties":{"tier":"high"},"geometry":{"type":"LineString","coordinates":[[140.934808,-32.08878],[140.929691,-32.089825],[140.926212,-32.090506],[140.924371,-32.090867],[140.914151,-32.092872],[140.891904,-32.097276]]}},{"type":"Feature","properties":{"tier":"high"},"geometry":{"type":"LineString","coordinates":[[140.507582,-32.200898],[140.49998,-32.202661]]}},{"type":"Feature","properties":{"tier":"high"},"geometry":{"type":"LineString","coordinates":[[140.797751,-32.115874],[140.764322,-32.122444],[140.761377,-32.123009],[140.760257,-32.123227],[140.757058,-32.123884],[140.756207,-32.124092],[140.755907,-32.124176],[140.755632,-32.124282],[140.755326,-32.12443],[140.755035,-32.124574],[140.754621,-32.124804],[140.750828,-32.127096]]}},{"type":"Feature","properties":{"tier":"high"},"geometry":{"type":"LineString","coordinates":[[140.571859,-32.188108],[140.569173,-32.188647],[140.568852,-32.188706],[140.568711,-32.188732],[140.543624,-32.193309],[140.532366,-32.195327],[140.530647,-32.195644],[140.528705,-32.196053],[140.520093,-32.198002],[140.507955,-32.200808]]}},{"type":"Feature","properties":{"tier":"high"},"geometry":{"type":"LineString","coordinates":[[140.983885,-32.079093],[140.979003,-32.080065],[140.978401,-32.080189],[140.977801,-32.080309],[140.977222,-32.080455],[140.976679,-32.080603],[140.97604,-32.080807],[140.975234,-32.081113],[140.974593,-32.081379]]}},{"type":"Feature","properties":{"tier":"high"},"geometry":{"type":"LineString","coordinates":[[140.984159,-32.07904],[140.983885,-32.079093]]}},{"type":"Feature","properties":{"tier":"high"},"geometry":{"type":"LineString","coordinates":[[140.833789,-32.108759],[140.833555,-32.108806]]}},{"type":"Feature","properties":{"tier":"high"},"geometry":{"type":"LineString","coordinates":[[140.833555,-32.108806],[140.832308,-32.109058]]}},{"type":"Feature","properties":{"tier":"high"},"geometry":{"type":"LineString","coordinates":[[140.653999,-32.164337],[140.651587,-32.16538],[140.651362,-32.165475],[140.65113,-32.165586],[140.650942,-32.165682],[140.650767,-32.165787],[140.645628,-32.169061],[140.644394,-32.169865],[140.643855,-32.170199],[140.643469,-32.170432],[140.643178,-32.170584],[140.642801,-32.170743],[140.642437,-32.170856],[140.641962,-32.17097],[140.641215,-32.171079],[140.640845,-32.171105],[140.640449,-32.171089],[140.640008,-32.171047],[140.639656,-32.170991],[140.639249,-32.170901],[140.638822,-32.170765],[140.638451,-32.170604],[140.638082,-32.170429],[140.637775,-32.170265],[140.63769,-32.17022],[140.637655,-32.170199],[140.637331,-32.170007],[140.63688,-32.169789],[140.636665,-32.169708],[140.636472,-32.169635],[140.636154,-32.169542],[140.635779,-32.169463],[140.635365,-32.169394],[140.634873,-32.16935],[140.634445,-32.16935],[140.633976,-32.169385],[140.633607,-32.169434],[140.633231,-32.169512],[140.632876,-32.169611],[140.632512,-32.169729],[140.632148,-32.169875],[140.631809,-32.170047],[140.631481,-32.170238],[140.63104,-32.1705],[140.630372,-32.170921],[140.624496,-32.174455],[140.623193,-32.175324],[140.622575,-32.17571],[140.622389,-32.17581],[140.622151,-32.17594],[140.621876,-32.176083],[140.621595,-32.176222],[140.621319,-32.176333],[140.621031,-32.176453],[140.620412,-32.176708],[140.611677,-32.180281],[140.610477,-32.180775],[140.60946,-32.181134],[140.608416,-32.181437],[140.607229,-32.181732],[140.605036,-32.182182],[140.601872,-32.18274],[140.587424,-32.185264],[140.584195,-32.185851],[140.582411,-32.186176],[140.581398,-32.186376],[140.58014,-32.186601],[140.575179,-32.187505],[140.572244,-32.188044]]}},{"type":"Feature","properties":{"tier":"high"},"geometry":{"type":"LineString","coordinates":[[140.654084,-32.164302],[140.653999,-32.164337]]}},{"type":"Feature","properties":{"tier":"regional"},"geometry":{"type":"LineString","coordinates":[[140.732444,-32.125947],[140.732852,-32.126197],[140.733571,-32.126592],[140.734042,-32.126904],[140.734467,-32.127192],[140.73517,-32.127737],[140.735372,-32.127892],[140.735571,-32.128045],[140.735732,-32.128213],[140.735866,-32.128431],[140.736049,-32.128805],[140.73647,-32.129718]]}},{"type":"Feature","properties":{"tier":"regional"},"geometry":{"type":"LineString","coordinates":[[140.571905,-31.99998],[140.573156,-32.002396],[140.574703,-32.005597],[140.575023,-32.006436]]}},{"type":"Feature","properties":{"tier":"regional"},"geometry":{"type":"LineString","coordinates":[[140.580987,-32.01776],[140.581409,-32.018268],[140.58392,-32.021434],[140.585834,-32.023871],[140.586563,-32.024872],[140.587035,-32.025799],[140.587293,-32.026927],[140.587658,-32.028492],[140.587975,-32.029529],[140.58858,-32.030856],[140.589069,-32.031767],[140.589653,-32.032676],[140.590314,-32.033513],[140.591241,-32.034495],[140.592014,-32.03524],[140.594288,-32.036714],[140.597292,-32.038606],[140.598901,-32.039515],[140.600661,-32.040406],[140.61051,-32.045917],[140.618149,-32.050355],[140.622891,-32.053138],[140.624113,-32.053812],[140.624366,-32.053951],[140.625101,-32.054356],[140.629672,-32.05763],[140.631303,-32.058557],[140.634822,-32.061103],[140.639907,-32.064613],[140.640937,-32.065395],[140.641924,-32.066086],[140.642654,-32.06674],[140.644349,-32.068504],[140.648597,-32.072868],[140.6504,-32.074577],[140.651816,-32.075705],[140.653254,-32.07685],[140.654777,-32.078105],[140.655485,-32.078759],[140.659305,-32.08125],[140.661386,-32.082704],[140.663446,-32.08405],[140.669004,-32.087107],[140.672072,-32.088795],[140.675999,-32.090922],[140.677544,-32.091703],[140.678617,-32.092358],[140.680634,-32.093812],[140.687307,-32.098684],[140.688487,-32.099484],[140.692049,-32.101501],[140.69986,-32.106045],[140.708142,-32.110862],[140.713764,-32.114115],[140.715588,-32.115278],[140.717927,-32.116787],[140.728527,-32.123511],[140.729787,-32.124294],[140.732444,-32.125947]]}},{"type":"Feature","properties":{"tier":"regional"},"geometry":{"type":"LineString","coordinates":[[140.575023,-32.006436],[140.575444,-32.007295],[140.576448,-32.009136],[140.577487,-32.011572],[140.578324,-32.013422],[140.578997,-32.014662],[140.580006,-32.016177],[140.58077,-32.017316],[140.580987,-32.01776]]}},{"type":"Feature","properties":{"tier":"high"},"geometry":{"type":"LineString","coordinates":[[140.993887,-32.078121],[140.992724,-32.078125],[140.990346,-32.078133],[140.989834,-32.078138],[140.989394,-32.078141],[140.989014,-32.078158],[140.988637,-32.078197]]}},{"type":"Feature","properties":{"tier":"regional"},"geometry":{"type":"LineString","coordinates":[[140.73647,-32.129718],[140.736517,-32.129821],[140.736551,-32.129896],[140.736841,-32.130414]]}},{"type":"Feature","properties":{"tier":"high"},"geometry":{"type":"LineString","coordinates":[[140.750245,-32.127449],[140.749991,-32.127602],[140.7495,-32.127902],[140.749279,-32.128033],[140.7491,-32.128136],[140.748898,-32.128247],[140.748665,-32.128364],[140.748405,-32.128483],[140.748145,-32.128592],[140.747889,-32.12869],[140.747632,-32.128774],[140.74741,-32.128845],[140.747058,-32.128938],[140.746637,-32.129044],[140.74618,-32.129142],[140.745648,-32.129225],[140.745337,-32.129251],[140.744955,-32.129278],[140.74432,-32.129288],[140.742173,-32.12929],[140.741759,-32.129309],[140.741319,-32.129336],[140.740804,-32.129384],[140.740359,-32.129446],[140.739885,-32.129524],[140.739573,-32.129584],[140.739463,-32.129606],[140.738957,-32.129713],[140.738608,-32.129793],[140.738337,-32.129884],[140.737775,-32.130059],[140.737139,-32.1303],[140.736841,-32.130414],[140.735839,-32.130829]]}},{"type":"Feature","properties":{"tier":"high"},"geometry":{"type":"LineString","coordinates":[[140.735839,-32.130829],[140.735359,-32.131027]]}}]}
