{"type":"FeatureCollection","features":[{"type":"Feature","properties":{"tier":"regional"},"geometry":{"type":"LineString","coordinates":[[140.514709,-31.74962],[140.514456,-31.749366],[140.514263,-31.74925],[140.514019,-31.749174],[140.513716,-31.749142],[140.51318,-31.749119],[140.51256,-31.74906],[140.512182,-31.749003],[140.511281,-31.748841],[140.510174,-31.748704],[140.509328,-31.748686],[140.508405,-31.748677],[140.507542,-31.748681],[140.506703,-31.748619],[140.505931,-31.748546],[140.504793,-31.748515],[140.503978,-31.748692],[140.50209,-31.749774],[140.500995,-31.750298],[140.500588,-31.750486],[140.50003,-31.750559],[140.49998,-31.75057]]}},{"type":"Feature","properties":{"tier":"regional"},"geometry":{"type":"LineString","coordinates":[[140.543965,-31.879579],[140.544123,-31.880515],[140.544342,-31.881857],[140.544571,-31.883074],[140.544576,-31.883426],[140.54455,-31.883712],[140.544384,-31.884235],[140.544019,-31.885342],[140.543445,-31.886882],[140.54301,-31.887725],[140.542844,-31.88813],[140.542383,-31.889688],[140.541964,-31.890995],[140.541557,-31.892184],[140.540779,-31.894297],[140.540612,-31.894812],[140.540532,-31.895194],[140.540569,-31.895814],[140.540687,-31.897103],[140.540712,-31.897578],[140.540768,-31.899202],[140.5408,-31.900218],[140.540881,-31.900719],[140.541058,-31.901233],[140.541878,-31.903556],[140.542994,-31.906689],[140.544507,-31.911084],[140.545338,-31.913497],[140.546892,-31.918089],[140.547248,-31.91902],[140.547726,-31.920227],[140.547897,-31.920764],[140.547945,-31.92101],[140.547978,-31.921233],[140.547887,-31.921443],[140.547747,-31.921575],[140.547527,-31.921698],[140.547221,-31.921807],[140.546996,-31.921875],[140.54684,-31.922007],[140.546787,-31.922189],[140.54676,-31.922403],[140.546878,-31.923182],[140.547017,-31.92442],[140.547098,-31.925249],[140.547033,-31.925832],[140.547055,-31.926282],[140.547145,-31.9268],[140.547236,-31.927216],[140.54743,-31.927689],[140.548127,-31.929356],[140.548922,-31.931013],[140.549951,-31.932597],[140.550702,-31.934409],[140.551378,-31.935902],[140.551539,-31.936412],[140.551647,-31.936931],[140.551968,-31.93877],[140.552215,-31.940154],[140.552398,-31.940964],[140.55258,-31.941757],[140.552666,-31.942221],[140.552666,-31.942667],[140.552709,-31.944087],[140.552719,-31.944524],[140.552859,-31.945016],[140.552977,-31.945462],[140.55317,-31.946054],[140.553288,-31.946445],[140.55332,-31.946727],[140.553243,-31.947071],[140.553106,-31.947428],[140.552666,-31.948002],[140.552385,-31.948445],[140.552108,-31.948958],[140.55185,-31.949631],[140.551722,-31.950378],[140.551271,-31.952253],[140.550883,-31.95418],[140.550818,-31.955309],[140.550692,-31.95686],[140.550647,-31.959333],[140.55067,-31.960009],[140.550477,-31.960628],[140.550284,-31.962121],[140.549919,-31.962758],[140.549533,-31.963413],[140.549275,-31.963923],[140.549039,-31.964506],[140.548525,-31.966599],[140.548505,-31.966788],[140.548482,-31.967018],[140.548458,-31.967361],[140.548675,-31.967946],[140.548898,-31.968477],[140.548997,-31.968711],[140.549209,-31.969236],[140.549318,-31.969621],[140.549533,-31.969821],[140.550112,-31.970094],[140.550649,-31.970458],[140.551271,-31.971004],[140.551677,-31.971475],[140.552215,-31.971769],[140.552623,-31.972042],[140.553074,-31.972351],[140.553889,-31.973043],[140.554724,-31.97375],[140.555367,-31.974151],[140.556526,-31.974678],[140.557322,-31.975173],[140.558159,-31.975864],[140.558953,-31.976483],[140.559511,-31.977157],[140.56009,-31.977648],[140.560455,-31.977976],[140.561088,-31.978464],[140.561912,-31.979101],[140.5623,-31.979413],[140.562515,-31.97965],[140.562772,-31.980269],[140.564187,-31.983852],[140.566356,-31.98855],[140.569143,-31.994043],[140.570089,-31.995957],[140.570325,-31.996594],[140.570433,-31.997085],[140.570755,-31.997758],[140.571926,-32.00002]]}},{"type":"Feature","properties":{"tier":"regional"},"geometry":{"type":"LineString","coordinates":[[140.54375,-31.878177],[140.543965,-31.879579]]}},{"type":"Feature","properties":{"tier":"regional"},"geometry":{"type":"LineString","coordinates":[[140.533159,-31.867883],[140.533515,-31.868337],[140.534803,-31.869339],[140.535983,-31.87015],[140.536723,-31.870497],[140.537496,-31.870761],[140.538,-31.870934],[140.538354,-31.871098],[140.53962,-31.872018],[140.540242,-31.87251],[140.540811,-31.872957],[140.54168,-31.873904],[140.543053,-31.875544],[140.543343,-31.875918],[140.543482,-31.876337],[140.54375,-31.878177]]}},{"type":"Feature","properties":{"tier":"regional"},"geometry":{"type":"LineString","coordinates":[[140.514709,-31.74962],[140.514635,-31.749818],[140.514534,-31.749999],[140.51436,-31.750208],[140.514225,-31.750495],[140.514048,-31.750916],[140.513655,-31.751745],[140.513473,-31.752199],[140.513312,-31.752597],[140.513033,-31.753132],[140.512904,-31.754062],[140.512647,-31.756507],[140.512218,-31.758965],[140.51196,-31.760278],[140.511917,-31.760704],[140.512132,-31.761045],[140.51254,-31.761324],[140.512797,-31.761853],[140.512754,-31.762747],[140.512197,-31.767216],[140.511746,-31.773765],[140.511479,-31.77787],[140.511223,-31.780752],[140.511048,-31.784709],[140.510888,-31.789999],[140.510919,-31.790726],[140.51094,-31.791264],[140.510977,-31.791822],[140.511015,-31.792191],[140.51121,-31.792792],[140.511432,-31.793313],[140.512138,-31.795118],[140.512981,-31.797281],[140.513825,-31.799461],[140.517189,-31.808073],[140.51872,-31.81201],[140.519269,-31.813334],[140.520061,-31.815455],[140.520886,-31.817498],[140.521915,-31.819848],[140.522923,-31.821708],[140.523024,-31.821945],[140.523016,-31.822241],[140.522963,-31.822602],[140.522826,-31.823471],[140.522383,-31.825796],[140.521825,-31.828819],[140.521128,-31.832908],[140.520963,-31.833781],[140.520779,-31.834654],[140.520496,-31.835667],[140.520207,-31.836532],[140.519901,-31.837241],[140.519527,-31.838139],[140.519316,-31.838609],[140.519211,-31.838966],[140.519131,-31.839464],[140.519168,-31.840452],[140.51923,-31.84114],[140.519419,-31.842034],[140.51973,-31.84285],[140.520084,-31.843389],[140.520646,-31.844474],[140.522859,-31.848473],[140.533159,-31.867883]]}}]}
