{"type":"FeatureCollection","features":[{"type":"Feature","properties":{"tier":"regional"},"geometry":{"type":"LineString","coordinates":[[140.508761,-34.73579],[140.50874,-34.73697],[140.508741,-34.737986],[140.50873,-34.739016],[140.508721,-34.739841],[140.508673,-34.740173],[140.508595,-34.740346],[140.508483,-34.740502],[140.508344,-34.740637],[140.508143,-34.740776],[140.505962,-34.742038],[140.505662,-34.742237],[140.505402,-34.742435],[140.505093,-34.742699],[140.504845,-34.74296],[140.5034,-34.744666],[140.501928,-34.746485],[140.49998,-34.748802]]}},{"type":"Feature","properties":{"tier":"arterial"},"geometry":{"type":"LineString","coordinates":[[140.514873,-34.73585],[140.515293,-34.735935],[140.515485,-34.73591]]}},{"type":"Feature","properties":{"tier":"regional"},"geometry":{"type":"LineString","coordinates":[[140.92111,-34.882169],[140.921942,-34.881229],[140.924168,-34.878769],[140.925175,-34.877785],[140.925304,-34.877637],[140.925416,-34.877463],[140.925519,-34.877239],[140.926527,-34.874996],[140.927714,-34.872905],[140.927753,-34.872786],[140.927777,-34.872641],[140.927772,-34.872513],[140.92774,-34.8724],[140.927683,-34.872281],[140.927544,-34.872114],[140.926464,-34.871045],[140.925416,-34.870051],[140.924638,-34.869239],[140.923071,-34.867537],[140.920661,-34.864832],[140.920524,-34.864649],[140.920433,-34.864451],[140.920374,-34.864254],[140.920317,-34.863943],[140.920193,-34.862993],[140.919954,-34.861129],[140.919858,-34.860405],[140.919818,-34.860222],[140.919759,-34.860024],[140.919681,-34.859841],[140.919557,-34.859641],[140.919418,-34.859406],[140.919225,-34.859152],[140.91908,-34.858996],[140.918866,-34.858827],[140.91863,-34.858668],[140.916532,-34.857548],[140.913936,-34.856168],[140.91227,-34.855261],[140.91198,-34.855083],[140.911849,-34.854968],[140.911755,-34.854843],[140.911653,-34.854687],[140.911551,-34.854458],[140.910567,-34.852221],[140.910143,-34.851286],[140.91006,-34.851042],[140.910009,-34.850811],[140.909971,-34.850564],[140.909944,-34.850199],[140.909936,-34.848882],[140.909947,-34.847989],[140.909934,-34.847447],[140.909926,-34.846582],[140.909877,-34.844367],[140.909842,-34.843938],[140.909789,-34.843615],[140.909663,-34.843133],[140.909161,-34.841706],[140.908402,-34.839467],[140.908298,-34.839196],[140.908088,-34.838853],[140.906147,-34.836128],[140.904215,-34.833446],[140.903049,-34.83178],[140.902563,-34.831115],[140.902389,-34.830903],[140.902169,-34.830707],[140.901855,-34.830518],[140.900125,-34.829527],[140.899795,-34.829331],[140.899572,-34.829155],[140.899424,-34.829024],[140.899257,-34.828824],[140.898014,-34.827145],[140.892907,-34.820009],[140.892698,-34.81967],[140.89255,-34.81939],[140.890531,-34.813839],[140.890499,-34.813682],[140.890499,-34.813526],[140.890531,-34.81329],[140.891598,-34.80954],[140.891644,-34.809373],[140.891662,-34.809179],[140.891652,-34.809007],[140.891598,-34.808756],[140.886785,-34.789237],[140.884689,-34.780723],[140.883973,-34.777857],[140.883844,-34.777288],[140.883763,-34.77676],[140.883737,-34.775676],[140.883546,-34.772578],[140.883476,-34.772162],[140.883353,-34.771763],[140.883197,-34.771384],[140.882953,-34.771014],[140.88269,-34.770668],[140.882366,-34.770262],[140.881894,-34.76972],[140.881339,-34.769024],[140.879281,-34.765757],[140.878117,-34.76387],[140.878011,-34.763672],[140.877927,-34.763455],[140.877887,-34.763264],[140.877879,-34.763096],[140.877902,-34.762914],[140.877962,-34.762742],[140.87804,-34.762597],[140.87813,-34.76246],[140.878243,-34.762318],[140.878395,-34.762175],[140.878729,-34.761925],[140.87904,-34.761643],[140.879311,-34.761347],[140.879456,-34.76114],[140.879571,-34.760896],[140.879627,-34.760653],[140.879652,-34.760296],[140.879625,-34.759576],[140.879579,-34.759142],[140.879528,-34.75886],[140.879425,-34.758591],[140.879273,-34.758348],[140.876052,-34.754364],[140.875784,-34.754073],[140.875513,-34.75387],[140.875175,-34.753668],[140.871939,-34.751612],[140.871248,-34.75097],[140.869105,-34.748722],[140.867163,-34.746746],[140.866954,-34.74647],[140.866777,-34.746239],[140.866608,-34.745981],[140.866359,-34.745494],[140.86619,-34.74509],[140.866047,-34.744636],[140.865433,-34.742305],[140.865044,-34.740821],[140.864996,-34.740544],[140.864953,-34.740242],[140.864937,-34.739889],[140.86495,-34.739576],[140.864996,-34.739155],[140.865372,-34.7372],[140.865385,-34.736924],[140.865369,-34.736697],[140.86531,-34.736475],[140.865203,-34.736234],[140.865028,-34.735957],[140.863904,-34.734339],[140.86336,-34.733614],[140.862523,-34.732348],[140.861332,-34.730259],[140.861077,-34.729842],[140.860812,-34.729509],[140.860495,-34.72917],[140.860112,-34.72878],[140.857966,-34.726998],[140.853918,-34.723714],[140.853653,-34.723469],[140.85343,-34.723209],[140.853221,-34.722946],[140.853087,-34.722706],[140.852784,-34.721972],[140.852607,-34.721529],[140.852298,-34.720956],[140.851639,-34.719796],[140.851523,-34.719573],[140.851429,-34.719329],[140.851368,-34.719082],[140.851341,-34.718804],[140.851301,-34.718171],[140.851244,-34.717362],[140.85125,-34.717135],[140.851298,-34.716946],[140.851373,-34.716758],[140.852049,-34.715512],[140.852172,-34.715235],[140.852256,-34.715003],[140.852298,-34.714816]]}},{"type":"Feature","properties":{"tier":"arterial"},"geometry":{"type":"LineString","coordinates":[[140.733429,-34.718824],[140.733912,-34.720128],[140.734054,-34.720466],[140.734213,-34.72076],[140.734359,-34.72097],[140.734601,-34.721238],[140.734826,-34.721456],[140.735087,-34.721655],[140.735379,-34.721826],[140.735902,-34.72208],[140.736422,-34.722324],[140.736921,-34.722609],[140.737369,-34.722911],[140.737861,-34.723307],[140.738221,-34.723648],[140.738564,-34.724059],[140.738738,-34.724315],[140.738876,-34.724518],[140.739338,-34.725235],[140.739527,-34.725528],[140.740091,-34.726405],[140.740247,-34.726646],[140.742831,-34.730593],[140.743415,-34.731784],[140.743759,-34.732915],[140.743842,-34.734149],[140.743905,-34.737652],[140.744009,-34.738671],[140.744353,-34.739811],[140.74477,-34.740684],[140.745343,-34.741387],[140.750597,-34.746072],[140.75215,-34.747365],[140.754631,-34.749078],[140.756397,-34.750309],[140.758404,-34.751707],[140.763522,-34.755227],[140.765617,-34.756692],[140.768244,-34.758456],[140.770652,-34.760168],[140.771798,-34.761307],[140.772278,-34.762189],[140.772674,-34.763371],[140.772705,-34.765563],[140.772882,-34.766873],[140.773727,-34.768475],[140.775353,-34.770915],[140.778417,-34.775367],[140.780064,-34.777807],[140.781367,-34.779562],[140.782566,-34.780633],[140.78537,-34.782927],[140.786443,-34.78398],[140.787131,-34.785101],[140.787851,-34.788004],[140.788227,-34.789631],[140.788487,-34.790751],[140.789383,-34.795331],[140.790019,-34.798498],[140.790311,-34.799149],[140.79201,-34.801999],[140.792844,-34.803608],[140.793625,-34.805448],[140.795449,-34.810078],[140.796304,-34.811242],[140.796971,-34.811824],[140.800223,-34.814041],[140.806071,-34.817926],[140.809042,-34.819937],[140.810032,-34.820827],[140.810762,-34.821794],[140.813566,-34.82591],[140.817735,-34.832027],[140.823958,-34.841199],[140.827471,-34.846426],[140.829639,-34.849548],[140.829768,-34.849751],[140.829814,-34.849823],[140.830264,-34.850532],[140.830671,-34.851729],[140.830681,-34.852653],[140.830358,-34.855005],[140.830348,-34.85545],[140.830598,-34.85616],[140.831505,-34.857991],[140.83312,-34.860403],[140.833986,-34.861532],[140.838301,-34.86544],[140.840709,-34.867441],[140.841355,-34.868168],[140.841834,-34.868938],[140.842137,-34.869725],[140.842783,-34.874685],[140.8432,-34.877037],[140.843534,-34.877934],[140.845368,-34.881509],[140.846921,-34.88404],[140.846973,-34.884127],[140.8476,-34.885176],[140.848139,-34.886078],[140.84849,-34.886665],[140.848525,-34.886723],[140.849016,-34.887545],[140.849777,-34.88852],[140.85305,-34.892077],[140.855979,-34.896266],[140.85748,-34.898822],[140.858794,-34.901575],[140.859857,-34.903387],[140.86214,-34.907012],[140.862671,-34.908123],[140.86313,-34.910046],[140.863547,-34.91409],[140.863828,-34.915201],[140.864266,-34.91603],[140.867143,-34.919662],[140.868154,-34.921124],[140.868373,-34.921979],[140.8683,-34.922893],[140.867973,-34.92472],[140.867122,-34.92667],[140.865162,-34.931943],[140.864547,-34.933652],[140.86437,-34.935267],[140.864662,-34.938079],[140.865381,-34.941864],[140.866226,-34.946427],[140.866336,-34.946903],[140.866456,-34.94726],[140.866668,-34.947733],[140.866889,-34.948133],[140.86712,-34.948473],[140.867373,-34.948778],[140.867677,-34.949112],[140.868022,-34.949432],[140.868455,-34.949751],[140.868821,-34.950017],[140.869324,-34.950296],[140.870047,-34.95062],[140.870489,-34.950808],[140.873503,-34.952091],[140.874111,-34.952393],[140.874632,-34.952729],[140.875137,-34.953132],[140.876497,-34.954347],[140.877757,-34.955477],[140.878454,-34.956111],[140.878914,-34.956604],[140.879209,-34.957018],[140.879435,-34.957422],[140.87987,-34.958464],[140.880516,-34.95966],[140.880962,-34.960763],[140.88101,-34.96096],[140.881067,-34.961261],[140.881104,-34.961613],[140.881159,-34.962424],[140.881217,-34.96301],[140.881265,-34.963501],[140.881305,-34.963749],[140.88137,-34.964037],[140.881492,-34.964418],[140.881638,-34.964774],[140.881797,-34.965104],[140.883037,-34.96723],[140.886333,-34.972986],[140.888365,-34.976411],[140.889877,-34.978999],[140.890909,-34.980229],[140.891961,-34.981108],[140.895078,-34.983619],[140.89735,-34.985302],[140.898726,-34.986045],[140.902312,-34.987513],[140.903313,-34.988069],[140.904251,-34.988786],[140.904991,-34.989751],[140.905773,-34.991894],[140.906596,-34.994003],[140.907305,-34.995293],[140.910015,-34.998136],[140.91193,-35.00002]]}},{"type":"Feature","properties":{"tier":"regional"},"geometry":{"type":"LineString","coordinates":[[140.802004,-34.557909],[140.842508,-34.551041],[140.85488,-34.548962],[140.870189,-34.546334]]}},{"type":"Feature","properties":{"tier":"arterial"},"geometry":{"type":"LineString","coordinates":[[140.733429,-34.718824],[140.733045,-34.717771],[140.732834,-34.717095],[140.732652,-34.716603],[140.731935,-34.714667],[140.731213,-34.712758],[140.730992,-34.712286],[140.729103,-34.709267],[140.728809,-34.708866],[140.708349,-34.677138],[140.683351,-34.638221],[140.682983,-34.637644],[140.682236,-34.636477],[140.671242,-34.619285],[140.671077,-34.619006],[140.670922,-34.618686],[140.670769,-34.6183],[140.670656,-34.617898],[140.670587,-34.617562],[140.670552,-34.617298],[140.670529,-34.616942],[140.670272,-34.613155],[140.67023,-34.612689],[140.670182,-34.612371],[140.67012,-34.612093],[140.670024,-34.611777],[140.669899,-34.611445],[140.669617,-34.61079],[140.669182,-34.609839],[140.668506,-34.608397],[140.668306,-34.607936],[140.668133,-34.607583],[140.667675,-34.606716],[140.66711,-34.605727],[140.666633,-34.604864],[140.666519,-34.604659],[140.665527,-34.602534],[140.664757,-34.600826],[140.662572,-34.595768],[140.661728,-34.593736],[140.66127,-34.592766],[140.658946,-34.588727],[140.658254,-34.58751],[140.657991,-34.586953],[140.657871,-34.586535],[140.657801,-34.586147],[140.657758,-34.585533],[140.657509,-34.58237],[140.657288,-34.581746],[140.657066,-34.581331],[140.656844,-34.580992],[140.656517,-34.580557],[140.650928,-34.573071],[140.650626,-34.572728],[140.650425,-34.572522],[140.65023,-34.572353],[140.650013,-34.572176],[140.649322,-34.571663],[140.648206,-34.57081],[140.645598,-34.568852],[140.645436,-34.568742],[140.638726,-34.56256],[140.637467,-34.561385],[140.63719,-34.561142],[140.636854,-34.560901],[140.63649,-34.56068],[140.636137,-34.560493],[140.635797,-34.560347],[140.635224,-34.560156],[140.634714,-34.560023],[140.63415,-34.559884],[140.633638,-34.559741],[140.633155,-34.559585],[140.632852,-34.559459],[140.632466,-34.559266],[140.631955,-34.558955],[140.631727,-34.558802],[140.631576,-34.558672],[140.631212,-34.558347],[140.62562,-34.553222],[140.624509,-34.552149],[140.624245,-34.551822],[140.624072,-34.551594],[140.623959,-34.551402],[140.62381,-34.551117],[140.623658,-34.550769],[140.62353,-34.550333],[140.62346,-34.549998],[140.61998,-34.529163],[140.619877,-34.528683],[140.619738,-34.528269],[140.61954,-34.527842],[140.619292,-34.527387],[140.618476,-34.526014],[140.617707,-34.524669],[140.617221,-34.523943],[140.616991,-34.52366],[140.616804,-34.52347],[140.616457,-34.523139],[140.616171,-34.522901],[140.615573,-34.522482],[140.615149,-34.522204],[140.609164,-34.518316],[140.608571,-34.517885],[140.608327,-34.517677],[140.608088,-34.517419],[140.607834,-34.517111],[140.607679,-34.516892],[140.607539,-34.51667],[140.607401,-34.51639],[140.603563,-34.507685],[140.603253,-34.506991],[140.603153,-34.506728],[140.603034,-34.506303],[140.602947,-34.505913],[140.60291,-34.505553],[140.602907,-34.505222],[140.602937,-34.504637],[140.602939,-34.504138],[140.602917,-34.503774],[140.602869,-34.503407],[140.602778,-34.502995],[140.602649,-34.502592],[140.602524,-34.502291],[140.601459,-34.49998]]}},{"type":"Feature","properties":{"tier":"regional"},"geometry":{"type":"LineString","coordinates":[[140.857072,-34.70407],[140.85682,-34.70389],[140.856303,-34.703305],[140.856117,-34.70317],[140.855949,-34.703114]]}},{"type":"Feature","properties":{"tier":"regional"},"geometry":{"type":"LineString","coordinates":[[140.851277,-34.706014],[140.850449,-34.705143],[140.849629,-34.704258],[140.848056,-34.702616],[140.846318,-34.70074]]}},{"type":"Feature","properties":{"tier":"regional"},"geometry":{"type":"LineString","coordinates":[[140.851277,-34.706014],[140.850404,-34.706683],[140.849777,-34.707244],[140.849539,-34.707403],[140.849441,-34.707446],[140.8492,-34.70755],[140.848602,-34.707747],[140.847096,-34.708184],[140.83337,-34.710716],[140.821409,-34.712963],[140.820099,-34.7132],[140.818876,-34.713274],[140.818556,-34.713294],[140.815216,-34.713419],[140.808028,-34.713651],[140.788573,-34.714255],[140.787341,-34.714307],[140.774066,-34.714713],[140.77228,-34.714768],[140.77075,-34.714839],[140.770096,-34.714913],[140.765078,-34.715928],[140.759432,-34.717053],[140.755866,-34.717818],[140.75496,-34.717928],[140.75367,-34.718001],[140.752304,-34.71784],[140.745171,-34.716544],[140.744714,-34.716499],[140.744265,-34.716539],[140.743871,-34.716631],[140.734892,-34.718796],[140.733429,-34.718824]]}},{"type":"Feature","properties":{"tier":"regional"},"geometry":{"type":"LineString","coordinates":[[140.855949,-34.703114],[140.85564,-34.703257],[140.855113,-34.703562]]}},{"type":"Feature","properties":{"tier":"regional"},"geometry":{"type":"LineString","coordinates":[[140.727239,-34.720364],[140.727717,-34.721654]]}},{"type":"Feature","properties":{"tier":"regional"},"geometry":{"type":"LineString","coordinates":[[140.659578,-34.49998],[140.669882,-34.508079],[140.671178,-34.509586],[140.672738,-34.511569],[140.67472,-34.512679],[140.677443,-34.513182],[140.680351,-34.513631],[140.682334,-34.514688],[140.684845,-34.517358],[140.685506,-34.518839],[140.686511,-34.520134],[140.691243,-34.524575],[140.692486,-34.525554],[140.711229,-34.536419],[140.712286,-34.536842],[140.720349,-34.538877],[140.723892,-34.540041],[140.726547,-34.540707],[140.727804,-34.540887],[140.729353,-34.540794],[140.734364,-34.540443]]}},{"type":"Feature","properties":{"tier":"regional"},"geometry":{"type":"LineString","coordinates":[[140.886769,-34.644922],[140.886019,-34.647281],[140.884035,-34.65301],[140.883634,-34.653766],[140.883109,-34.654444],[140.881686,-34.655461],[140.880239,-34.656404],[140.878876,-34.657282],[140.878129,-34.657869],[140.873127,-34.663304],[140.872363,-34.66423],[140.869852,-34.668578],[140.867205,-34.673499],[140.861973,-34.682614],[140.861194,-34.68395],[140.860623,-34.685068],[140.860522,-34.685973],[140.860478,-34.687286],[140.860257,-34.691031],[140.860211,-34.69203],[140.860092,-34.694593],[140.859752,-34.700545],[140.85968,-34.701026],[140.859582,-34.701421],[140.859149,-34.702399],[140.858974,-34.702699],[140.85872,-34.70295],[140.858434,-34.703181],[140.857454,-34.703851],[140.857072,-34.70407],[140.852274,-34.707116]]}},{"type":"Feature","properties":{"tier":"regional"},"geometry":{"type":"LineString","coordinates":[[140.855113,-34.703562],[140.854716,-34.703806],[140.854415,-34.703997],[140.853551,-34.704543],[140.852834,-34.705011],[140.851277,-34.706014]]}},{"type":"Feature","properties":{"tier":"regional"},"geometry":{"type":"LineString","coordinates":[[140.852298,-34.714816],[140.85243,-34.709478],[140.852431,-34.707838],[140.852401,-34.707539],[140.852368,-34.70736],[140.852274,-34.707116],[140.851772,-34.706532],[140.851592,-34.70633]]}},{"type":"Feature","properties":{"tier":"regional"},"geometry":{"type":"LineString","coordinates":[[140.846318,-34.70074],[140.845701,-34.700302],[140.829303,-34.691009],[140.827591,-34.690153],[140.826576,-34.689775],[140.815359,-34.68338],[140.814756,-34.683128],[140.81394,-34.682929],[140.795413,-34.682034],[140.782995,-34.681497],[140.78003,-34.681716],[140.778836,-34.681656],[140.775134,-34.681039],[140.765784,-34.680545],[140.757045,-34.680084],[140.734359,-34.67879],[140.729085,-34.678459],[140.717563,-34.677735],[140.711215,-34.677337],[140.708349,-34.677138]]}},{"type":"Feature","properties":{"tier":"arterial"},"geometry":{"type":"LineString","coordinates":[[140.49998,-34.735371],[140.500143,-34.73537],[140.50062,-34.735376],[140.501238,-34.735377],[140.50185,-34.735382],[140.50308,-34.735397],[140.503201,-34.7354],[140.503359,-34.735406],[140.503513,-34.735416],[140.503699,-34.735428],[140.503885,-34.735447],[140.504025,-34.735465],[140.504163,-34.735491],[140.504726,-34.735615],[140.504946,-34.73566],[140.505169,-34.735699],[140.50543,-34.73573],[140.505571,-34.735744],[140.505708,-34.735752],[140.506186,-34.735763],[140.506679,-34.735767],[140.507172,-34.735771],[140.508761,-34.73579],[140.508923,-34.73579],[140.509278,-34.735791],[140.509638,-34.735793],[140.510336,-34.735797],[140.510851,-34.735794],[140.511105,-34.735796],[140.51136,-34.735801],[140.511523,-34.73581],[140.511601,-34.735816],[140.511678,-34.735826],[140.511789,-34.735843],[140.511896,-34.735866],[140.511973,-34.735882],[140.51205,-34.7359],[140.512193,-34.735937],[140.512509,-34.736022],[140.512666,-34.736063],[140.512824,-34.736104],[140.513083,-34.736168],[140.513189,-34.736187],[140.513296,-34.736201],[140.51345,-34.736214],[140.513529,-34.736217],[140.513604,-34.736218],[140.513764,-34.736212],[140.513845,-34.736205],[140.513925,-34.736196],[140.51409,-34.736171],[140.514172,-34.736154],[140.514248,-34.736133],[140.514445,-34.73607]]}},{"type":"Feature","properties":{"tier":"arterial"},"geometry":{"type":"LineString","coordinates":[[140.515265,-34.735495],[140.515234,-34.735701],[140.51524,-34.735799],[140.515263,-34.735841],[140.515299,-34.735882],[140.515366,-34.735904],[140.515485,-34.73591]]}},{"type":"Feature","properties":{"tier":"arterial"},"geometry":{"type":"LineString","coordinates":[[140.515485,-34.73591],[140.515388,-34.735937],[140.515284,-34.735964],[140.515083,-34.736011],[140.514642,-34.73609],[140.514445,-34.73607]]}},{"type":"Feature","properties":{"tier":"regional"},"geometry":{"type":"LineString","coordinates":[[140.918388,-34.928539],[140.918275,-34.928386],[140.918164,-34.928208],[140.918101,-34.928033],[140.918047,-34.927835],[140.918015,-34.92759],[140.918015,-34.927335],[140.918025,-34.927115],[140.91809,-34.926552],[140.918478,-34.924176],[140.918557,-34.92389],[140.918652,-34.9236],[140.919664,-34.920918],[140.919706,-34.920725],[140.919744,-34.920551],[140.919774,-34.920176],[140.919684,-34.91761],[140.919694,-34.917238],[140.919729,-34.916801],[140.91996,-34.915347],[140.920052,-34.91467],[140.92013,-34.913615],[140.920141,-34.913369],[140.919989,-34.911946],[140.919871,-34.910547],[140.919793,-34.91007],[140.919684,-34.90967],[140.918903,-34.906923],[140.915955,-34.896971],[140.91591,-34.896775],[140.915904,-34.896597],[140.915926,-34.896392],[140.916012,-34.896177],[140.916173,-34.895891],[140.918919,-34.891744],[140.919008,-34.891575],[140.919068,-34.891415],[140.919114,-34.891243],[140.919136,-34.89109],[140.919134,-34.890941],[140.919097,-34.890787],[140.918994,-34.890584],[140.918739,-34.890138],[140.918034,-34.88898],[140.917519,-34.888197],[140.917455,-34.888014],[140.917409,-34.887803],[140.917388,-34.887643],[140.917382,-34.887457],[140.917414,-34.887261],[140.917487,-34.887071],[140.917586,-34.88688],[140.9177,-34.886661],[140.918043,-34.886188],[140.918537,-34.885464],[140.919021,-34.884755],[140.919629,-34.883988],[140.920209,-34.883218],[140.920821,-34.882496],[140.920902,-34.882404],[140.92111,-34.882169]]}},{"type":"Feature","properties":{"tier":"arterial"},"geometry":{"type":"LineString","coordinates":[[140.514873,-34.73585],[140.515008,-34.735754],[140.515117,-34.735661],[140.515206,-34.735569],[140.515265,-34.735495]]}},{"type":"Feature","properties":{"tier":"arterial"},"geometry":{"type":"LineString","coordinates":[[140.514445,-34.73607],[140.514668,-34.735958],[140.514873,-34.73585]]}},{"type":"Feature","properties":{"tier":"arterial"},"geometry":{"type":"LineString","coordinates":[[140.515485,-34.73591],[140.516337,-34.735778],[140.516846,-34.735724],[140.517297,-34.735714],[140.520343,-34.735725],[140.520855,-34.735714],[140.521351,-34.735675],[140.521935,-34.735609],[140.522702,-34.73547],[140.523381,-34.735304],[140.524116,-34.735075],[140.526536,-34.73412],[140.527189,-34.733913],[140.527882,-34.733737],[140.528536,-34.733612],[140.529316,-34.733512],[140.530014,-34.733462],[140.530824,-34.733457],[140.533462,-34.733546],[140.541647,-34.733843],[140.547997,-34.733373],[140.55339,-34.732989],[140.557391,-34.732703],[140.581873,-34.72759],[140.585101,-34.726945],[140.58678,-34.72637],[140.590805,-34.724378],[140.593165,-34.723746],[140.604081,-34.722858],[140.61548,-34.721957],[140.616508,-34.721933],[140.616961,-34.721915],[140.62424,-34.721332],[140.627975,-34.72101],[140.632934,-34.720595],[140.635968,-34.720352],[140.640314,-34.720215],[140.650732,-34.719909],[140.655357,-34.719948],[140.663686,-34.72003],[140.671672,-34.720087],[140.675647,-34.720129],[140.676298,-34.720135],[140.68466,-34.721117],[140.686734,-34.721393],[140.695577,-34.723564],[140.696953,-34.72381],[140.701552,-34.72413],[140.703011,-34.724185],[140.704279,-34.724048],[140.705769,-34.723768],[140.708223,-34.722939],[140.711096,-34.721972],[140.71247,-34.721666],[140.714442,-34.721559],[140.722001,-34.722037],[140.72305,-34.722105],[140.723706,-34.722119],[140.724589,-34.722114],[140.72517,-34.722074],[140.725775,-34.722013],[140.726442,-34.721922],[140.727017,-34.72182],[140.727717,-34.721654],[140.733912,-34.720128]]}},{"type":"Feature","properties":{"tier":"arterial"},"geometry":{"type":"LineString","coordinates":[[140.515265,-34.735495],[140.515511,-34.735127],[140.515637,-34.734947],[140.515697,-34.734865],[140.515761,-34.734784],[140.515811,-34.734725],[140.515862,-34.734672],[140.515919,-34.734615],[140.515979,-34.734561],[140.516042,-34.734508],[140.516106,-34.734457],[140.516175,-34.734408],[140.516246,-34.73436],[140.516374,-34.734284],[140.516505,-34.734216],[140.517032,-34.733958],[140.517224,-34.733871],[140.517413,-34.733784],[140.517599,-34.733694],[140.517782,-34.733599],[140.51792,-34.733521],[140.518059,-34.733435],[140.518117,-34.733397],[140.518171,-34.733357],[140.51828,-34.733279],[140.518383,-34.7332],[140.518482,-34.733119],[140.51859,-34.733013],[140.518644,-34.732961],[140.518697,-34.73291],[140.518785,-34.732813],[140.518829,-34.732767],[140.518869,-34.732722],[140.518992,-34.732569],[140.519041,-34.732502],[140.51909,-34.732436],[140.519135,-34.73237],[140.519179,-34.732305],[140.519361,-34.732039],[140.519539,-34.731777],[140.519718,-34.731516],[140.520075,-34.730993],[140.520121,-34.730927],[140.520166,-34.730861],[140.520253,-34.730727],[140.520408,-34.730469],[140.520483,-34.730339],[140.520551,-34.730214],[140.520618,-34.730083],[140.520683,-34.729951],[140.520746,-34.729816],[140.520806,-34.729681],[140.520866,-34.729541],[140.520919,-34.729405],[140.521001,-34.729166],[140.521138,-34.728753],[140.521273,-34.728344],[140.522337,-34.725105],[140.522507,-34.724573],[140.522586,-34.724339],[140.522624,-34.724227],[140.522661,-34.724115],[140.523023,-34.72301],[140.523132,-34.722667],[140.523238,-34.722338],[140.523507,-34.721504],[140.523592,-34.721242],[140.523684,-34.720976],[140.523729,-34.720843],[140.52375,-34.720778],[140.523772,-34.720711],[140.523813,-34.720584],[140.523854,-34.720455],[140.523883,-34.720353],[140.523913,-34.720254],[140.523942,-34.72016],[140.523974,-34.72006],[140.524008,-34.719961],[140.524044,-34.719859],[140.524078,-34.719759],[140.524113,-34.719657],[140.524253,-34.719256],[140.524315,-34.719058],[140.524331,-34.719006],[140.524348,-34.718955],[140.524382,-34.718854],[140.524464,-34.718584],[140.524556,-34.718292],[140.524672,-34.717949],[140.524795,-34.71758],[140.524879,-34.717312],[140.525007,-34.716913],[140.52506,-34.716749],[140.52511,-34.716589],[140.525217,-34.716262],[140.525353,-34.715855],[140.525423,-34.715648],[140.525456,-34.715543],[140.525489,-34.715441],[140.525523,-34.715337],[140.525553,-34.715232],[140.525586,-34.715125],[140.525614,-34.715019],[140.52565,-34.714872],[140.525682,-34.714726],[140.525718,-34.714544],[140.525751,-34.714365],[140.525779,-34.714194],[140.525784,-34.714153],[140.52579,-34.714111],[140.525801,-34.714026],[140.525825,-34.713735],[140.525841,-34.713443],[140.525845,-34.713356],[140.525847,-34.713264],[140.525845,-34.713087],[140.525841,-34.712944],[140.525831,-34.712796],[140.525815,-34.712631],[140.525795,-34.712462],[140.525784,-34.712371],[140.525772,-34.712276],[140.525741,-34.71209],[140.525703,-34.711884],[140.525657,-34.711684],[140.525562,-34.711284],[140.525509,-34.71108],[140.525457,-34.710871],[140.525375,-34.710547],[140.525272,-34.71016],[140.525162,-34.709709],[140.52506,-34.709258],[140.524987,-34.708935],[140.524573,-34.707288],[140.524505,-34.707027],[140.52447,-34.706897],[140.524452,-34.70683],[140.524435,-34.706767],[140.524419,-34.706706],[140.524403,-34.706643],[140.524369,-34.706514],[140.524339,-34.706394],[140.524307,-34.706255],[140.524234,-34.705966],[140.524144,-34.705624],[140.523926,-34.70473],[140.523874,-34.704524],[140.523847,-34.704424],[140.52382,-34.70432],[140.523783,-34.704169],[140.523747,-34.704019],[140.523698,-34.703814],[140.523645,-34.703609],[140.523567,-34.703299],[140.52354,-34.703198],[140.523522,-34.703118],[140.523225,-34.701886],[140.523136,-34.701523],[140.522998,-34.700975],[140.522814,-34.700195],[140.522713,-34.699808],[140.522661,-34.699611],[140.52261,-34.699414],[140.522545,-34.699142],[140.522514,-34.699008],[140.52248,-34.698867],[140.522277,-34.698039],[140.522143,-34.697452],[140.522031,-34.697025],[140.521942,-34.696698],[140.521851,-34.696341],[140.52176,-34.695976],[140.521718,-34.695816],[140.521678,-34.695649],[140.52154,-34.695044],[140.521345,-34.694256],[140.521162,-34.693528],[140.521074,-34.693169],[140.52103,-34.692984],[140.520983,-34.692799],[140.520842,-34.692264],[140.520148,-34.689424],[140.519873,-34.68831],[140.519529,-34.686894],[140.519395,-34.686369],[140.519314,-34.686029],[140.519234,-34.685692],[140.519159,-34.685368],[140.518551,-34.682938],[140.518177,-34.681403],[140.517922,-34.680412],[140.517704,-34.67951],[140.517597,-34.679057],[140.517487,-34.678607],[140.517391,-34.678241],[140.517286,-34.677827],[140.517178,-34.677412],[140.517066,-34.676974],[140.516962,-34.676519],[140.516891,-34.676223],[140.516819,-34.67589],[140.516648,-34.675202],[140.516542,-34.674785],[140.516431,-34.674312],[140.516076,-34.672924],[140.515982,-34.672539],[140.515882,-34.672107],[140.515518,-34.670624],[140.515359,-34.669975],[140.515226,-34.669472],[140.515127,-34.669084],[140.514995,-34.668566],[140.514866,-34.668036],[140.514794,-34.667771],[140.514761,-34.667636],[140.514731,-34.667497],[140.51466,-34.667184],[140.514567,-34.666789],[140.514524,-34.666591],[140.514497,-34.666494],[140.514461,-34.666361],[140.514426,-34.666235],[140.514351,-34.665981],[140.514143,-34.665156],[140.514026,-34.664603],[140.513946,-34.664272],[140.513883,-34.664042],[140.513824,-34.663807],[140.513718,-34.66335],[140.51366,-34.663128],[140.513628,-34.663015],[140.513596,-34.662896],[140.513524,-34.662626],[140.513465,-34.662388],[140.513364,-34.662001],[140.513327,-34.661869],[140.513275,-34.661658],[140.513193,-34.661314],[140.512905,-34.660111],[140.512891,-34.659998],[140.512881,-34.659895],[140.51287,-34.659642],[140.512876,-34.659386],[140.512887,-34.659122],[140.512928,-34.658461],[140.512945,-34.658122],[140.512947,-34.658],[140.512938,-34.657882],[140.512921,-34.657796],[140.512904,-34.657703],[140.512865,-34.657589],[140.512811,-34.657477],[140.512749,-34.657367],[140.512671,-34.65726],[140.512603,-34.657177],[140.512525,-34.657095],[140.512436,-34.657018],[140.512337,-34.656941],[140.512245,-34.656878],[140.512193,-34.656849],[140.512142,-34.65682],[140.512062,-34.656781],[140.512043,-34.656773],[140.51202,-34.656763],[140.511978,-34.656745],[140.51192,-34.65672],[140.511855,-34.656696],[140.511723,-34.656652],[140.51159,-34.656608],[140.511454,-34.656568],[140.511173,-34.656493],[140.51099,-34.656439],[140.51081,-34.656386],[140.510572,-34.656309],[140.510264,-34.656179],[140.510114,-34.656093],[140.509966,-34.655992],[140.509814,-34.655868],[140.509741,-34.655799],[140.509673,-34.655722],[140.509615,-34.65565],[140.509565,-34.655569],[140.509517,-34.655491],[140.509471,-34.65541],[140.509425,-34.655312],[140.50939,-34.655211],[140.509357,-34.655102],[140.509343,-34.655051],[140.509332,-34.654989],[140.509326,-34.654947],[140.509321,-34.654903],[140.509319,-34.654856],[140.509317,-34.654804],[140.509312,-34.654584],[140.509335,-34.653637],[140.509439,-34.650829],[140.509484,-34.650483],[140.509677,-34.649908],[140.50996,-34.649315],[140.510376,-34.64847],[140.511279,-34.646528],[140.512154,-34.644685],[140.513046,-34.642854],[140.513172,-34.642569],[140.513219,-34.642463],[140.513337,-34.642181],[140.513414,-34.641937],[140.513474,-34.641569],[140.513491,-34.641274],[140.513441,-34.640809],[140.513341,-34.640435],[140.513248,-34.640175],[140.513158,-34.640004],[140.512613,-34.638995],[140.512159,-34.638153],[140.51137,-34.636738],[140.511259,-34.636404],[140.511202,-34.636154],[140.511161,-34.635805],[140.511153,-34.635532],[140.51118,-34.635219],[140.511225,-34.634744],[140.511776,-34.631296],[140.512055,-34.629275],[140.512149,-34.628581],[140.512168,-34.628286],[140.512156,-34.628015],[140.512126,-34.627642],[140.512072,-34.627362],[140.512032,-34.627114],[140.512019,-34.627032],[140.511981,-34.626627],[140.511973,-34.626385],[140.511977,-34.626196],[140.512022,-34.625913],[140.512193,-34.624737],[140.512263,-34.624185],[140.512368,-34.623735],[140.512507,-34.623359],[140.512643,-34.623047],[140.512821,-34.622702],[140.512912,-34.622507],[140.513006,-34.622251],[140.513096,-34.621876],[140.513161,-34.6215],[140.513203,-34.621156],[140.515188,-34.60731],[140.516204,-34.600216],[140.51717,-34.593134],[140.517381,-34.591444],[140.517469,-34.590773],[140.517624,-34.589579],[140.517631,-34.589528],[140.517743,-34.588633],[140.517873,-34.58771],[140.517984,-34.586839],[140.520667,-34.565998],[140.52069,-34.565827],[140.521041,-34.563113],[140.521504,-34.559499],[140.521967,-34.55594],[140.522429,-34.552322],[140.523593,-34.543208],[140.523946,-34.540542],[140.523963,-34.540408],[140.524,-34.539947],[140.524005,-34.539611],[140.523988,-34.539249],[140.523943,-34.538765],[140.523827,-34.537797],[140.523461,-34.535092],[140.523134,-34.532586],[140.522959,-34.531287],[140.522836,-34.530154],[140.522821,-34.52977],[140.522818,-34.529462],[140.522844,-34.529107],[140.522933,-34.528507],[140.523131,-34.527788],[140.523295,-34.527326],[140.523465,-34.526931],[140.523739,-34.526377],[140.525044,-34.524164],[140.525884,-34.522736],[140.52635,-34.521912],[140.526582,-34.521347],[140.526632,-34.521226],[140.526876,-34.520455],[140.527459,-34.517528],[140.529462,-34.507439],[140.530005,-34.504765],[140.530054,-34.504525],[140.530126,-34.504156],[140.530218,-34.503854],[140.530344,-34.503511],[140.530474,-34.503241],[140.530592,-34.503011],[140.530883,-34.502517],[140.53131,-34.501793],[140.531938,-34.500676],[140.53233,-34.49998]]}},{"type":"Feature","properties":{"tier":"regional"},"geometry":{"type":"LineString","coordinates":[[140.851592,-34.70633],[140.851583,-34.706319],[140.851277,-34.706014]]}},{"type":"Feature","properties":{"tier":"regional"},"geometry":{"type":"LineString","coordinates":[[140.734364,-34.540443],[140.739227,-34.540067],[140.742513,-34.539825],[140.74424,-34.53999],[140.746158,-34.540204],[140.747766,-34.540458],[140.748377,-34.540695],[140.753686,-34.542938],[140.754877,-34.543282],[140.755482,-34.543378],[140.756078,-34.543417],[140.757061,-34.543337],[140.758348,-34.543289],[140.759382,-34.543369],[140.762107,-34.543962],[140.768762,-34.545085],[140.771701,-34.545637],[140.774642,-34.546435],[140.777012,-34.547076],[140.777533,-34.547331],[140.778568,-34.548296],[140.780768,-34.550697],[140.781896,-34.551397],[140.797718,-34.557716],[140.798162,-34.557867],[140.798806,-34.55804],[140.799174,-34.55807],[140.799784,-34.558131],[140.800471,-34.558134],[140.800736,-34.558114],[140.802004,-34.557909]]}},{"type":"Feature","properties":{"tier":"regional"},"geometry":{"type":"LineString","coordinates":[[140.876563,-34.544999],[140.877117,-34.544902],[140.878124,-34.544716],[140.878241,-34.544694],[140.878817,-34.544593],[140.879089,-34.544538],[140.879362,-34.544488],[140.880975,-34.544213],[140.881069,-34.544194],[140.88142,-34.544123],[140.883351,-34.543781]]}},{"type":"Feature","properties":{"tier":"regional"},"geometry":{"type":"LineString","coordinates":[[140.870189,-34.546334],[140.871676,-34.546016],[140.874753,-34.545358],[140.876563,-34.544999]]}}]}
