{"type":"FeatureCollection","features":[{"type":"Feature","properties":{"tier":"arterial"},"geometry":{"type":"LineString","coordinates":[[141.002707,-33.884587],[141.002842,-33.884601],[141.041459,-33.888598],[141.043035,-33.888686],[141.04463,-33.888708],[141.04639,-33.88869],[141.047676,-33.88859],[141.049092,-33.888476],[141.050384,-33.888289],[141.067165,-33.885272],[141.069035,-33.88505],[141.070462,-33.884933],[141.071971,-33.884868],[141.073698,-33.884884],[141.075441,-33.884954],[141.111634,-33.888496],[141.127388,-33.890101],[141.12933,-33.890339],[141.129863,-33.89041],[141.130837,-33.890541],[141.132295,-33.890729],[141.134186,-33.891023],[141.137082,-33.891562],[141.140319,-33.892201],[141.144348,-33.893041],[141.149214,-33.89408],[141.156789,-33.895688],[141.16691,-33.89785],[141.177388,-33.899962],[141.181337,-33.900425],[141.185585,-33.900497],[141.195327,-33.899998],[141.200434,-33.899856],[141.206185,-33.900247],[141.223007,-33.902135],[141.243284,-33.904411],[141.243545,-33.90444],[141.244117,-33.904504]]}},{"type":"Feature","properties":{"tier":"regional"},"geometry":{"type":"LineString","coordinates":[[140.99998,-33.884293],[141.002547,-33.88457],[141.002707,-33.884587]]}},{"type":"Feature","properties":{"tier":"regional"},"geometry":{"type":"LineString","coordinates":[[140.99998,-33.927416],[141.000021,-33.927448],[141.000157,-33.927519],[141.000322,-33.927586],[141.00048,-33.927613],[141.000665,-33.927637],[141.000924,-33.927665],[141.001234,-33.92768],[141.001668,-33.927716],[141.002029,-33.927759],[141.002438,-33.927803],[141.002752,-33.927836]]}},{"type":"Feature","properties":{"tier":"regional"},"geometry":{"type":"LineString","coordinates":[[141.002752,-33.927836],[141.003075,-33.927919],[141.005111,-33.928441],[141.006592,-33.929309],[141.011377,-33.932812],[141.014472,-33.934806],[141.015352,-33.935064],[141.022272,-33.93526],[141.029793,-33.937138],[141.033081,-33.937621],[141.033183,-33.937636],[141.034863,-33.937978],[141.036236,-33.938566],[141.037288,-33.939002],[141.040206,-33.941325],[141.041719,-33.94372],[141.045828,-33.950439],[141.047158,-33.951899],[141.050023,-33.95383],[141.050669,-33.954429],[141.051023,-33.954757],[141.051385,-33.955094],[141.053499,-33.959205],[141.053692,-33.959721],[141.053359,-33.963565],[141.053424,-33.964135],[141.054089,-33.964989],[141.054835,-33.96555],[141.05524,-33.965852],[141.055339,-33.965942]]}}]}
