{"type":"FeatureCollection","features":[{"type":"Feature","properties":{"tier":"high"},"geometry":{"type":"LineString","coordinates":[[141.004126,-32.078168],[141.007789,-32.078271],[141.00851,-32.078292],[141.008777,-32.078284],[141.009508,-32.078264],[141.009629,-32.078252],[141.009995,-32.078215],[141.010372,-32.078149],[141.010873,-32.078046],[141.011602,-32.077835],[141.012464,-32.077585],[141.014006,-32.077104],[141.023844,-32.074092],[141.027109,-32.073153],[141.028909,-32.072612],[141.034646,-32.071027],[141.050987,-32.066699]]}},{"type":"Feature","properties":{"tier":"high"},"geometry":{"type":"LineString","coordinates":[[141.004126,-32.078168],[141.003306,-32.078163],[141.003253,-32.078162],[141.002667,-32.078159],[141.001823,-32.078153],[141.001522,-32.078151],[141.001291,-32.07815]]}},{"type":"Feature","properties":{"tier":"high"},"geometry":{"type":"LineString","coordinates":[[141.00114,-32.078147],[141.000877,-32.07815],[141.000826,-32.07815],[140.99998,-32.078144]]}},{"type":"Feature","properties":{"tier":"high"},"geometry":{"type":"LineString","coordinates":[[141.001291,-32.07815],[141.00114,-32.078147]]}}]}
