{"type":"FeatureCollection","features":[{"type":"Feature","properties":{"tier":"regional"},"geometry":{"type":"LineString","coordinates":[[141.000285,-29.908822],[141.000284,-29.90906],[141.00023,-29.915588],[141.000241,-29.922581],[141.000273,-29.930494],[141.000306,-29.936184],[141.000349,-29.942162],[141.000265,-29.948191],[141.00022,-29.955242],[141.000198,-29.957493],[141.00025,-29.960349],[141.000324,-29.961344],[141.000359,-29.961702],[141.000456,-29.963338],[141.000477,-29.964016],[141.000448,-29.964961],[141.000394,-29.966921],[141.000381,-29.967994],[141.000327,-29.971694],[141.00037,-29.977642],[141.000295,-29.98016],[141.000373,-29.983668],[141.000427,-29.987301],[141.000531,-29.987938],[141.000748,-29.988854],[141.00096,-29.98976],[141.001177,-29.990536],[141.001293,-29.9912],[141.00136,-29.99166],[141.001338,-29.992028],[141.001271,-29.992352],[141.001046,-29.993514],[141.00077,-29.995247],[141.00075,-29.995423],[141.000652,-29.996297],[141.000424,-29.999182],[141.0004,-30.00002]]}},{"type":"Feature","properties":{"tier":"regional"},"geometry":{"type":"LineString","coordinates":[[141.0011,-29.804455],[141.000853,-29.805144],[141.000702,-29.805758],[141.000606,-29.806372],[141.000488,-29.807192],[141.000466,-29.807843],[141.000402,-29.809482],[141.000338,-29.810859],[141.000273,-29.814285],[141.000306,-29.816929],[141.000252,-29.821695],[141.000134,-29.826656],[141.000169,-29.831277],[141.000155,-29.83627],[141.000117,-29.840277],[141.00017,-29.842561],[141.00022,-29.84861],[141.00022,-29.8537],[141.000177,-29.858874],[141.000145,-29.8642],[141.000188,-29.870113],[141.000163,-29.876281],[141.000209,-29.883277],[141.000263,-29.890728],[141.000241,-29.897378],[141.000295,-29.904447],[141.000285,-29.908822]]}},{"type":"Feature","properties":{"tier":"regional"},"geometry":{"type":"LineString","coordinates":[[141.038025,-29.774423],[141.037908,-29.774547],[141.037792,-29.774715],[141.037679,-29.774948],[141.03755,-29.775344],[141.037449,-29.775777],[141.037363,-29.776149],[141.037216,-29.776532],[141.037001,-29.777106],[141.036585,-29.778245],[141.036407,-29.778776],[141.036258,-29.779204],[141.036104,-29.7794],[141.035831,-29.779666],[141.034777,-29.780526],[141.033372,-29.781494],[141.03305,-29.781709],[141.032463,-29.781983],[141.031505,-29.782407],[141.029155,-29.783515],[141.02565,-29.785177],[141.023566,-29.786131],[141.022946,-29.786388],[141.022206,-29.786592],[141.020787,-29.78697],[141.019609,-29.787245],[141.01853,-29.787488],[141.018257,-29.787538],[141.01756,-29.787626],[141.016945,-29.787701],[141.016438,-29.787766],[141.016329,-29.787796],[141.016186,-29.787852],[141.015983,-29.787961],[141.015771,-29.788129],[141.015626,-29.788249],[141.015356,-29.788439],[141.014977,-29.788642],[141.014512,-29.788872],[141.013977,-29.78912],[141.013524,-29.7893],[141.012955,-29.789465],[141.012206,-29.789637],[141.010893,-29.789908],[141.010403,-29.789952],[141.009696,-29.790019],[141.008383,-29.790226],[141.007544,-29.790338],[141.006611,-29.790455],[141.006192,-29.790536],[141.005846,-29.790622],[141.005767,-29.790642],[141.005403,-29.790753],[141.005099,-29.790925],[141.004833,-29.791094],[141.004406,-29.791512],[141.004151,-29.791829],[141.003945,-29.792179],[141.003817,-29.792468],[141.003749,-29.792826],[141.003835,-29.793152],[141.003986,-29.793608],[141.003995,-29.793839],[141.0039,-29.794307],[141.003674,-29.79466],[141.003492,-29.795079],[141.003321,-29.795521],[141.003245,-29.795921],[141.003219,-29.796291],[141.003202,-29.796532],[141.003117,-29.797221],[141.003081,-29.797828],[141.002969,-29.798392],[141.00296,-29.799011],[141.002881,-29.799762],[141.002834,-29.800105],[141.002745,-29.800393],[141.002355,-29.801019],[141.00198,-29.801889],[141.001722,-29.802419],[141.001497,-29.803077],[141.0011,-29.804455]]}}]}
