{"type":"FeatureCollection","features":[{"type":"Feature","properties":{"tier":"regional"},"geometry":{"type":"LineString","coordinates":[[141.000401,-29.99998],[141.00037,-30.001114],[141.000391,-30.00182],[141.000266,-30.006094],[141.000323,-30.010841],[141.000323,-30.010852],[141.000444,-30.012341],[141.000483,-30.012822],[141.000611,-30.027987],[141.000532,-30.029109],[141.000508,-30.029821],[141.000536,-30.03235],[141.000393,-30.037085],[141.000393,-30.03758],[141.000303,-30.052411],[141.000352,-30.056809],[141.000473,-30.057938],[141.000522,-30.059161],[141.000548,-30.060451],[141.000471,-30.067793],[141.000361,-30.06867],[141.00027,-30.069399],[141.000247,-30.069553],[141.000234,-30.070115],[141.000227,-30.07086],[141.000241,-30.071711],[141.000226,-30.076612],[141.000254,-30.077038],[141.000296,-30.077694],[141.0003,-30.07994],[141.000359,-30.080361],[141.000468,-30.080599],[141.000659,-30.080747],[141.000942,-30.080852],[141.001261,-30.080874],[141.001632,-30.080838],[141.00232,-30.080736],[141.003299,-30.080598],[141.004291,-30.080475],[141.00466,-30.080469],[141.004908,-30.080486],[141.005466,-30.080542],[141.006029,-30.080658],[141.006638,-30.080824],[141.007009,-30.080948],[141.007344,-30.081091],[141.007639,-30.081286],[141.008206,-30.081762],[141.009157,-30.082752],[141.009543,-30.083095],[141.009822,-30.083503],[141.011029,-30.085678],[141.011249,-30.086214],[141.011303,-30.086734],[141.011249,-30.087727],[141.011088,-30.088814],[141.010897,-30.09054],[141.010601,-30.093073],[141.010458,-30.094122],[141.010358,-30.09468],[141.010198,-30.095126],[141.009704,-30.096101],[141.009425,-30.096834],[141.009168,-30.097567],[141.009071,-30.098319],[141.009037,-30.0992],[141.008971,-30.099812],[141.008839,-30.100534],[141.008505,-30.101972],[141.008213,-30.103628],[141.008151,-30.10406],[141.008166,-30.10456],[141.008186,-30.104997],[141.008186,-30.105495],[141.008213,-30.106004],[141.008274,-30.106758],[141.008524,-30.108042],[141.008578,-30.108436],[141.008627,-30.108912],[141.00878,-30.109224],[141.009007,-30.109569],[141.010341,-30.110844],[141.010679,-30.11125],[141.010906,-30.111573],[141.011584,-30.112784],[141.012043,-30.113717],[141.012346,-30.114371],[141.012651,-30.114895],[141.013159,-30.115555],[141.013642,-30.116167],[141.013974,-30.116724],[141.014191,-30.117406],[141.014277,-30.118046],[141.014403,-30.118459],[141.014575,-30.118784],[141.016785,-30.120761],[141.017482,-30.121318],[141.018086,-30.121582],[141.018698,-30.121889],[141.019231,-30.122227],[141.019524,-30.122417],[141.0196,-30.122466],[141.020077,-30.122838],[141.023276,-30.125726],[141.023995,-30.126357],[141.024478,-30.126802],[141.024856,-30.127206],[141.0276,-30.131664],[141.030714,-30.136624],[141.033482,-30.141161],[141.037291,-30.147294],[141.037749,-30.148106],[141.038071,-30.148579],[141.0385,-30.149006],[141.039627,-30.150026],[141.04085,-30.151111],[141.041376,-30.151464],[141.041915,-30.151756],[141.045541,-30.153398],[141.046571,-30.153816],[141.047266,-30.154034],[141.047749,-30.154191],[141.048285,-30.154294],[141.050441,-30.154776],[141.051074,-30.154999],[141.051632,-30.15523],[141.052126,-30.155546],[141.052523,-30.155852],[141.052955,-30.156246],[141.053266,-30.15658],[141.053502,-30.156979],[141.053834,-30.158222],[141.054167,-30.159772],[141.054293,-30.160815],[141.054386,-30.161484],[141.054467,-30.162063],[141.054529,-30.16318],[141.054504,-30.164055],[141.05448,-30.164469],[141.054474,-30.164592],[141.054462,-30.164705],[141.054457,-30.164834],[141.054534,-30.164952],[141.054744,-30.16511],[141.054939,-30.165235],[141.055114,-30.165407],[141.055246,-30.165618],[141.055463,-30.166102],[141.055538,-30.166566],[141.055484,-30.166993],[141.055366,-30.167392],[141.05513,-30.167893],[141.054905,-30.168765],[141.054671,-30.169372],[141.054489,-30.169808],[141.054347,-30.170175],[141.0541,-30.170508],[141.053896,-30.170777],[141.053317,-30.17126],[141.052654,-30.171876],[141.052244,-30.172336],[141.052062,-30.172614],[141.051965,-30.173013],[141.051925,-30.173398],[141.05204,-30.173959],[141.052104,-30.174311],[141.052104,-30.174627],[141.051965,-30.174988],[141.051463,-30.175791],[141.050109,-30.177706],[141.049575,-30.178369],[141.049186,-30.178772],[141.048856,-30.179148],[141.048652,-30.179408],[141.048449,-30.17976],[141.048245,-30.18027],[141.048019,-30.18065],[141.047826,-30.181031],[141.047534,-30.181453],[141.047408,-30.181801],[141.047344,-30.182135],[141.047259,-30.183886],[141.047249,-30.184442],[141.047242,-30.184823],[141.047253,-30.184995],[141.047259,-30.185225],[141.04718,-30.185885],[141.047148,-30.186275],[141.047067,-30.186711],[141.046976,-30.187114],[141.046724,-30.188148],[141.046574,-30.188686],[141.046536,-30.189001],[141.046524,-30.189149],[141.046509,-30.189507],[141.046509,-30.190151],[141.046531,-30.191088],[141.046547,-30.191561],[141.046536,-30.191992],[141.046531,-30.192261],[141.046499,-30.192669],[141.046461,-30.193086],[141.046429,-30.193504],[141.046445,-30.193912],[141.046461,-30.194487],[141.046479,-30.194915],[141.046488,-30.195261],[141.046488,-30.195534],[141.046482,-30.195711],[141.046455,-30.195911],[141.046359,-30.196248],[141.046171,-30.196703],[141.04601,-30.197106],[141.045619,-30.198001],[141.045243,-30.198826],[141.044954,-30.199401],[141.044557,-30.199948],[141.043913,-30.200709],[141.043173,-30.201599],[141.042379,-30.202471],[141.040651,-30.204334],[141.039621,-30.205447],[141.038903,-30.206328],[141.038334,-30.207162],[141.037775,-30.208043],[141.037519,-30.208704],[141.036983,-30.209984],[141.03648,-30.21114],[141.036013,-30.212102],[141.035659,-30.212864],[141.035338,-30.2136],[141.035078,-30.214223],[141.034692,-30.215002],[141.034392,-30.215744],[141.034083,-30.216203],[141.033641,-30.216671],[141.031631,-30.218187],[141.031027,-30.218805],[141.030401,-30.219489],[141.029857,-30.220069],[141.029556,-30.220584],[141.029412,-30.221068],[141.029364,-30.221506],[141.029349,-30.222048],[141.029456,-30.223012],[141.029552,-30.223428],[141.029751,-30.223746],[141.030161,-30.224127],[141.031237,-30.224977],[141.031988,-30.2257],[141.032353,-30.226201],[141.032825,-30.227517],[141.033512,-30.229594],[141.033791,-30.230984],[141.034799,-30.233042],[141.035186,-30.233876],[141.035228,-30.234636],[141.03525,-30.235471],[141.035486,-30.23612],[141.036237,-30.237677],[141.036559,-30.2384],[141.036795,-30.239104],[141.036902,-30.239901],[141.037181,-30.240661],[141.037559,-30.241528],[141.037975,-30.242218],[141.038511,-30.242682],[141.039778,-30.243609],[141.041945,-30.245314],[141.042567,-30.245907],[141.04306,-30.246593],[141.044348,-30.248391],[141.04467,-30.248873],[141.044756,-30.249485],[141.045013,-30.250968],[141.045356,-30.253859],[141.045635,-30.255361],[141.045743,-30.256473],[141.045829,-30.259624],[141.045756,-30.260527],[141.045485,-30.261421],[141.045314,-30.26207],[141.044949,-30.26257],[141.044284,-30.263386],[141.043683,-30.263757],[141.042732,-30.264098],[141.042102,-30.264181],[141.041706,-30.264354],[141.041421,-30.264567],[141.040888,-30.265223],[141.040679,-30.26561],[141.040529,-30.265944],[141.040401,-30.266346]]}}]}
