{"type":"FeatureCollection","features":[{"type":"Feature","properties":{"tier":"arterial"},"geometry":{"type":"LineString","coordinates":[[141.087941,-36.764957],[141.087615,-36.764731],[141.087252,-36.764369],[141.084889,-36.761747],[141.077522,-36.751322],[141.077135,-36.750811],[141.076177,-36.749733],[141.075806,-36.74927],[141.073304,-36.745753],[141.072677,-36.744713],[141.071999,-36.743648],[141.071772,-36.743367],[141.071524,-36.743088],[141.07114,-36.742762],[141.069799,-36.741666],[141.069415,-36.741372],[141.068943,-36.74112],[141.068399,-36.740924],[141.067791,-36.740784],[141.063722,-36.740276],[141.061132,-36.740018],[141.060482,-36.739983],[141.05977,-36.739992],[141.058846,-36.740035],[141.058354,-36.740055],[141.057782,-36.74002],[141.047892,-36.739046],[141.047161,-36.738974],[141.038002,-36.738072],[141.036312,-36.737839],[141.033916,-36.73747],[141.033226,-36.737364],[141.032275,-36.737242],[141.031259,-36.737172],[141.030205,-36.737137],[141.028672,-36.73705],[141.0278,-36.736991],[141.016425,-36.735845],[141.015729,-36.735696],[141.014936,-36.735443],[141.014262,-36.735163],[141.00772,-36.732006],[141.00716,-36.731807],[141.006611,-36.731668],[141.005971,-36.731536],[141.000699,-36.730967],[140.99998,-36.73088]]}},{"type":"Feature","properties":{"tier":"regional"},"geometry":{"type":"LineString","coordinates":[[140.99998,-36.695536],[141.009504,-36.696531],[141.025365,-36.698123],[141.025521,-36.698121],[141.025802,-36.698081],[141.026097,-36.698019],[141.026342,-36.69794],[141.02657,-36.697826],[141.026764,-36.697716],[141.026996,-36.697554],[141.027193,-36.697378],[141.027318,-36.697245],[141.027464,-36.697029],[141.027546,-36.696884],[141.027677,-36.696587],[141.028481,-36.69172],[141.028026,-36.684228]]}}]}
