{"type":"FeatureCollection","features":[{"type":"Feature","properties":{"tier":"regional"},"geometry":{"type":"LineString","coordinates":[[141.182308,-29.013596],[141.182037,-29.013637],[141.181725,-29.013704],[141.181338,-29.013882],[141.180912,-29.014122],[141.180517,-29.014273],[141.180088,-29.014361],[141.178921,-29.014144],[141.178268,-29.014106],[141.177744,-29.014176],[141.177405,-29.014284],[141.176919,-29.014553],[141.176573,-29.01485],[141.175933,-29.015523],[141.17544,-29.015933],[141.17499,-29.016213],[141.174355,-29.016423],[141.17369,-29.016488],[141.173271,-29.016499],[141.172679,-29.016385],[141.17157,-29.016062],[141.170997,-29.01583],[141.169499,-29.015297],[141.1686,-29.015044],[141.167906,-29.014933],[141.167639,-29.01492],[141.16709,-29.014914],[141.166468,-29.015047],[141.165882,-29.015232],[141.164188,-29.01596],[141.163534,-29.016013],[141.162468,-29.015915],[141.162111,-29.015809],[141.161667,-29.015593],[141.161365,-29.015264],[141.159917,-29.013648],[141.158599,-29.012006],[141.15842,-29.011643],[141.157582,-29.009364],[141.157292,-29.008851],[141.155122,-29.006336],[141.154858,-29.006195],[141.154464,-29.006001],[141.154187,-29.005936],[141.153681,-29.005818],[141.152918,-29.005687],[141.151168,-29.00537],[141.149598,-29.005093],[141.148797,-29.004866],[141.14832,-29.004676],[141.147775,-29.004434],[141.146839,-29.003793],[141.145828,-29.003012],[141.14477,-29.002289],[141.141339,-29.000925],[141.140733,-29.000786],[141.140035,-29.000658],[141.139392,-29.000584],[141.13316,-29.000232],[141.132542,-29.000239],[141.13179,-29.000363],[141.13121,-29.000515],[141.130704,-29.00069],[141.130371,-29.000996],[141.129997,-29.001359],[141.129688,-29.001487],[141.129347,-29.001526],[141.128976,-29.001536],[141.128563,-29.00161],[141.128189,-29.001657],[141.127444,-29.001885],[141.126354,-29.002162],[141.125505,-29.002263],[141.124478,-29.002284],[141.123801,-29.002361],[141.119398,-29.003076],[141.118695,-29.003161],[141.117825,-29.003051],[141.116857,-29.002799],[141.116186,-29.002722],[141.115495,-29.002788],[141.114678,-29.002916],[141.113633,-29.003154],[141.113219,-29.003122],[141.112194,-29.002752],[141.111767,-29.002699],[141.111304,-29.002703],[141.110653,-29.002752],[141.109088,-29.002948],[141.104677,-29.003666],[141.104344,-29.003677],[141.102953,-29.003624],[141.102343,-29.003513],[141.101799,-29.003288],[141.100705,-29.002628],[141.099658,-29.001921],[141.098119,-29.00079],[141.097794,-29.000665],[141.097536,-29.000617],[141.097396,-29.000623],[141.096795,-29.000758],[141.096525,-29.000877],[141.094331,-29.002031],[141.093753,-29.002351],[141.092534,-29.003307],[141.091883,-29.003883],[141.090928,-29.005064],[141.090424,-29.005583],[141.089989,-29.006002],[141.089424,-29.006457],[141.088131,-29.007517],[141.087659,-29.007986],[141.087322,-29.008469],[141.086281,-29.010091],[141.085496,-29.011239],[141.084614,-29.012356],[141.08322,-29.014126],[141.082337,-29.015111],[141.081784,-29.015612],[141.081036,-29.016075],[141.080614,-29.016235],[141.080081,-29.016363],[141.079475,-29.016412],[141.078817,-29.016373],[141.078434,-29.016299],[141.077979,-29.01616],[141.077865,-29.016135],[141.075548,-29.015108],[141.074137,-29.014517],[141.073617,-29.014269],[141.073048,-29.01391],[141.072267,-29.013344],[141.071092,-29.012502],[141.070133,-29.01173],[141.069393,-29.011048],[141.068763,-29.010375],[141.068344,-29.009874],[141.068246,-29.009725],[141.067944,-29.009242],[141.067746,-29.008946],[141.067629,-29.008552],[141.067271,-29.007901],[141.066775,-29.007606],[141.066136,-29.0074],[141.065368,-29.007275],[141.064575,-29.007243],[141.064075,-29.007218],[141.063429,-29.007023],[141.063104,-29.006866],[141.062831,-29.006656],[141.062567,-29.006283],[141.062258,-29.00565],[141.061709,-29.004513],[141.061522,-29.00405],[141.061373,-29.003412],[141.061258,-29.00272],[141.06112,-29.002105],[141.060919,-29.001719],[141.060644,-29.001373],[141.059766,-29.000427],[141.059424,-29.000175],[141.058985,-29.000007],[141.058489,-29.000015],[141.058079,-29.000146],[141.05627,-29.00079],[141.055538,-29.001053],[141.054339,-29.001355],[141.053359,-29.001558],[141.052247,-29.001688],[141.049602,-29.001821],[141.048346,-29.001903],[141.047415,-29.002077],[141.046675,-29.002344],[141.044423,-29.003446],[141.043695,-29.003986],[141.043459,-29.004274],[141.04289,-29.004811],[141.042272,-29.005295],[141.041813,-29.005593],[141.041134,-29.006002],[141.040496,-29.006237],[141.039532,-29.006351],[141.038804,-29.00634],[141.035834,-29.005881],[141.035443,-29.005754],[141.034571,-29.005199],[141.033931,-29.005038],[141.032587,-29.004905],[141.030152,-29.004865],[141.028199,-29.004873],[141.026651,-29.004905],[141.026004,-29.004737],[141.025255,-29.004328],[141.02412,-29.003387],[141.023507,-29.003042],[141.02277,-29.002755],[141.022092,-29.002526],[141.021475,-29.002401],[141.020994,-29.002376],[141.020568,-29.002432],[141.019816,-29.002697],[141.018674,-29.003037],[141.016145,-29.003643],[141.009328,-29.005157],[141.008322,-29.00536],[141.007903,-29.005385],[141.007307,-29.00532],[141.006423,-29.005121],[141.005144,-29.004801],[141.004344,-29.004563],[141.003482,-29.004207],[141.002779,-29.003751],[141.002007,-29.003096],[141.000432,-29.001577]]}},{"type":"Feature","properties":{"tier":"regional"},"geometry":{"type":"LineString","coordinates":[[141.000432,-29.001577],[140.99998,-29.001188]]}}]}
