{"type":"FeatureCollection","features":[{"type":"Feature","properties":{"tier":"arterial"},"geometry":{"type":"LineString","coordinates":[[141.001458,-32.98714],[141.00165,-32.987165],[141.00197,-32.987205],[141.002437,-32.987285],[141.002742,-32.987343],[141.003113,-32.987446],[141.003435,-32.987582],[141.007612,-32.989615],[141.009165,-32.990372],[141.010433,-32.990989],[141.011591,-32.991709],[141.015926,-32.99502],[141.017089,-32.99581],[141.017397,-32.996001],[141.017643,-32.996068],[141.017986,-32.995956],[141.018243,-32.995668],[141.018377,-32.99546],[141.018546,-32.995136],[141.020024,-32.992339],[141.02044,-32.991608],[141.020711,-32.991133],[141.021183,-32.990305],[141.021526,-32.989873],[141.021998,-32.989495],[141.02626,-32.987286],[141.032277,-32.984167],[141.048155,-32.975797],[141.048949,-32.975473],[141.04961,-32.975327],[141.05028,-32.975257],[141.065944,-32.974772],[141.066911,-32.974698],[141.067574,-32.974592],[141.068068,-32.974429],[141.076539,-32.971744],[141.078685,-32.971078],[141.079419,-32.970883],[141.080106,-32.970811],[141.083045,-32.970703],[141.084719,-32.970595],[141.085273,-32.970502],[141.086414,-32.970055],[141.08738,-32.969713],[141.087916,-32.969407],[141.088431,-32.969011],[141.094053,-32.96496],[141.099203,-32.96136],[141.09989,-32.960856],[141.100255,-32.960459],[141.100469,-32.960063],[141.101756,-32.958155],[141.105748,-32.952105],[141.106563,-32.950737],[141.107164,-32.950125],[141.108108,-32.949656],[141.118279,-32.946883],[141.120725,-32.946163],[141.12159,-32.945834],[141.122333,-32.945259]]}},{"type":"Feature","properties":{"tier":"arterial"},"geometry":{"type":"LineString","coordinates":[[140.99998,-32.987127],[141.00022,-32.987126],[141.000885,-32.987083],[141.001226,-32.987105],[141.001458,-32.98714]]}}]}
